{
"type": "FeatureCollection",
"name": "isochrone_shop_kiosk_drive",
"crs": { "type": "name", "properties": { "name": "urn:ogc:def:crs:OGC:1.3:CRS84" } },
"features": [
{ "type": "Feature", "properties": { "threshold_s": 300, "time_label": "5 min drive" }, "geometry": { "type": "Polygon", "coordinates": [ [ [ 105.8414355, 21.021993 ], [ 105.841464500000015, 21.024215 ], [ 105.8432716, 21.0254436 ], [ 105.845615399999986, 21.0263771 ], [ 105.846901399999979, 21.0243922 ], [ 105.8491985, 21.0237053 ], [ 105.8502802, 21.0215614 ], [ 105.8519368, 21.0197634 ], [ 105.8528936, 21.0180897 ], [ 105.8540474, 21.0169953 ], [ 105.8531376, 21.0152821 ], [ 105.8510471, 21.0135674 ], [ 105.849114, 21.0118669 ], [ 105.8479992, 21.0117844 ], [ 105.841200599999979, 21.0103061 ], [ 105.84115509999998, 21.010313 ], [ 105.8410532, 21.0107455 ], [ 105.841156, 21.0107456 ], [ 105.8413476, 21.010746 ], [ 105.8463087, 21.0126788 ], [ 105.846647899999979, 21.0134641 ], [ 105.847263, 21.0153508 ], [ 105.846956799999987, 21.0171098 ], [ 105.844269199999985, 21.017305 ], [ 105.8435857, 21.0172651 ], [ 105.8424924, 21.0173642 ], [ 105.8414099, 21.0174645 ], [ 105.8394154, 21.0189573 ], [ 105.8372522, 21.018501 ], [ 105.8370701, 21.0188496 ], [ 105.8371473, 21.019088 ], [ 105.8377091, 21.0200259 ], [ 105.841418299999987, 21.0206551 ], [ 105.8414355, 21.021993 ] ] ] } },
{ "type": "Feature", "properties": { "threshold_s": 600, "time_label": "10 min drive" }, "geometry": { "type": "Polygon", "coordinates": [ [ [ 105.836268899999979, 21.0316267 ], [ 105.837565, 21.033506 ], [ 105.8381949, 21.0336649 ], [ 105.840804, 21.0342079 ], [ 105.840904899999984, 21.0341906 ], [ 105.845924, 21.0356714 ], [ 105.8470901, 21.0365581 ], [ 105.847722399999981, 21.0362416 ], [ 105.850261500000016, 21.0331052 ], [ 105.8504709, 21.0321878 ], [ 105.853811899999982, 21.0288128 ], [ 105.8559552, 21.0275369 ], [ 105.856075, 21.0274672 ], [ 105.857814499999989, 21.0261832 ], [ 105.8592416, 21.0249399 ], [ 105.8597332, 21.0223358 ], [ 105.861804899999981, 21.0185343 ], [ 105.862791499999986, 21.0140733 ], [ 105.8605956, 21.0110331 ], [ 105.8609009, 21.0093976 ], [ 105.8608904, 21.0091442 ], [ 105.857359, 21.0089506 ], [ 105.8546658, 21.0067839 ], [ 105.8510544, 21.0044032 ], [ 105.851024099999989, 21.0031371 ], [ 105.850875299999984, 21.002847 ], [ 105.8481198, 21.0031246 ], [ 105.8458635, 21.0030043 ], [ 105.8411762, 20.9991422 ], [ 105.84123, 21.0008729 ], [ 105.837045499999988, 21.0036744 ], [ 105.8360473, 21.0034138 ], [ 105.83625, 21.0083741 ], [ 105.8341507, 21.0086164 ], [ 105.8351758, 21.0098806 ], [ 105.8358302, 21.0130518 ], [ 105.8391601, 21.0123792 ], [ 105.8413476, 21.010746 ], [ 105.8449471, 21.0079814 ], [ 105.8463087, 21.0126788 ], [ 105.846647899999979, 21.0134641 ], [ 105.8435857, 21.0172651 ], [ 105.8424924, 21.0173642 ], [ 105.8414099, 21.0174645 ], [ 105.8372522, 21.018501 ], [ 105.833795699999982, 21.0192431 ], [ 105.83106290000002, 21.0172386 ], [ 105.8309465, 21.0170993 ], [ 105.8278801, 21.0150273 ], [ 105.8278134, 21.0150609 ], [ 105.827412899999985, 21.0152724 ], [ 105.8267419, 21.0189434 ], [ 105.8255177, 21.0206878 ], [ 105.8255579, 21.0213209 ], [ 105.826088899999988, 21.0213907 ], [ 105.83131659999998, 21.0214207 ], [ 105.832154499999987, 21.0234448 ], [ 105.832224299999979, 21.0234152 ], [ 105.8368905, 21.022215 ], [ 105.8376116, 21.0232408 ], [ 105.8357768, 21.0272036 ], [ 105.836268899999979, 21.0316267 ] ] ] } },
{ "type": "Feature", "properties": { "threshold_s": 900, "time_label": "15 min drive" }, "geometry": { "type": "Polygon", "coordinates": [ [ [ 105.8256225, 21.0318746 ], [ 105.8271558, 21.0347458 ], [ 105.8280025, 21.0355165 ], [ 105.8317055, 21.0344357 ], [ 105.837023599999981, 21.0388764 ], [ 105.836188, 21.041554 ], [ 105.8362447, 21.0424598 ], [ 105.842345499999979, 21.044652 ], [ 105.845941399999987, 21.0443697 ], [ 105.8499976, 21.0419116 ], [ 105.8549623, 21.0381838 ], [ 105.8588286, 21.0330955 ], [ 105.859561899999989, 21.032523 ], [ 105.861271699999989, 21.0304235 ], [ 105.86210149999998, 21.0246067 ], [ 105.863899, 21.018973 ], [ 105.864448899999985, 21.0179396 ], [ 105.865231599999987, 21.0153725 ], [ 105.8680303, 21.0100022 ], [ 105.8691535, 21.0053046 ], [ 105.8652569, 21.0029825 ], [ 105.8617132, 20.9990108 ], [ 105.8572611, 20.9993533 ], [ 105.853749099999987, 20.9954254 ], [ 105.850962, 20.9937682 ], [ 105.8495471, 20.9930515 ], [ 105.84492, 20.9906824 ], [ 105.841255799999985, 20.9895631 ], [ 105.8410057, 20.9895614 ], [ 105.840227199999987, 20.9896044 ], [ 105.836739699999981, 20.9941109 ], [ 105.836739199999982, 20.9944076 ], [ 105.834289499999983, 20.9991527 ], [ 105.8318828, 20.9997185 ], [ 105.828897699999985, 21.0002704 ], [ 105.828788599999982, 21.0009003 ], [ 105.827431599999983, 21.0045071 ], [ 105.8226959, 21.0056371 ], [ 105.8224433, 21.0055776 ], [ 105.822243, 21.005964 ], [ 105.820670399999983, 21.0124282 ], [ 105.8188893, 21.0137777 ], [ 105.8187277, 21.0139023 ], [ 105.81886919999998, 21.0140586 ], [ 105.821050299999982, 21.0190995 ], [ 105.819717199999985, 21.0234327 ], [ 105.8200922, 21.023869 ], [ 105.822770899999981, 21.0267136 ], [ 105.8256225, 21.0318746 ] ] ] } },
{ "type": "Feature", "properties": { "threshold_s": 300, "time_label": "5 min drive" }, "geometry": { "type": "Polygon", "coordinates": [ [ [ 105.8414099, 21.0174645 ], [ 105.8414031, 21.0182234 ], [ 105.844167, 21.0193556 ], [ 105.8443164, 21.0198187 ], [ 105.8445276, 21.0204246 ], [ 105.8461235, 21.0206578 ], [ 105.8486244, 21.0220391 ], [ 105.848836100000014, 21.0227009 ], [ 105.8498841, 21.0203782 ], [ 105.8519368, 21.0197634 ], [ 105.8528936, 21.0180897 ], [ 105.8540474, 21.0169953 ], [ 105.855307499999981, 21.0154971 ], [ 105.8572754, 21.0143557 ], [ 105.8565616, 21.0135006 ], [ 105.8559995, 21.012832 ], [ 105.8530265, 21.0134566 ], [ 105.8522802, 21.011966 ], [ 105.852852299999981, 21.0099796 ], [ 105.8546899, 21.0088509 ], [ 105.8546881, 21.0087332 ], [ 105.85227949999998, 21.0069421 ], [ 105.8512375, 21.0063684 ], [ 105.8506003, 21.0064369 ], [ 105.850159199999979, 21.0065327 ], [ 105.8495537, 21.0066265 ], [ 105.8472555, 21.006807 ], [ 105.845651, 21.0061208 ], [ 105.841936299999986, 21.0078112 ], [ 105.841305, 21.0075582 ], [ 105.8412932, 21.0078348 ], [ 105.841418099999984, 21.0082831 ], [ 105.8449471, 21.0079814 ], [ 105.8460661, 21.0081019 ], [ 105.8483954, 21.0097738 ], [ 105.8479992, 21.0117844 ], [ 105.8463087, 21.0126788 ], [ 105.846647899999979, 21.0134641 ], [ 105.847263, 21.0153508 ], [ 105.846956799999987, 21.0171098 ], [ 105.844269199999985, 21.017305 ], [ 105.8435857, 21.0172651 ], [ 105.8424924, 21.0173642 ], [ 105.8414099, 21.0174645 ] ] ] } },
{ "type": "Feature", "properties": { "threshold_s": 600, "time_label": "10 min drive" }, "geometry": { "type": "Polygon", "coordinates": [ [ [ 105.8338068, 21.0193064 ], [ 105.8350263, 21.0211537 ], [ 105.8368905, 21.022215 ], [ 105.8375347, 21.0215521 ], [ 105.8377091, 21.0200259 ], [ 105.841418299999987, 21.0206551 ], [ 105.8414355, 21.021993 ], [ 105.841464500000015, 21.024215 ], [ 105.8414982, 21.0259455 ], [ 105.841517, 21.02649 ], [ 105.8415518, 21.0276316 ], [ 105.8434703, 21.0283452 ], [ 105.8444581, 21.028869 ], [ 105.8445748, 21.0289326 ], [ 105.8450687, 21.0291861 ], [ 105.846568, 21.0299584 ], [ 105.848055599999981, 21.0324216 ], [ 105.8486543, 21.0310594 ], [ 105.8488561, 21.0305684 ], [ 105.850585599999988, 21.0291892 ], [ 105.853889, 21.0303709 ], [ 105.855437800000018, 21.0289498 ], [ 105.857814499999989, 21.0261832 ], [ 105.8600125, 21.0249853 ], [ 105.8598823, 21.0218612 ], [ 105.86021839999998, 21.0190576 ], [ 105.861804899999981, 21.0185343 ], [ 105.862405199999984, 21.0171982 ], [ 105.865231599999987, 21.0153725 ], [ 105.8655468, 21.0144409 ], [ 105.8654738, 21.0119871 ], [ 105.8655822, 21.0085059 ], [ 105.8634401, 21.0082779 ], [ 105.860888599999981, 21.006907 ], [ 105.859619900000013, 21.0028637 ], [ 105.85866679999998, 21.0027918 ], [ 105.857958899999986, 21.0027343 ], [ 105.8546476, 21.0020295 ], [ 105.853301299999984, 20.9989462 ], [ 105.8513461, 20.9975315 ], [ 105.849826799999988, 20.9953234 ], [ 105.849142799999981, 20.9959335 ], [ 105.845691200000019, 20.9964454 ], [ 105.8451759, 20.9968935 ], [ 105.844945199999984, 20.9973408 ], [ 105.8414266, 20.9976032 ], [ 105.8411167, 20.9970042 ], [ 105.839206299999987, 20.9991234 ], [ 105.84123, 21.0008729 ], [ 105.8414363, 21.0018743 ], [ 105.839297499999986, 21.0040633 ], [ 105.8375076, 21.0037912 ], [ 105.8360583, 21.0015565 ], [ 105.8360473, 21.0034138 ], [ 105.837045499999988, 21.0036744 ], [ 105.838777300000018, 21.0067038 ], [ 105.8356008, 21.0078461 ], [ 105.8332186, 21.0078036 ], [ 105.8327433, 21.0075279 ], [ 105.833147399999987, 21.0096613 ], [ 105.8351758, 21.0098806 ], [ 105.8362072, 21.0119062 ], [ 105.833890399999987, 21.0140474 ], [ 105.8341558, 21.0143481 ], [ 105.8343608, 21.0146277 ], [ 105.8358302, 21.0130518 ], [ 105.8391601, 21.0123792 ], [ 105.8413476, 21.010746 ], [ 105.841200599999979, 21.0103061 ], [ 105.8413355, 21.0087937 ], [ 105.84379269999998, 21.0076335 ], [ 105.8449471, 21.0079814 ], [ 105.8460661, 21.0081019 ], [ 105.8483954, 21.0097738 ], [ 105.8463087, 21.0126788 ], [ 105.846647899999979, 21.0134641 ], [ 105.847263, 21.0153508 ], [ 105.844269199999985, 21.017305 ], [ 105.8435857, 21.0172651 ], [ 105.8424924, 21.0173642 ], [ 105.8414099, 21.0174645 ], [ 105.8394154, 21.0189573 ], [ 105.8372522, 21.018501 ], [ 105.833795699999982, 21.0192431 ], [ 105.8338068, 21.0193064 ] ] ] } },
{ "type": "Feature", "properties": { "threshold_s": 900, "time_label": "15 min drive" }, "geometry": { "type": "Polygon", "coordinates": [ [ [ 105.833105, 21.0322249 ], [ 105.8334198, 21.0329248 ], [ 105.834611099999989, 21.0340502 ], [ 105.8363518, 21.0356501 ], [ 105.8454918, 21.0375308 ], [ 105.8467549, 21.0397937 ], [ 105.8471661, 21.0403179 ], [ 105.8482846, 21.041106 ], [ 105.8502396, 21.0404039 ], [ 105.8549623, 21.0381838 ], [ 105.859561899999989, 21.032523 ], [ 105.861271699999989, 21.0304235 ], [ 105.86210149999998, 21.0246067 ], [ 105.864448899999985, 21.0179396 ], [ 105.8680303, 21.0100022 ], [ 105.8697744, 21.0049515 ], [ 105.8742909, 21.0023561 ], [ 105.8709973, 20.9997447 ], [ 105.8707906, 20.9996372 ], [ 105.863009399999981, 20.9948877 ], [ 105.8627062, 20.9943137 ], [ 105.8552671, 20.9886771 ], [ 105.846579300000016, 20.9860837 ], [ 105.840966499999979, 20.9869198 ], [ 105.838478399999985, 20.9886201 ], [ 105.8377968, 20.9908975 ], [ 105.836739699999981, 20.9941109 ], [ 105.8287134, 20.9983152 ], [ 105.826278499999987, 21.0016881 ], [ 105.823697399999986, 21.0080557 ], [ 105.8233913, 21.0098098 ], [ 105.8241401, 21.0179988 ], [ 105.823878100000016, 21.0190342 ], [ 105.822719, 21.021974 ], [ 105.8228313, 21.0222185 ], [ 105.8269312, 21.0241688 ], [ 105.8326573, 21.0284272 ], [ 105.833105, 21.0322249 ] ] ] } },
{ "type": "Feature", "properties": { "threshold_s": 300, "time_label": "5 min drive" }, "geometry": { "type": "Polygon", "coordinates": [ [ [ 105.836551, 21.0105942 ], [ 105.8362072, 21.0119062 ], [ 105.836346799999987, 21.0120401 ], [ 105.836983800000013, 21.0118796 ], [ 105.837311499999984, 21.0115962 ], [ 105.837626899999989, 21.0104747 ], [ 105.8410532, 21.0107455 ], [ 105.841156, 21.0107456 ], [ 105.8413476, 21.010746 ], [ 105.841200599999979, 21.0103061 ], [ 105.8413355, 21.0087937 ], [ 105.841936299999986, 21.0078112 ], [ 105.84379269999998, 21.0076335 ], [ 105.8449471, 21.0079814 ], [ 105.8460661, 21.0081019 ], [ 105.8483495, 21.0083185 ], [ 105.847418299999987, 21.0071109 ], [ 105.845651, 21.0061208 ], [ 105.8440142, 21.0074152 ], [ 105.8419506, 21.0075241 ], [ 105.8413113, 21.0063215 ], [ 105.8412431, 21.0041897 ], [ 105.8426162, 21.0027603 ], [ 105.84123, 21.0008729 ], [ 105.8412301, 21.0030328 ], [ 105.839297499999986, 21.0040633 ], [ 105.8392324, 21.0041845 ], [ 105.8397447, 21.0060986 ], [ 105.8407724, 21.0079662 ], [ 105.838181099999986, 21.0097637 ], [ 105.836551, 21.0105942 ] ] ] } },
{ "type": "Feature", "properties": { "threshold_s": 600, "time_label": "10 min drive" }, "geometry": { "type": "Polygon", "coordinates": [ [ [ 105.8285186, 21.0190792 ], [ 105.8286247, 21.0192495 ], [ 105.8306589, 21.0202038 ], [ 105.8307261, 21.0201732 ], [ 105.833224499999986, 21.0176717 ], [ 105.8371473, 21.019088 ], [ 105.841418299999987, 21.0206551 ], [ 105.84309709999998, 21.021558 ], [ 105.845411900000016, 21.0229745 ], [ 105.848459399999982, 21.0189279 ], [ 105.852267399999988, 21.0152083 ], [ 105.853255, 21.0147894 ], [ 105.854312099999987, 21.0138532 ], [ 105.8545289, 21.0113244 ], [ 105.858537899999988, 21.0092217 ], [ 105.8588963, 21.0091385 ], [ 105.8596026, 21.0089879 ], [ 105.858652, 21.0085882 ], [ 105.8549485, 21.0048029 ], [ 105.8537558, 21.0022187 ], [ 105.850294299999987, 20.9988078 ], [ 105.8472758, 20.9962538 ], [ 105.8437706, 20.9925135 ], [ 105.841024599999983, 20.9908537 ], [ 105.840882600000015, 20.9908692 ], [ 105.840672, 20.9908931 ], [ 105.836739699999981, 20.9941109 ], [ 105.834289499999983, 20.9991527 ], [ 105.829533699999985, 21.0019292 ], [ 105.830331199999989, 21.0041204 ], [ 105.827990299999982, 21.0076612 ], [ 105.8282054, 21.0118709 ], [ 105.8285938, 21.0125027 ], [ 105.828375799999989, 21.018124 ], [ 105.8285186, 21.0190792 ] ] ] } },
{ "type": "Feature", "properties": { "threshold_s": 900, "time_label": "15 min drive" }, "geometry": { "type": "Polygon", "coordinates": [ [ [ 105.821050299999982, 21.0190995 ], [ 105.820237399999982, 21.023779 ], [ 105.8218932, 21.0251753 ], [ 105.8276909, 21.0268084 ], [ 105.831823799999981, 21.0287574 ], [ 105.833606499999988, 21.0295805 ], [ 105.840926, 21.0308319 ], [ 105.8467514, 21.0319851 ], [ 105.8488561, 21.0305684 ], [ 105.850585599999988, 21.0291892 ], [ 105.8533791, 21.0260713 ], [ 105.8566143, 21.0231564 ], [ 105.8577239, 21.0221286 ], [ 105.86021839999998, 21.0190576 ], [ 105.863366400000018, 21.0137577 ], [ 105.8680303, 21.0100022 ], [ 105.8691535, 21.0053046 ], [ 105.8652569, 21.0029825 ], [ 105.8617132, 20.9990108 ], [ 105.8572204, 20.9941686 ], [ 105.852709600000011, 20.9941669 ], [ 105.851267399999983, 20.9871467 ], [ 105.8459695, 20.983387 ], [ 105.841133899999988, 20.9809074 ], [ 105.840884099999982, 20.9808651 ], [ 105.8359169, 20.9833117 ], [ 105.833806199999984, 20.9857971 ], [ 105.8341541, 20.9879998 ], [ 105.8312542, 20.9928465 ], [ 105.826654299999987, 20.9941394 ], [ 105.825920899999986, 20.9961141 ], [ 105.825473099999982, 20.9982643 ], [ 105.8195644, 21.002798 ], [ 105.8193971, 21.003419 ], [ 105.819304399999979, 21.0105284 ], [ 105.8180511, 21.0131584 ], [ 105.8181474, 21.0143279 ], [ 105.821050299999982, 21.0190995 ] ] ] } },
{ "type": "Feature", "properties": { "threshold_s": 300, "time_label": "5 min drive" }, "geometry": { "type": "Polygon", "coordinates": [ [ [ 105.8414355, 21.021993 ], [ 105.841464500000015, 21.024215 ], [ 105.8432716, 21.0254436 ], [ 105.845615399999986, 21.0263771 ], [ 105.846901399999979, 21.0243922 ], [ 105.8491985, 21.0237053 ], [ 105.8502802, 21.0215614 ], [ 105.8519368, 21.0197634 ], [ 105.8528936, 21.0180897 ], [ 105.8540474, 21.0169953 ], [ 105.8531376, 21.0152821 ], [ 105.8510471, 21.0135674 ], [ 105.849114, 21.0118669 ], [ 105.8479992, 21.0117844 ], [ 105.841200599999979, 21.0103061 ], [ 105.84115509999998, 21.010313 ], [ 105.8410532, 21.0107455 ], [ 105.841156, 21.0107456 ], [ 105.8413476, 21.010746 ], [ 105.8463087, 21.0126788 ], [ 105.846647899999979, 21.0134641 ], [ 105.847263, 21.0153508 ], [ 105.846956799999987, 21.0171098 ], [ 105.844269199999985, 21.017305 ], [ 105.8435857, 21.0172651 ], [ 105.8424924, 21.0173642 ], [ 105.8414099, 21.0174645 ], [ 105.8394154, 21.0189573 ], [ 105.8372522, 21.018501 ], [ 105.8370701, 21.0188496 ], [ 105.8371473, 21.019088 ], [ 105.8377091, 21.0200259 ], [ 105.841418299999987, 21.0206551 ], [ 105.8414355, 21.021993 ] ] ] } },
{ "type": "Feature", "properties": { "threshold_s": 600, "time_label": "10 min drive" }, "geometry": { "type": "Polygon", "coordinates": [ [ [ 105.836268899999979, 21.0316267 ], [ 105.837565, 21.033506 ], [ 105.8381949, 21.0336649 ], [ 105.840804, 21.0342079 ], [ 105.840904899999984, 21.0341906 ], [ 105.845924, 21.0356714 ], [ 105.8470901, 21.0365581 ], [ 105.847722399999981, 21.0362416 ], [ 105.850261500000016, 21.0331052 ], [ 105.8504709, 21.0321878 ], [ 105.853811899999982, 21.0288128 ], [ 105.8559552, 21.0275369 ], [ 105.856075, 21.0274672 ], [ 105.857814499999989, 21.0261832 ], [ 105.8592416, 21.0249399 ], [ 105.8597332, 21.0223358 ], [ 105.861804899999981, 21.0185343 ], [ 105.862791499999986, 21.0140733 ], [ 105.8605956, 21.0110331 ], [ 105.8609009, 21.0093976 ], [ 105.8608904, 21.0091442 ], [ 105.857359, 21.0089506 ], [ 105.8546658, 21.0067839 ], [ 105.8510544, 21.0044032 ], [ 105.851024099999989, 21.0031371 ], [ 105.850875299999984, 21.002847 ], [ 105.8481198, 21.0031246 ], [ 105.8458635, 21.0030043 ], [ 105.8411762, 20.9991422 ], [ 105.84123, 21.0008729 ], [ 105.837045499999988, 21.0036744 ], [ 105.8360473, 21.0034138 ], [ 105.83625, 21.0083741 ], [ 105.8341507, 21.0086164 ], [ 105.8351758, 21.0098806 ], [ 105.8358302, 21.0130518 ], [ 105.8391601, 21.0123792 ], [ 105.8413476, 21.010746 ], [ 105.8449471, 21.0079814 ], [ 105.8463087, 21.0126788 ], [ 105.846647899999979, 21.0134641 ], [ 105.8435857, 21.0172651 ], [ 105.8424924, 21.0173642 ], [ 105.8414099, 21.0174645 ], [ 105.8372522, 21.018501 ], [ 105.833795699999982, 21.0192431 ], [ 105.83106290000002, 21.0172386 ], [ 105.8309465, 21.0170993 ], [ 105.8278801, 21.0150273 ], [ 105.8278134, 21.0150609 ], [ 105.827412899999985, 21.0152724 ], [ 105.8267419, 21.0189434 ], [ 105.8255177, 21.0206878 ], [ 105.8255579, 21.0213209 ], [ 105.826088899999988, 21.0213907 ], [ 105.83131659999998, 21.0214207 ], [ 105.832154499999987, 21.0234448 ], [ 105.832224299999979, 21.0234152 ], [ 105.8368905, 21.022215 ], [ 105.8376116, 21.0232408 ], [ 105.8357768, 21.0272036 ], [ 105.836268899999979, 21.0316267 ] ] ] } },
{ "type": "Feature", "properties": { "threshold_s": 900, "time_label": "15 min drive" }, "geometry": { "type": "Polygon", "coordinates": [ [ [ 105.8256225, 21.0318746 ], [ 105.8271558, 21.0347458 ], [ 105.8280025, 21.0355165 ], [ 105.8317055, 21.0344357 ], [ 105.837023599999981, 21.0388764 ], [ 105.836188, 21.041554 ], [ 105.8362447, 21.0424598 ], [ 105.842345499999979, 21.044652 ], [ 105.845941399999987, 21.0443697 ], [ 105.8499976, 21.0419116 ], [ 105.8549623, 21.0381838 ], [ 105.8588286, 21.0330955 ], [ 105.859561899999989, 21.032523 ], [ 105.861271699999989, 21.0304235 ], [ 105.86210149999998, 21.0246067 ], [ 105.863899, 21.018973 ], [ 105.864448899999985, 21.0179396 ], [ 105.865231599999987, 21.0153725 ], [ 105.8680303, 21.0100022 ], [ 105.8691535, 21.0053046 ], [ 105.8652569, 21.0029825 ], [ 105.8617132, 20.9990108 ], [ 105.8572611, 20.9993533 ], [ 105.853749099999987, 20.9954254 ], [ 105.850962, 20.9937682 ], [ 105.8495471, 20.9930515 ], [ 105.84492, 20.9906824 ], [ 105.841255799999985, 20.9895631 ], [ 105.8410057, 20.9895614 ], [ 105.840227199999987, 20.9896044 ], [ 105.836739699999981, 20.9941109 ], [ 105.836739199999982, 20.9944076 ], [ 105.834289499999983, 20.9991527 ], [ 105.8318828, 20.9997185 ], [ 105.828897699999985, 21.0002704 ], [ 105.828788599999982, 21.0009003 ], [ 105.827431599999983, 21.0045071 ], [ 105.8226959, 21.0056371 ], [ 105.8224433, 21.0055776 ], [ 105.822243, 21.005964 ], [ 105.820670399999983, 21.0124282 ], [ 105.8188893, 21.0137777 ], [ 105.8187277, 21.0139023 ], [ 105.81886919999998, 21.0140586 ], [ 105.821050299999982, 21.0190995 ], [ 105.819717199999985, 21.0234327 ], [ 105.8200922, 21.023869 ], [ 105.822770899999981, 21.0267136 ], [ 105.8256225, 21.0318746 ] ] ] } }
]
}
