{
"type": "FeatureCollection",
"name": "isochrone_shop_greengrocer_drive",
"crs": { "type": "name", "properties": { "name": "urn:ogc:def:crs:OGC:1.3:CRS84" } },
"features": [
{ "type": "Feature", "properties": { "threshold_s": 300, "time_label": "5 min drive" }, "geometry": { "type": "Polygon", "coordinates": [ [ [ 105.714624, 20.9074263 ], [ 105.7158676, 20.9090008 ], [ 105.7164537, 20.9076637 ], [ 105.716984, 20.9041638 ], [ 105.717777, 20.9044818 ], [ 105.718228199999984, 20.9046272 ], [ 105.719371599999988, 20.906133 ], [ 105.720639399999982, 20.906366 ], [ 105.720937300000017, 20.9064908 ], [ 105.721535, 20.9067413 ], [ 105.721817799999982, 20.9068698 ], [ 105.722910699999986, 20.9073663 ], [ 105.723418399999986, 20.9075666 ], [ 105.7254964, 20.9067562 ], [ 105.72739009999998, 20.9057546 ], [ 105.7267517, 20.9037037 ], [ 105.726161800000014, 20.9019848 ], [ 105.726118699999986, 20.9009123 ], [ 105.7256687, 20.9004576 ], [ 105.7246193, 20.8995818 ], [ 105.7237476, 20.8988526 ], [ 105.722886700000018, 20.898164 ], [ 105.7216287, 20.8982863 ], [ 105.72087759999998, 20.8982512 ], [ 105.7202125, 20.898312 ], [ 105.7194668, 20.8983915 ], [ 105.7181245, 20.898063 ], [ 105.7175476, 20.8962814 ], [ 105.717442399999982, 20.8979129 ], [ 105.7163091, 20.8985018 ], [ 105.7155536, 20.8985084 ], [ 105.7144462, 20.8984617 ], [ 105.715214, 20.9001074 ], [ 105.714557, 20.901476 ], [ 105.713220099999987, 20.9026329 ], [ 105.7133839, 20.9029281 ], [ 105.715029099999981, 20.9041711 ], [ 105.714624, 20.9074263 ] ] ] } },
{ "type": "Feature", "properties": { "threshold_s": 600, "time_label": "10 min drive" }, "geometry": { "type": "Polygon", "coordinates": [ [ [ 105.7076946, 20.9139221 ], [ 105.7089433, 20.9154891 ], [ 105.7117147, 20.9170484 ], [ 105.7129705, 20.9170103 ], [ 105.714130899999986, 20.9165995 ], [ 105.718807, 20.9159906 ], [ 105.722252399999988, 20.9155433 ], [ 105.7239515, 20.915364 ], [ 105.725066, 20.913708 ], [ 105.726171899999983, 20.9102336 ], [ 105.729578799999985, 20.9099205 ], [ 105.7304961, 20.9091771 ], [ 105.731070099999982, 20.9087059 ], [ 105.7288409, 20.9049804 ], [ 105.7275314, 20.9026197 ], [ 105.726118699999986, 20.9009123 ], [ 105.7256687, 20.9004576 ], [ 105.7245684, 20.8955439 ], [ 105.7262992, 20.8924819 ], [ 105.726462899999987, 20.8920103 ], [ 105.725983, 20.8911658 ], [ 105.7251901, 20.8902213 ], [ 105.7232897, 20.8901874 ], [ 105.7183516, 20.8883536 ], [ 105.7182872, 20.8888998 ], [ 105.71816819999998, 20.8896564 ], [ 105.718078, 20.8904233 ], [ 105.717934499999984, 20.8913968 ], [ 105.7164753, 20.8951504 ], [ 105.7144462, 20.8984617 ], [ 105.7108408, 20.8950643 ], [ 105.710583299999982, 20.8968886 ], [ 105.7130259, 20.9007351 ], [ 105.712275599999984, 20.9020623 ], [ 105.71202940000002, 20.9025922 ], [ 105.7062663, 20.9008237 ], [ 105.7063179, 20.9027027 ], [ 105.705707599999982, 20.9074216 ], [ 105.706683, 20.9116647 ], [ 105.7076946, 20.9139221 ] ] ] } },
{ "type": "Feature", "properties": { "threshold_s": 900, "time_label": "15 min drive" }, "geometry": { "type": "Polygon", "coordinates": [ [ [ 105.6999223, 20.9197233 ], [ 105.7010206, 20.9216613 ], [ 105.7055458, 20.9223393 ], [ 105.705776799999981, 20.9237236 ], [ 105.707172699999987, 20.9247761 ], [ 105.708185, 20.9250121 ], [ 105.710661099999982, 20.9252473 ], [ 105.7121068, 20.9252197 ], [ 105.7126297, 20.9239507 ], [ 105.7169133, 20.9248114 ], [ 105.721168599999984, 20.9237391 ], [ 105.7232165, 20.9249316 ], [ 105.724048, 20.9249266 ], [ 105.7256037, 20.9245257 ], [ 105.7251987, 20.9235474 ], [ 105.7250076, 20.92303 ], [ 105.7244664, 20.9212237 ], [ 105.7241821, 20.9202516 ], [ 105.723270199999988, 20.9201978 ], [ 105.72025, 20.9211034 ], [ 105.7188821, 20.9209397 ], [ 105.7174015, 20.9207577 ], [ 105.7133311, 20.9191894 ], [ 105.714130899999986, 20.9165995 ], [ 105.716607599999989, 20.9156397 ], [ 105.717637599999989, 20.9158152 ], [ 105.718807, 20.9159906 ], [ 105.722252399999988, 20.9155433 ], [ 105.7239515, 20.915364 ], [ 105.725066, 20.913708 ], [ 105.7284307, 20.9111298 ], [ 105.7300615, 20.9118982 ], [ 105.731070099999982, 20.9087059 ], [ 105.7288409, 20.9049804 ], [ 105.7275314, 20.9026197 ], [ 105.7276757, 20.8995306 ], [ 105.7312033, 20.8987967 ], [ 105.7333412, 20.8979919 ], [ 105.7343259, 20.8951931 ], [ 105.7330562, 20.8943136 ], [ 105.7321885, 20.8943687 ], [ 105.7293143, 20.8914573 ], [ 105.729403, 20.8904127 ], [ 105.7335973, 20.8888582 ], [ 105.7340341, 20.8890537 ], [ 105.7346514, 20.8894914 ], [ 105.7354259, 20.8899673 ], [ 105.736056599999984, 20.8877385 ], [ 105.7358406, 20.8868606 ], [ 105.7351775, 20.8862169 ], [ 105.7331979, 20.8853597 ], [ 105.7298389, 20.8839867 ], [ 105.7279493, 20.8823765 ], [ 105.723867, 20.8808065 ], [ 105.7236066, 20.8802089 ], [ 105.7219924, 20.8793716 ], [ 105.717962899999989, 20.8796264 ], [ 105.7158807, 20.8825181 ], [ 105.715475699999985, 20.885603 ], [ 105.712101499999989, 20.8856093 ], [ 105.710614599999985, 20.8856112 ], [ 105.7098108, 20.8856123 ], [ 105.7075391, 20.8864724 ], [ 105.706788, 20.887332 ], [ 105.7038916, 20.889471 ], [ 105.7029174, 20.890143 ], [ 105.7016623, 20.8913755 ], [ 105.704473199999981, 20.8919819 ], [ 105.704752199999987, 20.8949491 ], [ 105.7021343, 20.8965423 ], [ 105.697861599999982, 20.8975661 ], [ 105.6960833, 20.8991583 ], [ 105.6955932, 20.9030475 ], [ 105.690791, 20.9023636 ], [ 105.6954074, 20.9036737 ], [ 105.6952519, 20.9043753 ], [ 105.694830199999984, 20.9062427 ], [ 105.6963232, 20.908615 ], [ 105.6965487, 20.908864 ], [ 105.698331, 20.9097275 ], [ 105.6980038, 20.913877 ], [ 105.6972296, 20.9155389 ], [ 105.6982841, 20.9165436 ], [ 105.6999223, 20.9197233 ] ] ] } },
{ "type": "Feature", "properties": { "threshold_s": 300, "time_label": "5 min drive" }, "geometry": { "type": "Polygon", "coordinates": [ [ [ 105.843057499999986, 21.0443714 ], [ 105.8436785, 21.046633 ], [ 105.8437621, 21.0467079 ], [ 105.8438635, 21.0467884 ], [ 105.844319199999987, 21.0465561 ], [ 105.8464956, 21.0461629 ], [ 105.848446, 21.0470645 ], [ 105.8492648, 21.0462351 ], [ 105.850106499999981, 21.0449387 ], [ 105.8513591, 21.04259 ], [ 105.8532054, 21.0410502 ], [ 105.8539648, 21.0399026 ], [ 105.8552544, 21.038343 ], [ 105.8559408, 21.0375631 ], [ 105.8559647, 21.0363109 ], [ 105.8552948, 21.0346717 ], [ 105.8559161, 21.032665 ], [ 105.8568546, 21.0314209 ], [ 105.8567475, 21.030865 ], [ 105.853331499999982, 21.0313059 ], [ 105.8504709, 21.0321878 ], [ 105.8499725, 21.0329804 ], [ 105.846901399999979, 21.0326301 ], [ 105.8459339, 21.0336255 ], [ 105.8458888, 21.0337422 ], [ 105.8457273, 21.0347159 ], [ 105.8454918, 21.0375308 ], [ 105.843830299999979, 21.0403251 ], [ 105.84381639999998, 21.0420858 ], [ 105.843057499999986, 21.0443714 ] ] ] } },
{ "type": "Feature", "properties": { "threshold_s": 600, "time_label": "10 min drive" }, "geometry": { "type": "Polygon", "coordinates": [ [ [ 105.838671, 21.0522312 ], [ 105.8395775, 21.0554078 ], [ 105.844046, 21.0533014 ], [ 105.8481324, 21.0481674 ], [ 105.8492648, 21.0462351 ], [ 105.850106499999981, 21.0449387 ], [ 105.8532054, 21.0410502 ], [ 105.8539648, 21.0399026 ], [ 105.8552544, 21.038343 ], [ 105.8559408, 21.0375631 ], [ 105.8580411, 21.033791 ], [ 105.8588286, 21.0330955 ], [ 105.8654306, 21.0378592 ], [ 105.865565599999982, 21.0396641 ], [ 105.865384399999982, 21.0405012 ], [ 105.8650849, 21.0413692 ], [ 105.865201199999987, 21.0414737 ], [ 105.8688469, 21.0404499 ], [ 105.8687567, 21.0378597 ], [ 105.866810799999982, 21.0376376 ], [ 105.861271699999989, 21.0304235 ], [ 105.8613337, 21.0288933 ], [ 105.861773199999988, 21.025698 ], [ 105.8620378, 21.0248247 ], [ 105.86210149999998, 21.0246067 ], [ 105.8598823, 21.0218612 ], [ 105.8537007, 21.0205574 ], [ 105.8463801, 21.0245553 ], [ 105.8451257, 21.0249069 ], [ 105.8432716, 21.0254436 ], [ 105.8414982, 21.0259455 ], [ 105.839164299999979, 21.0281474 ], [ 105.8386072, 21.0311749 ], [ 105.837023599999981, 21.0388764 ], [ 105.835097299999987, 21.0418506 ], [ 105.8351095, 21.0426739 ], [ 105.8363039, 21.0440074 ], [ 105.838508299999987, 21.0487951 ], [ 105.838671, 21.0522312 ] ] ] } },
{ "type": "Feature", "properties": { "threshold_s": 900, "time_label": "15 min drive" }, "geometry": { "type": "Polygon", "coordinates": [ [ [ 105.831838, 21.0610843 ], [ 105.8316682, 21.0637977 ], [ 105.8317255, 21.0638257 ], [ 105.8318183, 21.0638633 ], [ 105.83578439999998, 21.0636261 ], [ 105.8370781, 21.0623407 ], [ 105.8460751, 21.0600606 ], [ 105.8465789, 21.0592395 ], [ 105.8448187, 21.0565981 ], [ 105.8481324, 21.0481674 ], [ 105.8492648, 21.0462351 ], [ 105.850106499999981, 21.0449387 ], [ 105.8532054, 21.0410502 ], [ 105.8539648, 21.0399026 ], [ 105.8552544, 21.038343 ], [ 105.8645302, 21.0425052 ], [ 105.8645845, 21.0429123 ], [ 105.8644483, 21.0456788 ], [ 105.863881599999985, 21.0508246 ], [ 105.8638711, 21.0513272 ], [ 105.870636, 21.0482143 ], [ 105.8742706, 21.048178 ], [ 105.878136699999985, 21.0468604 ], [ 105.8782551, 21.0468055 ], [ 105.877442599999981, 21.0446776 ], [ 105.8772241, 21.0366203 ], [ 105.877416, 21.033906 ], [ 105.877210599999984, 21.033413 ], [ 105.876977399999987, 21.0329215 ], [ 105.876701, 21.0326932 ], [ 105.872086899999985, 21.0299132 ], [ 105.8691818, 21.0308484 ], [ 105.86210149999998, 21.0246067 ], [ 105.863899, 21.018973 ], [ 105.864448899999985, 21.0179396 ], [ 105.865231599999987, 21.0153725 ], [ 105.8655468, 21.0144409 ], [ 105.86402, 21.0114232 ], [ 105.8639262, 21.0113862 ], [ 105.8588168, 21.0120837 ], [ 105.8509461, 21.0117911 ], [ 105.8482749, 21.0133237 ], [ 105.8414099, 21.0174645 ], [ 105.8372522, 21.018501 ], [ 105.832154499999987, 21.0234448 ], [ 105.8299453, 21.0290504 ], [ 105.8272654, 21.0322089 ], [ 105.82651319999998, 21.0400574 ], [ 105.823096299999989, 21.0430757 ], [ 105.823222, 21.0436032 ], [ 105.8247218, 21.0424488 ], [ 105.8285905, 21.0410636 ], [ 105.8363039, 21.0440074 ], [ 105.835914299999985, 21.0526278 ], [ 105.8337692, 21.0561987 ], [ 105.831838, 21.0610843 ] ] ] } },
{ "type": "Feature", "properties": { "threshold_s": 300, "time_label": "5 min drive" }, "geometry": { "type": "Polygon", "coordinates": [ [ [ 105.84381639999998, 21.0420858 ], [ 105.8442339, 21.0428116 ], [ 105.8456115, 21.0434219 ], [ 105.8461124, 21.0421516 ], [ 105.8472071, 21.0419565 ], [ 105.848198199999985, 21.0431299 ], [ 105.8482906, 21.0432002 ], [ 105.8487795, 21.0432045 ], [ 105.850239499999986, 21.0429333 ], [ 105.850918, 21.0428162 ], [ 105.8513591, 21.04259 ], [ 105.850356799999986, 21.0411413 ], [ 105.8513909, 21.04004 ], [ 105.852290599999989, 21.040453 ], [ 105.8532212, 21.0390552 ], [ 105.8546021, 21.0386962 ], [ 105.8552544, 21.038343 ], [ 105.8559408, 21.0375631 ], [ 105.8555772, 21.0374457 ], [ 105.8554699, 21.0374189 ], [ 105.85468539999998, 21.0372334 ], [ 105.855188, 21.0355451 ], [ 105.855330399999986, 21.0338854 ], [ 105.8559161, 21.032665 ], [ 105.85726, 21.0315916 ], [ 105.8567475, 21.030865 ], [ 105.855826199999981, 21.0312919 ], [ 105.8545659, 21.0314536 ], [ 105.8539092, 21.0313985 ], [ 105.853331499999982, 21.0313059 ], [ 105.8519128, 21.0322701 ], [ 105.8513365, 21.0323003 ], [ 105.8504709, 21.0321878 ], [ 105.8499725, 21.0329804 ], [ 105.8499357, 21.033994 ], [ 105.847946199999981, 21.0337964 ], [ 105.846901399999979, 21.0326301 ], [ 105.8455033, 21.033579 ], [ 105.8449379, 21.0348636 ], [ 105.8457273, 21.0347159 ], [ 105.8470504, 21.0355456 ], [ 105.846130299999984, 21.0366717 ], [ 105.8454918, 21.0375308 ], [ 105.8460762, 21.03742 ], [ 105.8471313, 21.0386835 ], [ 105.8459856, 21.0399317 ], [ 105.8454121, 21.0400507 ], [ 105.843830299999979, 21.0403251 ], [ 105.84381639999998, 21.0420858 ] ] ] } },
{ "type": "Feature", "properties": { "threshold_s": 600, "time_label": "10 min drive" }, "geometry": { "type": "Polygon", "coordinates": [ [ [ 105.839150499999988, 21.0499531 ], [ 105.8392683, 21.050126 ], [ 105.839988199999979, 21.0507474 ], [ 105.840159, 21.0507738 ], [ 105.8403246, 21.0507423 ], [ 105.8481324, 21.0481674 ], [ 105.8492648, 21.0462351 ], [ 105.850106499999981, 21.0449387 ], [ 105.8532054, 21.0410502 ], [ 105.8539648, 21.0399026 ], [ 105.8552544, 21.038343 ], [ 105.8559408, 21.0375631 ], [ 105.8580411, 21.033791 ], [ 105.8654306, 21.0378592 ], [ 105.865565599999982, 21.0396641 ], [ 105.865384399999982, 21.0405012 ], [ 105.8650849, 21.0413692 ], [ 105.865201199999987, 21.0414737 ], [ 105.8693654, 21.0411658 ], [ 105.8687567, 21.0378597 ], [ 105.866810799999982, 21.0376376 ], [ 105.861271699999989, 21.0304235 ], [ 105.8613337, 21.0288933 ], [ 105.861773199999988, 21.025698 ], [ 105.8620378, 21.0248247 ], [ 105.86210149999998, 21.0246067 ], [ 105.8598823, 21.0218612 ], [ 105.8537007, 21.0205574 ], [ 105.8463801, 21.0245553 ], [ 105.8451257, 21.0249069 ], [ 105.8432716, 21.0254436 ], [ 105.8414982, 21.0259455 ], [ 105.839868899999985, 21.0264119 ], [ 105.838971599999979, 21.0277376 ], [ 105.8386072, 21.0311749 ], [ 105.837023599999981, 21.0388764 ], [ 105.835097299999987, 21.0418506 ], [ 105.8351095, 21.0426739 ], [ 105.839150499999988, 21.0499531 ] ] ] } },
{ "type": "Feature", "properties": { "threshold_s": 900, "time_label": "15 min drive" }, "geometry": { "type": "Polygon", "coordinates": [ [ [ 105.835914299999985, 21.0526278 ], [ 105.8350074, 21.0583501 ], [ 105.83505959999998, 21.0583942 ], [ 105.8392422, 21.0589809 ], [ 105.8440772, 21.0570868 ], [ 105.8448187, 21.0565981 ], [ 105.8443236, 21.0542526 ], [ 105.8481324, 21.0481674 ], [ 105.8492648, 21.0462351 ], [ 105.850106499999981, 21.0449387 ], [ 105.8532054, 21.0410502 ], [ 105.8539648, 21.0399026 ], [ 105.8552544, 21.038343 ], [ 105.8559408, 21.0375631 ], [ 105.8580411, 21.033791 ], [ 105.8588286, 21.0330955 ], [ 105.859561899999989, 21.032523 ], [ 105.866446499999981, 21.0358959 ], [ 105.8654306, 21.0378592 ], [ 105.8652272, 21.0404883 ], [ 105.8645302, 21.0425052 ], [ 105.8645845, 21.0429123 ], [ 105.8644483, 21.0456788 ], [ 105.863881599999985, 21.0508246 ], [ 105.8638711, 21.0513272 ], [ 105.8640746, 21.052007 ], [ 105.867732599999982, 21.0506525 ], [ 105.874543299999985, 21.0483438 ], [ 105.878591, 21.0469646 ], [ 105.8768494, 21.0414246 ], [ 105.8770986, 21.0377073 ], [ 105.8772241, 21.0366203 ], [ 105.8783232, 21.0320872 ], [ 105.8782559, 21.0318614 ], [ 105.872086899999985, 21.0299132 ], [ 105.8691818, 21.0308484 ], [ 105.8683511, 21.0322908 ], [ 105.861271699999989, 21.0304235 ], [ 105.8613337, 21.0288933 ], [ 105.861773199999988, 21.025698 ], [ 105.8620378, 21.0248247 ], [ 105.86210149999998, 21.0246067 ], [ 105.863899, 21.018973 ], [ 105.864448899999985, 21.0179396 ], [ 105.865231599999987, 21.0153725 ], [ 105.8655468, 21.0144409 ], [ 105.8642533, 21.0115155 ], [ 105.86402, 21.0114232 ], [ 105.8639262, 21.0113862 ], [ 105.8588168, 21.0120837 ], [ 105.8522802, 21.011966 ], [ 105.8509461, 21.0117911 ], [ 105.849117899999982, 21.0124376 ], [ 105.846647899999979, 21.0134641 ], [ 105.8414099, 21.0174645 ], [ 105.8372522, 21.018501 ], [ 105.832154499999987, 21.0234448 ], [ 105.830492399999983, 21.0270872 ], [ 105.8269784, 21.0321598 ], [ 105.8270189, 21.0323507 ], [ 105.828823, 21.0325515 ], [ 105.828665499999985, 21.0395817 ], [ 105.82651319999998, 21.0400574 ], [ 105.823096299999989, 21.0430757 ], [ 105.823222, 21.0436032 ], [ 105.8247218, 21.0424488 ], [ 105.8285905, 21.0410636 ], [ 105.8351095, 21.0426739 ], [ 105.8363039, 21.0440074 ], [ 105.838508299999987, 21.0487951 ], [ 105.835914299999985, 21.0526278 ] ] ] } },
{ "type": "Feature", "properties": { "threshold_s": 300, "time_label": "5 min drive" }, "geometry": { "type": "Polygon", "coordinates": [ [ [ 105.8969005, 21.0275098 ], [ 105.898197499999981, 21.0290952 ], [ 105.8992508, 21.0257644 ], [ 105.9024095, 21.0242745 ], [ 105.9041317, 21.0236066 ], [ 105.906884199999979, 21.024334 ], [ 105.907450299999979, 21.022876 ], [ 105.9075665, 21.022027 ], [ 105.9072311, 21.0221126 ], [ 105.9059389, 21.0223436 ], [ 105.9040118, 21.0194426 ], [ 105.9041574, 21.0191236 ], [ 105.9044269, 21.0182987 ], [ 105.902056, 21.0197353 ], [ 105.898892599999982, 21.0211746 ], [ 105.8959389, 21.0214038 ], [ 105.8953833, 21.0214744 ], [ 105.8948998, 21.021548 ], [ 105.8931013, 21.0219948 ], [ 105.892354, 21.0221668 ], [ 105.8941505, 21.0228909 ], [ 105.8954231, 21.0249741 ], [ 105.8954959, 21.0251567 ], [ 105.896046, 21.0261653 ], [ 105.8961448, 21.0263292 ], [ 105.89626389999998, 21.0265311 ], [ 105.896531199999984, 21.0269618 ], [ 105.8966355, 21.0271257 ], [ 105.8969005, 21.0275098 ] ] ] } },
{ "type": "Feature", "properties": { "threshold_s": 600, "time_label": "10 min drive" }, "geometry": { "type": "Polygon", "coordinates": [ [ [ 105.8830065, 21.0248628 ], [ 105.8832885, 21.0269207 ], [ 105.884431799999987, 21.0271272 ], [ 105.8858805, 21.0265898 ], [ 105.8896416, 21.0289783 ], [ 105.892125199999981, 21.0301906 ], [ 105.8940232, 21.0314694 ], [ 105.895837599999979, 21.0350312 ], [ 105.896648, 21.036901 ], [ 105.8970333, 21.0379305 ], [ 105.9004678, 21.0381368 ], [ 105.904272599999985, 21.0398857 ], [ 105.9050778, 21.0376099 ], [ 105.904816199999985, 21.0371135 ], [ 105.9077854, 21.0329343 ], [ 105.909859, 21.0339412 ], [ 105.912315599999985, 21.0311151 ], [ 105.913729, 21.0301875 ], [ 105.915015899999986, 21.0290764 ], [ 105.9113655, 21.0275122 ], [ 105.91130459999998, 21.0239005 ], [ 105.9113338, 21.0238457 ], [ 105.9123935, 21.0220547 ], [ 105.9128184, 21.0213955 ], [ 105.915816199999981, 21.0193419 ], [ 105.9158395, 21.0192869 ], [ 105.915727899999979, 21.0146114 ], [ 105.9155336, 21.0149401 ], [ 105.913535899999985, 21.0172514 ], [ 105.911360599999981, 21.017704 ], [ 105.910261899999981, 21.0131063 ], [ 105.9102512, 21.012789 ], [ 105.909460199999984, 21.0102322 ], [ 105.9052885, 21.0083042 ], [ 105.90506019999998, 21.0083129 ], [ 105.9032271, 21.0110504 ], [ 105.9039642, 21.0118459 ], [ 105.9045874, 21.0138934 ], [ 105.90469, 21.0158202 ], [ 105.9043238, 21.0176406 ], [ 105.902056, 21.0197353 ], [ 105.8997308, 21.0209591 ], [ 105.898892599999982, 21.0211746 ], [ 105.897004599999988, 21.0214914 ], [ 105.8959389, 21.0214038 ], [ 105.8955156, 21.0162661 ], [ 105.8973558, 21.0152728 ], [ 105.8982136, 21.0149328 ], [ 105.898053599999983, 21.0145136 ], [ 105.8959321, 21.0142709 ], [ 105.8937119, 21.0162212 ], [ 105.8936056, 21.0175819 ], [ 105.8916908, 21.0220623 ], [ 105.889487299999985, 21.022497 ], [ 105.887574599999979, 21.0229289 ], [ 105.8830065, 21.0248628 ] ] ] } },
{ "type": "Feature", "properties": { "threshold_s": 900, "time_label": "15 min drive" }, "geometry": { "type": "Polygon", "coordinates": [ [ [ 105.8750471, 21.0270746 ], [ 105.876227499999985, 21.0331784 ], [ 105.877210599999984, 21.033413 ], [ 105.879557, 21.031338 ], [ 105.8859946, 21.0321926 ], [ 105.8906561, 21.0337429 ], [ 105.893794199999988, 21.0394634 ], [ 105.895041, 21.0454002 ], [ 105.8944583, 21.0462985 ], [ 105.9002853, 21.0474028 ], [ 105.902551099999982, 21.0479045 ], [ 105.904762099999985, 21.047893 ], [ 105.910924899999983, 21.0469307 ], [ 105.9127729, 21.0444595 ], [ 105.916234499999987, 21.0394521 ], [ 105.9167775, 21.0356691 ], [ 105.919502099999988, 21.0327907 ], [ 105.9229792, 21.0272167 ], [ 105.923605399999985, 21.0269847 ], [ 105.925338399999987, 21.0262715 ], [ 105.9246056, 21.0199436 ], [ 105.9208724, 21.0167311 ], [ 105.9197195, 21.0154941 ], [ 105.9200703, 21.0098393 ], [ 105.922342699999987, 21.0069471 ], [ 105.915765399999984, 21.008779 ], [ 105.9142145, 21.0077818 ], [ 105.913929400000015, 21.0018206 ], [ 105.9106447, 21.0003479 ], [ 105.908334899999986, 21.0013652 ], [ 105.902852, 21.0028936 ], [ 105.9048531, 21.0053869 ], [ 105.9032271, 21.0110504 ], [ 105.898053599999983, 21.0145136 ], [ 105.8959321, 21.0142709 ], [ 105.8896726, 21.0084079 ], [ 105.8891064, 21.0078651 ], [ 105.8892271, 21.0092377 ], [ 105.8937119, 21.0162212 ], [ 105.8936056, 21.0175819 ], [ 105.889487299999985, 21.022497 ], [ 105.887574599999979, 21.0229289 ], [ 105.885224599999987, 21.0233256 ], [ 105.879624699999979, 21.0207157 ], [ 105.8790289, 21.0198325 ], [ 105.878213099999982, 21.0185636 ], [ 105.87625, 21.0200495 ], [ 105.87482, 21.0243677 ], [ 105.8745219, 21.026564 ], [ 105.8750471, 21.0270746 ] ] ] } },
{ "type": "Feature", "properties": { "threshold_s": 300, "time_label": "5 min drive" }, "geometry": { "type": "Polygon", "coordinates": [ [ [ 105.823373799999985, 21.0090523 ], [ 105.8233913, 21.0098098 ], [ 105.8254518, 21.0112777 ], [ 105.825529, 21.0112402 ], [ 105.8250477, 21.0104207 ], [ 105.824786499999988, 21.008971 ], [ 105.823827799999989, 21.0080473 ], [ 105.8231971, 21.0067615 ], [ 105.8226959, 21.0056371 ], [ 105.8255086, 21.0041199 ], [ 105.827431599999983, 21.0045071 ], [ 105.830331199999989, 21.0041204 ], [ 105.8307843, 21.0063522 ], [ 105.8296844, 21.0069173 ], [ 105.829480099999984, 21.0069778 ], [ 105.8287027, 21.0073278 ], [ 105.827990299999982, 21.0076612 ], [ 105.828027399999982, 21.0077298 ], [ 105.8280752, 21.0078308 ], [ 105.828260899999989, 21.0082453 ], [ 105.8284444, 21.0085161 ], [ 105.8295224, 21.0070673 ], [ 105.8315376, 21.0065963 ], [ 105.8323676, 21.007046599999988 ], [ 105.8332186, 21.0078036 ], [ 105.833435899999984, 21.0080729 ], [ 105.8338348, 21.0083505 ], [ 105.8335192, 21.0079916 ], [ 105.8327861, 21.005915 ], [ 105.8322107, 21.0040287 ], [ 105.832995699999984, 21.0011318 ], [ 105.829533699999985, 21.0019292 ], [ 105.8292945, 21.0004617 ], [ 105.828477899999982, 20.9987201 ], [ 105.828897699999985, 21.0002704 ], [ 105.8270346, 21.0012111 ], [ 105.8271192, 21.0014607 ], [ 105.8253808, 21.0039239 ], [ 105.822161, 21.0050117 ], [ 105.8221002, 21.0048876 ], [ 105.8211635, 21.0072018 ], [ 105.823697399999986, 21.0080557 ], [ 105.823373799999985, 21.0090523 ] ] ] } },
{ "type": "Feature", "properties": { "threshold_s": 600, "time_label": "10 min drive" }, "geometry": { "type": "Polygon", "coordinates": [ [ [ 105.8138094, 21.014722 ], [ 105.813385, 21.0173423 ], [ 105.8161805, 21.0182819 ], [ 105.8200999, 21.015375 ], [ 105.8222877, 21.0162242 ], [ 105.8241401, 21.0179988 ], [ 105.8247558, 21.0191646 ], [ 105.8271174, 21.0200666 ], [ 105.83131659999998, 21.0214207 ], [ 105.8310544, 21.0208665 ], [ 105.8307709, 21.0191322 ], [ 105.8351638, 21.0156491 ], [ 105.8391601, 21.0123792 ], [ 105.8413476, 21.010746 ], [ 105.8419506, 21.0075241 ], [ 105.8414512, 21.0030306 ], [ 105.8414328, 20.9978798 ], [ 105.8414266, 20.9976032 ], [ 105.8411155, 20.9969216 ], [ 105.836739699999981, 20.9941109 ], [ 105.8328399, 20.9917502 ], [ 105.8319182, 20.990318 ], [ 105.8282847, 20.9909748 ], [ 105.824332399999989, 20.9938038 ], [ 105.821921799999984, 20.9980767 ], [ 105.817312499999986, 21.0012525 ], [ 105.8165621, 21.0007756 ], [ 105.816250399999987, 21.0005568 ], [ 105.8158904, 21.0003156 ], [ 105.814307500000012, 20.9987879 ], [ 105.813767, 20.998893 ], [ 105.814378, 21.0017673 ], [ 105.8150111, 21.0065048 ], [ 105.814281800000018, 21.0087548 ], [ 105.814374299999983, 21.0088638 ], [ 105.814929899999981, 21.0139064 ], [ 105.8138094, 21.014722 ] ] ] } },
{ "type": "Feature", "properties": { "threshold_s": 900, "time_label": "15 min drive" }, "geometry": { "type": "Polygon", "coordinates": [ [ [ 105.804674299999988, 21.0158799 ], [ 105.8038896, 21.0185426 ], [ 105.8093012, 21.0228278 ], [ 105.810573299999987, 21.0241547 ], [ 105.8114669, 21.0247893 ], [ 105.813858499999981, 21.0239011 ], [ 105.8217474, 21.0253173 ], [ 105.8230594, 21.0263943 ], [ 105.824814299999986, 21.0276475 ], [ 105.827350699999982, 21.0295689 ], [ 105.8319699, 21.029207 ], [ 105.836138799999986, 21.030881 ], [ 105.8395402, 21.0242642 ], [ 105.8447516, 21.0210682 ], [ 105.845936099999989, 21.020136 ], [ 105.845692299999982, 21.0195002 ], [ 105.847140399999986, 21.0124731 ], [ 105.8479992, 21.0117844 ], [ 105.851554299999989, 21.0105215 ], [ 105.852852299999981, 21.0099796 ], [ 105.853603, 21.0086552 ], [ 105.85227949999998, 21.0069421 ], [ 105.848888499999987, 20.9999873 ], [ 105.8501337, 20.9976528 ], [ 105.852836, 20.9955208 ], [ 105.8501768, 20.9937528 ], [ 105.8461075, 20.9916283 ], [ 105.8427115, 20.9873925 ], [ 105.840944, 20.9853981 ], [ 105.8351919, 20.9821051 ], [ 105.8348039, 20.982038 ], [ 105.830372100000019, 20.9838446 ], [ 105.8251502, 20.983698 ], [ 105.8232951, 20.9832188 ], [ 105.8238136, 20.9842945 ], [ 105.8237121, 20.9900689 ], [ 105.8174286, 20.994913 ], [ 105.8152237, 20.9951691 ], [ 105.8145271, 20.9952216 ], [ 105.806733599999987, 20.9941675 ], [ 105.803780599999982, 20.9920855 ], [ 105.8036409, 20.9920083 ], [ 105.805649699999989, 20.9984274 ], [ 105.805804699999982, 21.0025808 ], [ 105.805549, 21.0072596 ], [ 105.8055062, 21.0150817 ], [ 105.8048245, 21.0155553 ], [ 105.804674299999988, 21.0158799 ] ] ] } },
{ "type": "Feature", "properties": { "threshold_s": 300, "time_label": "5 min drive" }, "geometry": { "type": "Polygon", "coordinates": [ [ [ 105.8479192, 21.0377886 ], [ 105.8481044, 21.0392503 ], [ 105.850042599999981, 21.0389354 ], [ 105.8505606, 21.0383929 ], [ 105.852338599999982, 21.0385754 ], [ 105.8538807, 21.0382553 ], [ 105.8549623, 21.0381838 ], [ 105.85468539999998, 21.0372334 ], [ 105.855188, 21.0355451 ], [ 105.8562679, 21.035083 ], [ 105.856505, 21.0347543 ], [ 105.8567919, 21.0336774 ], [ 105.8588286, 21.0330955 ], [ 105.859561899999989, 21.032523 ], [ 105.858440299999984, 21.031784 ], [ 105.858137099999979, 21.0313081 ], [ 105.8598143, 21.0299614 ], [ 105.86078879999998, 21.0302755 ], [ 105.8603817, 21.0291546 ], [ 105.8583197, 21.0293284 ], [ 105.8581333, 21.0279368 ], [ 105.8588605, 21.0264696 ], [ 105.857814499999989, 21.0261832 ], [ 105.8564625, 21.025904 ], [ 105.8551509, 21.0249161 ], [ 105.8545573, 21.025672 ], [ 105.8535709, 21.0273332 ], [ 105.851678599999985, 21.0259447 ], [ 105.8511617, 21.0278966 ], [ 105.8495631, 21.0288558 ], [ 105.847795099999985, 21.0291543 ], [ 105.8464, 21.0291195 ], [ 105.846568, 21.0299584 ], [ 105.845974500000011, 21.0317052 ], [ 105.8455033, 21.033579 ], [ 105.8449379, 21.0348636 ], [ 105.8457273, 21.0347159 ], [ 105.8470836, 21.0362915 ], [ 105.8470901, 21.0365581 ], [ 105.8479192, 21.0377886 ] ] ] } },
{ "type": "Feature", "properties": { "threshold_s": 600, "time_label": "10 min drive" }, "geometry": { "type": "Polygon", "coordinates": [ [ [ 105.8401771, 21.0433484 ], [ 105.84105959999998, 21.044674 ], [ 105.8418049, 21.0450949 ], [ 105.843328099999979, 21.0455598 ], [ 105.844857099999984, 21.0458724 ], [ 105.8464956, 21.0461629 ], [ 105.8492648, 21.0462351 ], [ 105.850106499999981, 21.0449387 ], [ 105.8532054, 21.0410502 ], [ 105.8539648, 21.0399026 ], [ 105.8552544, 21.038343 ], [ 105.8559408, 21.0375631 ], [ 105.8580411, 21.033791 ], [ 105.8588286, 21.0330955 ], [ 105.859561899999989, 21.032523 ], [ 105.865565599999982, 21.0396641 ], [ 105.8658247, 21.0397037 ], [ 105.861271699999989, 21.0304235 ], [ 105.8613337, 21.0288933 ], [ 105.8620378, 21.0248247 ], [ 105.86210149999998, 21.0246067 ], [ 105.862065, 21.0195265 ], [ 105.861804899999981, 21.0185343 ], [ 105.856344399999983, 21.0159717 ], [ 105.853255, 21.0147894 ], [ 105.8483814, 21.0152195 ], [ 105.846956799999987, 21.0171098 ], [ 105.845692299999982, 21.0195002 ], [ 105.8414355, 21.021993 ], [ 105.8395402, 21.0242642 ], [ 105.8357768, 21.0272036 ], [ 105.836138799999986, 21.030881 ], [ 105.8366268, 21.0336787 ], [ 105.8381949, 21.0336649 ], [ 105.840804, 21.0342079 ], [ 105.840904899999984, 21.0341906 ], [ 105.8454918, 21.0375308 ], [ 105.8420285, 21.0406404 ], [ 105.841936899999979, 21.0406599 ], [ 105.8410772, 21.0408157 ], [ 105.84, 21.0410016 ], [ 105.840151, 21.0428157 ], [ 105.8401771, 21.0433484 ] ] ] } },
{ "type": "Feature", "properties": { "threshold_s": 900, "time_label": "15 min drive" }, "geometry": { "type": "Polygon", "coordinates": [ [ [ 105.838508299999987, 21.0487951 ], [ 105.838671, 21.0522312 ], [ 105.842726399999989, 21.05374 ], [ 105.8481324, 21.0481674 ], [ 105.8492648, 21.0462351 ], [ 105.850106499999981, 21.0449387 ], [ 105.8532054, 21.0410502 ], [ 105.8539648, 21.0399026 ], [ 105.8552544, 21.038343 ], [ 105.8559408, 21.0375631 ], [ 105.8580411, 21.033791 ], [ 105.8654306, 21.0378592 ], [ 105.8652272, 21.0404883 ], [ 105.8645302, 21.0425052 ], [ 105.8645845, 21.0429123 ], [ 105.8644483, 21.0456788 ], [ 105.8649809, 21.0473095 ], [ 105.8652837, 21.0475541 ], [ 105.865604499999989, 21.0475113 ], [ 105.872633, 21.0461429 ], [ 105.8751927, 21.0453025 ], [ 105.8742374, 21.0369948 ], [ 105.8745432, 21.0344678 ], [ 105.8742088, 21.0341147 ], [ 105.871597699999981, 21.0321959 ], [ 105.8708742, 21.0315621 ], [ 105.8691818, 21.0308484 ], [ 105.861773199999988, 21.025698 ], [ 105.8620378, 21.0248247 ], [ 105.86210149999998, 21.0246067 ], [ 105.863899, 21.018973 ], [ 105.864448899999985, 21.0179396 ], [ 105.865231599999987, 21.0153725 ], [ 105.8655468, 21.0144409 ], [ 105.8680303, 21.0100022 ], [ 105.866515899999982, 21.0078988 ], [ 105.860888599999981, 21.006907 ], [ 105.85227949999998, 21.0069421 ], [ 105.8512375, 21.0063684 ], [ 105.8506003, 21.0064369 ], [ 105.8495537, 21.0066265 ], [ 105.8449471, 21.0079814 ], [ 105.8410532, 21.0107455 ], [ 105.8372522, 21.018501 ], [ 105.833795699999982, 21.0192431 ], [ 105.8307261, 21.0201732 ], [ 105.8306589, 21.0202038 ], [ 105.827496, 21.0262322 ], [ 105.8256498, 21.031761 ], [ 105.8256225, 21.0318746 ], [ 105.8273644, 21.0362036 ], [ 105.8285905, 21.0410636 ], [ 105.8363039, 21.0440074 ], [ 105.838508299999987, 21.0487951 ] ] ] } },
{ "type": "Feature", "properties": { "threshold_s": 300, "time_label": "5 min drive" }, "geometry": { "type": "Polygon", "coordinates": [ [ [ 105.8479192, 21.0377886 ], [ 105.8481044, 21.0392503 ], [ 105.850042599999981, 21.0389354 ], [ 105.8505606, 21.0383929 ], [ 105.852338599999982, 21.0385754 ], [ 105.8538807, 21.0382553 ], [ 105.8549623, 21.0381838 ], [ 105.85468539999998, 21.0372334 ], [ 105.855188, 21.0355451 ], [ 105.8562679, 21.035083 ], [ 105.856505, 21.0347543 ], [ 105.8567919, 21.0336774 ], [ 105.8588286, 21.0330955 ], [ 105.859561899999989, 21.032523 ], [ 105.858440299999984, 21.031784 ], [ 105.858137099999979, 21.0313081 ], [ 105.8598143, 21.0299614 ], [ 105.86078879999998, 21.0302755 ], [ 105.8603817, 21.0291546 ], [ 105.8583197, 21.0293284 ], [ 105.8581333, 21.0279368 ], [ 105.8588605, 21.0264696 ], [ 105.857814499999989, 21.0261832 ], [ 105.8564625, 21.025904 ], [ 105.8551509, 21.0249161 ], [ 105.8545573, 21.025672 ], [ 105.8535709, 21.0273332 ], [ 105.851678599999985, 21.0259447 ], [ 105.8511617, 21.0278966 ], [ 105.8495631, 21.0288558 ], [ 105.847795099999985, 21.0291543 ], [ 105.8464, 21.0291195 ], [ 105.846568, 21.0299584 ], [ 105.845974500000011, 21.0317052 ], [ 105.8455033, 21.033579 ], [ 105.8449379, 21.0348636 ], [ 105.8457273, 21.0347159 ], [ 105.8470836, 21.0362915 ], [ 105.8470901, 21.0365581 ], [ 105.8479192, 21.0377886 ] ] ] } },
{ "type": "Feature", "properties": { "threshold_s": 600, "time_label": "10 min drive" }, "geometry": { "type": "Polygon", "coordinates": [ [ [ 105.8401771, 21.0433484 ], [ 105.84105959999998, 21.044674 ], [ 105.8418049, 21.0450949 ], [ 105.843328099999979, 21.0455598 ], [ 105.844857099999984, 21.0458724 ], [ 105.8464956, 21.0461629 ], [ 105.8492648, 21.0462351 ], [ 105.850106499999981, 21.0449387 ], [ 105.8532054, 21.0410502 ], [ 105.8539648, 21.0399026 ], [ 105.8552544, 21.038343 ], [ 105.8559408, 21.0375631 ], [ 105.8580411, 21.033791 ], [ 105.8588286, 21.0330955 ], [ 105.859561899999989, 21.032523 ], [ 105.865565599999982, 21.0396641 ], [ 105.8658247, 21.0397037 ], [ 105.861271699999989, 21.0304235 ], [ 105.8613337, 21.0288933 ], [ 105.8620378, 21.0248247 ], [ 105.86210149999998, 21.0246067 ], [ 105.862065, 21.0195265 ], [ 105.861804899999981, 21.0185343 ], [ 105.856344399999983, 21.0159717 ], [ 105.853255, 21.0147894 ], [ 105.8483814, 21.0152195 ], [ 105.846956799999987, 21.0171098 ], [ 105.845692299999982, 21.0195002 ], [ 105.8414355, 21.021993 ], [ 105.8395402, 21.0242642 ], [ 105.8357768, 21.0272036 ], [ 105.836138799999986, 21.030881 ], [ 105.8366268, 21.0336787 ], [ 105.8381949, 21.0336649 ], [ 105.840804, 21.0342079 ], [ 105.840904899999984, 21.0341906 ], [ 105.8454918, 21.0375308 ], [ 105.8420285, 21.0406404 ], [ 105.841936899999979, 21.0406599 ], [ 105.8410772, 21.0408157 ], [ 105.84, 21.0410016 ], [ 105.840151, 21.0428157 ], [ 105.8401771, 21.0433484 ] ] ] } },
{ "type": "Feature", "properties": { "threshold_s": 900, "time_label": "15 min drive" }, "geometry": { "type": "Polygon", "coordinates": [ [ [ 105.838508299999987, 21.0487951 ], [ 105.838671, 21.0522312 ], [ 105.842726399999989, 21.05374 ], [ 105.8481324, 21.0481674 ], [ 105.8492648, 21.0462351 ], [ 105.850106499999981, 21.0449387 ], [ 105.8532054, 21.0410502 ], [ 105.8539648, 21.0399026 ], [ 105.8552544, 21.038343 ], [ 105.8559408, 21.0375631 ], [ 105.8580411, 21.033791 ], [ 105.8654306, 21.0378592 ], [ 105.8652272, 21.0404883 ], [ 105.8645302, 21.0425052 ], [ 105.8645845, 21.0429123 ], [ 105.8644483, 21.0456788 ], [ 105.8649809, 21.0473095 ], [ 105.8652837, 21.0475541 ], [ 105.865604499999989, 21.0475113 ], [ 105.872633, 21.0461429 ], [ 105.8751927, 21.0453025 ], [ 105.8742374, 21.0369948 ], [ 105.8745432, 21.0344678 ], [ 105.8742088, 21.0341147 ], [ 105.871597699999981, 21.0321959 ], [ 105.8708742, 21.0315621 ], [ 105.8691818, 21.0308484 ], [ 105.861773199999988, 21.025698 ], [ 105.8620378, 21.0248247 ], [ 105.86210149999998, 21.0246067 ], [ 105.863899, 21.018973 ], [ 105.864448899999985, 21.0179396 ], [ 105.865231599999987, 21.0153725 ], [ 105.8655468, 21.0144409 ], [ 105.8680303, 21.0100022 ], [ 105.866515899999982, 21.0078988 ], [ 105.860888599999981, 21.006907 ], [ 105.85227949999998, 21.0069421 ], [ 105.8512375, 21.0063684 ], [ 105.8506003, 21.0064369 ], [ 105.8495537, 21.0066265 ], [ 105.8449471, 21.0079814 ], [ 105.8410532, 21.0107455 ], [ 105.8372522, 21.018501 ], [ 105.833795699999982, 21.0192431 ], [ 105.8307261, 21.0201732 ], [ 105.8306589, 21.0202038 ], [ 105.827496, 21.0262322 ], [ 105.8256498, 21.031761 ], [ 105.8256225, 21.0318746 ], [ 105.8273644, 21.0362036 ], [ 105.8285905, 21.0410636 ], [ 105.8363039, 21.0440074 ], [ 105.838508299999987, 21.0487951 ] ] ] } },
{ "type": "Feature", "properties": { "threshold_s": 300, "time_label": "5 min drive" }, "geometry": { "type": "Polygon", "coordinates": [ [ [ 105.772121199999987, 21.0761333 ], [ 105.770986, 21.0790901 ], [ 105.774402199999983, 21.0774342 ], [ 105.7747135, 21.0774809 ], [ 105.7770229, 21.0746529 ], [ 105.7773094, 21.074569 ], [ 105.7790688, 21.073907 ], [ 105.780854300000016, 21.0715323 ], [ 105.7779345, 21.0698037 ], [ 105.776861599999989, 21.0683331 ], [ 105.776498599999982, 21.0683209 ], [ 105.773470399999979, 21.0685899 ], [ 105.7728694, 21.0668327 ], [ 105.7729826, 21.065249 ], [ 105.7730948, 21.0629846 ], [ 105.7731046, 21.0623175 ], [ 105.773106699999985, 21.0620448 ], [ 105.7731141, 21.0616283 ], [ 105.771548399999986, 21.061554 ], [ 105.771414, 21.0642173 ], [ 105.7712522, 21.0670907 ], [ 105.7698172, 21.0699916 ], [ 105.7658288, 21.0702156 ], [ 105.7650067, 21.0715146 ], [ 105.7644781, 21.0724792 ], [ 105.7714031, 21.0715253 ], [ 105.7725014, 21.0744243 ], [ 105.772121199999987, 21.0761333 ] ] ] } },
{ "type": "Feature", "properties": { "threshold_s": 600, "time_label": "10 min drive" }, "geometry": { "type": "Polygon", "coordinates": [ [ [ 105.769286799999989, 21.0885188 ], [ 105.7697368, 21.0893113 ], [ 105.7713971, 21.0875195 ], [ 105.771415799999986, 21.0860595 ], [ 105.772105199999984, 21.0847378 ], [ 105.777215900000016, 21.0849871 ], [ 105.7777591, 21.0855967 ], [ 105.78051, 21.0852275 ], [ 105.781692199999981, 21.0830028 ], [ 105.778867199999979, 21.0810627 ], [ 105.7776627, 21.077793 ], [ 105.781347899999986, 21.0760813 ], [ 105.782697099999979, 21.0763663 ], [ 105.785032, 21.0776989 ], [ 105.7858856, 21.0792911 ], [ 105.7878739, 21.0767528 ], [ 105.787530499999988, 21.0758482 ], [ 105.784178699999984, 21.0727744 ], [ 105.784051, 21.0715906 ], [ 105.7838765, 21.0682445 ], [ 105.783786399999983, 21.0672642 ], [ 105.783558199999987, 21.0660276 ], [ 105.7831324, 21.0640515 ], [ 105.7806751, 21.0621189 ], [ 105.777259, 21.0594841 ], [ 105.773319, 21.0584563 ], [ 105.77369969999998, 21.0551575 ], [ 105.772719, 21.0510341 ], [ 105.772327, 21.0507946 ], [ 105.772073899999981, 21.0510606 ], [ 105.7714174, 21.0517516 ], [ 105.7732819, 21.0554077 ], [ 105.772979, 21.0584829 ], [ 105.771548399999986, 21.061554 ], [ 105.7686719, 21.062429 ], [ 105.7683775, 21.0625252 ], [ 105.7637426, 21.0640006 ], [ 105.7623518, 21.0644106 ], [ 105.761848299999983, 21.0647187 ], [ 105.761406, 21.0650471 ], [ 105.761534, 21.0695959 ], [ 105.7620942, 21.0728699 ], [ 105.763151899999983, 21.0757881 ], [ 105.764316, 21.077022 ], [ 105.766295499999984, 21.0804182 ], [ 105.766964, 21.0820587 ], [ 105.7673174, 21.0827057 ], [ 105.769182599999979, 21.0849325 ], [ 105.7689762, 21.0879131 ], [ 105.7690169, 21.0879933 ], [ 105.769286799999989, 21.0885188 ] ] ] } },
{ "type": "Feature", "properties": { "threshold_s": 900, "time_label": "15 min drive" }, "geometry": { "type": "Polygon", "coordinates": [ [ [ 105.759189899999981, 21.0868296 ], [ 105.7595009, 21.088846 ], [ 105.7623768, 21.0913747 ], [ 105.762763, 21.0916199 ], [ 105.7671833, 21.0916249 ], [ 105.773665900000012, 21.0936495 ], [ 105.7754959, 21.094425 ], [ 105.7779974, 21.0938412 ], [ 105.7827742, 21.0919278 ], [ 105.7860675, 21.0902099 ], [ 105.790334699999988, 21.0856825 ], [ 105.7929559, 21.0844247 ], [ 105.7930235, 21.0843787 ], [ 105.7930504, 21.0840217 ], [ 105.7963446, 21.0771987 ], [ 105.795374699999982, 21.0713879 ], [ 105.7919427, 21.067572 ], [ 105.7918736, 21.0675299 ], [ 105.788247699999985, 21.0663437 ], [ 105.783525699999984, 21.0614066 ], [ 105.7832477, 21.0590333 ], [ 105.7832245, 21.0589547 ], [ 105.7825837, 21.0565908 ], [ 105.781909899999988, 21.054616 ], [ 105.7816238, 21.0536284 ], [ 105.7813345, 21.0528291 ], [ 105.7796121, 21.0508509 ], [ 105.7771092, 21.0489633 ], [ 105.774008499999979, 21.047858 ], [ 105.767941899999983, 21.0427915 ], [ 105.7654363, 21.0420835 ], [ 105.7660032, 21.043376 ], [ 105.7673859, 21.0460407 ], [ 105.769493299999979, 21.0488897 ], [ 105.7714174, 21.0517516 ], [ 105.7732819, 21.0554077 ], [ 105.772979, 21.0584829 ], [ 105.7686719, 21.062429 ], [ 105.764644, 21.0589663 ], [ 105.764572, 21.058762 ], [ 105.7644899, 21.0585025 ], [ 105.761848299999983, 21.0647187 ], [ 105.7596272, 21.0654404 ], [ 105.7532938, 21.0651318 ], [ 105.7530997, 21.0651808 ], [ 105.7537699, 21.0677561 ], [ 105.7538413, 21.0680072 ], [ 105.754036699999986, 21.0679372 ], [ 105.761534, 21.0695959 ], [ 105.7620942, 21.0728699 ], [ 105.7626659, 21.0741508 ], [ 105.7611901, 21.0811943 ], [ 105.7590643, 21.0839794 ], [ 105.759189899999981, 21.0868296 ] ] ] } },
{ "type": "Feature", "properties": { "threshold_s": 300, "time_label": "5 min drive" }, "geometry": { "type": "Polygon", "coordinates": [ [ [ 105.7310379, 21.0094812 ], [ 105.7309575, 21.0097034 ], [ 105.732460399999979, 21.0099631 ], [ 105.732613599999979, 21.0093984 ], [ 105.7341681, 21.008149 ], [ 105.7357459, 21.0081237 ], [ 105.736902699999987, 21.009829 ], [ 105.737669899999986, 21.0093593 ], [ 105.73709479999998, 21.0079189 ], [ 105.7390231, 21.0072675 ], [ 105.744094200000021, 21.009271 ], [ 105.744621199999983, 21.0093632 ], [ 105.743604599999983, 21.005478 ], [ 105.7421365, 21.0045049 ], [ 105.741231199999987, 21.004332 ], [ 105.7404643, 21.0028289 ], [ 105.740734099999983, 21.0046855 ], [ 105.7407615, 21.0048413 ], [ 105.738396699999981, 21.0056804 ], [ 105.7383139, 21.0054738 ], [ 105.7376544, 21.0037914 ], [ 105.7370046, 21.0021001 ], [ 105.736705799999982, 21.0013251 ], [ 105.7361972, 21.0000463 ], [ 105.7347165, 21.0008438 ], [ 105.7338056, 21.0006038 ], [ 105.7336443, 21.000556 ], [ 105.7330737, 21.0014112 ], [ 105.7326648, 21.0026368 ], [ 105.731169, 21.0031702 ], [ 105.7290839, 21.0036254 ], [ 105.7273872, 21.004386 ], [ 105.7283636, 21.0052907 ], [ 105.729666499999979, 21.0048682 ], [ 105.7309849, 21.0053368 ], [ 105.7317652, 21.0055409 ], [ 105.731943, 21.0055874 ], [ 105.731635499999982, 21.0077621 ], [ 105.7310379, 21.0094812 ] ] ] } },
{ "type": "Feature", "properties": { "threshold_s": 600, "time_label": "10 min drive" }, "geometry": { "type": "Polygon", "coordinates": [ [ [ 105.7187158, 21.0074915 ], [ 105.721177699999984, 21.0106391 ], [ 105.7226535, 21.0105576 ], [ 105.7259868, 21.0113152 ], [ 105.729573, 21.0101006 ], [ 105.7310343, 21.0100493 ], [ 105.732460399999979, 21.0099631 ], [ 105.7365187, 21.0098496 ], [ 105.7388069, 21.0105284 ], [ 105.7408413, 21.0112248 ], [ 105.744726, 21.0102505 ], [ 105.746884599999987, 21.0090642 ], [ 105.74903639999998, 21.0087729 ], [ 105.7533249, 21.0088607 ], [ 105.7562308, 21.0075792 ], [ 105.7558466, 21.0073405 ], [ 105.75325789999998, 21.0079245 ], [ 105.7512158, 21.0063132 ], [ 105.750561499999989, 21.0018566 ], [ 105.7491197, 21.0055465 ], [ 105.7462972, 21.0045169 ], [ 105.7421365, 21.0045049 ], [ 105.7404643, 21.0028289 ], [ 105.7405098, 20.9991565 ], [ 105.7405501, 20.9990177 ], [ 105.741413199999982, 20.9961415 ], [ 105.7412619, 20.9961002 ], [ 105.740105899999989, 20.9958154 ], [ 105.73923259999998, 20.9955961 ], [ 105.7358571, 20.9933621 ], [ 105.7356994, 20.993321 ], [ 105.733678500000011, 20.9928236 ], [ 105.7297062, 20.9945557 ], [ 105.7297362, 20.9953614 ], [ 105.7296592, 20.996465 ], [ 105.728063099999986, 20.9990322 ], [ 105.724269299999989, 20.9981916 ], [ 105.7232505, 20.9983115 ], [ 105.719643399999981, 21.000596 ], [ 105.717246099999983, 21.0012715 ], [ 105.717230699999988, 21.0014007 ], [ 105.717346399999983, 21.0046255 ], [ 105.7178146, 21.0059716 ], [ 105.7182625, 21.0072562 ], [ 105.7187158, 21.0074915 ] ] ] } },
{ "type": "Feature", "properties": { "threshold_s": 900, "time_label": "15 min drive" }, "geometry": { "type": "Polygon", "coordinates": [ [ [ 105.709341199999983, 21.0079285 ], [ 105.711436399999982, 21.0111635 ], [ 105.7172921, 21.0158045 ], [ 105.721015799999989, 21.0189015 ], [ 105.7242795, 21.017128 ], [ 105.7261801, 21.0153132 ], [ 105.7296432, 21.0110654 ], [ 105.732460399999979, 21.0099631 ], [ 105.739772499999987, 21.0136974 ], [ 105.740385, 21.0146658 ], [ 105.743141, 21.0177124 ], [ 105.7439226, 21.0192486 ], [ 105.7440711, 21.0192972 ], [ 105.747946499999983, 21.0176346 ], [ 105.748119, 21.0169179 ], [ 105.7481528, 21.0167919 ], [ 105.7533249, 21.0088607 ], [ 105.7577216, 21.0109844 ], [ 105.76400959999998, 21.0067677 ], [ 105.7667401, 21.0047899 ], [ 105.761552, 21.0021249 ], [ 105.755908399999981, 20.9955275 ], [ 105.752811899999983, 20.9956532 ], [ 105.747720199999989, 20.9962222 ], [ 105.745175499999988, 20.9890422 ], [ 105.744330399999981, 20.987549 ], [ 105.742262199999985, 20.9823925 ], [ 105.7411116, 20.9821133 ], [ 105.731065699999988, 20.9825866 ], [ 105.7299341, 20.982822 ], [ 105.728822, 20.9837367 ], [ 105.721733699999987, 20.9893023 ], [ 105.72164859999998, 20.9896157 ], [ 105.714291299999985, 20.9961201 ], [ 105.7120265, 20.9966071 ], [ 105.7093401, 20.99698 ], [ 105.707943899999989, 20.9982035 ], [ 105.7086425, 21.0028809 ], [ 105.709341199999983, 21.0079285 ] ] ] } },
{ "type": "Feature", "properties": { "threshold_s": 300, "time_label": "5 min drive" }, "geometry": { "type": "Polygon", "coordinates": [ [ [ 105.811661799999982, 21.0464801 ], [ 105.8067947, 21.0481672 ], [ 105.8118943, 21.0466978 ], [ 105.815235299999983, 21.0455385 ], [ 105.8142918, 21.0448188 ], [ 105.814111499999981, 21.0446838 ], [ 105.811661799999982, 21.0464801 ] ] ] } },
{ "type": "Feature", "properties": { "threshold_s": 600, "time_label": "10 min drive" }, "geometry": { "type": "Polygon", "coordinates": [ [ [ 105.8045967, 21.054599 ], [ 105.8043423, 21.0567917 ], [ 105.808881099999979, 21.0568396 ], [ 105.811723299999983, 21.0547895 ], [ 105.813290599999988, 21.0506848 ], [ 105.8118943, 21.0466978 ], [ 105.815235299999983, 21.0455385 ], [ 105.8172402, 21.0447458 ], [ 105.817391, 21.0446957 ], [ 105.8185603, 21.0434901 ], [ 105.823222, 21.0436032 ], [ 105.8251749, 21.0431721 ], [ 105.8247218, 21.0424488 ], [ 105.8233287, 21.0412791 ], [ 105.82078340000001, 21.0419242 ], [ 105.818312800000015, 21.0387461 ], [ 105.8169117, 21.0360644 ], [ 105.8146742, 21.0356752 ], [ 105.8144585, 21.0357243 ], [ 105.811598, 21.0390828 ], [ 105.8064473, 21.0401649 ], [ 105.805903299999983, 21.0400077 ], [ 105.8059386, 21.0410711 ], [ 105.8059848, 21.042704 ], [ 105.8025166, 21.0461361 ], [ 105.8009458, 21.046128 ], [ 105.7981633, 21.0463076 ], [ 105.797793199999987, 21.0463067 ], [ 105.7977931, 21.0466049 ], [ 105.800947599999986, 21.0463141 ], [ 105.8047034, 21.0483933 ], [ 105.8047072, 21.0501916 ], [ 105.8045926, 21.0522501 ], [ 105.804574, 21.0531306 ], [ 105.804582, 21.0538506 ], [ 105.804591299999984, 21.0542033 ], [ 105.8045967, 21.054599 ] ] ] } },
{ "type": "Feature", "properties": { "threshold_s": 900, "time_label": "15 min drive" }, "geometry": { "type": "Polygon", "coordinates": [ [ [ 105.8047116, 21.0632457 ], [ 105.804386900000011, 21.0666826 ], [ 105.8077082, 21.0676853 ], [ 105.8110384, 21.0671506 ], [ 105.811406, 21.0670372 ], [ 105.8108022, 21.0649311 ], [ 105.8100873, 21.0626012 ], [ 105.811723299999983, 21.0547895 ], [ 105.813290599999988, 21.0506848 ], [ 105.817391, 21.0446957 ], [ 105.823222, 21.0436032 ], [ 105.8251749, 21.0431721 ], [ 105.8351095, 21.0426739 ], [ 105.8360875, 21.0436361 ], [ 105.835097299999987, 21.0418506 ], [ 105.828665499999985, 21.0395817 ], [ 105.8271558, 21.0347458 ], [ 105.827135, 21.0343028 ], [ 105.8196948, 21.0308865 ], [ 105.8164399, 21.0296201 ], [ 105.81083150000002, 21.0251376 ], [ 105.80216470000002, 21.0307193 ], [ 105.7947531, 21.0377179 ], [ 105.7913833, 21.0408676 ], [ 105.7908361, 21.0416393 ], [ 105.7882472, 21.0462535 ], [ 105.7878957, 21.0476673 ], [ 105.7898877, 21.049598 ], [ 105.7949453, 21.0542618 ], [ 105.797931799999986, 21.0568392 ], [ 105.8047116, 21.0632457 ] ] ] } },
{ "type": "Feature", "properties": { "threshold_s": 300, "time_label": "5 min drive" }, "geometry": { "type": "Polygon", "coordinates": [ [ [ 105.7946194, 21.0460985 ], [ 105.794622099999984, 21.0462769 ], [ 105.797746, 21.0483795 ], [ 105.800947599999986, 21.0463141 ], [ 105.8047034, 21.0483933 ], [ 105.8047072, 21.0501916 ], [ 105.8045926, 21.0522501 ], [ 105.804574, 21.0531306 ], [ 105.804582, 21.0538506 ], [ 105.804591299999984, 21.0542033 ], [ 105.805146599999986, 21.0538361 ], [ 105.8089491, 21.0534412 ], [ 105.8090432, 21.0534633 ], [ 105.8090683, 21.0532883 ], [ 105.8091207, 21.0523332 ], [ 105.808391199999988, 21.0514451 ], [ 105.8078578, 21.0508195 ], [ 105.8075098, 21.0502935 ], [ 105.8065021, 21.0486522 ], [ 105.8062704, 21.0465187 ], [ 105.811321, 21.0459144 ], [ 105.80631, 21.0461517 ], [ 105.8059935, 21.0438743 ], [ 105.806327, 21.0429691 ], [ 105.8066715, 21.0413439 ], [ 105.806850700000012, 21.0402626 ], [ 105.807279699999981, 21.0376693 ], [ 105.807126899999986, 21.0375745 ], [ 105.8066377, 21.0376047 ], [ 105.8066578, 21.0377734 ], [ 105.805903299999983, 21.0400077 ], [ 105.802945599999987, 21.0401025 ], [ 105.8059386, 21.0410711 ], [ 105.8059848, 21.042704 ], [ 105.8025166, 21.0461361 ], [ 105.8009458, 21.046128 ], [ 105.7993495, 21.0461197 ], [ 105.7975454, 21.0439572 ], [ 105.7946194, 21.0460985 ] ] ] } },
{ "type": "Feature", "properties": { "threshold_s": 600, "time_label": "10 min drive" }, "geometry": { "type": "Polygon", "coordinates": [ [ [ 105.787747199999984, 21.0495955 ], [ 105.788586699999982, 21.0530383 ], [ 105.794959599999984, 21.0568208 ], [ 105.7979502, 21.0598846 ], [ 105.804840899999988, 21.0626808 ], [ 105.805788099999987, 21.0643787 ], [ 105.8061553, 21.0644504 ], [ 105.8100873, 21.0626012 ], [ 105.8093435, 21.0612735 ], [ 105.811723299999983, 21.0547895 ], [ 105.813290599999988, 21.0506848 ], [ 105.817391, 21.0446957 ], [ 105.8233287, 21.0412791 ], [ 105.818312800000015, 21.0387461 ], [ 105.8178814, 21.0355613 ], [ 105.813005599999983, 21.0310315 ], [ 105.81133269999998, 21.031766 ], [ 105.810790299999979, 21.03192 ], [ 105.809536300000019, 21.03226 ], [ 105.802296, 21.0294 ], [ 105.8017885, 21.0297974 ], [ 105.8015154, 21.0300109 ], [ 105.80046440000001, 21.0310117 ], [ 105.7987529, 21.0324956 ], [ 105.7935472, 21.0352736 ], [ 105.7904322, 21.0396836 ], [ 105.787763199999986, 21.0416469 ], [ 105.783311699999985, 21.0462526 ], [ 105.787747199999984, 21.0495955 ] ] ] } },
{ "type": "Feature", "properties": { "threshold_s": 900, "time_label": "15 min drive" }, "geometry": { "type": "Polygon", "coordinates": [ [ [ 105.7835488, 21.0601892 ], [ 105.783853099999988, 21.061227 ], [ 105.793535099999986, 21.0663246 ], [ 105.7987053, 21.0714302 ], [ 105.7998405, 21.0719826 ], [ 105.8105879, 21.0736839 ], [ 105.812912299999979, 21.0738989 ], [ 105.8129894, 21.0738641 ], [ 105.812451, 21.0690924 ], [ 105.8123599, 21.0688327 ], [ 105.8108022, 21.0649311 ], [ 105.811723299999983, 21.0547895 ], [ 105.813290599999988, 21.0506848 ], [ 105.817391, 21.0446957 ], [ 105.823222, 21.0436032 ], [ 105.8251749, 21.0431721 ], [ 105.8285905, 21.0410636 ], [ 105.828956799999986, 21.040745 ], [ 105.8271908, 21.0334056 ], [ 105.822679, 21.0300568 ], [ 105.8211359, 21.0291565 ], [ 105.8177825, 21.0272186 ], [ 105.80992089999998, 21.0226339 ], [ 105.8022092, 21.0192473 ], [ 105.796250799999981, 21.0200502 ], [ 105.794788899999986, 21.0202822 ], [ 105.789276, 21.0279646 ], [ 105.787713199999985, 21.0291676 ], [ 105.785696799999982, 21.0306378 ], [ 105.7811606, 21.0368103 ], [ 105.777668, 21.0414585 ], [ 105.7796421, 21.0490039 ], [ 105.7832245, 21.0589547 ], [ 105.7835488, 21.0601892 ] ] ] } },
{ "type": "Feature", "properties": { "threshold_s": 300, "time_label": "5 min drive" }, "geometry": { "type": "Polygon", "coordinates": [ [ [ 105.78234329999998, 21.05665 ], [ 105.7832477, 21.0590333 ], [ 105.7836761, 21.0587512 ], [ 105.7825837, 21.0565908 ], [ 105.7822674, 21.0552068 ], [ 105.7822543, 21.0547264 ], [ 105.7838441, 21.0517827 ], [ 105.785534799999979, 21.0522411 ], [ 105.7883336, 21.0532798 ], [ 105.788586699999982, 21.0530383 ], [ 105.7901434, 21.0513702 ], [ 105.789795399999988, 21.0506631 ], [ 105.7868482, 21.0503655 ], [ 105.7857119, 21.0501774 ], [ 105.7844267, 21.0481792 ], [ 105.784393599999987, 21.0462568 ], [ 105.7840364, 21.0462553 ], [ 105.781101599999985, 21.0460456 ], [ 105.781114, 21.0462401 ], [ 105.7814899, 21.0469047 ], [ 105.7816808, 21.0493213 ], [ 105.781800099999984, 21.0501996 ], [ 105.7833901, 21.0506888 ], [ 105.781895399999982, 21.0531632 ], [ 105.781808499999983, 21.0548503 ], [ 105.78234329999998, 21.05665 ] ] ] } },
{ "type": "Feature", "properties": { "threshold_s": 600, "time_label": "10 min drive" }, "geometry": { "type": "Polygon", "coordinates": [ [ [ 105.7850809, 21.0685064 ], [ 105.785523699999985, 21.0695837 ], [ 105.7859972, 21.0681243 ], [ 105.7900166, 21.0650799 ], [ 105.79271319999998, 21.0623862 ], [ 105.791213099999979, 21.0614708 ], [ 105.790012799999985, 21.0597285 ], [ 105.794959599999984, 21.0568208 ], [ 105.7981429, 21.0542758 ], [ 105.800751599999984, 21.0519311 ], [ 105.799073, 21.0502862 ], [ 105.797792199999989, 21.0461071 ], [ 105.797519099999988, 21.0456166 ], [ 105.7936031, 21.0426687 ], [ 105.7925589, 21.041633 ], [ 105.7908282, 21.0399306 ], [ 105.7904322, 21.0396836 ], [ 105.786176699999984, 21.0416528 ], [ 105.7840377, 21.0417303 ], [ 105.7809051, 21.0375726 ], [ 105.7808577, 21.0363945 ], [ 105.7802357, 21.0360509 ], [ 105.779525, 21.0366933 ], [ 105.777668, 21.0414585 ], [ 105.7767437, 21.0415823 ], [ 105.78106409999998, 21.0453649 ], [ 105.7771092, 21.0489633 ], [ 105.772719, 21.0510341 ], [ 105.772767, 21.052902 ], [ 105.773661899999979, 21.0549367 ], [ 105.776778799999988, 21.058301 ], [ 105.77712, 21.0583625 ], [ 105.777708299999986, 21.0584795 ], [ 105.7832477, 21.0590333 ], [ 105.7835488, 21.0601892 ], [ 105.783853099999988, 21.061227 ], [ 105.7851607, 21.0666063 ], [ 105.7849309, 21.067122 ], [ 105.7850659, 21.0683343 ], [ 105.7850809, 21.0685064 ] ] ] } },
{ "type": "Feature", "properties": { "threshold_s": 900, "time_label": "15 min drive" }, "geometry": { "type": "Polygon", "coordinates": [ [ [ 105.7844847, 21.0766624 ], [ 105.785032, 21.0776989 ], [ 105.788185499999983, 21.0788672 ], [ 105.7885959, 21.0783105 ], [ 105.7914599, 21.0738284 ], [ 105.7939035, 21.0724189 ], [ 105.795374699999982, 21.0713879 ], [ 105.799108299999986, 21.0690123 ], [ 105.8007594, 21.0673918 ], [ 105.8038571, 21.0623879 ], [ 105.8039281, 21.0568272 ], [ 105.803929200000013, 21.0566981 ], [ 105.8040441, 21.0546355 ], [ 105.8041071, 21.0535992 ], [ 105.806118699999985, 21.0475741 ], [ 105.8062704, 21.0465187 ], [ 105.80631, 21.0461517 ], [ 105.8059935, 21.0438743 ], [ 105.802439, 21.0403959 ], [ 105.800845399999986, 21.0377148 ], [ 105.800628399999979, 21.0375027 ], [ 105.7962208, 21.034265 ], [ 105.794135299999979, 21.0325227 ], [ 105.7929572, 21.0318692 ], [ 105.791373299999989, 21.0311662 ], [ 105.788676099999989, 21.0301872 ], [ 105.7879053, 21.0300146 ], [ 105.7809856, 21.028491 ], [ 105.7788552, 21.0274225 ], [ 105.7747937, 21.0295595 ], [ 105.770040800000018, 21.0345594 ], [ 105.767593, 21.0394838 ], [ 105.767226199999982, 21.0450383 ], [ 105.7673859, 21.0460407 ], [ 105.769493299999979, 21.0488897 ], [ 105.7714174, 21.0517516 ], [ 105.7732819, 21.0554077 ], [ 105.772979, 21.0584829 ], [ 105.7778303, 21.0624865 ], [ 105.780323699999983, 21.0674895 ], [ 105.781253799999988, 21.0684529 ], [ 105.781799099999986, 21.0684525 ], [ 105.7820969, 21.0684542 ], [ 105.786182199999985, 21.071981 ], [ 105.784377099999986, 21.0754099 ], [ 105.7844221, 21.0759784 ], [ 105.7844847, 21.0766624 ] ] ] } },
{ "type": "Feature", "properties": { "threshold_s": 300, "time_label": "5 min drive" }, "geometry": { "type": "Polygon", "coordinates": [ [ [ 105.7816808, 21.0493213 ], [ 105.7814974, 21.0505196 ], [ 105.7817062, 21.0505083 ], [ 105.7838441, 21.0517827 ], [ 105.785534799999979, 21.0522411 ], [ 105.7860464, 21.0517605 ], [ 105.7868482, 21.0503655 ], [ 105.787747199999984, 21.0495955 ], [ 105.7896973, 21.0510389 ], [ 105.7892867, 21.0518621 ], [ 105.7901434, 21.0513702 ], [ 105.7898877, 21.049598 ], [ 105.7878957, 21.0476673 ], [ 105.7893599, 21.0470573 ], [ 105.7916258, 21.0460838 ], [ 105.792659699999987, 21.0460863 ], [ 105.7932617, 21.0460921 ], [ 105.794622099999984, 21.0462769 ], [ 105.796633199999988, 21.0461046 ], [ 105.7945958, 21.0446542 ], [ 105.7943184, 21.0438932 ], [ 105.7945053, 21.0416307 ], [ 105.7932557, 21.0403046 ], [ 105.7923678, 21.0388545 ], [ 105.7918802, 21.0383279 ], [ 105.790326899999982, 21.0377714 ], [ 105.790186599999984, 21.0378069 ], [ 105.7904322, 21.0396836 ], [ 105.7904295, 21.0401321 ], [ 105.788551899999987, 21.0416396 ], [ 105.787763199999986, 21.0416469 ], [ 105.78713, 21.0416404 ], [ 105.786176699999984, 21.0416528 ], [ 105.785947800000017, 21.0366187 ], [ 105.7841586, 21.0366755 ], [ 105.784003, 21.0405566 ], [ 105.7840377, 21.0417303 ], [ 105.7847189, 21.0440079 ], [ 105.783118, 21.0450166 ], [ 105.7812427, 21.0435136 ], [ 105.7812151, 21.0431395 ], [ 105.7811362, 21.0418407 ], [ 105.780896100000021, 21.0431582 ], [ 105.780924699999986, 21.0435308 ], [ 105.78106409999998, 21.0453649 ], [ 105.781101599999985, 21.0460456 ], [ 105.781114, 21.0462401 ], [ 105.7815381, 21.0474529 ], [ 105.7816808, 21.0493213 ] ] ] } },
{ "type": "Feature", "properties": { "threshold_s": 600, "time_label": "10 min drive" }, "geometry": { "type": "Polygon", "coordinates": [ [ [ 105.7835488, 21.0601892 ], [ 105.783853099999988, 21.061227 ], [ 105.7850316, 21.0600215 ], [ 105.785123399999989, 21.0591025 ], [ 105.7872162, 21.0565856 ], [ 105.787263199999984, 21.0562552 ], [ 105.7887644, 21.053691 ], [ 105.791215, 21.0535504 ], [ 105.7926412, 21.0546685 ], [ 105.793501699999979, 21.0553187 ], [ 105.794959599999984, 21.0568208 ], [ 105.794961, 21.0567068 ], [ 105.7949572, 21.0556598 ], [ 105.7981396, 21.0548207 ], [ 105.800747799999982, 21.0529384 ], [ 105.8009779, 21.0519315 ], [ 105.8016653, 21.0499519 ], [ 105.804539799999986, 21.0463168 ], [ 105.805762099999981, 21.0466775 ], [ 105.8062704, 21.0465187 ], [ 105.80631, 21.0461517 ], [ 105.806124299999979, 21.0459509 ], [ 105.805620799999986, 21.0460004 ], [ 105.8050187, 21.0461308 ], [ 105.8025166, 21.0461361 ], [ 105.8009458, 21.046128 ], [ 105.7989297, 21.0457572 ], [ 105.7989495, 21.0428763 ], [ 105.8006251, 21.0415975 ], [ 105.7982784, 21.0391219 ], [ 105.800845399999986, 21.0377148 ], [ 105.8019457, 21.0369881 ], [ 105.8018753, 21.0369046 ], [ 105.801661, 21.0366779 ], [ 105.800628399999979, 21.0375027 ], [ 105.7976896, 21.0364994 ], [ 105.797537799999986, 21.0342801 ], [ 105.7988408, 21.0325776 ], [ 105.7987529, 21.0324956 ], [ 105.7972634, 21.0340276 ], [ 105.79426789999998, 21.0328237 ], [ 105.794201199999989, 21.0326808 ], [ 105.794135299999979, 21.0325227 ], [ 105.7934906, 21.0303364 ], [ 105.792815100000013, 21.0297356 ], [ 105.7918723, 21.0295673 ], [ 105.7893046, 21.0288334 ], [ 105.7873362, 21.0278203 ], [ 105.7872549, 21.0277728 ], [ 105.786039499999987, 21.0294373 ], [ 105.7834581, 21.0309914 ], [ 105.7824326, 21.0311543 ], [ 105.7796563, 21.0316677 ], [ 105.7788762, 21.0325363 ], [ 105.7788414, 21.0334386 ], [ 105.7788294, 21.0365074 ], [ 105.7759986, 21.0370857 ], [ 105.7756511, 21.0371893 ], [ 105.7737524, 21.0379533 ], [ 105.7750251, 21.0378724 ], [ 105.7760617, 21.0372582 ], [ 105.7805141, 21.0380521 ], [ 105.780627399999986, 21.0392619 ], [ 105.7806568, 21.0394598 ], [ 105.780682700000014, 21.0399814 ], [ 105.777668, 21.0414585 ], [ 105.7767437, 21.0415823 ], [ 105.7750703, 21.0421041 ], [ 105.7736732, 21.0425953 ], [ 105.7735501, 21.0426467 ], [ 105.77440919999998, 21.0451202 ], [ 105.7745407, 21.0450844 ], [ 105.7756336, 21.0447763 ], [ 105.7783359, 21.045574 ], [ 105.779179, 21.0455458 ], [ 105.780969, 21.0476064 ], [ 105.7796421, 21.0490039 ], [ 105.7771092, 21.0489633 ], [ 105.777164699999986, 21.049454 ], [ 105.777040700000015, 21.0513808 ], [ 105.7771442, 21.0531388 ], [ 105.7793682, 21.0552616 ], [ 105.78234329999998, 21.05665 ], [ 105.7832245, 21.0589547 ], [ 105.7832477, 21.0590333 ], [ 105.7835488, 21.0601892 ] ] ] } },
{ "type": "Feature", "properties": { "threshold_s": 900, "time_label": "15 min drive" }, "geometry": { "type": "Polygon", "coordinates": [ [ [ 105.785523699999985, 21.0695837 ], [ 105.7860138, 21.0707424 ], [ 105.7864518, 21.0707991 ], [ 105.787014099999979, 21.0694057 ], [ 105.787191399999983, 21.0688712 ], [ 105.7922805, 21.065871 ], [ 105.7977378, 21.0641363 ], [ 105.79885419999998, 21.0641398 ], [ 105.8007624, 21.0629383 ], [ 105.8011825, 21.0624713 ], [ 105.8020669, 21.0607976 ], [ 105.804494299999988, 21.0567921 ], [ 105.808881099999979, 21.0568396 ], [ 105.811723299999983, 21.0547895 ], [ 105.8091207, 21.0523332 ], [ 105.808391199999988, 21.0514451 ], [ 105.8078578, 21.0508195 ], [ 105.811321, 21.0459144 ], [ 105.815227399999984, 21.0426988 ], [ 105.8145983, 21.0429872 ], [ 105.8095014, 21.0427311 ], [ 105.810511799999986, 21.0378336 ], [ 105.810305, 21.0348404 ], [ 105.81137, 21.0318838 ], [ 105.81133269999998, 21.031766 ], [ 105.808141, 21.0279055 ], [ 105.8073506, 21.0274834 ], [ 105.803818, 21.026045 ], [ 105.7983321, 21.0240783 ], [ 105.792539299999987, 21.0249285 ], [ 105.792066599999984, 21.0223365 ], [ 105.7936146, 21.0195877 ], [ 105.7927045, 21.018752 ], [ 105.7922812, 21.0187945 ], [ 105.787336399999987, 21.0197264 ], [ 105.785791500000016, 21.0200824 ], [ 105.779539299999982, 21.0203287 ], [ 105.778433599999985, 21.0208718 ], [ 105.7785636, 21.0223194 ], [ 105.7736861, 21.0252111 ], [ 105.7730999, 21.0270115 ], [ 105.768990499999987, 21.030093 ], [ 105.768381399999981, 21.030284 ], [ 105.7675665, 21.0315095 ], [ 105.765742100000011, 21.0342565 ], [ 105.7656747, 21.0346705 ], [ 105.7657995, 21.036808 ], [ 105.7637334, 21.0407472 ], [ 105.7638017, 21.0409292 ], [ 105.76680469999998, 21.0432074 ], [ 105.7696396, 21.043275 ], [ 105.77440919999998, 21.0451202 ], [ 105.7725097, 21.0500264 ], [ 105.7714174, 21.0517516 ], [ 105.773661899999979, 21.0549367 ], [ 105.776778799999988, 21.058301 ], [ 105.7774776, 21.0590671 ], [ 105.7823888, 21.0598379 ], [ 105.783853099999988, 21.061227 ], [ 105.7851607, 21.0666063 ], [ 105.7849309, 21.067122 ], [ 105.7850659, 21.0683343 ], [ 105.7850809, 21.0685064 ], [ 105.785523699999985, 21.0695837 ] ] ] } },
{ "type": "Feature", "properties": { "threshold_s": 300, "time_label": "5 min drive" }, "geometry": { "type": "Polygon", "coordinates": [ [ [ 105.780066, 21.0323896 ], [ 105.780200799999989, 21.0331404 ], [ 105.7822279, 21.0335996 ], [ 105.7832313, 21.0342973 ], [ 105.7835275, 21.0342872 ], [ 105.784155399999989, 21.036558 ], [ 105.7841586, 21.0366755 ], [ 105.785947800000017, 21.0366187 ], [ 105.7879618, 21.0365313 ], [ 105.789166099999989, 21.0363507 ], [ 105.790186599999984, 21.0378069 ], [ 105.7904322, 21.0396836 ], [ 105.7904295, 21.0401321 ], [ 105.790427799999989, 21.0402707 ], [ 105.790419299999982, 21.041258 ], [ 105.7904034, 21.0416374 ], [ 105.7908361, 21.0416393 ], [ 105.792572399999983, 21.0408691 ], [ 105.7929448, 21.0393542 ], [ 105.794131399999984, 21.0377031 ], [ 105.7950686, 21.0378568 ], [ 105.7959909, 21.0376622 ], [ 105.793998799999983, 21.0364838 ], [ 105.7951802, 21.0347263 ], [ 105.7959785, 21.0344811 ], [ 105.7962622, 21.0343942 ], [ 105.7962208, 21.034265 ], [ 105.79426789999998, 21.0328237 ], [ 105.794641399999989, 21.0305549 ], [ 105.794807799999987, 21.0298557 ], [ 105.7948587, 21.0286539 ], [ 105.7933893, 21.027693 ], [ 105.791498, 21.0263117 ], [ 105.7915842, 21.0255556 ], [ 105.7911298, 21.0260393 ], [ 105.789266399999988, 21.0246773 ], [ 105.789151299999986, 21.0246083 ], [ 105.788198499999979, 21.0261786 ], [ 105.786145299999987, 21.0250849 ], [ 105.7843605, 21.0258818 ], [ 105.783715299999983, 21.0280866 ], [ 105.7814104, 21.0285463 ], [ 105.7814386, 21.0300371 ], [ 105.779919099999987, 21.031536 ], [ 105.780066, 21.0323896 ] ] ] } },
{ "type": "Feature", "properties": { "threshold_s": 600, "time_label": "10 min drive" }, "geometry": { "type": "Polygon", "coordinates": [ [ [ 105.772289299999983, 21.03296 ], [ 105.7720108, 21.0384125 ], [ 105.7721936, 21.0383636 ], [ 105.7737524, 21.0379533 ], [ 105.7750251, 21.0378724 ], [ 105.7760617, 21.0372582 ], [ 105.7788294, 21.0365074 ], [ 105.781037399999988, 21.0394164 ], [ 105.7807356, 21.0408854 ], [ 105.780896100000021, 21.0431582 ], [ 105.7813836, 21.045339 ], [ 105.7814075, 21.0456891 ], [ 105.7844339, 21.0485474 ], [ 105.787747199999984, 21.0495955 ], [ 105.7892867, 21.0518621 ], [ 105.791311599999986, 21.0513645 ], [ 105.7942019, 21.0494025 ], [ 105.7955714, 21.048333 ], [ 105.7993495, 21.0461197 ], [ 105.7989495, 21.0428763 ], [ 105.8006251, 21.0415975 ], [ 105.8023652, 21.0395429 ], [ 105.8026409, 21.037999 ], [ 105.8047742, 21.0350973 ], [ 105.8049793, 21.034438 ], [ 105.8036961, 21.0321755 ], [ 105.8059525, 21.0288905 ], [ 105.8065329, 21.0276965 ], [ 105.8049193, 21.0278456 ], [ 105.802296, 21.0294 ], [ 105.799534799999989, 21.0277085 ], [ 105.7987959, 21.0264564 ], [ 105.7984135, 21.0257321 ], [ 105.7971266, 21.0216502 ], [ 105.7969513, 21.0189684 ], [ 105.796896599999982, 21.0177831 ], [ 105.795504199999982, 21.0165592 ], [ 105.79089639999998, 21.0164837 ], [ 105.788621399999982, 21.0165585 ], [ 105.7864023, 21.0171779 ], [ 105.782117, 21.0174621 ], [ 105.782003799999984, 21.0175995 ], [ 105.781990799999988, 21.0181978 ], [ 105.7787923, 21.0212971 ], [ 105.7785636, 21.0223194 ], [ 105.7784963, 21.0251352 ], [ 105.774982399999985, 21.026246 ], [ 105.7747937, 21.0295595 ], [ 105.772289299999983, 21.03296 ] ] ] } },
{ "type": "Feature", "properties": { "threshold_s": 900, "time_label": "15 min drive" }, "geometry": { "type": "Polygon", "coordinates": [ [ [ 105.7618848, 21.0357586 ], [ 105.7619123, 21.0416019 ], [ 105.766076199999986, 21.0434739 ], [ 105.7682347, 21.0446127 ], [ 105.7757684, 21.0471959 ], [ 105.779123199999987, 21.049464 ], [ 105.7821671, 21.0550224 ], [ 105.7825837, 21.0565908 ], [ 105.7832245, 21.0589547 ], [ 105.7832477, 21.0590333 ], [ 105.7835488, 21.0601892 ], [ 105.783853099999988, 21.061227 ], [ 105.7850316, 21.0600215 ], [ 105.793050099999988, 21.0567056 ], [ 105.794959599999984, 21.0568208 ], [ 105.7975834, 21.0570966 ], [ 105.797712299999986, 21.0570977 ], [ 105.797789, 21.0570595 ], [ 105.8019088, 21.054264 ], [ 105.8065021, 21.0486522 ], [ 105.809531199999981, 21.0412103 ], [ 105.813328, 21.0379498 ], [ 105.815964, 21.0306627 ], [ 105.8114669, 21.0247893 ], [ 105.80855889999998, 21.0196359 ], [ 105.8047308, 21.0148001 ], [ 105.8006932, 21.0114927 ], [ 105.79596890000002, 21.0073779 ], [ 105.7901466, 21.0081487 ], [ 105.784318899999988, 21.00993 ], [ 105.775757299999981, 21.0112899 ], [ 105.7729714, 21.0111441 ], [ 105.771013399999987, 21.0182867 ], [ 105.770072199999987, 21.0200665 ], [ 105.7673955, 21.025781399999989 ], [ 105.763673899999986, 21.0316556 ], [ 105.762394199999989, 21.0339362 ], [ 105.7618848, 21.0357586 ] ] ] } },
{ "type": "Feature", "properties": { "threshold_s": 300, "time_label": "5 min drive" }, "geometry": { "type": "Polygon", "coordinates": [ [ [ 105.843830299999979, 21.0403251 ], [ 105.841829, 21.0425259 ], [ 105.8445913, 21.0437602 ], [ 105.845791899999981, 21.0438666 ], [ 105.8482371, 21.042392 ], [ 105.849692, 21.0416741 ], [ 105.850356799999986, 21.0411413 ], [ 105.8512049, 21.039884 ], [ 105.852869699999985, 21.0375029 ], [ 105.85325779999998, 21.0370348 ], [ 105.8536025, 21.0366394 ], [ 105.8546701, 21.035414 ], [ 105.8547385, 21.0352913 ], [ 105.855330399999986, 21.0338854 ], [ 105.85453219999998, 21.0321868 ], [ 105.853111199999987, 21.0316465 ], [ 105.8510791, 21.0304701 ], [ 105.850585599999988, 21.0291892 ], [ 105.8495631, 21.0288558 ], [ 105.8474725, 21.0304548 ], [ 105.8464, 21.0291195 ], [ 105.845987099999988, 21.0275442 ], [ 105.845615399999986, 21.0263771 ], [ 105.84318829999998, 21.0279468 ], [ 105.8428205, 21.0303654 ], [ 105.840682299999983, 21.0328473 ], [ 105.843290199999984, 21.0323602 ], [ 105.8447768, 21.0340917 ], [ 105.8449379, 21.0348636 ], [ 105.8454918, 21.0375308 ], [ 105.8454121, 21.0400507 ], [ 105.843830299999979, 21.0403251 ] ] ] } },
{ "type": "Feature", "properties": { "threshold_s": 600, "time_label": "10 min drive" }, "geometry": { "type": "Polygon", "coordinates": [ [ [ 105.838508299999987, 21.0487951 ], [ 105.839200599999984, 21.0509968 ], [ 105.8398226, 21.05119 ], [ 105.841027, 21.0512202 ], [ 105.8418845, 21.0488831 ], [ 105.8481324, 21.0481674 ], [ 105.8492648, 21.0462351 ], [ 105.8532054, 21.0410502 ], [ 105.8559408, 21.0375631 ], [ 105.859561899999989, 21.032523 ], [ 105.861271699999989, 21.0304235 ], [ 105.8613337, 21.0288933 ], [ 105.860767399999986, 21.0242371 ], [ 105.8607254, 21.0240373 ], [ 105.8577393, 21.0220815 ], [ 105.8529487, 21.0201152 ], [ 105.8499867, 21.0186208 ], [ 105.8474562, 21.0183772 ], [ 105.8413912, 21.0188449 ], [ 105.8376116, 21.0232408 ], [ 105.833689599999985, 21.0280189 ], [ 105.8314281, 21.0326715 ], [ 105.83272119999998, 21.034424 ], [ 105.837023599999981, 21.0388764 ], [ 105.835097299999987, 21.0418506 ], [ 105.8351095, 21.0426739 ], [ 105.8363039, 21.0440074 ], [ 105.838508299999987, 21.0487951 ] ] ] } },
{ "type": "Feature", "properties": { "threshold_s": 900, "time_label": "15 min drive" }, "geometry": { "type": "Polygon", "coordinates": [ [ [ 105.834449899999981, 21.0573804 ], [ 105.8337915, 21.059953 ], [ 105.8338327, 21.0599829 ], [ 105.842760199999987, 21.0584602 ], [ 105.8434512, 21.0579885 ], [ 105.8448187, 21.0565981 ], [ 105.8481324, 21.0481674 ], [ 105.8492648, 21.0462351 ], [ 105.850106499999981, 21.0449387 ], [ 105.8532054, 21.0410502 ], [ 105.8539648, 21.0399026 ], [ 105.8552544, 21.038343 ], [ 105.8559408, 21.0375631 ], [ 105.8645302, 21.0425052 ], [ 105.8645845, 21.0429123 ], [ 105.8653748, 21.0454184 ], [ 105.8655464, 21.0455702 ], [ 105.872561799999986, 21.0439789 ], [ 105.8716481, 21.0363361 ], [ 105.8695364, 21.0331021 ], [ 105.8613337, 21.0288933 ], [ 105.861773199999988, 21.025698 ], [ 105.8620378, 21.0248247 ], [ 105.86210149999998, 21.0246067 ], [ 105.863899, 21.018973 ], [ 105.864448899999985, 21.0179396 ], [ 105.862915299999983, 21.0136368 ], [ 105.8588168, 21.0120837 ], [ 105.8514097, 21.008583 ], [ 105.8483495, 21.0083185 ], [ 105.8412842, 21.0083362 ], [ 105.8410532, 21.0107455 ], [ 105.8372522, 21.018501 ], [ 105.830088799999984, 21.0177414 ], [ 105.8294371, 21.0178042 ], [ 105.8286247, 21.0192495 ], [ 105.8269312, 21.0241688 ], [ 105.822679, 21.0300568 ], [ 105.82168369999998, 21.0311603 ], [ 105.820920199999989, 21.0323015 ], [ 105.821467899999988, 21.0351968 ], [ 105.823096299999989, 21.0430757 ], [ 105.823222, 21.0436032 ], [ 105.8251749, 21.0431721 ], [ 105.8351095, 21.0426739 ], [ 105.8363039, 21.0440074 ], [ 105.835914299999985, 21.0526278 ], [ 105.834449899999981, 21.0573804 ] ] ] } },
{ "type": "Feature", "properties": { "threshold_s": 300, "time_label": "5 min drive" }, "geometry": { "type": "Polygon", "coordinates": [ [ [ 105.8557128, 21.0140975 ], [ 105.856344399999983, 21.0159717 ], [ 105.859686499999981, 21.014865 ], [ 105.862791499999986, 21.0140733 ], [ 105.864833799999985, 21.0131123 ], [ 105.865309899999986, 21.0126093 ], [ 105.8657318, 21.0120932 ], [ 105.8680303, 21.0100022 ], [ 105.868933700000014, 21.005681 ], [ 105.869068899999988, 21.0055396 ], [ 105.8697744, 21.0049515 ], [ 105.8695525, 21.0034661 ], [ 105.8688699, 21.0056204 ], [ 105.866515899999982, 21.0078988 ], [ 105.8634401, 21.0082779 ], [ 105.8622648, 21.0030021 ], [ 105.8614664, 21.0011413 ], [ 105.859619900000013, 21.0028637 ], [ 105.860263099999983, 21.0029181 ], [ 105.8616974, 21.0032544 ], [ 105.860888599999981, 21.006907 ], [ 105.858652, 21.0085882 ], [ 105.8562533, 21.0086009 ], [ 105.8546658, 21.0067839 ], [ 105.852108199999989, 21.0087707 ], [ 105.8539294, 21.010104 ], [ 105.8559995, 21.012832 ], [ 105.8557128, 21.0140975 ] ] ] } },
{ "type": "Feature", "properties": { "threshold_s": 600, "time_label": "10 min drive" }, "geometry": { "type": "Polygon", "coordinates": [ [ [ 105.8473042, 21.019172 ], [ 105.8486244, 21.0220391 ], [ 105.850819799999982, 21.023226 ], [ 105.852939699999979, 21.0242487 ], [ 105.858025399999988, 21.0255058 ], [ 105.860767399999986, 21.0242371 ], [ 105.863899, 21.018973 ], [ 105.864448899999985, 21.0179396 ], [ 105.8680303, 21.0100022 ], [ 105.8697744, 21.0049515 ], [ 105.8750687, 21.0030983 ], [ 105.877117699999985, 21.0018883 ], [ 105.878845, 21.0009046 ], [ 105.8792541, 21.0005829 ], [ 105.8800635, 20.9997488 ], [ 105.8740291, 20.9957451 ], [ 105.8646271, 20.9951815 ], [ 105.864055799999988, 20.9943814 ], [ 105.8630818, 20.9910893 ], [ 105.862598599999984, 20.9910659 ], [ 105.8612569, 20.9927051 ], [ 105.8587604, 20.9954104 ], [ 105.8528731, 20.9978553 ], [ 105.8503963, 20.9994987 ], [ 105.84689849999998, 21.0038539 ], [ 105.841305, 21.0075582 ], [ 105.8412932, 21.0078348 ], [ 105.841418099999984, 21.0082831 ], [ 105.8463087, 21.0126788 ], [ 105.846956799999987, 21.0171098 ], [ 105.8473042, 21.019172 ] ] ] } },
{ "type": "Feature", "properties": { "threshold_s": 900, "time_label": "15 min drive" }, "geometry": { "type": "Polygon", "coordinates": [ [ [ 105.8375088, 21.0190623 ], [ 105.841517, 21.02649 ], [ 105.8434703, 21.0283452 ], [ 105.848055599999981, 21.0324216 ], [ 105.8546701, 21.035414 ], [ 105.859561899999989, 21.032523 ], [ 105.861271699999989, 21.0304235 ], [ 105.86210149999998, 21.0246067 ], [ 105.864448899999985, 21.0179396 ], [ 105.865231599999987, 21.0153725 ], [ 105.8680303, 21.0100022 ], [ 105.8750687, 21.0030983 ], [ 105.8817006, 21.0013437 ], [ 105.8827187, 21.0011365 ], [ 105.8855343, 21.000653 ], [ 105.8871947, 20.999932 ], [ 105.8879176, 20.9996089 ], [ 105.8887571, 20.9991883 ], [ 105.8904308, 20.9977159 ], [ 105.89053629999998, 20.9972954 ], [ 105.8818619, 20.9912852 ], [ 105.8701335, 20.983799 ], [ 105.8644616, 20.9806787 ], [ 105.8578974, 20.9852495 ], [ 105.8552671, 20.9886771 ], [ 105.8443036, 20.9942236 ], [ 105.84404619999998, 20.9942776 ], [ 105.8360583, 21.0015565 ], [ 105.8332186, 21.0078036 ], [ 105.833147399999987, 21.0096613 ], [ 105.833890399999987, 21.0140474 ], [ 105.8375088, 21.0190623 ] ] ] } },
{ "type": "Feature", "properties": { "threshold_s": 300, "time_label": "5 min drive" }, "geometry": { "type": "Polygon", "coordinates": [ [ [ 105.8926029, 21.0641817 ], [ 105.8917222, 21.0666672 ], [ 105.8935548, 21.0651464 ], [ 105.894739099999981, 21.0641704 ], [ 105.8967994, 21.0652914 ], [ 105.8967103, 21.0672718 ], [ 105.8972389, 21.0672474 ], [ 105.8989087, 21.0663883 ], [ 105.8999394, 21.0658866 ], [ 105.899606100000014, 21.0652927 ], [ 105.9000321, 21.0629043 ], [ 105.9005692, 21.0625349 ], [ 105.902097899999987, 21.0618691 ], [ 105.9018465, 21.0616035 ], [ 105.9020083, 21.0591139 ], [ 105.903722799999983, 21.0583543 ], [ 105.9051345, 21.0586917 ], [ 105.9040244, 21.0581403 ], [ 105.9034945, 21.0555624 ], [ 105.9037193, 21.0551699 ], [ 105.9029977, 21.0541618 ], [ 105.902112299999985, 21.0538108 ], [ 105.901747699999987, 21.0516854 ], [ 105.9013108, 21.0516888 ], [ 105.899588599999987, 21.0517678 ], [ 105.8969651, 21.051389 ], [ 105.8958701, 21.0517552 ], [ 105.895823099999987, 21.0518268 ], [ 105.895773, 21.0519032 ], [ 105.8948156, 21.0540245 ], [ 105.8931136, 21.0533712 ], [ 105.8909716, 21.0548841 ], [ 105.889982599999982, 21.0574163 ], [ 105.8895227, 21.0578283 ], [ 105.891635799999989, 21.0588735 ], [ 105.891827099999986, 21.0597029 ], [ 105.8930484, 21.0605377 ], [ 105.8932471, 21.0631636 ], [ 105.892692699999984, 21.0632802 ], [ 105.892131, 21.0637367 ], [ 105.892260099999987, 21.0638406 ], [ 105.8926029, 21.0641817 ] ] ] } },
{ "type": "Feature", "properties": { "threshold_s": 600, "time_label": "10 min drive" }, "geometry": { "type": "Polygon", "coordinates": [ [ [ 105.8829205, 21.0664349 ], [ 105.882485299999985, 21.0685187 ], [ 105.885011399999982, 21.06858 ], [ 105.8871425, 21.0725332 ], [ 105.887782, 21.0728149 ], [ 105.888778599999981, 21.0732539 ], [ 105.8931879, 21.0751734 ], [ 105.8972843, 21.0743454 ], [ 105.8992356, 21.0753241 ], [ 105.9020006, 21.0763708 ], [ 105.905062299999983, 21.0742189 ], [ 105.907091199999982, 21.0732197 ], [ 105.910461799999979, 21.0708479 ], [ 105.910779299999987, 21.0698388 ], [ 105.9113731, 21.0660121 ], [ 105.9120579, 21.063529 ], [ 105.9125468, 21.0617566 ], [ 105.914251899999982, 21.0587075 ], [ 105.912758199999985, 21.0559101 ], [ 105.9109733, 21.0530211 ], [ 105.9102797, 21.0526809 ], [ 105.9079236, 21.0510468 ], [ 105.909761299999985, 21.0473376 ], [ 105.906457300000014, 21.0437279 ], [ 105.9052642, 21.0431839 ], [ 105.90441629999998, 21.043057 ], [ 105.901894699999986, 21.0428833 ], [ 105.900697699999981, 21.0428359 ], [ 105.8998868, 21.0429718 ], [ 105.8989225, 21.0434329 ], [ 105.8951291, 21.0452643 ], [ 105.895041, 21.0454002 ], [ 105.8944583, 21.0462985 ], [ 105.8933262, 21.0475664 ], [ 105.8926532, 21.0488259 ], [ 105.8925687, 21.048952 ], [ 105.8918177, 21.0498801 ], [ 105.886753299999981, 21.0512434 ], [ 105.886020699999989, 21.0499734 ], [ 105.885618, 21.0495744 ], [ 105.8828058, 21.0491383 ], [ 105.8842, 21.0507515 ], [ 105.882643799999983, 21.0552741 ], [ 105.88190729999998, 21.0561957 ], [ 105.883233599999983, 21.0600576 ], [ 105.882611299999979, 21.0615392 ], [ 105.8824996, 21.0618914 ], [ 105.8829205, 21.0664349 ] ] ] } },
{ "type": "Feature", "properties": { "threshold_s": 900, "time_label": "15 min drive" }, "geometry": { "type": "Polygon", "coordinates": [ [ [ 105.8748562, 21.0674968 ], [ 105.8739598, 21.067521 ], [ 105.8797958, 21.0707875 ], [ 105.8839025, 21.0731669 ], [ 105.888289599999979, 21.0752651 ], [ 105.8911496, 21.0757106 ], [ 105.8950308, 21.0763228 ], [ 105.898644499999989, 21.0769878 ], [ 105.9035199, 21.0769481 ], [ 105.907986899999983, 21.0807939 ], [ 105.912918, 21.082343 ], [ 105.9130786, 21.0822289 ], [ 105.913614199999984, 21.0816885 ], [ 105.914551900000021, 21.0792094 ], [ 105.9159654, 21.0736583 ], [ 105.917778, 21.0702368 ], [ 105.9182103, 21.0680398 ], [ 105.92257309999998, 21.0614033 ], [ 105.9223383, 21.0581199 ], [ 105.9225509, 21.0533322 ], [ 105.9214383, 21.0509088 ], [ 105.9169027, 21.0468661 ], [ 105.915599, 21.0431026 ], [ 105.9127723, 21.0392299 ], [ 105.909832, 21.0368532 ], [ 105.907174399999988, 21.0352703 ], [ 105.9057302, 21.0350834 ], [ 105.901773300000016, 21.0348825 ], [ 105.8989156, 21.0352927 ], [ 105.8983323, 21.0361526 ], [ 105.8980757, 21.037376 ], [ 105.8978931, 21.0393738 ], [ 105.897706199999988, 21.0406753 ], [ 105.8969203, 21.0424472 ], [ 105.8951291, 21.0452643 ], [ 105.895041, 21.0454002 ], [ 105.8944583, 21.0462985 ], [ 105.8883377, 21.0479859 ], [ 105.886104299999985, 21.0430979 ], [ 105.8808908, 21.0419487 ], [ 105.878571199999982, 21.043526 ], [ 105.872561799999986, 21.0439789 ], [ 105.872269799999984, 21.0439202 ], [ 105.8713705, 21.0466144 ], [ 105.871485199999981, 21.0466784 ], [ 105.874004, 21.0487043 ], [ 105.8731076, 21.0560165 ], [ 105.87225309999998, 21.0569832 ], [ 105.8717868, 21.0574817 ], [ 105.872277399999987, 21.0574603 ], [ 105.873587, 21.0574031 ], [ 105.875602900000018, 21.0573151 ], [ 105.8774143, 21.057236 ], [ 105.8815232, 21.0634002 ], [ 105.8813205, 21.0640366 ], [ 105.8748562, 21.0674968 ] ] ] } },
{ "type": "Feature", "properties": { "threshold_s": 300, "time_label": "5 min drive" }, "geometry": { "type": "Polygon", "coordinates": [ [ [ 105.793219599999986, 21.0181568 ], [ 105.7927045, 21.018752 ], [ 105.793645799999979, 21.0184009 ], [ 105.7951517, 21.0183885 ], [ 105.796058099999982, 21.0180446 ], [ 105.797644, 21.0175455 ], [ 105.798380599999987, 21.0173283 ], [ 105.79925369999998, 21.0162251 ], [ 105.7997954, 21.0148365 ], [ 105.800847099999984, 21.0133141 ], [ 105.799657499999981, 21.0135718 ], [ 105.798323399999987, 21.0137879 ], [ 105.797718799999984, 21.0138745 ], [ 105.7963756, 21.0136039 ], [ 105.7953154, 21.0140106 ], [ 105.7951466, 21.0118049 ], [ 105.7943365, 21.0102796 ], [ 105.79295, 21.0112094 ], [ 105.7912707, 21.0111346 ], [ 105.791419599999983, 21.0130853 ], [ 105.792380499999979, 21.0119247 ], [ 105.7935115, 21.0121705 ], [ 105.7939871, 21.0130562 ], [ 105.7942709, 21.0132583 ], [ 105.7950004, 21.0152157 ], [ 105.794852299999988, 21.0154523 ], [ 105.794687899999985, 21.0157342 ], [ 105.7945085, 21.0160419 ], [ 105.794135299999979, 21.0166725 ], [ 105.7937509, 21.017287 ], [ 105.793219599999986, 21.0181568 ] ] ] } },
{ "type": "Feature", "properties": { "threshold_s": 600, "time_label": "10 min drive" }, "geometry": { "type": "Polygon", "coordinates": [ [ [ 105.787690899999987, 21.0270002 ], [ 105.787720199999981, 21.0277769 ], [ 105.7899469, 21.0271159 ], [ 105.792260399999989, 21.0275136 ], [ 105.792539299999987, 21.0249285 ], [ 105.792066599999984, 21.0223365 ], [ 105.795708099999985, 21.0208178 ], [ 105.7975731, 21.0237727 ], [ 105.7982647, 21.0257885 ], [ 105.7984135, 21.0257321 ], [ 105.7990048, 21.0236119 ], [ 105.8027521, 21.023295 ], [ 105.8036281, 21.0234259 ], [ 105.8031656, 21.0217184 ], [ 105.8023428, 21.0193091 ], [ 105.803197199999985, 21.0177194 ], [ 105.806779, 21.0172304 ], [ 105.806664799999979, 21.0169709 ], [ 105.8061252, 21.0161234 ], [ 105.80812659999998, 21.0127721 ], [ 105.8048908, 21.0114872 ], [ 105.8046427, 21.0104259 ], [ 105.8046479, 21.0099789 ], [ 105.8046726, 21.0096398 ], [ 105.8046815, 21.008545 ], [ 105.803881299999986, 21.0078692 ], [ 105.8029898, 21.0070828 ], [ 105.802872099999988, 21.0069953 ], [ 105.800511, 21.004467 ], [ 105.8004016, 21.0021816 ], [ 105.8004137, 21.0020148 ], [ 105.8001273, 21.0022571 ], [ 105.7999173, 21.0026244 ], [ 105.7997997, 21.0028296 ], [ 105.799217, 21.0035337 ], [ 105.7952323, 21.0037605 ], [ 105.7942658, 21.0030488 ], [ 105.793236899999982, 21.0038012 ], [ 105.78948339999998, 21.0037129 ], [ 105.789256599999987, 21.003581 ], [ 105.790268399999988, 21.0074236 ], [ 105.788717299999988, 21.0093097 ], [ 105.7868004, 21.0117028 ], [ 105.784318899999988, 21.00993 ], [ 105.783039299999984, 21.0089995 ], [ 105.7829245, 21.0111937 ], [ 105.7851037, 21.014335 ], [ 105.7850638, 21.0175458 ], [ 105.784279899999987, 21.0190065 ], [ 105.7842384, 21.0191801 ], [ 105.786251799999988, 21.0225455 ], [ 105.787397899999988, 21.0233746 ], [ 105.787690899999987, 21.0270002 ] ] ] } },
{ "type": "Feature", "properties": { "threshold_s": 900, "time_label": "15 min drive" }, "geometry": { "type": "Polygon", "coordinates": [ [ [ 105.778789799999984, 21.0289411 ], [ 105.779919099999987, 21.031536 ], [ 105.7822279, 21.0335996 ], [ 105.7832313, 21.0342973 ], [ 105.7835275, 21.0342872 ], [ 105.788183099999983, 21.0333888 ], [ 105.789001900000017, 21.0344375 ], [ 105.7893957, 21.0360937 ], [ 105.789489399999979, 21.0363242 ], [ 105.790326899999982, 21.0377714 ], [ 105.7919306, 21.0371714 ], [ 105.79379179999998, 21.0359227 ], [ 105.7962622, 21.0343942 ], [ 105.7982389, 21.0331615 ], [ 105.8028804, 21.0323948 ], [ 105.8050388, 21.0340173 ], [ 105.8052145, 21.0342407 ], [ 105.8081098, 21.0294211 ], [ 105.810911599999983, 21.0298517 ], [ 105.812526, 21.027473 ], [ 105.8120092, 21.026615 ], [ 105.8116463, 21.0240932 ], [ 105.813021600000013, 21.0216415 ], [ 105.815283099999988, 21.0205997 ], [ 105.8161805, 21.0182819 ], [ 105.816606599999986, 21.0157019 ], [ 105.816463900000016, 21.0155276 ], [ 105.814929899999981, 21.0139064 ], [ 105.8159375, 21.0105436 ], [ 105.8160708, 21.0104471 ], [ 105.816423700000016, 21.0062468 ], [ 105.816321, 21.0061894 ], [ 105.814768299999983, 21.0063694 ], [ 105.812051, 21.0071526 ], [ 105.808682399999981, 21.0080303 ], [ 105.8070191, 21.0062683 ], [ 105.806894799999981, 21.0052618 ], [ 105.806962199999987, 21.0039196 ], [ 105.8106239, 21.0023098 ], [ 105.8078813, 20.9999022 ], [ 105.805649699999989, 20.9984274 ], [ 105.806733599999987, 20.9941675 ], [ 105.8040869, 20.9973946 ], [ 105.8006622, 20.9951087 ], [ 105.799583, 20.9958415 ], [ 105.79920509999998, 20.9963297 ], [ 105.797835, 20.9980607 ], [ 105.793669899999983, 20.9965 ], [ 105.793465, 20.9954524 ], [ 105.7934023, 20.9954081 ], [ 105.793215, 20.9956305 ], [ 105.7926218, 20.9963759 ], [ 105.7925484, 20.9964709 ], [ 105.7904884, 20.9991324 ], [ 105.7875051, 20.9973598 ], [ 105.7872112, 20.9976783 ], [ 105.786944099999985, 20.9980744 ], [ 105.7850597, 21.0021777 ], [ 105.782811700000011, 21.0026587 ], [ 105.782586699999982, 21.0027176 ], [ 105.781925299999983, 21.002862 ], [ 105.781528899999984, 21.0029385 ], [ 105.7794161, 21.0030366 ], [ 105.7784536, 21.0038071 ], [ 105.778905, 21.0044907 ], [ 105.7827904, 21.0053748 ], [ 105.783039299999984, 21.0089995 ], [ 105.7826429, 21.0103564 ], [ 105.782111599999979, 21.0132381 ], [ 105.7793593, 21.0155211 ], [ 105.7773068, 21.0142567 ], [ 105.7756495, 21.0130626 ], [ 105.775386899999987, 21.0128773 ], [ 105.7760008, 21.0158586 ], [ 105.775900399999983, 21.0178109 ], [ 105.778520499999985, 21.0183861 ], [ 105.7804951, 21.0190562 ], [ 105.7807247, 21.0192201 ], [ 105.7812926, 21.0190509 ], [ 105.78416, 21.0191663 ], [ 105.7856934, 21.0202049 ], [ 105.7849225, 21.0242181 ], [ 105.7843605, 21.0258818 ], [ 105.7809856, 21.028491 ], [ 105.7788409, 21.0251049 ], [ 105.7788552, 21.0274225 ], [ 105.778789799999984, 21.0289411 ] ] ] } }
]
}
