{
"type": "FeatureCollection",
"name": "isochrone_shop_butcher_drive",
"crs": { "type": "name", "properties": { "name": "urn:ogc:def:crs:OGC:1.3:CRS84" } },
"features": [
{ "type": "Feature", "properties": { "threshold_s": "300", "time_label": "5 min drive" }, "geometry": { "type": "Polygon", "coordinates": [ [ [ 105.827027, 21.0199082 ], [ 105.8271174, 21.0200666 ], [ 105.8286247, 21.0192495 ], [ 105.8306589, 21.0202038 ], [ 105.830986, 21.0208954 ], [ 105.83131659999998, 21.0214207 ], [ 105.8310544, 21.0208665 ], [ 105.8307261, 21.0201732 ], [ 105.8307709, 21.0191322 ], [ 105.8338068, 21.0193064 ], [ 105.833795699999982, 21.0192431 ], [ 105.8369341, 21.0184299 ], [ 105.837206899999984, 21.0184229 ], [ 105.8368257, 21.0180745 ], [ 105.833224499999986, 21.0176717 ], [ 105.8351638, 21.0156491 ], [ 105.8358302, 21.0130518 ], [ 105.836983800000013, 21.0118796 ], [ 105.8391601, 21.0123792 ], [ 105.841156, 21.0107456 ], [ 105.8415593, 21.0075309 ], [ 105.841482299999981, 21.0075347 ], [ 105.841305, 21.0075582 ], [ 105.840705199999988, 21.0076693 ], [ 105.840226699999988, 21.0078235 ], [ 105.8376484, 21.0080979 ], [ 105.836326799999981, 21.0070954 ], [ 105.8348649, 21.0072345 ], [ 105.8320781, 21.0070219 ], [ 105.8315376, 21.0065963 ], [ 105.8316582, 21.008788 ], [ 105.8303068, 21.0098276 ], [ 105.828031, 21.0100041 ], [ 105.8278901, 21.0101485 ], [ 105.8277159, 21.0104577 ], [ 105.8279393, 21.0108629 ], [ 105.826930600000011, 21.0134586 ], [ 105.8268687, 21.0134918 ], [ 105.827412899999985, 21.0152724 ], [ 105.8289753, 21.016992 ], [ 105.828375799999989, 21.018124 ], [ 105.8267419, 21.0189434 ], [ 105.827027, 21.0199082 ] ] ] } },
{ "type": "Feature", "properties": { "threshold_s": "600", "time_label": "10 min drive" }, "geometry": { "type": "Polygon", "coordinates": [ [ [ 105.820237399999982, 21.023779 ], [ 105.8217474, 21.0253173 ], [ 105.8230594, 21.0263943 ], [ 105.824814299999986, 21.0276475 ], [ 105.8270011, 21.0301355 ], [ 105.829957599999986, 21.0291222 ], [ 105.8340213, 21.0310333 ], [ 105.836268899999979, 21.0316267 ], [ 105.8369887, 21.0301796 ], [ 105.835208699999981, 21.0291554 ], [ 105.8358943, 21.02522 ], [ 105.839705899999984, 21.0250751 ], [ 105.83985269999998, 21.0250743 ], [ 105.8395402, 21.0242642 ], [ 105.84309709999998, 21.021558 ], [ 105.8447516, 21.0210682 ], [ 105.845692299999982, 21.0195002 ], [ 105.844269199999985, 21.017305 ], [ 105.8435857, 21.0172651 ], [ 105.8424924, 21.0173642 ], [ 105.8414099, 21.0174645 ], [ 105.8368257, 21.0180745 ], [ 105.8351638, 21.0156491 ], [ 105.8358302, 21.0130518 ], [ 105.8391601, 21.0123792 ], [ 105.8413476, 21.010746 ], [ 105.8449471, 21.0079814 ], [ 105.8460661, 21.0081019 ], [ 105.8479992, 21.0117844 ], [ 105.851444699999988, 21.0091337 ], [ 105.852593699999986, 21.0086718 ], [ 105.8521725, 21.0084416 ], [ 105.8506448, 21.0078411 ], [ 105.848652699999988, 21.0076418 ], [ 105.8477737, 21.0034643 ], [ 105.8462568, 21.0018287 ], [ 105.8458159, 21.0018159 ], [ 105.8449863, 21.0018106 ], [ 105.8411762, 20.9991422 ], [ 105.8414363, 20.9983731 ], [ 105.842211399999982, 20.997404 ], [ 105.8411155, 20.9969216 ], [ 105.8377772, 20.9988484 ], [ 105.836008599999985, 20.999195 ], [ 105.835499199999987, 20.9992445 ], [ 105.8318828, 20.9997185 ], [ 105.8294973, 20.9970617 ], [ 105.828537399999988, 20.9971457 ], [ 105.8284076, 20.9977521 ], [ 105.8278881, 20.9994964 ], [ 105.826278499999987, 21.0016881 ], [ 105.8253808, 21.0039239 ], [ 105.8221002, 21.0048876 ], [ 105.8205414, 21.0034963 ], [ 105.820555899999988, 21.0067454 ], [ 105.820315399999984, 21.008217 ], [ 105.820670399999983, 21.0124282 ], [ 105.8197568, 21.0131287 ], [ 105.8188893, 21.0137777 ], [ 105.8187277, 21.0139023 ], [ 105.81886919999998, 21.0140586 ], [ 105.8200999, 21.015375 ], [ 105.821050299999982, 21.0190995 ], [ 105.820567399999987, 21.0232275 ], [ 105.820237399999982, 21.023779 ] ] ] } },
{ "type": "Feature", "properties": { "threshold_s": "900", "time_label": "15 min drive" }, "geometry": { "type": "Polygon", "coordinates": [ [ [ 105.8114669, 21.0247893 ], [ 105.8124382, 21.0282113 ], [ 105.813942, 21.0293508 ], [ 105.817228499999985, 21.0308395 ], [ 105.818209, 21.0308137 ], [ 105.821467899999988, 21.0351968 ], [ 105.8273127, 21.0355162 ], [ 105.8282168, 21.0361744 ], [ 105.8317055, 21.0344357 ], [ 105.83272119999998, 21.034424 ], [ 105.8363518, 21.0356501 ], [ 105.837023599999981, 21.0388764 ], [ 105.8396991, 21.038879 ], [ 105.8397836, 21.0388744 ], [ 105.8397245, 21.0384477 ], [ 105.840904899999984, 21.0341906 ], [ 105.843290199999984, 21.0323602 ], [ 105.8442948, 21.0318292 ], [ 105.846286, 21.0310279 ], [ 105.8502936, 21.0269683 ], [ 105.851322199999984, 21.0247186 ], [ 105.852593, 21.0227149 ], [ 105.856659099999987, 21.0186561 ], [ 105.85839679999998, 21.0145685 ], [ 105.8605956, 21.0110331 ], [ 105.8628271, 21.0086717 ], [ 105.860888599999981, 21.006907 ], [ 105.85866679999998, 21.0027918 ], [ 105.857958899999986, 21.0027343 ], [ 105.853301299999984, 20.9989462 ], [ 105.852836, 20.9955208 ], [ 105.8495471, 20.9930515 ], [ 105.845988399999982, 20.9889312 ], [ 105.8427115, 20.9873925 ], [ 105.840966499999979, 20.9869198 ], [ 105.838478399999985, 20.9886201 ], [ 105.8349135, 20.9884591 ], [ 105.8336797, 20.9885797 ], [ 105.830522799999983, 20.9889176 ], [ 105.827045, 20.9918182 ], [ 105.824332399999989, 20.9938038 ], [ 105.8219954, 20.995766 ], [ 105.819956099999985, 20.9983138 ], [ 105.814307500000012, 20.9987879 ], [ 105.811802599999979, 20.9975768 ], [ 105.814378, 21.0017673 ], [ 105.814768299999983, 21.0063694 ], [ 105.8131836, 21.0084469 ], [ 105.810904899999983, 21.0108542 ], [ 105.8108098, 21.0165211 ], [ 105.810568799999984, 21.0187066 ], [ 105.8110606, 21.0196066 ], [ 105.8114669, 21.0247893 ] ] ] } },
{ "type": "Feature", "properties": { "threshold_s": "300", "time_label": "5 min drive" }, "geometry": { "type": "Polygon", "coordinates": [ [ [ 105.8542342, 20.9953722 ], [ 105.8537727, 20.9956938 ], [ 105.8548446, 20.9965597 ], [ 105.855032, 20.9965559 ], [ 105.8572125, 20.9950589 ], [ 105.859281, 20.9962941 ], [ 105.8597622, 20.9983393 ], [ 105.8617132, 20.9990108 ], [ 105.8614664, 21.0011413 ], [ 105.862124, 20.9992158 ], [ 105.8649244, 20.9990268 ], [ 105.8677849, 20.9981179 ], [ 105.8673396, 20.9979644 ], [ 105.8658923, 20.9974668 ], [ 105.8646271, 20.9951815 ], [ 105.864055799999988, 20.9943814 ], [ 105.8636781, 20.9939325 ], [ 105.862990399999987, 20.9919443 ], [ 105.8630818, 20.9910893 ], [ 105.862598599999984, 20.9910659 ], [ 105.8612569, 20.9927051 ], [ 105.8613832, 20.9935021 ], [ 105.8613057, 20.9941357 ], [ 105.8587604, 20.9954104 ], [ 105.8572204, 20.9941686 ], [ 105.8556667, 20.995477 ], [ 105.8542342, 20.9953722 ] ] ] } },
{ "type": "Feature", "properties": { "threshold_s": "600", "time_label": "10 min drive" }, "geometry": { "type": "Polygon", "coordinates": [ [ [ 105.843394, 20.9943756 ], [ 105.8418739, 20.9977746 ], [ 105.845359299999984, 21.0001914 ], [ 105.8489236, 21.002297 ], [ 105.850956, 21.0034801 ], [ 105.8549535, 21.005497 ], [ 105.858537899999988, 21.0092217 ], [ 105.8599639, 21.0106306 ], [ 105.8605956, 21.0110331 ], [ 105.8628271, 21.0086717 ], [ 105.865614599999986, 21.0050545 ], [ 105.868933700000014, 21.005681 ], [ 105.8750687, 21.0030983 ], [ 105.877117699999985, 21.0018883 ], [ 105.8775448, 21.0016264 ], [ 105.8770017, 21.0007005 ], [ 105.8744807, 20.9957706 ], [ 105.8740291, 20.9957451 ], [ 105.869726699999987, 20.9911148 ], [ 105.8712766, 20.9852175 ], [ 105.8702748, 20.9836223 ], [ 105.8644616, 20.9806787 ], [ 105.859499899999989, 20.9841584 ], [ 105.857909600000013, 20.9845769 ], [ 105.8552671, 20.9886771 ], [ 105.852709600000011, 20.9941669 ], [ 105.850962, 20.9937682 ], [ 105.8495471, 20.9930515 ], [ 105.8443036, 20.9942236 ], [ 105.843394, 20.9943756 ] ] ] } },
{ "type": "Feature", "properties": { "threshold_s": "900", "time_label": "15 min drive" }, "geometry": { "type": "Polygon", "coordinates": [ [ [ 105.831956399999981, 20.999988 ], [ 105.832980599999985, 21.0026681 ], [ 105.8360473, 21.0034138 ], [ 105.8407724, 21.0079662 ], [ 105.847140399999986, 21.0124731 ], [ 105.852265299999985, 21.0168092 ], [ 105.8529539, 21.0192862 ], [ 105.8555751, 21.0199953 ], [ 105.8597317, 21.0187694 ], [ 105.863002499999979, 21.0175695 ], [ 105.865231599999987, 21.0153725 ], [ 105.8680303, 21.0100022 ], [ 105.8697744, 21.0049515 ], [ 105.8750687, 21.0030983 ], [ 105.8817006, 21.0013437 ], [ 105.8827187, 21.0011365 ], [ 105.8855343, 21.000653 ], [ 105.8871947, 20.999932 ], [ 105.887558399999989, 20.9986255 ], [ 105.8875892, 20.9984082 ], [ 105.8831153, 20.9950745 ], [ 105.879117699999981, 20.988574 ], [ 105.8804141, 20.9859411 ], [ 105.882487399999988, 20.9808203 ], [ 105.878999899999982, 20.9794917 ], [ 105.878836299999989, 20.9795428 ], [ 105.8760449, 20.9806161 ], [ 105.8709517, 20.9742924 ], [ 105.8687493, 20.9719079 ], [ 105.866878899999989, 20.9708421 ], [ 105.8658974, 20.9732574 ], [ 105.858458399999989, 20.9761817 ], [ 105.853314800000021, 20.9812059 ], [ 105.845769599999983, 20.9792458 ], [ 105.845441099999988, 20.9789368 ], [ 105.844107799999989, 20.9793199 ], [ 105.843736, 20.9794529 ], [ 105.840920199999985, 20.9835393 ], [ 105.838478399999985, 20.9886201 ], [ 105.8377968, 20.9908975 ], [ 105.836739699999981, 20.9941109 ], [ 105.8318828, 20.9997185 ], [ 105.831956399999981, 20.999988 ] ] ] } },
{ "type": "Feature", "properties": { "threshold_s": "300", "time_label": "5 min drive" }, "geometry": { "type": "Polygon", "coordinates": [ [ [ 105.7989074, 21.0235191 ], [ 105.7982647, 21.0257885 ], [ 105.7984135, 21.0257321 ], [ 105.7990048, 21.0236119 ], [ 105.8027521, 21.023295 ], [ 105.8036281, 21.0234259 ], [ 105.803818, 21.026045 ], [ 105.8049193, 21.0278456 ], [ 105.8046822, 21.0287825 ], [ 105.8061133, 21.0290877 ], [ 105.808141, 21.0279055 ], [ 105.8073506, 21.0274834 ], [ 105.81083150000002, 21.0251376 ], [ 105.8106065, 21.0265398 ], [ 105.8122828, 21.0282354 ], [ 105.8124555, 21.0287119 ], [ 105.81385109999998, 21.0272941 ], [ 105.8132557, 21.0270837 ], [ 105.8117869, 21.0263446 ], [ 105.8114669, 21.0247893 ], [ 105.810747899999981, 21.0240695 ], [ 105.80992089999998, 21.0226339 ], [ 105.8088205, 21.0207171 ], [ 105.8111067, 21.0196874 ], [ 105.8120887, 21.0201499 ], [ 105.8122765, 21.0190151 ], [ 105.8119038, 21.018017 ], [ 105.811559099999982, 21.0177554 ], [ 105.810568799999984, 21.0187066 ], [ 105.8079972, 21.0192799 ], [ 105.806779, 21.0172304 ], [ 105.8065127, 21.0169883 ], [ 105.8038896, 21.0185426 ], [ 105.806616299999988, 21.0172689 ], [ 105.8078179, 21.0193691 ], [ 105.8072926, 21.0203603 ], [ 105.80679619999998, 21.0233154 ], [ 105.806216599999985, 21.0234112 ], [ 105.8054028, 21.0235924 ], [ 105.8031656, 21.0217184 ], [ 105.8001907, 21.0225723 ], [ 105.7989074, 21.0235191 ] ] ] } },
{ "type": "Feature", "properties": { "threshold_s": "600", "time_label": "10 min drive" }, "geometry": { "type": "Polygon", "coordinates": [ [ [ 105.7962208, 21.034265 ], [ 105.7951802, 21.0347263 ], [ 105.7959785, 21.0344811 ], [ 105.801661, 21.0366779 ], [ 105.8019457, 21.0369881 ], [ 105.8066578, 21.0377734 ], [ 105.807138199999983, 21.0377298 ], [ 105.807279699999981, 21.0376693 ], [ 105.813328, 21.0379498 ], [ 105.8152145, 21.0374458 ], [ 105.8178814, 21.0355613 ], [ 105.8202052, 21.0333502 ], [ 105.8215891, 21.0314693 ], [ 105.82168369999998, 21.0311603 ], [ 105.81986689999998, 21.029601 ], [ 105.8200922, 21.023869 ], [ 105.820237399999982, 21.023779 ], [ 105.820607599999988, 21.0227058 ], [ 105.8184616, 21.0191027 ], [ 105.8200999, 21.015375 ], [ 105.8202578, 21.0152392 ], [ 105.8210635, 21.0145944 ], [ 105.82105, 21.0119663 ], [ 105.81725059999998, 21.0119342 ], [ 105.8116969, 21.0096309 ], [ 105.810426099999987, 21.0098763 ], [ 105.810258099999984, 21.0099816 ], [ 105.80812659999998, 21.0127721 ], [ 105.8037649, 21.0113675 ], [ 105.8031344, 21.0099913 ], [ 105.801478399999979, 21.0097239 ], [ 105.8002332, 21.0096 ], [ 105.799460899999985, 21.0103487 ], [ 105.795618299999987, 21.0142297 ], [ 105.7954625, 21.0144734 ], [ 105.7927621, 21.0191284 ], [ 105.7910061, 21.0215478 ], [ 105.7919776, 21.0223654 ], [ 105.7933249, 21.0235746 ], [ 105.7980311, 21.0268446 ], [ 105.7987529, 21.0324956 ], [ 105.7962208, 21.034265 ] ] ] } },
{ "type": "Feature", "properties": { "threshold_s": "900", "time_label": "15 min drive" }, "geometry": { "type": "Polygon", "coordinates": [ [ [ 105.7841586, 21.0366755 ], [ 105.787763199999986, 21.0416469 ], [ 105.7888515, 21.0426176 ], [ 105.7900675, 21.0434697 ], [ 105.7902967, 21.0435905 ], [ 105.796633199999988, 21.0461046 ], [ 105.797779399999982, 21.046791 ], [ 105.8054116, 21.0477331 ], [ 105.8064247, 21.0486989 ], [ 105.8118943, 21.0466978 ], [ 105.815235299999983, 21.0455385 ], [ 105.817391, 21.0446957 ], [ 105.823222, 21.0436032 ], [ 105.8235539, 21.0417525 ], [ 105.8233287, 21.0412791 ], [ 105.8226508, 21.039099 ], [ 105.8271558, 21.0347458 ], [ 105.82998929999998, 21.0333873 ], [ 105.8311704, 21.0325889 ], [ 105.8327536, 21.0313977 ], [ 105.829699199999979, 21.0261137 ], [ 105.8307709, 21.0191322 ], [ 105.8309465, 21.0170993 ], [ 105.827148, 21.0133393 ], [ 105.8284444, 21.0085161 ], [ 105.8296844, 21.0069173 ], [ 105.8221002, 21.0048876 ], [ 105.8208163, 21.0028548 ], [ 105.817849399999986, 21.0015574 ], [ 105.8103037, 21.0011768 ], [ 105.806439399999988, 21.0018856 ], [ 105.8006883, 21.001738 ], [ 105.794335, 21.0023333 ], [ 105.789722699999984, 21.002891 ], [ 105.789256599999987, 21.003581 ], [ 105.788717299999988, 21.0093097 ], [ 105.7870771, 21.0118958 ], [ 105.7851037, 21.014335 ], [ 105.781480099999982, 21.0172233 ], [ 105.781990799999988, 21.0181978 ], [ 105.7849225, 21.0242181 ], [ 105.7843605, 21.0258818 ], [ 105.783715299999983, 21.0280866 ], [ 105.783705899999987, 21.0282181 ], [ 105.785696799999982, 21.0306378 ], [ 105.784155399999989, 21.036558 ], [ 105.7841586, 21.0366755 ] ] ] } },
{ "type": "Feature", "properties": { "threshold_s": "300", "time_label": "5 min drive" }, "geometry": { "type": "Polygon", "coordinates": [ [ [ 105.7718437, 21.0771504 ], [ 105.7729984, 21.0796637 ], [ 105.7737252, 21.0802768 ], [ 105.774535199999988, 21.0806209 ], [ 105.778017899999981, 21.081092 ], [ 105.778286499999979, 21.0830262 ], [ 105.778030199999989, 21.083733 ], [ 105.7785799, 21.0837875 ], [ 105.778867199999979, 21.0810627 ], [ 105.7776627, 21.077793 ], [ 105.777415099999985, 21.0761416 ], [ 105.7790688, 21.073907 ], [ 105.784178699999984, 21.0727744 ], [ 105.784051, 21.0715906 ], [ 105.780854300000016, 21.0715323 ], [ 105.7779345, 21.0698037 ], [ 105.7766418, 21.0675819 ], [ 105.7757945, 21.0667366 ], [ 105.774959, 21.0662146 ], [ 105.772551599999986, 21.0691135 ], [ 105.7698172, 21.0699916 ], [ 105.7714031, 21.0715253 ], [ 105.7725014, 21.0744243 ], [ 105.772121199999987, 21.0761333 ], [ 105.7718437, 21.0771504 ] ] ] } },
{ "type": "Feature", "properties": { "threshold_s": "600", "time_label": "10 min drive" }, "geometry": { "type": "Polygon", "coordinates": [ [ [ 105.769958099999982, 21.088158 ], [ 105.7710395, 21.0894599 ], [ 105.7728562, 21.0880585 ], [ 105.776490599999988, 21.0880638 ], [ 105.7775671, 21.0900048 ], [ 105.77762389999998, 21.090351 ], [ 105.7775972, 21.0913813 ], [ 105.781193, 21.0903318 ], [ 105.782989799999982, 21.0883053 ], [ 105.7811693, 21.0861932 ], [ 105.781692199999981, 21.0830028 ], [ 105.78442320000002, 21.0824404 ], [ 105.7851183, 21.0824037 ], [ 105.785350699999981, 21.082382 ], [ 105.788656399999979, 21.0812323 ], [ 105.7892519, 21.0811417 ], [ 105.790213599999987, 21.0776303 ], [ 105.7895824, 21.0750623 ], [ 105.7891306, 21.0733456 ], [ 105.785307099999983, 21.0711377 ], [ 105.785252200000016, 21.0705572 ], [ 105.783786399999983, 21.0672642 ], [ 105.7840136, 21.0635912 ], [ 105.783525699999984, 21.0614066 ], [ 105.7831894, 21.0603298 ], [ 105.7810871, 21.0615189 ], [ 105.777259, 21.0594841 ], [ 105.773319, 21.0584563 ], [ 105.772979, 21.0584829 ], [ 105.771548399999986, 21.061554 ], [ 105.7686719, 21.062429 ], [ 105.771414, 21.0642173 ], [ 105.770685, 21.0662565 ], [ 105.7698172, 21.0699916 ], [ 105.7658288, 21.0702156 ], [ 105.7620191, 21.0691397 ], [ 105.761534, 21.0695959 ], [ 105.7620942, 21.0728699 ], [ 105.763151899999983, 21.0757881 ], [ 105.763889, 21.0762088 ], [ 105.765732299999982, 21.076758 ], [ 105.7666166, 21.0800172 ], [ 105.7668909, 21.0811941 ], [ 105.766964, 21.0820587 ], [ 105.7673174, 21.0827057 ], [ 105.769821, 21.0848875 ], [ 105.769541, 21.0865497 ], [ 105.769958099999982, 21.088158 ] ] ] } },
{ "type": "Feature", "properties": { "threshold_s": "900", "time_label": "15 min drive" }, "geometry": { "type": "Polygon", "coordinates": [ [ [ 105.7608718, 21.0892137 ], [ 105.7623768, 21.0913747 ], [ 105.762763, 21.0916199 ], [ 105.7671833, 21.0916249 ], [ 105.773665900000012, 21.0936495 ], [ 105.7754959, 21.094425 ], [ 105.7834107, 21.0939139 ], [ 105.7900366, 21.0903393 ], [ 105.7946125, 21.0863216 ], [ 105.7972182, 21.0842785 ], [ 105.7972048, 21.0841595 ], [ 105.7992544, 21.0765419 ], [ 105.8002614, 21.0757062 ], [ 105.801085299999983, 21.0736206 ], [ 105.8010124, 21.0734495 ], [ 105.7992522, 21.0712801 ], [ 105.7987053, 21.0714302 ], [ 105.795374699999982, 21.0713879 ], [ 105.7922805, 21.065871 ], [ 105.789869900000014, 21.0624971 ], [ 105.7850316, 21.0600215 ], [ 105.7825837, 21.0565908 ], [ 105.7817224, 21.0531725 ], [ 105.7817062, 21.0505083 ], [ 105.7813452, 21.0503686 ], [ 105.7732853, 21.0497619 ], [ 105.7698313, 21.0488705 ], [ 105.769493299999979, 21.0488897 ], [ 105.7714174, 21.0517516 ], [ 105.7732819, 21.0554077 ], [ 105.772979, 21.0584829 ], [ 105.7686719, 21.062429 ], [ 105.7683775, 21.0625252 ], [ 105.7637426, 21.0640006 ], [ 105.7623518, 21.0644106 ], [ 105.7596272, 21.0654404 ], [ 105.758651, 21.0659367 ], [ 105.7620942, 21.0728699 ], [ 105.7626659, 21.0741508 ], [ 105.763151899999983, 21.0757881 ], [ 105.761567, 21.0824538 ], [ 105.7608718, 21.0892137 ] ] ] } },
{ "type": "Feature", "properties": { "threshold_s": "300", "time_label": "5 min drive" }, "geometry": { "type": "Polygon", "coordinates": [ [ [ 105.7815381, 21.0474529 ], [ 105.7816808, 21.0493213 ], [ 105.7834723, 21.0488545 ], [ 105.7833901, 21.0506888 ], [ 105.7838369, 21.0512037 ], [ 105.7848056, 21.0515961 ], [ 105.7851907, 21.0512409 ], [ 105.7853431, 21.0510923 ], [ 105.7857119, 21.0501774 ], [ 105.7844339, 21.0485474 ], [ 105.7844267, 21.0481792 ], [ 105.7852769, 21.0462596 ], [ 105.7863676, 21.0462624 ], [ 105.7878957, 21.0476673 ], [ 105.7898877, 21.049598 ], [ 105.7893599, 21.0470573 ], [ 105.7902893, 21.046245 ], [ 105.7916258, 21.0460838 ], [ 105.792659699999987, 21.0460863 ], [ 105.7932617, 21.0460921 ], [ 105.7938643, 21.0460948 ], [ 105.7946194, 21.0460985 ], [ 105.7938655, 21.0453063 ], [ 105.7942079, 21.0440317 ], [ 105.7943184, 21.0438932 ], [ 105.7936031, 21.0426687 ], [ 105.7936197, 21.041626 ], [ 105.792572399999983, 21.0408691 ], [ 105.791865, 21.0391106 ], [ 105.7904322, 21.0396836 ], [ 105.7904295, 21.0401321 ], [ 105.790427799999989, 21.0402707 ], [ 105.7888584, 21.0416393 ], [ 105.788551899999987, 21.0416396 ], [ 105.787763199999986, 21.0416469 ], [ 105.78713, 21.0416404 ], [ 105.786176699999984, 21.0416528 ], [ 105.785947800000017, 21.0366187 ], [ 105.784003, 21.0405566 ], [ 105.7840377, 21.0417303 ], [ 105.7811362, 21.0418407 ], [ 105.780924699999986, 21.0435308 ], [ 105.78106409999998, 21.0453649 ], [ 105.781101599999985, 21.0460456 ], [ 105.781114, 21.0462401 ], [ 105.7815381, 21.0474529 ] ] ] } },
{ "type": "Feature", "properties": { "threshold_s": "600", "time_label": "10 min drive" }, "geometry": { "type": "Polygon", "coordinates": [ [ [ 105.7832245, 21.0589547 ], [ 105.7832477, 21.0590333 ], [ 105.7836761, 21.0587512 ], [ 105.7841697, 21.0572389 ], [ 105.78672, 21.05667 ], [ 105.7872162, 21.0565856 ], [ 105.787263199999984, 21.0562552 ], [ 105.7887644, 21.053691 ], [ 105.7892867, 21.0518621 ], [ 105.7901434, 21.0513702 ], [ 105.7926797, 21.053258 ], [ 105.7945763, 21.0549276 ], [ 105.7949453, 21.0542618 ], [ 105.7981392, 21.05326 ], [ 105.7988334, 21.0517999 ], [ 105.8006184, 21.050296 ], [ 105.8052279, 21.0463207 ], [ 105.8055269, 21.0461122 ], [ 105.805620799999986, 21.0460004 ], [ 105.8050187, 21.0461308 ], [ 105.8025166, 21.0461361 ], [ 105.8009458, 21.046128 ], [ 105.7989297, 21.0457572 ], [ 105.7989495, 21.0428763 ], [ 105.8006251, 21.0415975 ], [ 105.7982784, 21.0391219 ], [ 105.800845399999986, 21.0377148 ], [ 105.800628399999979, 21.0375027 ], [ 105.7976896, 21.0364994 ], [ 105.797537799999986, 21.0342801 ], [ 105.797526, 21.0341994 ], [ 105.7972634, 21.0340276 ], [ 105.794135299999979, 21.0325227 ], [ 105.7922409, 21.0306098 ], [ 105.7910951, 21.0297582 ], [ 105.787713199999985, 21.0291676 ], [ 105.785696799999982, 21.0306378 ], [ 105.783872499999987, 21.0317404 ], [ 105.7833834, 21.0322047 ], [ 105.782134299999981, 21.0328446 ], [ 105.7796563, 21.0316677 ], [ 105.7788762, 21.0325363 ], [ 105.7788414, 21.0334386 ], [ 105.779525, 21.0366933 ], [ 105.7759986, 21.0370857 ], [ 105.7756511, 21.0371893 ], [ 105.774931199999983, 21.0376031 ], [ 105.7750251, 21.0378724 ], [ 105.7735501, 21.0426467 ], [ 105.7736732, 21.0425953 ], [ 105.7750703, 21.0421041 ], [ 105.7767437, 21.0415823 ], [ 105.777668, 21.0414585 ], [ 105.7811362, 21.0418407 ], [ 105.780896100000021, 21.0431582 ], [ 105.7783303, 21.0450637 ], [ 105.7783359, 21.045574 ], [ 105.780969, 21.0476064 ], [ 105.7796421, 21.0490039 ], [ 105.7771092, 21.0489633 ], [ 105.777040700000015, 21.0513808 ], [ 105.7793711, 21.0535737 ], [ 105.781993199999988, 21.0551879 ], [ 105.78234329999998, 21.05665 ], [ 105.7832245, 21.0589547 ] ] ] } },
{ "type": "Feature", "properties": { "threshold_s": "900", "time_label": "15 min drive" }, "geometry": { "type": "Polygon", "coordinates": [ [ [ 105.7850809, 21.0685064 ], [ 105.785523699999985, 21.0695837 ], [ 105.7859166, 21.0697494 ], [ 105.7859972, 21.0681243 ], [ 105.789889099999982, 21.065201 ], [ 105.7900189, 21.0651971 ], [ 105.791728, 21.0638586 ], [ 105.794957499999981, 21.0624837 ], [ 105.7977213, 21.0631087 ], [ 105.7996888, 21.0623742 ], [ 105.8007574, 21.0607922 ], [ 105.8039281, 21.0568272 ], [ 105.8088956, 21.0551081 ], [ 105.8090683, 21.0532883 ], [ 105.8091207, 21.0523332 ], [ 105.808391199999988, 21.0514451 ], [ 105.8078578, 21.0508195 ], [ 105.8075098, 21.0502935 ], [ 105.8065021, 21.0486522 ], [ 105.811321, 21.0459144 ], [ 105.809707299999985, 21.0441632 ], [ 105.8071604, 21.0421622 ], [ 105.80857469999998, 21.0376916 ], [ 105.8095655, 21.0323613 ], [ 105.810830899999985, 21.0320409 ], [ 105.810790299999979, 21.03192 ], [ 105.8073506, 21.0274834 ], [ 105.803818, 21.026045 ], [ 105.7984135, 21.0257321 ], [ 105.7982647, 21.0257885 ], [ 105.792539299999987, 21.0249285 ], [ 105.792066599999984, 21.0223365 ], [ 105.7922255, 21.02068 ], [ 105.7918977, 21.0200698 ], [ 105.7880924, 21.020268 ], [ 105.7873641, 21.0211734 ], [ 105.7872487, 21.0213248 ], [ 105.786251799999988, 21.0225455 ], [ 105.7849225, 21.0242181 ], [ 105.7843605, 21.0258818 ], [ 105.7788409, 21.0251049 ], [ 105.7787783, 21.0224366 ], [ 105.779099099999982, 21.0215921 ], [ 105.778433599999985, 21.0208718 ], [ 105.7785636, 21.0223194 ], [ 105.774982399999985, 21.026246 ], [ 105.7730999, 21.0270115 ], [ 105.76919789999998, 21.0310011 ], [ 105.7686711, 21.0311618 ], [ 105.7667309, 21.0343387 ], [ 105.7657995, 21.036808 ], [ 105.7637334, 21.0407472 ], [ 105.7638017, 21.0409292 ], [ 105.7653774, 21.0419788 ], [ 105.767941899999983, 21.0427915 ], [ 105.7696396, 21.043275 ], [ 105.77440919999998, 21.0451202 ], [ 105.7725097, 21.0500264 ], [ 105.7714174, 21.0517516 ], [ 105.773661899999979, 21.0549367 ], [ 105.776778799999988, 21.058301 ], [ 105.7774776, 21.0590671 ], [ 105.779989, 21.0589037 ], [ 105.783853099999988, 21.061227 ], [ 105.7851607, 21.0666063 ], [ 105.7849309, 21.067122 ], [ 105.7850659, 21.0683343 ], [ 105.7850809, 21.0685064 ] ] ] } },
{ "type": "Feature", "properties": { "threshold_s": "300", "time_label": "5 min drive" }, "geometry": { "type": "Polygon", "coordinates": [ [ [ 105.7945565, 21.00919 ], [ 105.79451659999998, 21.0093497 ], [ 105.7949994, 21.0095106 ], [ 105.7968093, 21.0086027 ], [ 105.7988016, 21.0085256 ], [ 105.800810199999987, 21.007828 ], [ 105.8014435, 21.0084068 ], [ 105.8015333, 21.0084887 ], [ 105.803526299999987, 21.0081899 ], [ 105.803881299999986, 21.0078692 ], [ 105.804516, 21.0064015 ], [ 105.8039149, 21.0046698 ], [ 105.8037477, 21.0039009 ], [ 105.801894, 21.0032603 ], [ 105.8006883, 21.001738 ], [ 105.8020453, 20.9999631 ], [ 105.8014501, 20.9988659 ], [ 105.8013336, 20.99878 ], [ 105.8006491, 20.9989554 ], [ 105.800892, 20.9999658 ], [ 105.7987903, 21.0009672 ], [ 105.7974424, 20.9996758 ], [ 105.797344099999989, 20.9995869 ], [ 105.7968674, 20.9992356 ], [ 105.7964139, 20.9992443 ], [ 105.7967009, 20.9999971 ], [ 105.794508900000011, 21.0021062 ], [ 105.7925836, 21.0022175 ], [ 105.792385, 21.0031971 ], [ 105.7909653, 21.0047734 ], [ 105.791613, 21.0062975 ], [ 105.793632699999989, 21.005824 ], [ 105.795342599999984, 21.007529 ], [ 105.7945565, 21.00919 ] ] ] } },
{ "type": "Feature", "properties": { "threshold_s": "600", "time_label": "10 min drive" }, "geometry": { "type": "Polygon", "coordinates": [ [ [ 105.7862824, 21.0152446 ], [ 105.7877557, 21.0176325 ], [ 105.7902277, 21.0175435 ], [ 105.7937509, 21.017287 ], [ 105.7943377, 21.0175959 ], [ 105.7966891, 21.0172153 ], [ 105.798380599999987, 21.0173283 ], [ 105.8011162, 21.0159717 ], [ 105.802798599999988, 21.016999 ], [ 105.8063072, 21.0165963 ], [ 105.8054952, 21.0158351 ], [ 105.8053895, 21.0157267 ], [ 105.8047308, 21.0148001 ], [ 105.8048908, 21.0114872 ], [ 105.8046427, 21.0104259 ], [ 105.8046479, 21.0099789 ], [ 105.8046726, 21.0096398 ], [ 105.805341399999989, 21.0076337 ], [ 105.8085143, 21.0080851 ], [ 105.809325499999986, 21.0087365 ], [ 105.810258099999984, 21.0099816 ], [ 105.8105007, 21.0103209 ], [ 105.810904899999983, 21.0108542 ], [ 105.810991499999986, 21.0109719 ], [ 105.812106299999982, 21.0122771 ], [ 105.8116969, 21.0096309 ], [ 105.8133317, 21.0085866 ], [ 105.8131836, 21.0084469 ], [ 105.812051, 21.0071526 ], [ 105.808682399999981, 21.0080303 ], [ 105.8070191, 21.0062683 ], [ 105.806894799999981, 21.0052618 ], [ 105.806962199999987, 21.0039196 ], [ 105.810664700000018, 21.0033662 ], [ 105.8110762, 21.0034931 ], [ 105.8117191, 21.0028656 ], [ 105.8103037, 21.0011768 ], [ 105.809277, 20.998049 ], [ 105.8103759, 20.996621 ], [ 105.806733599999987, 20.9941675 ], [ 105.80396159999998, 20.9917608 ], [ 105.8035737, 20.9907299 ], [ 105.8023539, 20.9910756 ], [ 105.8016301, 20.9932596 ], [ 105.8006622, 20.9951087 ], [ 105.799583, 20.9958415 ], [ 105.79920509999998, 20.9963297 ], [ 105.797835, 20.9980607 ], [ 105.7951388, 20.9967717 ], [ 105.795673199999982, 20.9943315 ], [ 105.7962808, 20.9937403 ], [ 105.7961317, 20.9932905 ], [ 105.795569699999987, 20.9916239 ], [ 105.7943971, 20.9923757 ], [ 105.793180699999979, 20.9930586 ], [ 105.7928194, 20.9932617 ], [ 105.7919663, 20.9937503 ], [ 105.7902791, 20.9947345 ], [ 105.7876235, 20.9930818 ], [ 105.787565699999988, 20.9932025 ], [ 105.786029199999987, 20.9965445 ], [ 105.785598799999988, 20.9980257 ], [ 105.7852688, 20.9991542 ], [ 105.7850597, 21.0021777 ], [ 105.782811700000011, 21.0026587 ], [ 105.782586699999982, 21.0027176 ], [ 105.781925299999983, 21.002862 ], [ 105.781528899999984, 21.0029385 ], [ 105.7828491, 21.0048612 ], [ 105.783039299999984, 21.0089995 ], [ 105.784318899999988, 21.00993 ], [ 105.7868004, 21.0117028 ], [ 105.7852351, 21.0141701 ], [ 105.7851037, 21.014335 ], [ 105.7862824, 21.0152446 ] ] ] } },
{ "type": "Feature", "properties": { "threshold_s": "900", "time_label": "15 min drive" }, "geometry": { "type": "Polygon", "coordinates": [ [ [ 105.7849225, 21.0242181 ], [ 105.7843605, 21.0258818 ], [ 105.7883152, 21.0262422 ], [ 105.791498, 21.0263117 ], [ 105.7983321, 21.0240783 ], [ 105.8036281, 21.0234259 ], [ 105.806216599999985, 21.0234112 ], [ 105.8114669, 21.0247893 ], [ 105.8119466, 21.0223474 ], [ 105.8170904, 21.0194987 ], [ 105.8184616, 21.0191027 ], [ 105.8202578, 21.0152392 ], [ 105.820670399999983, 21.0124282 ], [ 105.820315399999984, 21.008217 ], [ 105.8208163, 21.0028548 ], [ 105.8177049, 21.0011416 ], [ 105.814307500000012, 20.9987879 ], [ 105.8139974, 20.9985801 ], [ 105.8114354, 20.9968636 ], [ 105.810396399999988, 20.9907259 ], [ 105.8107236, 20.9894471 ], [ 105.8095202, 20.9826845 ], [ 105.809871499999986, 20.9822248 ], [ 105.8069433, 20.9832705 ], [ 105.80017909999998, 20.9837383 ], [ 105.7935807, 20.9848133 ], [ 105.790657399999986, 20.9857798 ], [ 105.7890431, 20.9867663 ], [ 105.78490429999998, 20.9896581 ], [ 105.7788201, 20.9874616 ], [ 105.7786682, 20.9873528 ], [ 105.77858209999998, 20.9874577 ], [ 105.7779814, 20.992749 ], [ 105.7782317, 20.9931651 ], [ 105.77908979999998, 20.9960677 ], [ 105.7802089, 20.9980136 ], [ 105.7794161, 21.0030366 ], [ 105.773880399999982, 21.0035708 ], [ 105.772818499999985, 21.0034659 ], [ 105.7706557, 21.0055121 ], [ 105.7708082, 21.005838 ], [ 105.7739569, 21.0087894 ], [ 105.7756495, 21.0130626 ], [ 105.776393, 21.0174258 ], [ 105.778520499999985, 21.0183861 ], [ 105.7807247, 21.0192201 ], [ 105.7849225, 21.0242181 ] ] ] } },
{ "type": "Feature", "properties": { "threshold_s": "300", "time_label": "5 min drive" }, "geometry": { "type": "Polygon", "coordinates": [ [ [ 105.8258741, 21.2041642 ], [ 105.8262068, 21.2059569 ], [ 105.827693, 21.2055546 ], [ 105.829236, 21.2057456 ], [ 105.8310149, 21.2059521 ], [ 105.8311879, 21.2089618 ], [ 105.8318511, 21.2060079 ], [ 105.83223959999998, 21.2060407 ], [ 105.835701699999987, 21.2063497 ], [ 105.832703, 21.2045793 ], [ 105.832707, 21.2043805 ], [ 105.832767799999985, 21.2037782 ], [ 105.832811399999983, 21.2027249 ], [ 105.8334344, 21.2017184 ], [ 105.8337264, 21.2012026 ], [ 105.8351536, 21.20017 ], [ 105.835962599999988, 21.1987716 ], [ 105.8377168, 21.2000218 ], [ 105.837781599999985, 21.1996148 ], [ 105.8378002, 21.1989689 ], [ 105.8378257, 21.1980869 ], [ 105.8378886, 21.1961908 ], [ 105.837849599999984, 21.1964653 ], [ 105.837827099999984, 21.1966232 ], [ 105.83630119999998, 21.1980814 ], [ 105.8357407, 21.19809 ], [ 105.8350086, 21.1981036 ], [ 105.8330074, 21.1988115 ], [ 105.8321573, 21.1981758 ], [ 105.831001199999989, 21.1982067 ], [ 105.830942099999987, 21.198208 ], [ 105.8306871, 21.1933097 ], [ 105.831351899999987, 21.1933346 ], [ 105.832198, 21.1934038 ], [ 105.832629199999985, 21.1934071 ], [ 105.832966899999988, 21.1934097 ], [ 105.8338238, 21.1934956 ], [ 105.8330235, 21.1921395 ], [ 105.830887099999984, 21.1918246 ], [ 105.8299975, 21.1921173 ], [ 105.8283592, 21.1929783 ], [ 105.8278472, 21.1929584 ], [ 105.827748, 21.1929537 ], [ 105.827339399999985, 21.1929344 ], [ 105.827793199999988, 21.1935325 ], [ 105.8282518, 21.1941677 ], [ 105.828821799999986, 21.1982553 ], [ 105.827664499999983, 21.1982829 ], [ 105.8266635, 21.1983067 ], [ 105.825278199999985, 21.1982961 ], [ 105.82486369999998, 21.1983024 ], [ 105.8239952, 21.1983194 ], [ 105.823158099999986, 21.1983273 ], [ 105.8224983, 21.198337 ], [ 105.823099199999987, 21.1992953 ], [ 105.8239953, 21.199478 ], [ 105.8249591, 21.200657 ], [ 105.824996499999983, 21.2013576 ], [ 105.8249585, 21.2019817 ], [ 105.823126, 21.2028147 ], [ 105.8241072, 21.2034592 ], [ 105.824987399999983, 21.2039299 ], [ 105.8258741, 21.2041642 ] ] ] } },
{ "type": "Feature", "properties": { "threshold_s": "600", "time_label": "10 min drive" }, "geometry": { "type": "Polygon", "coordinates": [ [ [ 105.8154769, 21.2094375 ], [ 105.815506, 21.2095264 ], [ 105.816536, 21.209223 ], [ 105.8210459, 21.2073971 ], [ 105.825986699999987, 21.2122335 ], [ 105.827323099999987, 21.211949 ], [ 105.831518, 21.2128703 ], [ 105.8319792, 21.2190476 ], [ 105.8343485, 21.2129324 ], [ 105.8363615, 21.2094304 ], [ 105.841421499999981, 21.2045881 ], [ 105.8450157, 21.2018274 ], [ 105.8495164, 21.2009884 ], [ 105.84999089999998, 21.2003164 ], [ 105.848362599999987, 21.1972461 ], [ 105.846574599999983, 21.1944461 ], [ 105.8436142, 21.1915993 ], [ 105.8411681, 21.193208 ], [ 105.837290899999985, 21.1939726 ], [ 105.83319, 21.1908857 ], [ 105.831881899999985, 21.1884822 ], [ 105.8295, 21.185092 ], [ 105.824656899999979, 21.1907636 ], [ 105.8239563, 21.1906665 ], [ 105.8232026, 21.190599 ], [ 105.8211145, 21.1899162 ], [ 105.818324599999983, 21.1906644 ], [ 105.8178019, 21.1910166 ], [ 105.816925899999987, 21.1916956 ], [ 105.8137692, 21.1971236 ], [ 105.8127485, 21.1996786 ], [ 105.814753899999985, 21.2062963 ], [ 105.8154769, 21.2094375 ] ] ] } },
{ "type": "Feature", "properties": { "threshold_s": "900", "time_label": "15 min drive" }, "geometry": { "type": "Polygon", "coordinates": [ [ [ 105.8040062, 21.2052932 ], [ 105.8046953, 21.2126284 ], [ 105.805477, 21.2123967 ], [ 105.806085399999986, 21.2122173 ], [ 105.8082145, 21.2115988 ], [ 105.810116399999984, 21.2110616 ], [ 105.815506, 21.2095264 ], [ 105.816536, 21.209223 ], [ 105.8220355, 21.2075905 ], [ 105.825986699999987, 21.2122335 ], [ 105.825762699999984, 21.2178282 ], [ 105.8311975, 21.2238914 ], [ 105.830151199999989, 21.2261793 ], [ 105.8297837, 21.2269524 ], [ 105.8282889, 21.2294453 ], [ 105.827906899999988, 21.2301533 ], [ 105.8278147, 21.2303065 ], [ 105.8325352, 21.2297441 ], [ 105.8332823, 21.2291303 ], [ 105.8338689, 21.2273936 ], [ 105.840418299999982, 21.224049 ], [ 105.8406771, 21.2240591 ], [ 105.844591199999982, 21.221819 ], [ 105.8446375, 21.2144564 ], [ 105.8466089, 21.2128594 ], [ 105.8489012, 21.2119389 ], [ 105.856366799999989, 21.2074687 ], [ 105.858351299999981, 21.20604 ], [ 105.858188, 21.2022337 ], [ 105.8574571, 21.2000563 ], [ 105.8547843, 21.1931761 ], [ 105.8522254, 21.1887609 ], [ 105.8499402, 21.1864225 ], [ 105.8474927, 21.1855659 ], [ 105.8450049, 21.1882782 ], [ 105.842978499999987, 21.1902714 ], [ 105.837290899999985, 21.1939726 ], [ 105.83319, 21.1908857 ], [ 105.833350699999983, 21.1856947 ], [ 105.8346731, 21.1807066 ], [ 105.8348205, 21.1800825 ], [ 105.833868399999986, 21.1792535 ], [ 105.8316618, 21.1774862 ], [ 105.823634799999979, 21.1740504 ], [ 105.821242799999979, 21.1758174 ], [ 105.818770199999989, 21.1801001 ], [ 105.8164554, 21.1872965 ], [ 105.8118756, 21.1898187 ], [ 105.8113998, 21.1901165 ], [ 105.8074406, 21.1927497 ], [ 105.8077544, 21.1938576 ], [ 105.8090982, 21.1990666 ], [ 105.8043693, 21.2020334 ], [ 105.8011814, 21.2029273 ], [ 105.8040062, 21.2052932 ] ] ] } }
]
}
