{
"type": "FeatureCollection",
"name": "isochrone_amenity_food_court_drive",
"crs": { "type": "name", "properties": { "name": "urn:ogc:def:crs:OGC:1.3:CRS84" } },
"features": [
{ "type": "Feature", "properties": { "threshold_s": 300, "time_label": "5 min drive" }, "geometry": { "type": "Polygon", "coordinates": [ [ [ 105.8401771, 21.0433484 ], [ 105.84105959999998, 21.044674 ], [ 105.8418049, 21.0450949 ], [ 105.843328099999979, 21.0455598 ], [ 105.8445913, 21.0437602 ], [ 105.845941399999987, 21.0443697 ], [ 105.846347699999981, 21.0444049 ], [ 105.847211800000011, 21.0443291 ], [ 105.8487358, 21.0444282 ], [ 105.8497417, 21.0447504 ], [ 105.850342499999982, 21.0441496 ], [ 105.8513591, 21.04259 ], [ 105.8523166, 21.0409591 ], [ 105.853999, 21.0394404 ], [ 105.8535585, 21.0372254 ], [ 105.855188, 21.0355451 ], [ 105.854413799999989, 21.0338031 ], [ 105.852156799999989, 21.0347124 ], [ 105.8499357, 21.033994 ], [ 105.850261500000016, 21.0331052 ], [ 105.8499725, 21.0329804 ], [ 105.848055599999981, 21.0324216 ], [ 105.8467815, 21.03166 ], [ 105.8455033, 21.033579 ], [ 105.8447768, 21.0340917 ], [ 105.8449379, 21.0348636 ], [ 105.845924, 21.0356714 ], [ 105.8454918, 21.0375308 ], [ 105.8471313, 21.0386835 ], [ 105.8459856, 21.0399317 ], [ 105.8454121, 21.0400507 ], [ 105.843830299999979, 21.0403251 ], [ 105.8420285, 21.0406404 ], [ 105.841936899999979, 21.0406599 ], [ 105.8410772, 21.0408157 ], [ 105.840151, 21.0428157 ], [ 105.8401771, 21.0433484 ] ] ] } },
{ "type": "Feature", "properties": { "threshold_s": 600, "time_label": "10 min drive" }, "geometry": { "type": "Polygon", "coordinates": [ [ [ 105.838508299999987, 21.0487951 ], [ 105.838671, 21.0522312 ], [ 105.842954, 21.0528872 ], [ 105.8481324, 21.0481674 ], [ 105.8492648, 21.0462351 ], [ 105.850106499999981, 21.0449387 ], [ 105.8532054, 21.0410502 ], [ 105.8539648, 21.0399026 ], [ 105.8552544, 21.038343 ], [ 105.8559408, 21.0375631 ], [ 105.8580411, 21.033791 ], [ 105.8588286, 21.0330955 ], [ 105.859561899999989, 21.032523 ], [ 105.865565599999982, 21.0396641 ], [ 105.8658247, 21.0397037 ], [ 105.861271699999989, 21.0304235 ], [ 105.8613337, 21.0288933 ], [ 105.86021479999998, 21.024606 ], [ 105.8547547, 21.023716 ], [ 105.850819799999982, 21.023226 ], [ 105.8463276, 21.0227121 ], [ 105.841464500000015, 21.024215 ], [ 105.837505400000012, 21.0294187 ], [ 105.836268899999979, 21.0316267 ], [ 105.836186500000011, 21.0349715 ], [ 105.8363518, 21.0356501 ], [ 105.837023599999981, 21.0388764 ], [ 105.835097299999987, 21.0418506 ], [ 105.828956799999986, 21.040745 ], [ 105.8285905, 21.0410636 ], [ 105.8351095, 21.0426739 ], [ 105.8363039, 21.0440074 ], [ 105.838508299999987, 21.0487951 ] ] ] } },
{ "type": "Feature", "properties": { "threshold_s": 900, "time_label": "15 min drive" }, "geometry": { "type": "Polygon", "coordinates": [ [ [ 105.8318571, 21.0612589 ], [ 105.8320883, 21.0627856 ], [ 105.832237699999979, 21.0628438 ], [ 105.8370781, 21.0623407 ], [ 105.842760199999987, 21.0584602 ], [ 105.8465789, 21.0592395 ], [ 105.8448187, 21.0565981 ], [ 105.8481324, 21.0481674 ], [ 105.8492648, 21.0462351 ], [ 105.850106499999981, 21.0449387 ], [ 105.8532054, 21.0410502 ], [ 105.8539648, 21.0399026 ], [ 105.8552544, 21.038343 ], [ 105.8559408, 21.0375631 ], [ 105.8654306, 21.0378592 ], [ 105.8652272, 21.0404883 ], [ 105.8645302, 21.0425052 ], [ 105.8645845, 21.0429123 ], [ 105.8644483, 21.0456788 ], [ 105.8649809, 21.0473095 ], [ 105.8652837, 21.0475541 ], [ 105.865604499999989, 21.0475113 ], [ 105.872633, 21.0461429 ], [ 105.8751927, 21.0453025 ], [ 105.8742374, 21.0369948 ], [ 105.8742088, 21.0341147 ], [ 105.871597699999981, 21.0321959 ], [ 105.8708742, 21.0315621 ], [ 105.87011769999998, 21.0316959 ], [ 105.8683511, 21.0322908 ], [ 105.861773199999988, 21.025698 ], [ 105.8620378, 21.0248247 ], [ 105.86210149999998, 21.0246067 ], [ 105.863899, 21.018973 ], [ 105.864448899999985, 21.0179396 ], [ 105.863748199999989, 21.0177798 ], [ 105.8575245, 21.0165817 ], [ 105.853558199999981, 21.0137765 ], [ 105.849150399999985, 21.0133873 ], [ 105.8482749, 21.0133237 ], [ 105.8414099, 21.0174645 ], [ 105.8372522, 21.018501 ], [ 105.8304305, 21.0240979 ], [ 105.8256498, 21.031761 ], [ 105.8256225, 21.0318746 ], [ 105.8267433, 21.0343099 ], [ 105.82651319999998, 21.0400574 ], [ 105.8185603, 21.0434901 ], [ 105.823222, 21.0436032 ], [ 105.8251749, 21.0431721 ], [ 105.8285905, 21.0410636 ], [ 105.8351095, 21.0426739 ], [ 105.8363039, 21.0440074 ], [ 105.835914299999985, 21.0526278 ], [ 105.8337692, 21.0561987 ], [ 105.831838, 21.0610843 ], [ 105.8318571, 21.0612589 ] ] ] } },
{ "type": "Feature", "properties": { "threshold_s": 300, "time_label": "5 min drive" }, "geometry": { "type": "Polygon", "coordinates": [ [ [ 105.8486125, 21.0062745 ], [ 105.8472555, 21.006807 ], [ 105.849472099999986, 21.0070666 ], [ 105.8501247, 21.0075054 ], [ 105.8505767, 21.008786 ], [ 105.8505725, 21.0091717 ], [ 105.851499899999979, 21.0099136 ], [ 105.8527772, 21.0108461 ], [ 105.8545289, 21.0113244 ], [ 105.8539294, 21.010104 ], [ 105.8555359, 21.0092084 ], [ 105.8562536, 21.009063 ], [ 105.8573793, 21.0092148 ], [ 105.8588963, 21.0091385 ], [ 105.860795, 21.0076553 ], [ 105.860888599999981, 21.006907 ], [ 105.858652, 21.0085882 ], [ 105.857359, 21.0089506 ], [ 105.8562533, 21.0086009 ], [ 105.8546881, 21.0087332 ], [ 105.854656399999982, 21.0073922 ], [ 105.8546658, 21.0067839 ], [ 105.8549535, 21.005497 ], [ 105.85495, 21.005205 ], [ 105.8549485, 21.0048029 ], [ 105.854945, 21.0035685 ], [ 105.855178399999986, 21.0027894 ], [ 105.8546476, 21.0020295 ], [ 105.856747699999985, 20.9999704 ], [ 105.858854799999989, 21.0009864 ], [ 105.857958899999986, 21.0027343 ], [ 105.85866679999998, 21.0027918 ], [ 105.859619900000013, 21.0028637 ], [ 105.8600789, 21.0047048 ], [ 105.860263099999983, 21.0029181 ], [ 105.8612991, 21.0029993 ], [ 105.8616974, 21.0032544 ], [ 105.8622648, 21.0030021 ], [ 105.864330699999982, 21.0034281 ], [ 105.864432399999984, 21.0044235 ], [ 105.8652691, 21.0033408 ], [ 105.8652569, 21.0029825 ], [ 105.863635099999982, 21.0020735 ], [ 105.8614664, 21.0011413 ], [ 105.8606387, 21.0004732 ], [ 105.8617132, 20.9990108 ], [ 105.8597622, 20.9983393 ], [ 105.8594959, 20.9979125 ], [ 105.8575926, 20.9987891 ], [ 105.8572611, 20.9993533 ], [ 105.8564772, 20.9997508 ], [ 105.8549289, 20.9987861 ], [ 105.8549241, 20.9984937 ], [ 105.8549212, 20.998279 ], [ 105.854921, 20.9980591 ], [ 105.854431299999987, 20.9980538 ], [ 105.8528908, 20.9974 ], [ 105.8513461, 20.9975315 ], [ 105.8501337, 20.9976528 ], [ 105.850294299999987, 20.9988078 ], [ 105.8503963, 20.9994987 ], [ 105.8505715, 21.0006347 ], [ 105.849368499999983, 21.0012654 ], [ 105.848264199999988, 21.0002543 ], [ 105.846556400000011, 21.0008067 ], [ 105.8457171, 21.0008499 ], [ 105.8449863, 21.0018106 ], [ 105.8458635, 21.0030043 ], [ 105.845777899999987, 21.004206 ], [ 105.847204199999979, 21.0041071 ], [ 105.848803599999982, 21.0051421 ], [ 105.8486125, 21.0062745 ] ] ] } },
{ "type": "Feature", "properties": { "threshold_s": 600, "time_label": "10 min drive" }, "geometry": { "type": "Polygon", "coordinates": [ [ [ 105.846647899999979, 21.0134641 ], [ 105.846956799999987, 21.0171098 ], [ 105.8493412, 21.0187503 ], [ 105.8519368, 21.0197634 ], [ 105.856659099999987, 21.0186561 ], [ 105.8583461, 21.0169388 ], [ 105.862791499999986, 21.0140733 ], [ 105.863366400000018, 21.0137577 ], [ 105.8654738, 21.0119871 ], [ 105.8680303, 21.0100022 ], [ 105.869068899999988, 21.0055396 ], [ 105.8721878, 21.0029618 ], [ 105.872846399999986, 21.0008644 ], [ 105.872649699999982, 21.0006768 ], [ 105.8720653, 21.0001479 ], [ 105.869054399999982, 20.9968427 ], [ 105.8685923, 20.996589 ], [ 105.8646271, 20.9951815 ], [ 105.864847399999988, 20.9914415 ], [ 105.8655185, 20.9906479 ], [ 105.863322, 20.9887654 ], [ 105.86147, 20.989695 ], [ 105.8612569, 20.9927051 ], [ 105.8572204, 20.9941686 ], [ 105.852709600000011, 20.9941669 ], [ 105.850962, 20.9937682 ], [ 105.8495471, 20.9930515 ], [ 105.847151399999987, 20.9886826 ], [ 105.8469413, 20.9876115 ], [ 105.845988399999982, 20.9889312 ], [ 105.8426636, 20.9920662 ], [ 105.842293500000011, 20.9926682 ], [ 105.842144499999989, 20.9941748 ], [ 105.840085799999983, 20.9982301 ], [ 105.839206299999987, 20.9991234 ], [ 105.837045499999988, 21.0036744 ], [ 105.8360473, 21.0034138 ], [ 105.838777300000018, 21.0067038 ], [ 105.8413355, 21.0087937 ], [ 105.8449471, 21.0079814 ], [ 105.8463087, 21.0126788 ], [ 105.846647899999979, 21.0134641 ] ] ] } },
{ "type": "Feature", "properties": { "threshold_s": 900, "time_label": "15 min drive" }, "geometry": { "type": "Polygon", "coordinates": [ [ [ 105.8414355, 21.021993 ], [ 105.8428231, 21.0240652 ], [ 105.8454267, 21.0257694 ], [ 105.853686900000014, 21.0307099 ], [ 105.853924899999981, 21.0307624 ], [ 105.8581333, 21.0279368 ], [ 105.860767399999986, 21.0242371 ], [ 105.863899, 21.018973 ], [ 105.864448899999985, 21.0179396 ], [ 105.865231599999987, 21.0153725 ], [ 105.8680303, 21.0100022 ], [ 105.8750687, 21.0030983 ], [ 105.8817006, 21.0013437 ], [ 105.8827187, 21.0011365 ], [ 105.8830572, 21.000937 ], [ 105.883506, 20.9999975 ], [ 105.8806602, 20.9971767 ], [ 105.8799048, 20.9966711 ], [ 105.8736989, 20.9927108 ], [ 105.873686299999989, 20.9842862 ], [ 105.873187, 20.983459 ], [ 105.8650228, 20.9791881 ], [ 105.8648825, 20.9791602 ], [ 105.8580399, 20.9824479 ], [ 105.8483295, 20.9779775 ], [ 105.8476285, 20.9778432 ], [ 105.8429097, 20.979174 ], [ 105.842358899999979, 20.9795212 ], [ 105.8384371, 20.9843136 ], [ 105.8383112, 20.984614 ], [ 105.8377968, 20.9908975 ], [ 105.836739699999981, 20.9941109 ], [ 105.828897699999985, 21.0002704 ], [ 105.828788599999982, 21.0009003 ], [ 105.827990299999982, 21.0076612 ], [ 105.828260899999989, 21.0082453 ], [ 105.8284444, 21.0085161 ], [ 105.83075239999998, 21.0109727 ], [ 105.8351638, 21.0156491 ], [ 105.8414355, 21.021993 ] ] ] } },
{ "type": "Feature", "properties": { "threshold_s": 300, "time_label": "5 min drive" }, "geometry": { "type": "Polygon", "coordinates": [ [ [ 105.8106065, 21.0265398 ], [ 105.8124555, 21.0287119 ], [ 105.81385109999998, 21.0272941 ], [ 105.8132557, 21.0270837 ], [ 105.8117825, 21.0245785 ], [ 105.813858499999981, 21.0239011 ], [ 105.8163864, 21.0236247 ], [ 105.818984799999981, 21.0231983 ], [ 105.8200922, 21.023869 ], [ 105.822013199999986, 21.0260265 ], [ 105.8220755, 21.0274604 ], [ 105.822770899999981, 21.0267136 ], [ 105.823184399999988, 21.0262688 ], [ 105.8218932, 21.0251753 ], [ 105.822012199999989, 21.0225246 ], [ 105.8228313, 21.0222185 ], [ 105.8248003, 21.021338 ], [ 105.8256318, 21.0209028 ], [ 105.8257942, 21.0208211 ], [ 105.8256907, 21.0206311 ], [ 105.8255177, 21.0206878 ], [ 105.824664799999979, 21.021128 ], [ 105.822719, 21.021974 ], [ 105.8200632, 21.021484 ], [ 105.8184616, 21.0191027 ], [ 105.8171314, 21.0176772 ], [ 105.816606599999986, 21.0157019 ], [ 105.816463900000016, 21.0155276 ], [ 105.8136905, 21.0148285 ], [ 105.811337699999982, 21.0161906 ], [ 105.8108098, 21.0165211 ], [ 105.810568799999984, 21.0187066 ], [ 105.8088205, 21.0207171 ], [ 105.8111067, 21.0196874 ], [ 105.8118137, 21.0223278 ], [ 105.8116584, 21.0232898 ], [ 105.81083150000002, 21.0251376 ], [ 105.8106065, 21.0265398 ] ] ] } },
{ "type": "Feature", "properties": { "threshold_s": 600, "time_label": "10 min drive" }, "geometry": { "type": "Polygon", "coordinates": [ [ [ 105.8027947, 21.0309654 ], [ 105.8050648, 21.0345518 ], [ 105.8054881, 21.0346669 ], [ 105.810305, 21.0348404 ], [ 105.810559499999982, 21.0361601 ], [ 105.813328, 21.0379498 ], [ 105.8152145, 21.0374458 ], [ 105.8178814, 21.0355613 ], [ 105.8202052, 21.0333502 ], [ 105.8227084, 21.0314793 ], [ 105.8267433, 21.0343099 ], [ 105.8271558, 21.0347458 ], [ 105.82998929999998, 21.0333873 ], [ 105.8311704, 21.0325889 ], [ 105.8327536, 21.0313977 ], [ 105.8342281, 21.0277521 ], [ 105.832224299999979, 21.0234152 ], [ 105.8329958, 21.0216565 ], [ 105.8338068, 21.0193064 ], [ 105.8343608, 21.0146277 ], [ 105.8341953, 21.0140257 ], [ 105.833890399999987, 21.0140474 ], [ 105.8288915, 21.0135822 ], [ 105.827148, 21.0133393 ], [ 105.824699, 21.0096805 ], [ 105.824786499999988, 21.008971 ], [ 105.823697399999986, 21.0080557 ], [ 105.8211635, 21.0072018 ], [ 105.820315399999984, 21.008217 ], [ 105.8154172, 21.0096905 ], [ 105.8144908, 21.0087249 ], [ 105.8144074, 21.0086391 ], [ 105.812051, 21.0071526 ], [ 105.806824399999982, 21.0067137 ], [ 105.806700299999989, 21.0068397 ], [ 105.8085143, 21.0080851 ], [ 105.80812659999998, 21.0127721 ], [ 105.8032963, 21.0139555 ], [ 105.8026473, 21.0135159 ], [ 105.8023038, 21.0131912 ], [ 105.802199799999983, 21.0134657 ], [ 105.801889, 21.0143779 ], [ 105.8020895, 21.0167798 ], [ 105.8016199, 21.0203349 ], [ 105.8027521, 21.023295 ], [ 105.803818, 21.026045 ], [ 105.802296, 21.0294 ], [ 105.8017885, 21.0297974 ], [ 105.8015154, 21.0300109 ], [ 105.8011423, 21.0304653 ], [ 105.8027947, 21.0309654 ] ] ] } },
{ "type": "Feature", "properties": { "threshold_s": 900, "time_label": "15 min drive" }, "geometry": { "type": "Polygon", "coordinates": [ [ [ 105.791538499999987, 21.0359338 ], [ 105.7916694, 21.0362416 ], [ 105.794131399999984, 21.0377031 ], [ 105.7975387, 21.0411487 ], [ 105.79772029999998, 21.0411466 ], [ 105.802945599999987, 21.0401025 ], [ 105.806136099999989, 21.0438464 ], [ 105.8063383, 21.0445226 ], [ 105.8118943, 21.0466978 ], [ 105.815235299999983, 21.0455385 ], [ 105.817391, 21.0446957 ], [ 105.823222, 21.0436032 ], [ 105.8235539, 21.0417525 ], [ 105.8282168, 21.0361744 ], [ 105.83272119999998, 21.034424 ], [ 105.8363518, 21.0356501 ], [ 105.840616399999988, 21.0324498 ], [ 105.8428205, 21.0303654 ], [ 105.8439851, 21.0285916 ], [ 105.843894599999985, 21.0280896 ], [ 105.8447516, 21.0210682 ], [ 105.845692299999982, 21.0195002 ], [ 105.844269199999985, 21.017305 ], [ 105.8413476, 21.010746 ], [ 105.8419506, 21.0075241 ], [ 105.8413113, 21.0063215 ], [ 105.835244499999988, 21.0061472 ], [ 105.8322107, 21.0040287 ], [ 105.829533699999985, 21.0019292 ], [ 105.8222007, 21.0002549 ], [ 105.8158904, 21.0003156 ], [ 105.814558799999986, 20.9994235 ], [ 105.8140966, 20.9991138 ], [ 105.809277, 20.998049 ], [ 105.8020453, 20.9999631 ], [ 105.7987903, 21.0009672 ], [ 105.7987746, 21.0040641 ], [ 105.793491599999982, 21.0062728 ], [ 105.792380499999979, 21.0119247 ], [ 105.7921825, 21.0189364 ], [ 105.7933249, 21.0235746 ], [ 105.7980311, 21.0268446 ], [ 105.7987529, 21.0324956 ], [ 105.7962208, 21.034265 ], [ 105.794612799999982, 21.0347664 ], [ 105.7933356, 21.0349421 ], [ 105.79149, 21.0358196 ], [ 105.791538499999987, 21.0359338 ] ] ] } },
{ "type": "Feature", "properties": { "threshold_s": 300, "time_label": "5 min drive" }, "geometry": { "type": "Polygon", "coordinates": [ [ [ 105.813756399999988, 21.0796482 ], [ 105.81481, 21.0814583 ], [ 105.8174599, 21.0824012 ], [ 105.8181542, 21.0812186 ], [ 105.8192636, 21.0791493 ], [ 105.8205527, 21.0774063 ], [ 105.8197134, 21.0740943 ], [ 105.8195516, 21.0742801 ], [ 105.819147699999988, 21.0746625 ], [ 105.8153199, 21.0738129 ], [ 105.8144379, 21.0727443 ], [ 105.8141544, 21.0722116 ], [ 105.812451, 21.0690924 ], [ 105.8123599, 21.0688327 ], [ 105.811406, 21.0670372 ], [ 105.8108022, 21.0649311 ], [ 105.8101358, 21.0651792 ], [ 105.81000659999998, 21.0652296 ], [ 105.8074966, 21.0678685 ], [ 105.806979899999988, 21.0681008 ], [ 105.8065286, 21.0713858 ], [ 105.8065193, 21.0721653 ], [ 105.8083396, 21.0725379 ], [ 105.811102, 21.0749521 ], [ 105.811242299999989, 21.0752984 ], [ 105.8122125, 21.0772119 ], [ 105.8126328, 21.0779007 ], [ 105.812666099999987, 21.0779555 ], [ 105.813476899999984, 21.0792037 ], [ 105.813756399999988, 21.0796482 ] ] ] } },
{ "type": "Feature", "properties": { "threshold_s": 600, "time_label": "10 min drive" }, "geometry": { "type": "Polygon", "coordinates": [ [ [ 105.7987053, 21.0714302 ], [ 105.795571699999982, 21.0755534 ], [ 105.7977354, 21.0766853 ], [ 105.801182399999988, 21.0770559 ], [ 105.801336599999985, 21.0770292 ], [ 105.8051718, 21.0750137 ], [ 105.809762, 21.0754282 ], [ 105.8122125, 21.0772119 ], [ 105.8126328, 21.0779007 ], [ 105.8113177, 21.0834917 ], [ 105.8104853, 21.0845496 ], [ 105.809968700000013, 21.0856231 ], [ 105.8115305, 21.0901326 ], [ 105.8124618, 21.0896675 ], [ 105.815461699999986, 21.0878261 ], [ 105.8162355, 21.0863521 ], [ 105.8216434, 21.0832042 ], [ 105.822218299999989, 21.082718 ], [ 105.8240937, 21.0778059 ], [ 105.826889699999981, 21.0742817 ], [ 105.8290271, 21.0726398 ], [ 105.827299699999983, 21.0671643 ], [ 105.8265473, 21.0663962 ], [ 105.823201499999982, 21.0664361 ], [ 105.8226932, 21.0665891 ], [ 105.8213587, 21.0668942 ], [ 105.820459299999982, 21.0673734 ], [ 105.8213389, 21.0727396 ], [ 105.8197134, 21.0740943 ], [ 105.8141544, 21.0722116 ], [ 105.812451, 21.0690924 ], [ 105.8123599, 21.0688327 ], [ 105.811406, 21.0670372 ], [ 105.8108022, 21.0649311 ], [ 105.8100873, 21.0626012 ], [ 105.8093435, 21.0612735 ], [ 105.810285, 21.0557159 ], [ 105.8088956, 21.0551081 ], [ 105.808795799999984, 21.0550888 ], [ 105.8045839, 21.0560366 ], [ 105.8059842, 21.0583998 ], [ 105.8006653, 21.0621106 ], [ 105.7988527, 21.063963 ], [ 105.797705199999982, 21.0675384 ], [ 105.7987053, 21.0714302 ] ] ] } },
{ "type": "Feature", "properties": { "threshold_s": 900, "time_label": "15 min drive" }, "geometry": { "type": "Polygon", "coordinates": [ [ [ 105.7858225, 21.076776 ], [ 105.7887023, 21.0812011 ], [ 105.791389700000011, 21.0825132 ], [ 105.797344699999982, 21.0857322 ], [ 105.799210699999989, 21.0874199 ], [ 105.801138099999989, 21.0897728 ], [ 105.80620709999998, 21.0898452 ], [ 105.8116425, 21.0905974 ], [ 105.815461699999986, 21.0878261 ], [ 105.8216434, 21.0832042 ], [ 105.822218299999989, 21.082718 ], [ 105.8240937, 21.0778059 ], [ 105.8320226, 21.0815984 ], [ 105.8360514, 21.0785898 ], [ 105.8368812, 21.0776944 ], [ 105.833167299999985, 21.0696651 ], [ 105.83456409999998, 21.0684068 ], [ 105.8350823, 21.0674844 ], [ 105.836126, 21.0657657 ], [ 105.834307199999984, 21.0588556 ], [ 105.8261921, 21.0612048 ], [ 105.8213692, 21.0613834 ], [ 105.8212833, 21.0615543 ], [ 105.8209989, 21.0621614 ], [ 105.8210202, 21.0626814 ], [ 105.819245, 21.0667666 ], [ 105.8108022, 21.0649311 ], [ 105.8100873, 21.0626012 ], [ 105.811723299999983, 21.0547895 ], [ 105.813290599999988, 21.0506848 ], [ 105.806124299999979, 21.0459509 ], [ 105.805620799999986, 21.0460004 ], [ 105.804539799999986, 21.0463168 ], [ 105.8047034, 21.0483933 ], [ 105.804673, 21.0490733 ], [ 105.8044637, 21.0504696 ], [ 105.7975521, 21.0556548 ], [ 105.7974807, 21.0556566 ], [ 105.794961, 21.0567068 ], [ 105.7912129, 21.0597339 ], [ 105.789528899999979, 21.0623977 ], [ 105.789354499999988, 21.0626786 ], [ 105.7880233, 21.0666749 ], [ 105.787689699999987, 21.0698251 ], [ 105.7858225, 21.076776 ] ] ] } },
{ "type": "Feature", "properties": { "threshold_s": 300, "time_label": "5 min drive" }, "geometry": { "type": "Polygon", "coordinates": [ [ [ 105.810559499999982, 21.0361601 ], [ 105.80857469999998, 21.0376916 ], [ 105.8101548, 21.0382785 ], [ 105.8116046, 21.0391913 ], [ 105.813010599999984, 21.0408524 ], [ 105.816428500000015, 21.0435567 ], [ 105.8170149, 21.0433757 ], [ 105.8189915, 21.0421277 ], [ 105.8187395, 21.0421323 ], [ 105.8165567, 21.0419139 ], [ 105.814005599999987, 21.0414615 ], [ 105.8127786, 21.0392611 ], [ 105.8152145, 21.0374458 ], [ 105.8173165, 21.0373304 ], [ 105.8226508, 21.039099 ], [ 105.822601899999981, 21.0387205 ], [ 105.8271558, 21.0347458 ], [ 105.8271908, 21.0334056 ], [ 105.8267433, 21.0343099 ], [ 105.821467899999988, 21.0351968 ], [ 105.8205961, 21.0335635 ], [ 105.8196948, 21.0308865 ], [ 105.8182347, 21.0306756 ], [ 105.8164399, 21.0296201 ], [ 105.8131428, 21.0302472 ], [ 105.812605099999985, 21.0298162 ], [ 105.810790299999979, 21.03192 ], [ 105.810305, 21.0348404 ], [ 105.810559499999982, 21.0361601 ] ] ] } },
{ "type": "Feature", "properties": { "threshold_s": 600, "time_label": "10 min drive" }, "geometry": { "type": "Polygon", "coordinates": [ [ [ 105.8050187, 21.0461308 ], [ 105.8064247, 21.0486989 ], [ 105.8065021, 21.0486522 ], [ 105.8067947, 21.0481672 ], [ 105.8118943, 21.0466978 ], [ 105.813290599999988, 21.0506848 ], [ 105.815235299999983, 21.0455385 ], [ 105.8172402, 21.0447458 ], [ 105.817391, 21.0446957 ], [ 105.8185603, 21.0434901 ], [ 105.823222, 21.0436032 ], [ 105.8251749, 21.0431721 ], [ 105.8285905, 21.0410636 ], [ 105.828956799999986, 21.040745 ], [ 105.828665499999985, 21.0395817 ], [ 105.8271558, 21.0347458 ], [ 105.82998929999998, 21.0333873 ], [ 105.833620399999987, 21.0342652 ], [ 105.836138799999986, 21.030881 ], [ 105.8360782, 21.0304375 ], [ 105.835208699999981, 21.0291554 ], [ 105.8348712, 21.0288185 ], [ 105.8299453, 21.0290504 ], [ 105.8278032, 21.0265949 ], [ 105.827719699999989, 21.0263735 ], [ 105.8276471, 21.0261865 ], [ 105.827496, 21.0262322 ], [ 105.823184399999988, 21.0262688 ], [ 105.8228313, 21.0222185 ], [ 105.822719, 21.021974 ], [ 105.8200632, 21.021484 ], [ 105.8165241, 21.0189461 ], [ 105.816100899999981, 21.022873 ], [ 105.810747899999981, 21.0240695 ], [ 105.80992089999998, 21.0226339 ], [ 105.808519499999989, 21.0201974 ], [ 105.8083104, 21.0198315 ], [ 105.8081414, 21.0199171 ], [ 105.8078754, 21.0200564 ], [ 105.806216599999985, 21.0234112 ], [ 105.8056249, 21.0282146 ], [ 105.8017885, 21.0297974 ], [ 105.8015154, 21.0300109 ], [ 105.8011423, 21.0304653 ], [ 105.8028804, 21.0323948 ], [ 105.801661, 21.0366779 ], [ 105.8000112, 21.0385207 ], [ 105.802945599999987, 21.0401025 ], [ 105.806136099999989, 21.0438464 ], [ 105.8050187, 21.0461308 ] ] ] } },
{ "type": "Feature", "properties": { "threshold_s": 900, "time_label": "15 min drive" }, "geometry": { "type": "Polygon", "coordinates": [ [ [ 105.8045967, 21.054599 ], [ 105.8043423, 21.0567917 ], [ 105.809025299999988, 21.0610792 ], [ 105.80913289999998, 21.0610495 ], [ 105.811723299999983, 21.0547895 ], [ 105.813290599999988, 21.0506848 ], [ 105.817391, 21.0446957 ], [ 105.823222, 21.0436032 ], [ 105.8251749, 21.0431721 ], [ 105.8285905, 21.0410636 ], [ 105.8351095, 21.0426739 ], [ 105.8363039, 21.0440074 ], [ 105.838064499999987, 21.0427637 ], [ 105.8400482, 21.041063 ], [ 105.840077, 21.0409934 ], [ 105.843290199999984, 21.0323602 ], [ 105.845064, 21.0313485 ], [ 105.845615399999986, 21.0263771 ], [ 105.8454267, 21.0257694 ], [ 105.841464500000015, 21.024215 ], [ 105.833795699999982, 21.0192431 ], [ 105.8290103, 21.0144294 ], [ 105.82105, 21.0119663 ], [ 105.81725059999998, 21.0119342 ], [ 105.8106768, 21.0102154 ], [ 105.8105007, 21.0103209 ], [ 105.8023038, 21.0131912 ], [ 105.800847099999984, 21.0133141 ], [ 105.8006269, 21.0137068 ], [ 105.7971266, 21.0216502 ], [ 105.7975731, 21.0237727 ], [ 105.7980311, 21.0268446 ], [ 105.7920266, 21.0331823 ], [ 105.7905613, 21.040271 ], [ 105.794622099999984, 21.0462769 ], [ 105.797746, 21.0483795 ], [ 105.8045967, 21.054599 ] ] ] } },
{ "type": "Feature", "properties": { "threshold_s": 300, "time_label": "5 min drive" }, "geometry": { "type": "Polygon", "coordinates": [ [ [ 105.8567492, 21.0313753 ], [ 105.856500399999987, 21.033561 ], [ 105.8588286, 21.0330955 ], [ 105.859561899999989, 21.032523 ], [ 105.861271699999989, 21.0304235 ], [ 105.8613337, 21.0288933 ], [ 105.86210149999998, 21.0246067 ], [ 105.8598823, 21.0218612 ], [ 105.862065, 21.0195265 ], [ 105.863899, 21.018973 ], [ 105.864448899999985, 21.0179396 ], [ 105.865231599999987, 21.0153725 ], [ 105.8627588, 21.017663 ], [ 105.862086, 21.0185502 ], [ 105.8580477, 21.0211556 ], [ 105.857519, 21.0212525 ], [ 105.8561315, 21.0216867 ], [ 105.855198799999982, 21.0227635 ], [ 105.8547547, 21.023716 ], [ 105.8544024, 21.0251211 ], [ 105.8545573, 21.025672 ], [ 105.8559552, 21.0275369 ], [ 105.8567475, 21.030865 ], [ 105.8567492, 21.0313753 ] ] ] } },
{ "type": "Feature", "properties": { "threshold_s": 600, "time_label": "10 min drive" }, "geometry": { "type": "Polygon", "coordinates": [ [ [ 105.849642099999983, 21.0363753 ], [ 105.8502071, 21.0410105 ], [ 105.850356799999986, 21.0411413 ], [ 105.8532054, 21.0410502 ], [ 105.8559408, 21.0375631 ], [ 105.859561899999989, 21.032523 ], [ 105.861271699999989, 21.0304235 ], [ 105.86210149999998, 21.0246067 ], [ 105.863899, 21.018973 ], [ 105.864448899999985, 21.0179396 ], [ 105.865231599999987, 21.0153725 ], [ 105.8680303, 21.0100022 ], [ 105.866515899999982, 21.0078988 ], [ 105.8614453, 21.0088242 ], [ 105.8608904, 21.0091442 ], [ 105.8559995, 21.012832 ], [ 105.8530265, 21.0134566 ], [ 105.8523728, 21.0136489 ], [ 105.849888399999983, 21.0152015 ], [ 105.8484518, 21.0170395 ], [ 105.8474562, 21.0183772 ], [ 105.8473042, 21.019172 ], [ 105.8451257, 21.0249069 ], [ 105.8437592, 21.0269191 ], [ 105.84318829999998, 21.0279468 ], [ 105.8434703, 21.0283452 ], [ 105.8467815, 21.03166 ], [ 105.849642099999983, 21.0363753 ] ] ] } },
{ "type": "Feature", "properties": { "threshold_s": 900, "time_label": "15 min drive" }, "geometry": { "type": "Polygon", "coordinates": [ [ [ 105.842786799999985, 21.04652 ], [ 105.843499699999981, 21.0473729 ], [ 105.8481324, 21.0481674 ], [ 105.8492648, 21.0462351 ], [ 105.850106499999981, 21.0449387 ], [ 105.8532054, 21.0410502 ], [ 105.8645845, 21.0429123 ], [ 105.8647652, 21.0430675 ], [ 105.865444, 21.0433917 ], [ 105.8657297, 21.0435362 ], [ 105.871282399999984, 21.0429071 ], [ 105.870682799999983, 21.0369337 ], [ 105.8688705, 21.0342946 ], [ 105.86210149999998, 21.0246067 ], [ 105.863899, 21.018973 ], [ 105.864448899999985, 21.0179396 ], [ 105.865231599999987, 21.0153725 ], [ 105.8680303, 21.0100022 ], [ 105.8767031, 21.002003 ], [ 105.8711588, 20.9994913 ], [ 105.8690488, 20.9988706 ], [ 105.8617132, 20.9990108 ], [ 105.8510544, 21.0044032 ], [ 105.8491994, 21.0056317 ], [ 105.846089299999988, 21.0079147 ], [ 105.8460661, 21.0081019 ], [ 105.8414099, 21.0174645 ], [ 105.8394154, 21.0189573 ], [ 105.833415599999981, 21.0280593 ], [ 105.833105, 21.0322249 ], [ 105.834611099999989, 21.0340502 ], [ 105.8363518, 21.0356501 ], [ 105.8415026, 21.0446876 ], [ 105.842786799999985, 21.04652 ] ] ] } },
{ "type": "Feature", "properties": { "threshold_s": 300, "time_label": "5 min drive" }, "geometry": { "type": "Polygon", "coordinates": [ [ [ 105.8467549, 21.0397937 ], [ 105.8471661, 21.0403179 ], [ 105.8492253, 21.0404711 ], [ 105.851149600000014, 21.0394834 ], [ 105.8515241, 21.0390352 ], [ 105.853296899999989, 21.0369383 ], [ 105.8547385, 21.0352913 ], [ 105.8559161, 21.032665 ], [ 105.85726, 21.0315916 ], [ 105.8567475, 21.030865 ], [ 105.855437800000018, 21.0289498 ], [ 105.853331499999982, 21.0313059 ], [ 105.8510791, 21.0304701 ], [ 105.8511617, 21.0278966 ], [ 105.8533791, 21.0260713 ], [ 105.8544024, 21.0251211 ], [ 105.852939699999979, 21.0242487 ], [ 105.850819799999982, 21.023226 ], [ 105.849699099999981, 21.0251837 ], [ 105.8463801, 21.0245553 ], [ 105.8451257, 21.0249069 ], [ 105.8432716, 21.0254436 ], [ 105.841517, 21.02649 ], [ 105.840414599999988, 21.0277838 ], [ 105.841048699999988, 21.030708 ], [ 105.843290199999984, 21.0323602 ], [ 105.8449379, 21.0348636 ], [ 105.8454918, 21.0375308 ], [ 105.8467549, 21.0397937 ] ] ] } },
{ "type": "Feature", "properties": { "threshold_s": 600, "time_label": "10 min drive" }, "geometry": { "type": "Polygon", "coordinates": [ [ [ 105.838000199999982, 21.0413454 ], [ 105.8359577, 21.042714 ], [ 105.836316, 21.042721 ], [ 105.838064499999987, 21.0427637 ], [ 105.8401771, 21.0433484 ], [ 105.840307699999983, 21.0458038 ], [ 105.84031760000002, 21.0464223 ], [ 105.8407961, 21.0470259 ], [ 105.8420736, 21.0478426 ], [ 105.8438635, 21.0467884 ], [ 105.8464956, 21.0461629 ], [ 105.8492648, 21.0462351 ], [ 105.850106499999981, 21.0449387 ], [ 105.8513591, 21.04259 ], [ 105.8532054, 21.0410502 ], [ 105.8552544, 21.038343 ], [ 105.8559408, 21.0375631 ], [ 105.8559647, 21.0363109 ], [ 105.8580411, 21.033791 ], [ 105.8588286, 21.0330955 ], [ 105.859561899999989, 21.032523 ], [ 105.861271699999989, 21.0304235 ], [ 105.8613337, 21.0288933 ], [ 105.861773199999988, 21.025698 ], [ 105.8620378, 21.0248247 ], [ 105.86210149999998, 21.0246067 ], [ 105.8598823, 21.0218612 ], [ 105.86021839999998, 21.0190576 ], [ 105.8583461, 21.0169388 ], [ 105.8556233, 21.0172861 ], [ 105.8531376, 21.0152821 ], [ 105.851557799999981, 21.0151545 ], [ 105.849150399999985, 21.0133873 ], [ 105.8482749, 21.0133237 ], [ 105.847263, 21.0153508 ], [ 105.844269199999985, 21.017305 ], [ 105.8435857, 21.0172651 ], [ 105.8424924, 21.0173642 ], [ 105.8414099, 21.0174645 ], [ 105.8394154, 21.0189573 ], [ 105.8370701, 21.0188496 ], [ 105.8368905, 21.022215 ], [ 105.8376116, 21.0232408 ], [ 105.8380997, 21.0259862 ], [ 105.8357768, 21.0272036 ], [ 105.83421460000001, 21.0259824 ], [ 105.8337883, 21.0250219 ], [ 105.8330833, 21.0252794 ], [ 105.8330075, 21.0253066 ], [ 105.8318917, 21.0265264 ], [ 105.8318088, 21.0286941 ], [ 105.831823799999981, 21.0287574 ], [ 105.8319699, 21.029207 ], [ 105.830216, 21.0321081 ], [ 105.830069, 21.0327886 ], [ 105.8317055, 21.0344357 ], [ 105.83272119999998, 21.034424 ], [ 105.833620399999987, 21.0342652 ], [ 105.8363518, 21.0356501 ], [ 105.837023599999981, 21.0388764 ], [ 105.838000199999982, 21.0413454 ] ] ] } },
{ "type": "Feature", "properties": { "threshold_s": 900, "time_label": "15 min drive" }, "geometry": { "type": "Polygon", "coordinates": [ [ [ 105.835914299999985, 21.0526278 ], [ 105.8360691, 21.0561833 ], [ 105.8361613, 21.0562297 ], [ 105.841105099999979, 21.0557457 ], [ 105.8443236, 21.0542526 ], [ 105.8481324, 21.0481674 ], [ 105.8492648, 21.0462351 ], [ 105.850106499999981, 21.0449387 ], [ 105.8532054, 21.0410502 ], [ 105.8539648, 21.0399026 ], [ 105.8552544, 21.038343 ], [ 105.8559408, 21.0375631 ], [ 105.8652272, 21.0404883 ], [ 105.8645302, 21.0425052 ], [ 105.8645845, 21.0429123 ], [ 105.8647652, 21.0430675 ], [ 105.865444, 21.0433917 ], [ 105.8657297, 21.0435362 ], [ 105.871282399999984, 21.0429071 ], [ 105.870682799999983, 21.0369337 ], [ 105.8688705, 21.0342946 ], [ 105.8613337, 21.0288933 ], [ 105.861773199999988, 21.025698 ], [ 105.8620378, 21.0248247 ], [ 105.86210149999998, 21.0246067 ], [ 105.863899, 21.018973 ], [ 105.864448899999985, 21.0179396 ], [ 105.865231599999987, 21.0153725 ], [ 105.8655468, 21.0144409 ], [ 105.8657318, 21.0120932 ], [ 105.865302699999987, 21.0105281 ], [ 105.8650208, 21.0103071 ], [ 105.8628271, 21.0086717 ], [ 105.860795, 21.0076553 ], [ 105.8546658, 21.0067839 ], [ 105.8510544, 21.0044032 ], [ 105.8504813, 21.0044425 ], [ 105.8413113, 21.0063215 ], [ 105.8407724, 21.0079662 ], [ 105.8410532, 21.0107455 ], [ 105.8372522, 21.018501 ], [ 105.8309465, 21.0170993 ], [ 105.8290405, 21.016959 ], [ 105.8289753, 21.016992 ], [ 105.8255177, 21.0206878 ], [ 105.8255579, 21.0213209 ], [ 105.824814299999986, 21.0276475 ], [ 105.8202169, 21.0311016 ], [ 105.820262, 21.0352954 ], [ 105.8257707, 21.041239 ], [ 105.826639699999987, 21.0413859 ], [ 105.8285905, 21.0410636 ], [ 105.8363039, 21.0440074 ], [ 105.835914299999985, 21.0526278 ] ] ] } },
{ "type": "Feature", "properties": { "threshold_s": 300, "time_label": "5 min drive" }, "geometry": { "type": "Polygon", "coordinates": [ [ [ 105.8295148, 20.9904881 ], [ 105.8289622, 20.9919467 ], [ 105.830018, 20.992885 ], [ 105.8319117, 20.9932425 ], [ 105.8328399, 20.9917502 ], [ 105.834531, 20.9890649 ], [ 105.8364406, 20.9872467 ], [ 105.8365638, 20.9871738 ], [ 105.840966499999979, 20.9869198 ], [ 105.840944, 20.9853981 ], [ 105.8387936, 20.983536 ], [ 105.839110599999984, 20.9821945 ], [ 105.8376766, 20.9804547 ], [ 105.836566099999985, 20.9781514 ], [ 105.835993799999983, 20.9781407 ], [ 105.835477399999988, 20.9787124 ], [ 105.835784799999985, 20.9796397 ], [ 105.8348039, 20.982038 ], [ 105.8335179, 20.9835469 ], [ 105.830879699999983, 20.9839017 ], [ 105.8297444, 20.981935 ], [ 105.8289065, 20.9847768 ], [ 105.826665199999979, 20.9840852 ], [ 105.8262953, 20.9845397 ], [ 105.826157699999982, 20.9871098 ], [ 105.8262988, 20.9875639 ], [ 105.827386300000015, 20.9889458 ], [ 105.8295148, 20.9904881 ] ] ] } },
{ "type": "Feature", "properties": { "threshold_s": 600, "time_label": "10 min drive" }, "geometry": { "type": "Polygon", "coordinates": [ [ [ 105.8270346, 21.0012111 ], [ 105.8271192, 21.0014607 ], [ 105.829533699999985, 21.0019292 ], [ 105.8318828, 20.9997185 ], [ 105.8350321, 21.0003082 ], [ 105.8374806, 20.9988543 ], [ 105.8414363, 20.9983731 ], [ 105.842720899999989, 20.9972327 ], [ 105.8427295, 20.9928437 ], [ 105.8429362, 20.9921118 ], [ 105.843347099999988, 20.9895073 ], [ 105.847151399999987, 20.9886826 ], [ 105.8469413, 20.9876115 ], [ 105.8499581, 20.9837472 ], [ 105.851251399999981, 20.9836686 ], [ 105.851780799999986, 20.9836497 ], [ 105.8525895, 20.9834957 ], [ 105.8498569, 20.9816806 ], [ 105.847992299999987, 20.9799498 ], [ 105.845441099999988, 20.9789368 ], [ 105.842020799999986, 20.9765727 ], [ 105.840788599999982, 20.9722154 ], [ 105.8394857, 20.9712669 ], [ 105.838662499999984, 20.9709903 ], [ 105.835922399999987, 20.9708118 ], [ 105.832131099999984, 20.9698574 ], [ 105.828260799999981, 20.9714462 ], [ 105.826993, 20.9719161 ], [ 105.826799199999982, 20.9723378 ], [ 105.8254417, 20.9757846 ], [ 105.825129899999979, 20.9774515 ], [ 105.8213626, 20.9805317 ], [ 105.821237, 20.98295 ], [ 105.8243836, 20.9854523 ], [ 105.823961700000012, 20.9897532 ], [ 105.8237121, 20.9900689 ], [ 105.8252761, 20.9941733 ], [ 105.8234955, 20.9974402 ], [ 105.825775399999984, 20.9988518 ], [ 105.8270346, 21.0012111 ] ] ] } },
{ "type": "Feature", "properties": { "threshold_s": 900, "time_label": "15 min drive" }, "geometry": { "type": "Polygon", "coordinates": [ [ [ 105.8164931, 21.0008709 ], [ 105.817900599999987, 21.0043221 ], [ 105.818031, 21.0044283 ], [ 105.822243, 21.005964 ], [ 105.824498599999984, 21.0092908 ], [ 105.8313437, 21.0095462 ], [ 105.8329664, 21.0105372 ], [ 105.836857399999985, 21.0108048 ], [ 105.8413355, 21.0087937 ], [ 105.84379269999998, 21.0076335 ], [ 105.8481605, 21.0033162 ], [ 105.8489236, 21.002297 ], [ 105.8503963, 20.9994987 ], [ 105.853749099999987, 20.9954254 ], [ 105.850962, 20.9937682 ], [ 105.8532444, 20.9875112 ], [ 105.857643199999984, 20.9876336 ], [ 105.8587992, 20.9875817 ], [ 105.8597165, 20.9872792 ], [ 105.8609002, 20.9865424 ], [ 105.8611428, 20.9863672 ], [ 105.863866, 20.9836303 ], [ 105.860551, 20.9805836 ], [ 105.8554211, 20.9753767 ], [ 105.8532317, 20.9717357 ], [ 105.8510889, 20.9706841 ], [ 105.8459463, 20.9655162 ], [ 105.8418496, 20.9634108 ], [ 105.8409509, 20.9630438 ], [ 105.8333829, 20.9646874 ], [ 105.8328593, 20.9645912 ], [ 105.8259835, 20.9628652 ], [ 105.82541, 20.9630172 ], [ 105.824413599999986, 20.9633344 ], [ 105.8217627, 20.9651381 ], [ 105.821515600000012, 20.9653903 ], [ 105.81957389999998, 20.9683996 ], [ 105.817933199999985, 20.9732958 ], [ 105.8145568, 20.9765149 ], [ 105.812412, 20.9787401 ], [ 105.8122624, 20.9789299 ], [ 105.8123435, 20.983094 ], [ 105.813462499999986, 20.9862914 ], [ 105.815826699999988, 20.9922896 ], [ 105.818173, 20.9965335 ], [ 105.8165621, 21.0007756 ], [ 105.8164931, 21.0008709 ] ] ] } },
{ "type": "Feature", "properties": { "threshold_s": 300, "time_label": "5 min drive" }, "geometry": { "type": "Polygon", "coordinates": [ [ [ 105.866299, 21.116035 ], [ 105.866965199999981, 21.1174407 ], [ 105.868525199999979, 21.1186497 ], [ 105.870279199999985, 21.119705 ], [ 105.872816699999987, 21.1211217 ], [ 105.8736475, 21.1214168 ], [ 105.873997599999981, 21.1209559 ], [ 105.874975899999981, 21.118163 ], [ 105.876633, 21.1159957 ], [ 105.87902, 21.118011 ], [ 105.8800399, 21.1156359 ], [ 105.8805362, 21.1135334 ], [ 105.883237099999988, 21.1149153 ], [ 105.88067359999998, 21.1133089 ], [ 105.881375599999984, 21.1121404 ], [ 105.8798389, 21.1118092 ], [ 105.8773288, 21.1106999 ], [ 105.8776069, 21.1095539 ], [ 105.8770013, 21.1106998 ], [ 105.8743968, 21.1102167 ], [ 105.8727953, 21.1093892 ], [ 105.8723018, 21.1090865 ], [ 105.871324799999982, 21.1091765 ], [ 105.871376, 21.1099075 ], [ 105.86789349999998, 21.1091778 ], [ 105.866934699999987, 21.1073774 ], [ 105.865234099999981, 21.1093967 ], [ 105.864626799999982, 21.1104454 ], [ 105.8657766, 21.1101895 ], [ 105.8662856, 21.1101027 ], [ 105.8666678, 21.1100591 ], [ 105.86716, 21.1100098 ], [ 105.869457700000012, 21.1113928 ], [ 105.8694667, 21.1134828 ], [ 105.8662534, 21.1136154 ], [ 105.866299, 21.116035 ] ] ] } },
{ "type": "Feature", "properties": { "threshold_s": 600, "time_label": "10 min drive" }, "geometry": { "type": "Polygon", "coordinates": [ [ [ 105.8682181, 21.1261005 ], [ 105.8659907, 21.1294773 ], [ 105.870982399999988, 21.1288583 ], [ 105.8737434, 21.1272753 ], [ 105.876371899999981, 21.1254612 ], [ 105.879722099999981, 21.1229544 ], [ 105.8847787, 21.1243797 ], [ 105.8849494, 21.1244569 ], [ 105.8868809, 21.1234798 ], [ 105.8875501, 21.1229857 ], [ 105.8930212, 21.1194827 ], [ 105.892802499999988, 21.1155984 ], [ 105.8905845, 21.1107889 ], [ 105.888887199999985, 21.1067706 ], [ 105.886718699999989, 21.1060654 ], [ 105.885846199999989, 21.10659 ], [ 105.8865562, 21.1072174 ], [ 105.887570199999985, 21.1101399 ], [ 105.881375599999984, 21.1121404 ], [ 105.8776069, 21.1095539 ], [ 105.8741172, 21.1070907 ], [ 105.874018399999983, 21.1029396 ], [ 105.874096099999988, 21.1026256 ], [ 105.8686571, 21.1013029 ], [ 105.8645759, 21.0995191 ], [ 105.862555, 21.0999527 ], [ 105.861874300000011, 21.1003658 ], [ 105.8596739, 21.1035387 ], [ 105.8619377, 21.1083383 ], [ 105.8613449, 21.110275 ], [ 105.854969299999979, 21.1128185 ], [ 105.8543095, 21.1125207 ], [ 105.853981599999983, 21.1140176 ], [ 105.854036900000011, 21.1148049 ], [ 105.8595166, 21.1129244 ], [ 105.860765599999979, 21.1191626 ], [ 105.8660922, 21.1217797 ], [ 105.8682181, 21.1261005 ] ] ] } },
{ "type": "Feature", "properties": { "threshold_s": 900, "time_label": "15 min drive" }, "geometry": { "type": "Polygon", "coordinates": [ [ [ 105.856707699999987, 21.1326545 ], [ 105.8597452, 21.137812 ], [ 105.860679399999981, 21.1383074 ], [ 105.8686901, 21.1383205 ], [ 105.8729983, 21.1381564 ], [ 105.8741102, 21.1363266 ], [ 105.8746956, 21.1354326 ], [ 105.8818326, 21.1313513 ], [ 105.8826373, 21.131483 ], [ 105.88507580000001, 21.1319738 ], [ 105.8862868, 21.1297146 ], [ 105.8878492, 21.1279107 ], [ 105.8891044, 21.1265334 ], [ 105.891074499999988, 21.1240315 ], [ 105.897966199999985, 21.1246439 ], [ 105.89977829999998, 21.1259505 ], [ 105.9023152, 21.1220291 ], [ 105.8998341, 21.1165574 ], [ 105.898215, 21.1139026 ], [ 105.8939567, 21.1130792 ], [ 105.889155499999987, 21.1076405 ], [ 105.889056499999981, 21.1073444 ], [ 105.8889663, 21.1070564 ], [ 105.888887199999985, 21.1067706 ], [ 105.888465499999981, 21.1053624 ], [ 105.888167, 21.1038843 ], [ 105.8905703, 21.0962649 ], [ 105.883880799999986, 21.0949157 ], [ 105.8832027, 21.0948894 ], [ 105.882795799999982, 21.0948782 ], [ 105.8826671, 21.0949751 ], [ 105.882488399999986, 21.0960432 ], [ 105.8829474, 21.0977435 ], [ 105.8833601, 21.0998451 ], [ 105.8832685, 21.1008785 ], [ 105.8847727, 21.103701 ], [ 105.8851281, 21.104291 ], [ 105.885846199999989, 21.10659 ], [ 105.8776069, 21.1095539 ], [ 105.874018399999983, 21.1029396 ], [ 105.874096099999988, 21.1026256 ], [ 105.873307, 21.0948405 ], [ 105.869573299999985, 21.091842 ], [ 105.8693689, 21.0916387 ], [ 105.8683317, 21.0904934 ], [ 105.8683025, 21.0905357 ], [ 105.8667126, 21.0936393 ], [ 105.862486899999979, 21.0987667 ], [ 105.8581987, 21.1023516 ], [ 105.8522876, 21.1062254 ], [ 105.8502203, 21.107476 ], [ 105.850278399999979, 21.1086406 ], [ 105.8524816, 21.1140721 ], [ 105.8491999, 21.1203035 ], [ 105.849466699999979, 21.1210428 ], [ 105.8498298, 21.1211048 ], [ 105.851773799999989, 21.1215849 ], [ 105.8544382, 21.117884 ], [ 105.860765599999979, 21.1191626 ], [ 105.8660922, 21.1217797 ], [ 105.8682181, 21.1261005 ], [ 105.861064299999981, 21.1294715 ], [ 105.860011899999989, 21.1293631 ], [ 105.856707699999987, 21.1326545 ] ] ] } },
{ "type": "Feature", "properties": { "threshold_s": 300, "time_label": "5 min drive" }, "geometry": { "type": "Polygon", "coordinates": [ [ [ 105.8467549, 21.0397937 ], [ 105.8471661, 21.0403179 ], [ 105.8482846, 21.041106 ], [ 105.8492253, 21.0404711 ], [ 105.8505606, 21.0383929 ], [ 105.8525179, 21.0367986 ], [ 105.853296899999989, 21.0369383 ], [ 105.8542072, 21.0356567 ], [ 105.855146499999989, 21.0331672 ], [ 105.8559161, 21.032665 ], [ 105.855826199999981, 21.0312919 ], [ 105.8545659, 21.0314536 ], [ 105.8539092, 21.0313985 ], [ 105.853331499999982, 21.0313059 ], [ 105.8510791, 21.0304701 ], [ 105.8511617, 21.0278966 ], [ 105.851678599999985, 21.0259447 ], [ 105.849699099999981, 21.0251837 ], [ 105.846901399999979, 21.0243922 ], [ 105.8451257, 21.0249069 ], [ 105.8432716, 21.0254436 ], [ 105.8414982, 21.0259455 ], [ 105.839868899999985, 21.0264119 ], [ 105.838971599999979, 21.0277376 ], [ 105.839164299999979, 21.0281474 ], [ 105.8415837, 21.0296129 ], [ 105.8403743, 21.0308374 ], [ 105.8403466, 21.0314387 ], [ 105.840682299999983, 21.0328473 ], [ 105.843290199999984, 21.0323602 ], [ 105.8447768, 21.0340917 ], [ 105.8449379, 21.0348636 ], [ 105.8454918, 21.0375308 ], [ 105.8467549, 21.0397937 ] ] ] } },
{ "type": "Feature", "properties": { "threshold_s": 600, "time_label": "10 min drive" }, "geometry": { "type": "Polygon", "coordinates": [ [ [ 105.8358527, 21.042708 ], [ 105.8363039, 21.0440074 ], [ 105.838064499999987, 21.0427637 ], [ 105.840307699999983, 21.0458038 ], [ 105.84031760000002, 21.0464223 ], [ 105.8407961, 21.0470259 ], [ 105.841621, 21.0476337 ], [ 105.8420736, 21.0478426 ], [ 105.8438635, 21.0467884 ], [ 105.8464956, 21.0461629 ], [ 105.8492648, 21.0462351 ], [ 105.850106499999981, 21.0449387 ], [ 105.8513591, 21.04259 ], [ 105.8532054, 21.0410502 ], [ 105.8552544, 21.038343 ], [ 105.8559408, 21.0375631 ], [ 105.8559647, 21.0363109 ], [ 105.8580411, 21.033791 ], [ 105.8588286, 21.0330955 ], [ 105.859561899999989, 21.032523 ], [ 105.861271699999989, 21.0304235 ], [ 105.8613337, 21.0288933 ], [ 105.861773199999988, 21.025698 ], [ 105.8607254, 21.0240373 ], [ 105.8598823, 21.0218612 ], [ 105.8588143, 21.0185725 ], [ 105.8556233, 21.0172861 ], [ 105.855323499999983, 21.0172067 ], [ 105.8540474, 21.0169953 ], [ 105.850418, 21.0151848 ], [ 105.8483814, 21.0152195 ], [ 105.847806599999984, 21.0152294 ], [ 105.847263, 21.0153508 ], [ 105.8435857, 21.0172651 ], [ 105.8424924, 21.0173642 ], [ 105.8414099, 21.0174645 ], [ 105.8372522, 21.018501 ], [ 105.8370701, 21.0188496 ], [ 105.834126, 21.0213059 ], [ 105.832154499999987, 21.0234448 ], [ 105.830492399999983, 21.0270872 ], [ 105.8299453, 21.0290504 ], [ 105.8288446, 21.0324006 ], [ 105.828823, 21.0325515 ], [ 105.8317055, 21.0344357 ], [ 105.83272119999998, 21.034424 ], [ 105.8363518, 21.0356501 ], [ 105.837023599999981, 21.0388764 ], [ 105.8358527, 21.042708 ] ] ] } },
{ "type": "Feature", "properties": { "threshold_s": 900, "time_label": "15 min drive" }, "geometry": { "type": "Polygon", "coordinates": [ [ [ 105.835914299999985, 21.0526278 ], [ 105.8360691, 21.0561833 ], [ 105.8361613, 21.0562297 ], [ 105.841557899999984, 21.0558356 ], [ 105.8443236, 21.0542526 ], [ 105.8481324, 21.0481674 ], [ 105.8492648, 21.0462351 ], [ 105.850106499999981, 21.0449387 ], [ 105.8532054, 21.0410502 ], [ 105.8539648, 21.0399026 ], [ 105.8552544, 21.038343 ], [ 105.8559408, 21.0375631 ], [ 105.8654306, 21.0378592 ], [ 105.8652272, 21.0404883 ], [ 105.8650849, 21.0413692 ], [ 105.8651778, 21.0421476 ], [ 105.8655731, 21.0424103 ], [ 105.86995349999998, 21.0417416 ], [ 105.8700365, 21.0416674 ], [ 105.868978799999979, 21.0375202 ], [ 105.8679039, 21.0359146 ], [ 105.861271699999989, 21.0304235 ], [ 105.8613337, 21.0288933 ], [ 105.861773199999988, 21.025698 ], [ 105.8620378, 21.0248247 ], [ 105.86210149999998, 21.0246067 ], [ 105.863899, 21.018973 ], [ 105.864448899999985, 21.0179396 ], [ 105.865231599999987, 21.0153725 ], [ 105.8655468, 21.0144409 ], [ 105.8645785, 21.0116452 ], [ 105.8614453, 21.0088242 ], [ 105.8606927, 21.0086974 ], [ 105.8555713, 21.0090207 ], [ 105.8511028, 21.0049339 ], [ 105.8491994, 21.0056317 ], [ 105.8412431, 21.0041897 ], [ 105.8397447, 21.0060986 ], [ 105.837626899999989, 21.0104747 ], [ 105.828818699999985, 21.0141218 ], [ 105.828305499999985, 21.0144022 ], [ 105.827412899999985, 21.0152724 ], [ 105.8247558, 21.0191646 ], [ 105.8217474, 21.0253173 ], [ 105.8172566, 21.030683 ], [ 105.817228499999985, 21.0308395 ], [ 105.820262, 21.0352954 ], [ 105.8257707, 21.041239 ], [ 105.826639699999987, 21.0413859 ], [ 105.8285905, 21.0410636 ], [ 105.8363039, 21.0440074 ], [ 105.835914299999985, 21.0526278 ] ] ] } }
]
}
