{"type":"FeatureCollection","features":[{"type":"Feature","geometry":{"type":"Polygon","coordinates":[[[38.716296517245055,9.026518157556751],[38.716381237400064,9.020757003220806],[38.72476878640682,9.02048051963418],[38.73253655509231,9.023048932275916],[38.739559647471104,9.026424476021369],[38.74380471186624,9.030580363611554],[38.738832827979046,9.036158724614596],[38.73506037891828,9.042811685819562],[38.73494891596093,9.04754280252645],[38.72833606431205,9.045892898659545],[38.72404643677977,9.048911713093009],[38.71597545882748,9.053254908703117],[38.71648825638175,9.045522800108108],[38.716118125011235,9.040399303875892],[38.71428542023299,9.034250245070854],[38.716296517245055,9.026518157556751]]]},"id":"00000000000000000000","properties":{"CCA_3":"140108","CCN_3":0,"CC_3":"140108","COUNTRY":"Ethiopia","Count_MixO":9.0,"Count_Unhe":23.0,"Count_heal":2.0,"ENGTYPE_3_":"District","ENGTYPE__1":"District","GID_0":"ETH","GID_1":"ETH.1_1","GID_2":"ETH.1.1_1","GID_3":"ETH.1.1.1_1","HASC_3":"NA","ID_0":74,"ID_1":1,"ID_2":1,"ID_3":1,"ISO":"ETH","NAME_0":"Ethiopia","NAME_1_x":"Addis Abeba","NAME_1_y":"AddisAbeba","NAME_2_x":"Addis Abeba","NAME_2_y":"AddisAbeba","NAME_3":"Addis Ketema","NL_NAME_1":"NA","NL_NAME_2":"NA","NL_NAME_3_":"","NL_NAME__1":"NA","TYPE_3_x":"Woreda","TYPE_3_y":"Woreda","VARNAME_3_":"","VARNAME__1":"NA","acc_health":5805.536378443241,"acc_unheal":97089.74827051163,"area_km2":7.479,"children_u5":21098.916451261033,"classifi_1":"Low Access","classifica":"High obeso","density__1":0.163765623000336,"density_he":0.267,"density_mi":1.203,"density_po":0.014240488956551,"density_un":3.075,"elderly":24191.716664296247,"id":"eth_adm3.1","men":186987.1732620678,"pct_access":4.134,"pop_sum":140444.6157784462,"ptc_access":69.13,"ratio_obes":11.5,"total":382668.0418980521,"total_dens":0.178006111956886,"women":195680.87317797722,"women_rep":127917.63278810785,"youth":120449.9322748322}},{"type":"Feature","geometry":{"type":"Polygon","coordinates":[[[38.73506037891828,9.042811685819562],[38.738832827979046,9.036158724614596],[38.74380471186624,9.030580363611554],[38.74851347385223,9.025372162383878],[38.75364149981028,9.018973361370522],[38.75836815965863,9.023316514509935],[38.76545810365184,9.02204564862878],[38.769333085426254,9.025349861166767],[38.775352860179034,9.02750806112243],[38.777805313319774,9.034584656423261],[38.77155370247938,9.038125160685242],[38.75982175309204,9.043074770224443],[38.75026597100529,9.045950899531402],[38.747719809881,9.052001915325857],[38.73958641268154,9.052421021256816],[38.73494891596093,9.04754280252645],[38.73506037891828,9.042811685819562]]]},"id":"00000000000000000002","properties":{"CCA_3":"140109","CCN_3":0,"CC_3":"140109","COUNTRY":"Ethiopia","Count_MixO":65.0,"Count_Unhe":69.0,"Count_heal":3.0,"ENGTYPE_3_":"District","ENGTYPE__1":"District","GID_0":"ETH","GID_1":"ETH.1_1","GID_2":"ETH.1.1_1","GID_3":"ETH.1.1.3_1","HASC_3":"NA","ID_0":74,"ID_1":1,"ID_2":1,"ID_3":3,"ISO":"ETH","NAME_0":"Ethiopia","NAME_1_x":"Addis Abeba","NAME_1_y":"AddisAbeba","NAME_2_x":"Addis Abeba","NAME_2_y":"AddisAbeba","NAME_3":"Arada","NL_NAME_1":"NA","NL_NAME_2":"NA","NL_NAME_3_":"","NL_NAME__1":"NA","TYPE_3_x":"Woreda","TYPE_3_y":"Woreda","VARNAME_3_":"","VARNAME__1":"NA","acc_health":28127.141330718994,"acc_unheal":138080.64334321022,"area_km2":8.89,"children_u5":16689.926511339152,"classifi_1":"Low Access","classifica":"High obeso","density__1":0.44435345183969,"density_he":0.337,"density_mi":7.312,"density_po":0.019319715297378,"density_un":7.762,"elderly":20002.610881319215,"id":"eth_adm3.3","men":145835.50510631775,"pct_access":18.114,"pop_sum":155281.79136300087,"ptc_access":88.923,"ratio_obes":23.0,"total":310843.66661970154,"total_dens":0.463673167137068,"women":165008.16152808958,"women_rep":111285.47383803006,"youth":91805.16459904925}},{"type":"Feature","geometry":{"type":"Polygon","coordinates":[[[38.709233266210724,9.073138011814502],[38.71081185164143,9.065731462731426],[38.71122653471186,9.05951100442452],[38.71597545882748,9.053254908703117],[38.72404643677977,9.048911713093009],[38.72833606431205,9.045892898659545],[38.73494891596093,9.04754280252645],[38.73958641268154,9.052421021256816],[38.747719809881,9.052001915325857],[38.75026597100529,9.045950899531402],[38.75982175309204,9.043074770224443],[38.76705888465219,9.050351996324329],[38.7666709919808,9.057829903375417],[38.76439238522027,9.063443924313795],[38.76497204748972,9.068946485218936],[38.77051028465849,9.073789052428033],[38.77781425642343,9.077302811810446],[38.78229116307054,9.081142150696227],[38.791311986979196,9.077681851714075],[38.778188827630984,9.09365436956065],[38.771250485360284,9.09819372162933],[38.76521731223525,9.098153612584188],[38.75928669327725,9.095897282463781],[38.75085454637684,9.090528506415437],[38.738025702873664,9.0868631290079],[38.727096409455825,9.085717141804235],[38.716648744562455,9.08775049990963],[38.70674960847477,9.081828798239899],[38.709233266210724,9.073138011814502]]]},"id":"00000000000000000004","properties":{"CCA_3":"140110","CCN_3":0,"CC_3":"140110","COUNTRY":"Ethiopia","Count_MixO":15.0,"Count_Unhe":26.0,"Count_heal":2.0,"ENGTYPE_3_":"District","ENGTYPE__1":"District","GID_0":"ETH","GID_1":"ETH.1_1","GID_2":"ETH.1.1_1","GID_3":"ETH.1.1.5_1","HASC_3":"NA","ID_0":74,"ID_1":1,"ID_2":1,"ID_3":5,"ISO":"ETH","NAME_0":"Ethiopia","NAME_1_x":"Addis Abeba","NAME_1_y":"AddisAbeba","NAME_2_x":"Addis Abeba","NAME_2_y":"AddisAbeba","NAME_3":"Gulele","NL_NAME_1":"NA","NL_NAME_2":"NA","NL_NAME_3_":"","NL_NAME__1":"NA","TYPE_3_x":"Woreda","TYPE_3_y":"Woreda","VARNAME_3_":"","VARNAME__1":"NA","acc_health":29943.483638763428,"acc_unheal":148264.91241307557,"area_km2":31.858,"children_u5":27566.37598467677,"classifi_1":"Low Access","classifica":"High obeso","density__1":0.089195083538234,"density_he":0.063,"density_mi":0.471,"density_po":0.006861160272172,"density_un":0.816,"elderly":23431.494474760984,"id":"eth_adm3.5","men":194963.69882170623,"pct_access":10.272,"pop_sum":291495.8870895058,"ptc_access":50.863,"ratio_obes":13.0,"total":403458.02808098693,"total_dens":0.096056243810405,"women":208494.32928226408,"women_rep":137399.8197698387,"youth":116367.00525202363}},{"type":"Feature","geometry":{"type":"Polygon","coordinates":[[[38.71221639203561,9.003901566241543],[38.71179723917118,8.99705241845486],[38.71504792120128,8.992941095589304],[38.71918157612654,8.998572949751944],[38.72460384302284,8.998492661242262],[38.73092237836148,8.996588664893622],[38.737789364009,8.996423630676334],[38.74292183096168,9.009658287752668],[38.74881224368733,9.014295733227298],[38.75364149981028,9.018973361370522],[38.74851347385223,9.025372162383878],[38.74380471186624,9.030580363611554],[38.739559647471104,9.026424476021369],[38.73253655509231,9.023048932275916],[38.72476878640682,9.02048051963418],[38.716381237400064,9.020757003220806],[38.710406038379354,9.016346890646599],[38.70953205654359,9.008539037596947],[38.71221639203561,9.003901566241543]]]},"id":"00000000000000000007","properties":{"CCA_3":"140105","CCN_3":0,"CC_3":"140105","COUNTRY":"Ethiopia","Count_MixO":19.0,"Count_Unhe":14.0,"Count_heal":1.0,"ENGTYPE_3_":"District","ENGTYPE__1":"District","GID_0":"ETH","GID_1":"ETH.1_1","GID_2":"ETH.1.1_1","GID_3":"ETH.1.1.8_1","HASC_3":"NA","ID_0":74,"ID_1":1,"ID_2":1,"ID_3":8,"ISO":"ETH","NAME_0":"Ethiopia","NAME_1_x":"Addis Abeba","NAME_1_y":"AddisAbeba","NAME_2_x":"Addis Abeba","NAME_2_y":"AddisAbeba","NAME_3":"Lideta","NL_NAME_1":"NA","NL_NAME_2":"NA","NL_NAME_3_":"","NL_NAME__1":"NA","TYPE_3_x":"Woreda","TYPE_3_y":"Woreda","VARNAME_3_":"","VARNAME__1":"NA","acc_health":17292.621505737305,"acc_unheal":105993.96846264601,"area_km2":10.89,"children_u5":17328.169683389504,"classifi_1":"Low Access","classifica":"High obeso","density__1":0.086498672907396,"density_he":0.092,"density_mi":1.745,"density_po":0.006178476636243,"density_un":1.286,"elderly":19823.80651078125,"id":"eth_adm3.8","men":145867.90764827008,"pct_access":10.684,"pop_sum":161852.1941369921,"ptc_access":65.488,"ratio_obes":14.0,"total":305427.76119909715,"total_dens":0.092677149543638,"women":159559.8536797595,"women_rep":104780.37693097362,"youth":90177.67901345265}},{"type":"Feature","geometry":{"type":"Polygon","coordinates":[[[38.687900989903014,8.939744043800205],[38.69384491165968,8.94190224683877],[38.69682810210753,8.932707575678718],[38.70196491732501,8.925626510147362],[38.7084261737579,8.920913233803068],[38.71914137575741,8.919718179915323],[38.723341900426675,8.914581323812863],[38.72722578599995,8.91084014524105],[38.73106948656694,8.905092333615928],[38.736509619686274,8.901293178749468],[38.74358620974527,8.902586363489457],[38.745775591784025,8.910104407898123],[38.74757713307567,8.91642737171281],[38.749641682264375,8.922161809390774],[38.753846628408674,8.926968715600886],[38.755465268435294,8.931989623259517],[38.75701701304041,8.938691688567863],[38.75813181486422,8.944778356904601],[38.76023652325249,8.951837081722825],[38.762559682389686,8.958298338255094],[38.76835647541267,8.959025152636375],[38.77277102869115,8.951707783134562],[38.775049660807824,8.9594532124448],[38.76938659131538,8.964634688935702],[38.76857497411229,8.971715809478246],[38.763915266100234,8.97552828622833],[38.76420062752185,8.98004981235555],[38.75804259627794,8.980379786157155],[38.749316155046735,8.98411206870163],[38.74415695011981,8.98693023896668],[38.73885064502093,8.990698153012072],[38.737789364009,8.996423630676334],[38.73092237836148,8.996588664893622],[38.72460384302284,8.998492661242262],[38.71918157612654,8.998572949751944],[38.71504792120128,8.992941095589304],[38.714923076265904,8.988629122446024],[38.71362553797746,8.982078726569618],[38.71237697066993,8.973566338076838],[38.704029554550864,8.970890852037154],[38.6988748341765,8.967466277526754],[38.6921549388548,8.964170967713892],[38.68857872347907,8.956296195433419],[38.68095813321237,8.949661051352397],[38.680641538934836,8.941086208515543],[38.687900989903014,8.939744043800205]]]},"id":"00000000000000000008","properties":{"CCA_3":"140102","CCN_3":0,"CC_3":"140102","COUNTRY":"Ethiopia","Count_MixO":89.0,"Count_Unhe":122.0,"Count_heal":10.0,"ENGTYPE_3_":"District","ENGTYPE__1":"District","GID_0":"ETH","GID_1":"ETH.1_1","GID_2":"ETH.1.1_1","GID_3":"ETH.1.1.9_1","HASC_3":"NA","ID_0":74,"ID_1":1,"ID_2":1,"ID_3":9,"ISO":"ETH","NAME_0":"Ethiopia","NAME_1_x":"Addis Abeba","NAME_1_y":"AddisAbeba","NAME_2_x":"Addis Abeba","NAME_2_y":"AddisAbeba","NAME_3":"Nefas Silk","NL_NAME_1":"NA","NL_NAME_2":"NA","NL_NAME_3_":"","NL_NAME__1":"NA","TYPE_3_x":"Woreda","TYPE_3_y":"Woreda","VARNAME_3_":"","VARNAME__1":"NA","acc_health":93278.55826663971,"acc_unheal":418120.5873494148,"area_km2":58.581,"children_u5":39668.08810957444,"classifi_1":"Low Access","classifica":"High obeso","density__1":0.176501852246394,"density_he":0.171,"density_mi":1.519,"density_po":0.014467364938229,"density_un":2.083,"elderly":20533.315140436593,"id":"eth_adm3.9","men":231708.4191304135,"pct_access":13.495,"pop_sum":691210.8765277416,"ptc_access":60.491,"ratio_obes":12.2,"total":491679.78779256274,"total_dens":0.190969217184623,"women":259971.368662088,"women_rep":172658.23547005566,"youth":139630.79084634324}},{"type":"Feature","geometry":{"type":"Polygon","coordinates":[[[38.747296172292224,8.877160551820461],[38.745200391820006,8.869490861359417],[38.745512518320815,8.863422056114743],[38.75411414132838,8.858597292856311],[38.75646411791527,8.853241885413105],[38.7615563740876,8.85361648402668],[38.7729939844164,8.857469177894728],[38.77746196108683,8.852425933245216],[38.77837607249968,8.84180435966533],[38.78059230802841,8.835918344395814],[38.7866566260177,8.835280674410969],[38.792029916846225,8.835780063212741],[38.79759035087486,8.833488129056418],[38.8054963540125,8.837242664682856],[38.812546193019145,8.840016225966794],[38.81749136476767,8.839293831940491],[38.824394038538784,8.84133165443353],[38.8238366109663,8.846450707986085],[38.82390802515914,8.852755881333763],[38.82627574003277,8.857616333927158],[38.82704721943128,8.863261500494211],[38.829410510990066,8.868777435274636],[38.82693575483085,8.873669074914387],[38.826003737294,8.880192707765051],[38.832986720200665,8.882908322220201],[38.84068314865936,8.87985383424331],[38.847077487610754,8.880018820661668],[38.85297686500509,8.88178461841214],[38.85839018866564,8.883644073322394],[38.86380800253584,8.882850360840168],[38.86871751849223,8.873035876239491],[38.869832312274454,8.880767967619224],[38.87341290182771,8.888286028519548],[38.87749301826867,8.895786176064888],[38.87330590243331,8.905092322377648],[38.87718088951007,8.912530154845072],[38.87945058523054,8.918309095953859],[38.873493191122584,8.923753686297978],[38.86806646235915,8.927624186697082],[38.86083383547957,8.93218138194408],[38.855558690036084,8.938290356580161],[38.84937839183431,8.938272520982245],[38.84106660986177,8.941081727458501],[38.835969828197086,8.942174250860191],[38.8282868013553,8.939463112019238],[38.82053694992607,8.937871222727985],[38.81643903015237,8.941585623283526],[38.80888082264636,8.944087214071684],[38.800738484169045,8.945955586446523],[38.79402759289567,8.942294656407375],[38.78577823963496,8.938771940214002],[38.7800571798369,8.935904746308005],[38.77393482997665,8.940296936381687],[38.771130060575544,8.945197504818447],[38.77277102869115,8.951707783134562],[38.76835647541267,8.959025152636375],[38.762559682389686,8.958298338255094],[38.76023652325249,8.951837081722825],[38.75813181486422,8.944778356904601],[38.75701701304041,8.938691688567863],[38.755465268435294,8.931989623259517],[38.753846628408674,8.926968715600886],[38.749641682264375,8.922161809390774],[38.74757713307567,8.91642737171281],[38.745775591784025,8.910104407898123],[38.74358620974527,8.902586363489457],[38.7444780293241,8.892111927458192],[38.74315815117693,8.880415690679012],[38.747296172292224,8.877160551820461]]]},"id":"00000000000000000001","properties":{"CCA_3":"140101","CCN_3":0,"CC_3":"140101","COUNTRY":"Ethiopia","Count_MixO":11.0,"Count_Unhe":25.0,"Count_heal":3.0,"ENGTYPE_3_":"District","ENGTYPE__1":"District","GID_0":"ETH","GID_1":"ETH.1_1","GID_2":"ETH.1.1_1","GID_3":"ETH.1.1.2_1","HASC_3":"NA","ID_0":74,"ID_1":1,"ID_2":1,"ID_3":2,"ISO":"ETH","NAME_0":"Ethiopia","NAME_1_x":"Addis Abeba","NAME_1_y":"AddisAbeba","NAME_2_x":"Addis Abeba","NAME_2_y":"AddisAbeba","NAME_3":"Akaki - Kalit","NL_NAME_1":"NA","NL_NAME_2":"NA","NL_NAME_3_":"","NL_NAME__1":"NA","TYPE_3_x":"Woreda","TYPE_3_y":"Woreda","VARNAME_3_":"","VARNAME__1":"NA","acc_health":21893.77611555159,"acc_unheal":104129.84398025274,"area_km2":127.147,"children_u5":22413.451869489567,"classifi_1":"Low Access","classifica":"Moderate o","density__1":0.0516461176575,"density_he":0.024,"density_mi":0.087,"density_po":0.0061975341189,"density_un":0.197,"elderly":12861.558078155995,"id":"eth_adm3.2","men":135746.118641628,"pct_access":4.523,"pop_sum":484063.49080858007,"ptc_access":21.512,"ratio_obes":8.333,"total":277432.8435670725,"total_dens":0.0578436517764,"women":141686.72492544382,"women_rep":90269.97367559624,"youth":76470.02058519749}},{"type":"Feature","geometry":{"type":"Polygon","coordinates":[[[38.64281943732285,8.965852066520084],[38.653365248198,8.962895685185984],[38.66541369316191,8.961080858111309],[38.67623145052871,8.957607189270258],[38.68095813321237,8.949661051352397],[38.68857872347907,8.956296195433419],[38.6921549388548,8.964170967713892],[38.6988748341765,8.967466277526754],[38.704029554550864,8.970890852037154],[38.71237697066993,8.973566338076838],[38.71362553797746,8.982078726569618],[38.714923076265904,8.988629122446024],[38.71504792120128,8.992941095589304],[38.71179723917118,8.99705241845486],[38.71221639203561,9.003901566241543],[38.70953205654359,9.008539037596947],[38.710406038379354,9.016346890646599],[38.716381237400064,9.020757003220806],[38.716296517245055,9.026518157556751],[38.71428542023299,9.034250245070854],[38.716118125011235,9.040399303875892],[38.71648825638175,9.045522800108108],[38.71597545882748,9.053254908703117],[38.71122653471186,9.05951100442452],[38.71081185164143,9.065731462731426],[38.709233266210724,9.073138011814502],[38.70674960847477,9.081828798239899],[38.70068071148578,9.080513401106373],[38.694549447167795,9.077730937292786],[38.68540828346942,9.073026529222693],[38.68369602189244,9.066315574494805],[38.68370049991526,9.059542228359689],[38.68353993061912,9.050035460158139],[38.67676655329425,9.043163942524327],[38.672592859383165,9.038673613130005],[38.67208003654384,9.033148795333895],[38.66722857488875,9.026232774140057],[38.66653294283939,9.01673485999704],[38.667041250072984,9.010023921856874],[38.660071697432954,9.009337194269564],[38.651947200440546,9.010282546159651],[38.65105539465857,9.002492464955385],[38.65779311940558,8.994818345183356],[38.65938502857862,8.985405234913504],[38.65464494490207,8.97693294782253],[38.64851367746984,8.975996506304515],[38.639399278583035,8.974034521912785],[38.64281943732285,8.965852066520084]]]},"id":"00000000000000000006","properties":{"CCA_3":"140103","CCN_3":0,"CC_3":"140103","COUNTRY":"Ethiopia","Count_MixO":17.0,"Count_Unhe":41.0,"Count_heal":8.0,"ENGTYPE_3_":"District","ENGTYPE__1":"District","GID_0":"ETH","GID_1":"ETH.1_1","GID_2":"ETH.1.1_1","GID_3":"ETH.1.1.7_1","HASC_3":"NA","ID_0":74,"ID_1":1,"ID_2":1,"ID_3":7,"ISO":"ETH","NAME_0":"Ethiopia","NAME_1_x":"Addis Abeba","NAME_1_y":"AddisAbeba","NAME_2_x":"Addis Abeba","NAME_2_y":"AddisAbeba","NAME_3":"Kolfe - Keran","NL_NAME_1":"NA","NL_NAME_2":"NA","NL_NAME_3_":"","NL_NAME__1":"NA","TYPE_3_x":"Woreda","TYPE_3_y":"Woreda","VARNAME_3_":"","VARNAME__1":"NA","acc_health":65862.30887365341,"acc_unheal":261015.68545164168,"area_km2":65.44,"children_u5":61699.62616188802,"classifi_1":"Low Access","classifica":"Moderate o","density__1":0.051645742202856,"density_he":0.122,"density_mi":0.26,"density_po":0.010077217990801,"density_un":0.627,"elderly":24072.382193218375,"id":"eth_adm3.7","men":325744.8676981027,"pct_access":8.296,"pop_sum":793869.8961660527,"ptc_access":32.879,"ratio_obes":5.125,"total":672849.7401875162,"total_dens":0.061722960193657,"women":347104.8726254196,"women_rep":222048.08535551818,"youth":188409.39196289267}},{"type":"Feature","geometry":{"type":"Polygon","coordinates":[[[38.77155370247938,9.038125160685242],[38.777805313319774,9.034584656423261],[38.775352860179034,9.02750806112243],[38.769333085426254,9.025349861166767],[38.76545810365184,9.02204564862878],[38.77123706934757,9.018750385714227],[38.77674410950201,9.015740508574831],[38.78379388252008,9.014875442317827],[38.792391074156136,9.016819567001496],[38.79869623403451,9.01869244157711],[38.80803801430993,9.019802734182099],[38.81892272624802,9.01870579457474],[38.829664707295194,9.021367835409373],[38.84024615806243,9.020877386709184],[38.85087660357314,9.020319983270218],[38.857690141214185,9.019967679018468],[38.87712292826903,9.021015574855136],[38.88452057794319,9.021372350202535],[38.88977781182736,9.022215116243597],[38.89665825640636,9.030500128209768],[38.89334063510746,9.037228891057548],[38.88632200865234,9.046815944202347],[38.88294645712556,9.052104489443867],[38.88298217142424,9.060474176980586],[38.88195657325406,9.068558523151012],[38.87911614318258,9.075532578228273],[38.87632023546442,9.081583579542352],[38.86822250911238,9.084905573561631],[38.85674484978431,9.083518803470396],[38.849530017164504,9.078172324163235],[38.842569321890444,9.078609381475232],[38.82473738153147,9.075889289003134],[38.81337561519142,9.080018408362506],[38.80512178091473,9.082328272793783],[38.799962620290515,9.078564791347427],[38.791311986979196,9.077681851714075],[38.78229116307054,9.081142150696227],[38.77781425642343,9.077302811810446],[38.77051028465849,9.073789052428033],[38.76497204748972,9.068946485218936],[38.76439238522027,9.063443924313795],[38.7666709919808,9.057829903375417],[38.76705888465219,9.050351996324329],[38.75982175309204,9.043074770224443],[38.77155370247938,9.038125160685242]]]},"id":"00000000000000000009","properties":{"CCA_3":"140107","CCN_3":0,"CC_3":"140107","COUNTRY":"Ethiopia","Count_MixO":79.0,"Count_Unhe":77.0,"Count_heal":14.0,"ENGTYPE_3_":"District","ENGTYPE__1":"District","GID_0":"ETH","GID_1":"ETH.1_1","GID_2":"ETH.1.1_1","GID_3":"ETH.1.1.10_1","HASC_3":"NA","ID_0":74,"ID_1":1,"ID_2":1,"ID_3":10,"ISO":"ETH","NAME_0":"Ethiopia","NAME_1_x":"Addis Abeba","NAME_1_y":"AddisAbeba","NAME_2_x":"Addis Abeba","NAME_2_y":"AddisAbeba","NAME_3":"Yeka","NL_NAME_1":"NA","NL_NAME_2":"NA","NL_NAME_3_":"","NL_NAME__1":"NA","TYPE_3_x":"Woreda","TYPE_3_y":"Woreda","VARNAME_3_":"","VARNAME__1":"NA","acc_health":138836.10894721746,"acc_unheal":284472.3985185623,"area_km2":86.172,"children_u5":40486.11193809625,"classifi_1":"Low Access","classifica":"Moderate o","density__1":0.112252562103467,"density_he":0.162,"density_mi":0.917,"density_po":0.020409556746085,"density_un":0.894,"elderly":28284.38573435154,"id":"eth_adm3.10","men":251942.71513002674,"pct_access":20.24,"pop_sum":685953.1627351753,"ptc_access":41.471,"ratio_obes":5.5,"total":540185.7504574688,"total_dens":0.132662118849552,"women":288243.03532751545,"women_rep":191774.45299623505,"youth":150538.90473650658}},{"type":"Feature","geometry":{"type":"Polygon","coordinates":[[[38.76857497411229,8.971715809478246],[38.76938659131538,8.964634688935702],[38.775049660807824,8.9594532124448],[38.77277102869115,8.951707783134562],[38.771130060575544,8.945197504818447],[38.77393482997665,8.940296936381687],[38.7800571798369,8.935904746308005],[38.78577823963496,8.938771940214002],[38.79402759289567,8.942294656407375],[38.800738484169045,8.945955586446523],[38.80888082264636,8.944087214071684],[38.81643903015237,8.941585623283526],[38.82053694992607,8.937871222727985],[38.8282868013553,8.939463112019238],[38.835969828197086,8.942174250860191],[38.84106660986177,8.941081727458501],[38.84937839183431,8.938272520982245],[38.855558690036084,8.938290356580161],[38.861422443714154,8.942682583006418],[38.86949335512732,8.939619138839738],[38.88208141569133,8.936194590772947],[38.89142772846572,8.93433511209752],[38.8967562903772,8.937028414059645],[38.90109952373382,8.946138378211558],[38.89623909972133,8.954838043379489],[38.90278947600266,8.962414108820813],[38.904095980731874,8.969539708022426],[38.90624080967512,8.977419001126691],[38.904903109112865,8.984112102857793],[38.90433681334402,8.99215182471281],[38.90605353645754,8.997534000803242],[38.905005672984,9.00950220881436],[38.90116192643841,9.0195842272103],[38.89665825640636,9.030500128209768],[38.88977781182736,9.022215116243597],[38.88452057794319,9.021372350202535],[38.87712292826903,9.021015574855136],[38.857690141214185,9.019967679018468],[38.85087660357314,9.020319983270218],[38.84024615806243,9.020877386709184],[38.829664707295194,9.021367835409373],[38.81892272624802,9.01870579457474],[38.80803801430993,9.019802734182099],[38.79869623403451,9.01869244157711],[38.792391074156136,9.016819567001496],[38.78379388252008,9.014875442317827],[38.77674410950201,9.015740508574831],[38.77479988159432,9.011018330258038],[38.7757942814349,9.005511293215024],[38.77341314230071,8.999946378791803],[38.774639377180605,8.990885461056404],[38.769966209001424,8.984669445754193],[38.76420062752185,8.98004981235555],[38.763915266100234,8.97552828622833],[38.76857497411229,8.971715809478246]]]},"id":"00000000000000000003","properties":{"CCA_3":"140104","CCN_3":0,"CC_3":"140104","COUNTRY":"Ethiopia","Count_MixO":248.0,"Count_Unhe":203.0,"Count_heal":28.0,"ENGTYPE_3_":"District","ENGTYPE__1":"District","GID_0":"ETH","GID_1":"ETH.1_1","GID_2":"ETH.1.1_1","GID_3":"ETH.1.1.4_1","HASC_3":"NA","ID_0":74,"ID_1":1,"ID_2":1,"ID_3":4,"ISO":"ETH","NAME_0":"Ethiopia","NAME_1_x":"Addis Abeba","NAME_1_y":"AddisAbeba","NAME_2_x":"Addis Abeba","NAME_2_y":"AddisAbeba","NAME_3":"Bole","NL_NAME_1":"NA","NL_NAME_2":"NA","NL_NAME_3_":"","NL_NAME__1":"NA","TYPE_3_x":"Woreda","TYPE_3_y":"Woreda","VARNAME_3_":"","VARNAME__1":"NA","acc_health":218152.58095633984,"acc_unheal":402970.7539937198,"area_km2":127.812,"children_u5":37578.926648355904,"classifi_1":"Middle Acc","classifica":"Moderate o","density__1":0.252843511519293,"density_he":0.219,"density_mi":1.94,"density_po":0.034874967106109,"density_un":1.588,"elderly":19367.064104196907,"id":"eth_adm3.4","men":224941.4766809621,"pct_access":27.172,"pop_sum":802868.1407729555,"ptc_access":50.191,"ratio_obes":7.25,"total":478624.5921908677,"total_dens":0.287718478625402,"women":253683.11550982657,"women_rep":173286.29456351005,"youth":140473.56644934678}},{"type":"Feature","geometry":{"type":"Polygon","coordinates":[[[38.73885064502093,8.990698153012072],[38.74415695011981,8.98693023896668],[38.749316155046735,8.98411206870163],[38.75804259627794,8.980379786157155],[38.76420062752185,8.98004981235555],[38.769966209001424,8.984669445754193],[38.774639377180605,8.990885461056404],[38.77341314230071,8.999946378791803],[38.7757942814349,9.005511293215024],[38.77479988159432,9.011018330258038],[38.77674410950201,9.015740508574831],[38.77123706934757,9.018750385714227],[38.76545810365184,9.02204564862878],[38.75836815965863,9.023316514509935],[38.75364149981028,9.018973361370522],[38.74881224368733,9.014295733227298],[38.74292183096168,9.009658287752668],[38.737789364009,8.996423630676334],[38.73885064502093,8.990698153012072]]]},"id":"00000000000000000005","properties":{"CCA_3":"140106","CCN_3":0,"CC_3":"140106","COUNTRY":"Ethiopia","Count_MixO":139.0,"Count_Unhe":106.0,"Count_heal":12.0,"ENGTYPE_3_":"District","ENGTYPE__1":"District","GID_0":"ETH","GID_1":"ETH.1_1","GID_2":"ETH.1.1_1","GID_3":"ETH.1.1.6_1","HASC_3":"NA","ID_0":74,"ID_1":1,"ID_2":1,"ID_3":6,"ISO":"ETH","NAME_0":"Ethiopia","NAME_1_x":"Addis Abeba","NAME_1_y":"AddisAbeba","NAME_2_x":"Addis Abeba","NAME_2_y":"AddisAbeba","NAME_3":"Kirkos","NL_NAME_1":"NA","NL_NAME_2":"NA","NL_NAME_3_":"","NL_NAME__1":"NA","TYPE_3_x":"Woreda","TYPE_3_y":"Woreda","VARNAME_3_":"","VARNAME__1":"NA","acc_health":68628.35171890259,"acc_unheal":234610.7673254013,"area_km2":14.224,"children_u5":18581.233448058847,"classifi_1":"Middle Acc","classifica":"Moderate o","density__1":0.442179055435519,"density_he":0.844,"density_mi":9.772,"density_po":0.050058006275719,"density_un":7.452,"elderly":20989.86562959334,"id":"eth_adm3.6","men":154759.12864136498,"pct_access":28.628,"pop_sum":239721.89251613617,"ptc_access":97.868,"ratio_obes":8.833,"total":330784.3387903762,"total_dens":0.492237061711238,"women":176025.21014905215,"women_rep":119403.23126912327,"youth":96263.27414575192}}]}