{
"type": "FeatureCollection",
"name": "amenity_vending_machine_hanoi",
"crs": { "type": "name", "properties": { "name": "urn:ogc:def:crs:OGC:1.3:CRS84" } },
"features": [
{ "type": "Feature", "properties": { "osm_id": "4755987150", "code": 2590, "fclass": "vending_machine", "name_left": null, "index_right": 0, "name_right": "Hanoi" }, "geometry": { "type": "Point", "coordinates": [ 105.8408243, 21.0356265 ] } },
{ "type": "Feature", "properties": { "osm_id": "4757324464", "code": 2590, "fclass": "vending_machine", "name_left": null, "index_right": 0, "name_right": "Hanoi" }, "geometry": { "type": "Point", "coordinates": [ 105.8535698, 21.0301599 ] } },
{ "type": "Feature", "properties": { "osm_id": "4757324640", "code": 2590, "fclass": "vending_machine", "name_left": null, "index_right": 0, "name_right": "Hanoi" }, "geometry": { "type": "Point", "coordinates": [ 105.8511629, 21.0305558 ] } },
{ "type": "Feature", "properties": { "osm_id": "6919616668", "code": 2590, "fclass": "vending_machine", "name_left": null, "index_right": 0, "name_right": "Hanoi" }, "geometry": { "type": "Point", "coordinates": [ 105.8839359, 21.0502162 ] } },
{ "type": "Feature", "properties": { "osm_id": "7085261328", "code": 2590, "fclass": "vending_machine", "name_left": "Máy Bán Hàng Tự Động VVM", "index_right": 0, "name_right": "Hanoi" }, "geometry": { "type": "Point", "coordinates": [ 105.8520413, 21.0317334 ] } },
{ "type": "Feature", "properties": { "osm_id": "7085620454", "code": 2590, "fclass": "vending_machine", "name_left": null, "index_right": 0, "name_right": "Hanoi" }, "geometry": { "type": "Point", "coordinates": [ 105.8336589, 21.0354929 ] } },
{ "type": "Feature", "properties": { "osm_id": "7176673913", "code": 2590, "fclass": "vending_machine", "name_left": null, "index_right": 0, "name_right": "Hanoi" }, "geometry": { "type": "Point", "coordinates": [ 105.8463405, 21.0377442 ] } },
{ "type": "Feature", "properties": { "osm_id": "9966237333", "code": 2590, "fclass": "vending_machine", "name_left": null, "index_right": 0, "name_right": "Hanoi" }, "geometry": { "type": "Point", "coordinates": [ 105.8534998, 21.0261759 ] } },
{ "type": "Feature", "properties": { "osm_id": "10114776453", "code": 2590, "fclass": "vending_machine", "name_left": "Skyline Vmac", "index_right": 0, "name_right": "Hanoi" }, "geometry": { "type": "Point", "coordinates": [ 105.821121, 21.0169158 ] } },
{ "type": "Feature", "properties": { "osm_id": "10114776454", "code": 2590, "fclass": "vending_machine", "name_left": "Skyline Vmac", "index_right": 0, "name_right": "Hanoi" }, "geometry": { "type": "Point", "coordinates": [ 105.8450303, 21.0048117 ] } },
{ "type": "Feature", "properties": { "osm_id": "10114776455", "code": 2590, "fclass": "vending_machine", "name_left": null, "index_right": 0, "name_right": "Hanoi" }, "geometry": { "type": "Point", "coordinates": [ 105.8450321, 21.0047696 ] } },
{ "type": "Feature", "properties": { "osm_id": "10114776456", "code": 2590, "fclass": "vending_machine", "name_left": null, "index_right": 0, "name_right": "Hanoi" }, "geometry": { "type": "Point", "coordinates": [ 105.8446344, 21.004333 ] } },
{ "type": "Feature", "properties": { "osm_id": "10114776457", "code": 2590, "fclass": "vending_machine", "name_left": null, "index_right": 0, "name_right": "Hanoi" }, "geometry": { "type": "Point", "coordinates": [ 105.8445212, 21.0039218 ] } },
{ "type": "Feature", "properties": { "osm_id": "10114776458", "code": 2590, "fclass": "vending_machine", "name_left": null, "index_right": 0, "name_right": "Hanoi" }, "geometry": { "type": "Point", "coordinates": [ 105.8445037, 21.0038136 ] } },
{ "type": "Feature", "properties": { "osm_id": "10114776460", "code": 2590, "fclass": "vending_machine", "name_left": null, "index_right": 0, "name_right": "Hanoi" }, "geometry": { "type": "Point", "coordinates": [ 105.847074, 21.0048362 ] } },
{ "type": "Feature", "properties": { "osm_id": "10114776461", "code": 2590, "fclass": "vending_machine", "name_left": null, "index_right": 0, "name_right": "Hanoi" }, "geometry": { "type": "Point", "coordinates": [ 105.8471126, 21.0045488 ] } },
{ "type": "Feature", "properties": { "osm_id": "10114776462", "code": 2590, "fclass": "vending_machine", "name_left": null, "index_right": 0, "name_right": "Hanoi" }, "geometry": { "type": "Point", "coordinates": [ 105.8471137, 21.0041011 ] } },
{ "type": "Feature", "properties": { "osm_id": "10114776463", "code": 2590, "fclass": "vending_machine", "name_left": null, "index_right": 0, "name_right": "Hanoi" }, "geometry": { "type": "Point", "coordinates": [ 105.8473911, 21.0028115 ] } },
{ "type": "Feature", "properties": { "osm_id": "10114776464", "code": 2590, "fclass": "vending_machine", "name_left": null, "index_right": 0, "name_right": "Hanoi" }, "geometry": { "type": "Point", "coordinates": [ 105.846408, 21.0017584 ] } },
{ "type": "Feature", "properties": { "osm_id": "10114776465", "code": 2590, "fclass": "vending_machine", "name_left": null, "index_right": 0, "name_right": "Hanoi" }, "geometry": { "type": "Point", "coordinates": [ 105.8470044, 21.0022865 ] } },
{ "type": "Feature", "properties": { "osm_id": "11152952454", "code": 2590, "fclass": "vending_machine", "name_left": null, "index_right": 0, "name_right": "Hanoi" }, "geometry": { "type": "Point", "coordinates": [ 105.7734766, 21.0725434 ] } },
{ "type": "Feature", "properties": { "osm_id": "11169202598", "code": 2590, "fclass": "vending_machine", "name_left": null, "index_right": 0, "name_right": "Hanoi" }, "geometry": { "type": "Point", "coordinates": [ 105.7818133, 21.0650503 ] } },
{ "type": "Feature", "properties": { "osm_id": "11169202599", "code": 2590, "fclass": "vending_machine", "name_left": null, "index_right": 0, "name_right": "Hanoi" }, "geometry": { "type": "Point", "coordinates": [ 105.7818638, 21.0649493 ] } },
{ "type": "Feature", "properties": { "osm_id": "11169202600", "code": 2590, "fclass": "vending_machine", "name_left": null, "index_right": 0, "name_right": "Hanoi" }, "geometry": { "type": "Point", "coordinates": [ 105.7819035, 21.0648449 ] } },
{ "type": "Feature", "properties": { "osm_id": "11183802119", "code": 2590, "fclass": "vending_machine", "name_left": null, "index_right": 0, "name_right": "Hanoi" }, "geometry": { "type": "Point", "coordinates": [ 105.8444851, 21.0052914 ] } },
{ "type": "Feature", "properties": { "osm_id": "11226099233", "code": 2590, "fclass": "vending_machine", "name_left": null, "index_right": 0, "name_right": "Hanoi" }, "geometry": { "type": "Point", "coordinates": [ 105.7845879, 21.0499441 ] } },
{ "type": "Feature", "properties": { "osm_id": "11226099234", "code": 2590, "fclass": "vending_machine", "name_left": null, "index_right": 0, "name_right": "Hanoi" }, "geometry": { "type": "Point", "coordinates": [ 105.784627, 21.0499433 ] } },
{ "type": "Feature", "properties": { "osm_id": "11226099235", "code": 2590, "fclass": "vending_machine", "name_left": null, "index_right": 0, "name_right": "Hanoi" }, "geometry": { "type": "Point", "coordinates": [ 105.7846645, 21.0499426 ] } },
{ "type": "Feature", "properties": { "osm_id": "11226099236", "code": 2590, "fclass": "vending_machine", "name_left": null, "index_right": 0, "name_right": "Hanoi" }, "geometry": { "type": "Point", "coordinates": [ 105.7845865, 21.0499149 ] } },
{ "type": "Feature", "properties": { "osm_id": "11234119641", "code": 2590, "fclass": "vending_machine", "name_left": null, "index_right": 0, "name_right": "Hanoi" }, "geometry": { "type": "Point", "coordinates": [ 105.8501237, 21.039926 ] } },
{ "type": "Feature", "properties": { "osm_id": "11254919057", "code": 2590, "fclass": "vending_machine", "name_left": "Skyline Vmac", "index_right": 0, "name_right": "Hanoi" }, "geometry": { "type": "Point", "coordinates": [ 105.8443358, 21.0046205 ] } },
{ "type": "Feature", "properties": { "osm_id": "11254919058", "code": 2590, "fclass": "vending_machine", "name_left": null, "index_right": 0, "name_right": "Hanoi" }, "geometry": { "type": "Point", "coordinates": [ 105.8427393, 21.0039976 ] } },
{ "type": "Feature", "properties": { "osm_id": "11254919059", "code": 2590, "fclass": "vending_machine", "name_left": null, "index_right": 0, "name_right": "Hanoi" }, "geometry": { "type": "Point", "coordinates": [ 105.8422522, 21.0042936 ] } },
{ "type": "Feature", "properties": { "osm_id": "11254919060", "code": 2590, "fclass": "vending_machine", "name_left": null, "index_right": 0, "name_right": "Hanoi" }, "geometry": { "type": "Point", "coordinates": [ 105.8427909, 21.0042384 ] } },
{ "type": "Feature", "properties": { "osm_id": "11556781504", "code": 2590, "fclass": "vending_machine", "name_left": null, "index_right": 0, "name_right": "Hanoi" }, "geometry": { "type": "Point", "coordinates": [ 105.7878384, 21.0419883 ] } },
{ "type": "Feature", "properties": { "osm_id": "11597884067", "code": 2590, "fclass": "vending_machine", "name_left": null, "index_right": 0, "name_right": "Hanoi" }, "geometry": { "type": "Point", "coordinates": [ 105.7827592, 21.0405374 ] } },
{ "type": "Feature", "properties": { "osm_id": "11597930426", "code": 2590, "fclass": "vending_machine", "name_left": null, "index_right": 0, "name_right": "Hanoi" }, "geometry": { "type": "Point", "coordinates": [ 105.7829082, 21.0403523 ] } },
{ "type": "Feature", "properties": { "osm_id": "11597930427", "code": 2590, "fclass": "vending_machine", "name_left": null, "index_right": 0, "name_right": "Hanoi" }, "geometry": { "type": "Point", "coordinates": [ 105.7829068, 21.0400975 ] } },
{ "type": "Feature", "properties": { "osm_id": "11609354501", "code": 2590, "fclass": "vending_machine", "name_left": null, "index_right": 0, "name_right": "Hanoi" }, "geometry": { "type": "Point", "coordinates": [ 105.785342, 21.0403699 ] } },
{ "type": "Feature", "properties": { "osm_id": "11614945279", "code": 2590, "fclass": "vending_machine", "name_left": null, "index_right": 0, "name_right": "Hanoi" }, "geometry": { "type": "Point", "coordinates": [ 105.7837636, 21.0370977 ] } },
{ "type": "Feature", "properties": { "osm_id": "11861876399", "code": 2590, "fclass": "vending_machine", "name_left": null, "index_right": 0, "name_right": "Hanoi" }, "geometry": { "type": "Point", "coordinates": [ 105.8332646, 21.0360392 ] } },
{ "type": "Feature", "properties": { "osm_id": "12086792100", "code": 2590, "fclass": "vending_machine", "name_left": null, "index_right": 0, "name_right": "Hanoi" }, "geometry": { "type": "Point", "coordinates": [ 105.8318695, 21.0351561 ] } },
{ "type": "Feature", "properties": { "osm_id": "13266310293", "code": 2590, "fclass": "vending_machine", "name_left": null, "index_right": 0, "name_right": "Hanoi" }, "geometry": { "type": "Point", "coordinates": [ 105.7986691, 21.0401213 ] } },
{ "type": "Feature", "properties": { "osm_id": "13266310294", "code": 2590, "fclass": "vending_machine", "name_left": null, "index_right": 0, "name_right": "Hanoi" }, "geometry": { "type": "Point", "coordinates": [ 105.7981412, 21.0403768 ] } },
{ "type": "Feature", "properties": { "osm_id": "13273415405", "code": 2590, "fclass": "vending_machine", "name_left": null, "index_right": 0, "name_right": "Hanoi" }, "geometry": { "type": "Point", "coordinates": [ 105.8397624, 21.0335049 ] } },
{ "type": "Feature", "properties": { "osm_id": "13273415406", "code": 2590, "fclass": "vending_machine", "name_left": null, "index_right": 0, "name_right": "Hanoi" }, "geometry": { "type": "Point", "coordinates": [ 105.8407981, 21.0356095 ] } },
{ "type": "Feature", "properties": { "osm_id": "13273415407", "code": 2590, "fclass": "vending_machine", "name_left": null, "index_right": 0, "name_right": "Hanoi" }, "geometry": { "type": "Point", "coordinates": [ 105.8408194, 21.0369629 ] } },
{ "type": "Feature", "properties": { "osm_id": "13273415409", "code": 2590, "fclass": "vending_machine", "name_left": null, "index_right": 0, "name_right": "Hanoi" }, "geometry": { "type": "Point", "coordinates": [ 105.838941, 21.0369749 ] } },
{ "type": "Feature", "properties": { "osm_id": "13273415411", "code": 2590, "fclass": "vending_machine", "name_left": null, "index_right": 0, "name_right": "Hanoi" }, "geometry": { "type": "Point", "coordinates": [ 105.8397562, 21.036594 ] } },
{ "type": "Feature", "properties": { "osm_id": "13658912837", "code": 2590, "fclass": "vending_machine", "name_left": "Tủ đổi pin VinFast", "index_right": 0, "name_right": "Hanoi" }, "geometry": { "type": "Point", "coordinates": [ 105.7547131, 21.0050937 ] } },
{ "type": "Feature", "properties": { "osm_id": "13658912838", "code": 2590, "fclass": "vending_machine", "name_left": "Tủ đổi pin VinFast", "index_right": 0, "name_right": "Hanoi" }, "geometry": { "type": "Point", "coordinates": [ 105.7563615, 21.0030651 ] } },
{ "type": "Feature", "properties": { "osm_id": "13658912839", "code": 2590, "fclass": "vending_machine", "name_left": "Tủ đổi pin VinFast", "index_right": 0, "name_right": "Hanoi" }, "geometry": { "type": "Point", "coordinates": [ 105.7467003, 21.0070055 ] } },
{ "type": "Feature", "properties": { "osm_id": "13658912840", "code": 2590, "fclass": "vending_machine", "name_left": "Tủ đổi pin VinFast", "index_right": 0, "name_right": "Hanoi" }, "geometry": { "type": "Point", "coordinates": [ 105.7383154, 21.0070017 ] } },
{ "type": "Feature", "properties": { "osm_id": "13658912841", "code": 2590, "fclass": "vending_machine", "name_left": "Tủ đổi pin VinFast", "index_right": 0, "name_right": "Hanoi" }, "geometry": { "type": "Point", "coordinates": [ 105.747626, 20.9956925 ] } },
{ "type": "Feature", "properties": { "osm_id": "13658912842", "code": 2590, "fclass": "vending_machine", "name_left": "Tủ đổi pin VinFast", "index_right": 0, "name_right": "Hanoi" }, "geometry": { "type": "Point", "coordinates": [ 105.7591529, 20.9858627 ] } },
{ "type": "Feature", "properties": { "osm_id": "13658912843", "code": 2590, "fclass": "vending_machine", "name_left": "Tủ đổi pin VinFast", "index_right": 0, "name_right": "Hanoi" }, "geometry": { "type": "Point", "coordinates": [ 105.7700564, 20.9832791 ] } },
{ "type": "Feature", "properties": { "osm_id": "13658912844", "code": 2590, "fclass": "vending_machine", "name_left": "Tủ đổi pin VinFast", "index_right": 0, "name_right": "Hanoi" }, "geometry": { "type": "Point", "coordinates": [ 105.7749921, 21.0129818 ] } },
{ "type": "Feature", "properties": { "osm_id": "13661963307", "code": 2590, "fclass": "vending_machine", "name_left": "Tủ đổi pin VinFast", "index_right": 0, "name_right": "Hanoi" }, "geometry": { "type": "Point", "coordinates": [ 105.7851558, 21.0459012 ] } },
{ "type": "Feature", "properties": { "osm_id": "13661963308", "code": 2590, "fclass": "vending_machine", "name_left": "Tủ đổi pin VinFast", "index_right": 0, "name_right": "Hanoi" }, "geometry": { "type": "Point", "coordinates": [ 105.7763711, 21.0290395 ] } },
{ "type": "Feature", "properties": { "osm_id": "13661963309", "code": 2590, "fclass": "vending_machine", "name_left": "Tủ đổi pin VinFast", "index_right": 0, "name_right": "Hanoi" }, "geometry": { "type": "Point", "coordinates": [ 105.7930144, 21.0179771 ] } },
{ "type": "Feature", "properties": { "osm_id": "13661963310", "code": 2590, "fclass": "vending_machine", "name_left": "Tủ đổi pin VinFast", "index_right": 0, "name_right": "Hanoi" }, "geometry": { "type": "Point", "coordinates": [ 105.8506375, 20.9961658 ] } },
{ "type": "Feature", "properties": { "osm_id": "13661963311", "code": 2590, "fclass": "vending_machine", "name_left": "Tủ đổi pin VinFast", "index_right": 0, "name_right": "Hanoi" }, "geometry": { "type": "Point", "coordinates": [ 105.8300006, 21.0001323 ] } },
{ "type": "Feature", "properties": { "osm_id": "13661963313", "code": 2590, "fclass": "vending_machine", "name_left": "Tủ đổi pin VinFast", "index_right": 0, "name_right": "Hanoi" }, "geometry": { "type": "Point", "coordinates": [ 105.861714, 21.0206355 ] } },
{ "type": "Feature", "properties": { "osm_id": "13661963314", "code": 2590, "fclass": "vending_machine", "name_left": "Tủ đổi pin VinFast", "index_right": 0, "name_right": "Hanoi" }, "geometry": { "type": "Point", "coordinates": [ 105.8615631, 21.0213086 ] } },
{ "type": "Feature", "properties": { "osm_id": "13662026317", "code": 2590, "fclass": "vending_machine", "name_left": "Tủ đổi pin VinFast", "index_right": 0, "name_right": "Hanoi" }, "geometry": { "type": "Point", "coordinates": [ 105.7319896, 21.0044741 ] } },
{ "type": "Feature", "properties": { "osm_id": "13662026318", "code": 2590, "fclass": "vending_machine", "name_left": "Tủ đổi pin VinFast", "index_right": 0, "name_right": "Hanoi" }, "geometry": { "type": "Point", "coordinates": [ 105.7766221, 21.0044728 ] } },
{ "type": "Feature", "properties": { "osm_id": "13662026319", "code": 2590, "fclass": "vending_machine", "name_left": "Tủ đổi pin VinFast", "index_right": 0, "name_right": "Hanoi" }, "geometry": { "type": "Point", "coordinates": [ 105.7712016, 20.9834873 ] } },
{ "type": "Feature", "properties": { "osm_id": "13662026320", "code": 2590, "fclass": "vending_machine", "name_left": "Tủ đổi pin VinFast", "index_right": 0, "name_right": "Hanoi" }, "geometry": { "type": "Point", "coordinates": [ 105.7555533, 21.0317015 ] } },
{ "type": "Feature", "properties": { "osm_id": "13662026321", "code": 2590, "fclass": "vending_machine", "name_left": "Tủ đổi pin VinFast", "index_right": 0, "name_right": "Hanoi" }, "geometry": { "type": "Point", "coordinates": [ 105.8154412, 21.0002413 ] } },
{ "type": "Feature", "properties": { "osm_id": "13662026322", "code": 2590, "fclass": "vending_machine", "name_left": "Tủ đổi pin VinFast", "index_right": 0, "name_right": "Hanoi" }, "geometry": { "type": "Point", "coordinates": [ 105.7344154, 21.0519354 ] } },
{ "type": "Feature", "properties": { "osm_id": "13662026323", "code": 2590, "fclass": "vending_machine", "name_left": "Tủ đổi pin VinFast", "index_right": 0, "name_right": "Hanoi" }, "geometry": { "type": "Point", "coordinates": [ 105.7418005, 21.048717 ] } },
{ "type": "Feature", "properties": { "osm_id": "13662026324", "code": 2590, "fclass": "vending_machine", "name_left": "Tủ đổi pin VinFast", "index_right": 0, "name_right": "Hanoi" }, "geometry": { "type": "Point", "coordinates": [ 105.7771566, 20.9819051 ] } },
{ "type": "Feature", "properties": { "osm_id": "13662026325", "code": 2590, "fclass": "vending_machine", "name_left": "Tủ đổi pin VinFast", "index_right": 0, "name_right": "Hanoi" }, "geometry": { "type": "Point", "coordinates": [ 105.8030469, 20.9597851 ] } },
{ "type": "Feature", "properties": { "osm_id": "13665050689", "code": 2590, "fclass": "vending_machine", "name_left": "Tủ đổi pin VinFast", "index_right": 0, "name_right": "Hanoi" }, "geometry": { "type": "Point", "coordinates": [ 105.8369893, 21.0543553 ] } },
{ "type": "Feature", "properties": { "osm_id": "13665050690", "code": 2590, "fclass": "vending_machine", "name_left": "Tủ đổi pin VinFast", "index_right": 0, "name_right": "Hanoi" }, "geometry": { "type": "Point", "coordinates": [ 105.8452966, 21.043549 ] } },
{ "type": "Feature", "properties": { "osm_id": "13665050691", "code": 2590, "fclass": "vending_machine", "name_left": "Tủ đổi pin VinFast", "index_right": 0, "name_right": "Hanoi" }, "geometry": { "type": "Point", "coordinates": [ 105.8373874, 21.0536042 ] } },
{ "type": "Feature", "properties": { "osm_id": "13665050692", "code": 2590, "fclass": "vending_machine", "name_left": "Tủ đổi pin VinFast", "index_right": 0, "name_right": "Hanoi" }, "geometry": { "type": "Point", "coordinates": [ 105.8261854, 21.0320714 ] } },
{ "type": "Feature", "properties": { "osm_id": "13665050693", "code": 2590, "fclass": "vending_machine", "name_left": "Tủ đổi pin VinFast", "index_right": 0, "name_right": "Hanoi" }, "geometry": { "type": "Point", "coordinates": [ 105.8176775, 21.0308512 ] } },
{ "type": "Feature", "properties": { "osm_id": "13665050694", "code": 2590, "fclass": "vending_machine", "name_left": "Tủ đổi pin VinFast", "index_right": 0, "name_right": "Hanoi" }, "geometry": { "type": "Point", "coordinates": [ 105.8061795, 21.016365 ] } },
{ "type": "Feature", "properties": { "osm_id": "13665081202", "code": 2590, "fclass": "vending_machine", "name_left": "Tủ đổi pin VinFast", "index_right": 0, "name_right": "Hanoi" }, "geometry": { "type": "Point", "coordinates": [ 105.7217309, 20.9983994 ] } },
{ "type": "Feature", "properties": { "osm_id": "13665081203", "code": 2590, "fclass": "vending_machine", "name_left": "Tủ đổi pin VinFast", "index_right": 0, "name_right": "Hanoi" }, "geometry": { "type": "Point", "coordinates": [ 105.7724385, 20.9838484 ] } },
{ "type": "Feature", "properties": { "osm_id": "13665081204", "code": 2590, "fclass": "vending_machine", "name_left": "Tủ đổi pin VinFast", "index_right": 0, "name_right": "Hanoi" }, "geometry": { "type": "Point", "coordinates": [ 105.8438055, 20.9541331 ] } },
{ "type": "Feature", "properties": { "osm_id": "13665081205", "code": 2590, "fclass": "vending_machine", "name_left": "Tủ đổi pin VinFast", "index_right": 0, "name_right": "Hanoi" }, "geometry": { "type": "Point", "coordinates": [ 105.8469241, 20.9337329 ] } },
{ "type": "Feature", "properties": { "osm_id": "13665081206", "code": 2590, "fclass": "vending_machine", "name_left": "Tủ đổi pin VinFast", "index_right": 0, "name_right": "Hanoi" }, "geometry": { "type": "Point", "coordinates": [ 105.8442726, 20.9447949 ] } },
{ "type": "Feature", "properties": { "osm_id": "13665081207", "code": 2590, "fclass": "vending_machine", "name_left": "Tủ đổi pin VinFast", "index_right": 0, "name_right": "Hanoi" }, "geometry": { "type": "Point", "coordinates": [ 105.7528764, 21.0060341 ] } },
{ "type": "Feature", "properties": { "osm_id": "13665081208", "code": 2590, "fclass": "vending_machine", "name_left": "Tủ đổi pin VinFast", "index_right": 0, "name_right": "Hanoi" }, "geometry": { "type": "Point", "coordinates": [ 105.7407338, 21.0028803 ] } },
{ "type": "Feature", "properties": { "osm_id": "13665081209", "code": 2590, "fclass": "vending_machine", "name_left": "Tủ đổi pin VinFast", "index_right": 0, "name_right": "Hanoi" }, "geometry": { "type": "Point", "coordinates": [ 105.741085, 20.9975348 ] } },
{ "type": "Feature", "properties": { "osm_id": "13665105580", "code": 2590, "fclass": "vending_machine", "name_left": "Tủ đổi pin VinFast", "index_right": 0, "name_right": "Hanoi" }, "geometry": { "type": "Point", "coordinates": [ 105.7823323, 21.003137 ] } },
{ "type": "Feature", "properties": { "osm_id": "13665105581", "code": 2590, "fclass": "vending_machine", "name_left": "Tủ đổi pin VinFast", "index_right": 0, "name_right": "Hanoi" }, "geometry": { "type": "Point", "coordinates": [ 105.8659189, 20.9945399 ] } },
{ "type": "Feature", "properties": { "osm_id": "13665105582", "code": 2590, "fclass": "vending_machine", "name_left": "Tủ đổi pin VinFast", "index_right": 0, "name_right": "Hanoi" }, "geometry": { "type": "Point", "coordinates": [ 105.8660592, 20.9964629 ] } },
{ "type": "Feature", "properties": { "osm_id": "13665105583", "code": 2590, "fclass": "vending_machine", "name_left": "Tủ đổi pin VinFast", "index_right": 0, "name_right": "Hanoi" }, "geometry": { "type": "Point", "coordinates": [ 105.8670219, 20.9982655 ] } },
{ "type": "Feature", "properties": { "osm_id": "13665105584", "code": 2590, "fclass": "vending_machine", "name_left": "Tủ đổi pin VinFast", "index_right": 0, "name_right": "Hanoi" }, "geometry": { "type": "Point", "coordinates": [ 105.8569635, 21.0306244 ] } },
{ "type": "Feature", "properties": { "osm_id": "13665105585", "code": 2590, "fclass": "vending_machine", "name_left": "Tủ đổi pin VinFast", "index_right": 0, "name_right": "Hanoi" }, "geometry": { "type": "Point", "coordinates": [ 105.8527368, 21.0377915 ] } },
{ "type": "Feature", "properties": { "osm_id": "13667135444", "code": 2590, "fclass": "vending_machine", "name_left": "Tủ đổi pin VinFast", "index_right": 0, "name_right": "Hanoi" }, "geometry": { "type": "Point", "coordinates": [ 105.8603168, 20.9958879 ] } },
{ "type": "Feature", "properties": { "osm_id": "13667135445", "code": 2590, "fclass": "vending_machine", "name_left": "Tủ đổi pin VinFast", "index_right": 0, "name_right": "Hanoi" }, "geometry": { "type": "Point", "coordinates": [ 105.8066484, 21.0654955 ] } },
{ "type": "Feature", "properties": { "osm_id": "13667135446", "code": 2590, "fclass": "vending_machine", "name_left": "Tủ đổi pin VinFast", "index_right": 0, "name_right": "Hanoi" }, "geometry": { "type": "Point", "coordinates": [ 105.8042447, 21.0512048 ] } },
{ "type": "Feature", "properties": { "osm_id": "13667135447", "code": 2590, "fclass": "vending_machine", "name_left": "Tủ đổi pin VinFast", "index_right": 0, "name_right": "Hanoi" }, "geometry": { "type": "Point", "coordinates": [ 105.7834531, 21.0593305 ] } },
{ "type": "Feature", "properties": { "osm_id": "13667135448", "code": 2590, "fclass": "vending_machine", "name_left": "Tủ đổi pin VinFast", "index_right": 0, "name_right": "Hanoi" }, "geometry": { "type": "Point", "coordinates": [ 105.7807646, 21.0435206 ] } },
{ "type": "Feature", "properties": { "osm_id": "13667135449", "code": 2590, "fclass": "vending_machine", "name_left": "Tủ đổi pin VinFast", "index_right": 0, "name_right": "Hanoi" }, "geometry": { "type": "Point", "coordinates": [ 105.8239872, 21.0274041 ] } },
{ "type": "Feature", "properties": { "osm_id": "13667135450", "code": 2590, "fclass": "vending_machine", "name_left": "Tủ đổi pin VinFast", "index_right": 0, "name_right": "Hanoi" }, "geometry": { "type": "Point", "coordinates": [ 105.8269839, 21.0198407 ] } },
{ "type": "Feature", "properties": { "osm_id": "13667135451", "code": 2590, "fclass": "vending_machine", "name_left": "Tủ đổi pin VinFast", "index_right": 0, "name_right": "Hanoi" }, "geometry": { "type": "Point", "coordinates": [ 105.8138181, 20.8691598 ] } },
{ "type": "Feature", "properties": { "osm_id": "13668264613", "code": 2590, "fclass": "vending_machine", "name_left": "Tủ đổi pin VinFast", "index_right": 0, "name_right": "Hanoi" }, "geometry": { "type": "Point", "coordinates": [ 105.7508889, 21.0069731 ] } },
{ "type": "Feature", "properties": { "osm_id": "13668264614", "code": 2590, "fclass": "vending_machine", "name_left": "Tủ đổi pin VinFast", "index_right": 0, "name_right": "Hanoi" }, "geometry": { "type": "Point", "coordinates": [ 105.8045151, 21.0020938 ] } },
{ "type": "Feature", "properties": { "osm_id": "13668264615", "code": 2590, "fclass": "vending_machine", "name_left": "Tủ đổi pin VinFast", "index_right": 0, "name_right": "Hanoi" }, "geometry": { "type": "Point", "coordinates": [ 105.8269449, 21.0011405 ] } },
{ "type": "Feature", "properties": { "osm_id": "13668264616", "code": 2590, "fclass": "vending_machine", "name_left": "Tủ đổi pin VinFast", "index_right": 0, "name_right": "Hanoi" }, "geometry": { "type": "Point", "coordinates": [ 105.8382475, 20.9982812 ] } },
{ "type": "Feature", "properties": { "osm_id": "13668264617", "code": 2590, "fclass": "vending_machine", "name_left": "Tủ đổi pin VinFast", "index_right": 0, "name_right": "Hanoi" }, "geometry": { "type": "Point", "coordinates": [ 105.814719, 21.0081499 ] } },
{ "type": "Feature", "properties": { "osm_id": "13668264618", "code": 2590, "fclass": "vending_machine", "name_left": "Tủ đổi pin VinFast", "index_right": 0, "name_right": "Hanoi" }, "geometry": { "type": "Point", "coordinates": [ 105.80864, 21.0122849 ] } },
{ "type": "Feature", "properties": { "osm_id": "13668264619", "code": 2590, "fclass": "vending_machine", "name_left": "Tủ đổi pin VinFast", "index_right": 0, "name_right": "Hanoi" }, "geometry": { "type": "Point", "coordinates": [ 105.8322846, 21.0418044 ] } },
{ "type": "Feature", "properties": { "osm_id": "13668264620", "code": 2590, "fclass": "vending_machine", "name_left": "Tủ đổi pin VinFast", "index_right": 0, "name_right": "Hanoi" }, "geometry": { "type": "Point", "coordinates": [ 105.8139956, 21.0754308 ] } },
{ "type": "Feature", "properties": { "osm_id": "13668264621", "code": 2590, "fclass": "vending_machine", "name_left": "Tủ đổi pin VinFast", "index_right": 0, "name_right": "Hanoi" }, "geometry": { "type": "Point", "coordinates": [ 105.757122, 20.9399571 ] } },
{ "type": "Feature", "properties": { "osm_id": "13668264622", "code": 2590, "fclass": "vending_machine", "name_left": "Tủ đổi pin VinFast", "index_right": 0, "name_right": "Hanoi" }, "geometry": { "type": "Point", "coordinates": [ 105.8208227, 20.966022 ] } },
{ "type": "Feature", "properties": { "osm_id": "13668264623", "code": 2590, "fclass": "vending_machine", "name_left": "Tủ đổi pin VinFast", "index_right": 0, "name_right": "Hanoi" }, "geometry": { "type": "Point", "coordinates": [ 105.7899382, 21.0719153 ] } },
{ "type": "Feature", "properties": { "osm_id": "13668264624", "code": 2590, "fclass": "vending_machine", "name_left": "Tủ đổi pin VinFast", "index_right": 0, "name_right": "Hanoi" }, "geometry": { "type": "Point", "coordinates": [ 105.7117402, 20.9272358 ] } },
{ "type": "Feature", "properties": { "osm_id": "13668264625", "code": 2590, "fclass": "vending_machine", "name_left": "Tủ đổi pin VinFast", "index_right": 0, "name_right": "Hanoi" }, "geometry": { "type": "Point", "coordinates": [ 105.8429204, 21.0238358 ] } },
{ "type": "Feature", "properties": { "osm_id": "13668264626", "code": 2590, "fclass": "vending_machine", "name_left": "Tủ đổi pin VinFast", "index_right": 0, "name_right": "Hanoi" }, "geometry": { "type": "Point", "coordinates": [ 105.8492665, 21.0145303 ] } },
{ "type": "Feature", "properties": { "osm_id": "13668264627", "code": 2590, "fclass": "vending_machine", "name_left": "Tủ đổi pin VinFast", "index_right": 0, "name_right": "Hanoi" }, "geometry": { "type": "Point", "coordinates": [ 105.7079881, 21.0699155 ] } },
{ "type": "Feature", "properties": { "osm_id": "13668857499", "code": 2590, "fclass": "vending_machine", "name_left": "Tủ đổi pin VinFast", "index_right": 0, "name_right": "Hanoi" }, "geometry": { "type": "Point", "coordinates": [ 105.7614094, 21.0345256 ] } },
{ "type": "Feature", "properties": { "osm_id": "13668863745", "code": 2590, "fclass": "vending_machine", "name_left": "Tủ đổi pin VinFast", "index_right": 0, "name_right": "Hanoi" }, "geometry": { "type": "Point", "coordinates": [ 105.9391214, 21.010238 ] } },
{ "type": "Feature", "properties": { "osm_id": "13668863746", "code": 2590, "fclass": "vending_machine", "name_left": "Tủ đổi pin VinFast", "index_right": 0, "name_right": "Hanoi" }, "geometry": { "type": "Point", "coordinates": [ 105.856197, 21.104464 ] } },
{ "type": "Feature", "properties": { "osm_id": "13668863747", "code": 2590, "fclass": "vending_machine", "name_left": "Tủ đổi pin VinFast", "index_right": 0, "name_right": "Hanoi" }, "geometry": { "type": "Point", "coordinates": [ 105.7619417, 21.1564024 ] } },
{ "type": "Feature", "properties": { "osm_id": "13668863748", "code": 2590, "fclass": "vending_machine", "name_left": "Tủ đổi pin VinFast", "index_right": 0, "name_right": "Hanoi" }, "geometry": { "type": "Point", "coordinates": [ 105.788065, 21.116235 ] } },
{ "type": "Feature", "properties": { "osm_id": "13668863749", "code": 2590, "fclass": "vending_machine", "name_left": "Tủ đổi pin VinFast", "index_right": 0, "name_right": "Hanoi" }, "geometry": { "type": "Point", "coordinates": [ 105.8959026, 21.1538522 ] } },
{ "type": "Feature", "properties": { "osm_id": "13668880968", "code": 2590, "fclass": "vending_machine", "name_left": "Tủ đổi pin VinFast", "index_right": 0, "name_right": "Hanoi" }, "geometry": { "type": "Point", "coordinates": [ 105.6748064, 21.0821991 ] } },
{ "type": "Feature", "properties": { "osm_id": "13668880969", "code": 2590, "fclass": "vending_machine", "name_left": "Tủ đổi pin VinFast", "index_right": 0, "name_right": "Hanoi" }, "geometry": { "type": "Point", "coordinates": [ 105.5194027, 21.0262724 ] } },
{ "type": "Feature", "properties": { "osm_id": "13668880970", "code": 2590, "fclass": "vending_machine", "name_left": "Tủ đổi pin VinFast", "index_right": 0, "name_right": "Hanoi" }, "geometry": { "type": "Point", "coordinates": [ 105.619772, 21.0121776 ] } },
{ "type": "Feature", "properties": { "osm_id": "13668881201", "code": 2590, "fclass": "vending_machine", "name_left": "Tủ đổi pin VinFast", "index_right": 0, "name_right": "Hanoi" }, "geometry": { "type": "Point", "coordinates": [ 105.7097405, 21.0759382 ] } },
{ "type": "Feature", "properties": { "osm_id": "13668881202", "code": 2590, "fclass": "vending_machine", "name_left": "Tủ đổi pin VinFast", "index_right": 0, "name_right": "Hanoi" }, "geometry": { "type": "Point", "coordinates": [ 105.7257752, 21.0594741 ] } },
{ "type": "Feature", "properties": { "osm_id": "13668881203", "code": 2590, "fclass": "vending_machine", "name_left": "Tủ đổi pin VinFast", "index_right": 0, "name_right": "Hanoi" }, "geometry": { "type": "Point", "coordinates": [ 105.7475746, 21.0465373 ] } },
{ "type": "Feature", "properties": { "osm_id": "13669035764", "code": 2590, "fclass": "vending_machine", "name_left": "Tủ đổi pin VinFast", "index_right": 0, "name_right": "Hanoi" }, "geometry": { "type": "Point", "coordinates": [ 105.9061006, 21.0741277 ] } },
{ "type": "Feature", "properties": { "osm_id": "13669035765", "code": 2590, "fclass": "vending_machine", "name_left": "Tủ đổi pin VinFast", "index_right": 0, "name_right": "Hanoi" }, "geometry": { "type": "Point", "coordinates": [ 105.5836473, 20.9027045 ] } },
{ "type": "Feature", "properties": { "osm_id": "13669035766", "code": 2590, "fclass": "vending_machine", "name_left": "Tủ đổi pin VinFast", "index_right": 0, "name_right": "Hanoi" }, "geometry": { "type": "Point", "coordinates": [ 105.8840666, 20.807808 ] } },
{ "type": "Feature", "properties": { "osm_id": "13669035767", "code": 2590, "fclass": "vending_machine", "name_left": "Tủ đổi pin VinFast", "index_right": 0, "name_right": "Hanoi" }, "geometry": { "type": "Point", "coordinates": [ 105.8932975, 21.2770249 ] } },
{ "type": "Feature", "properties": { "osm_id": "13669035769", "code": 2590, "fclass": "vending_machine", "name_left": "Tủ đổi pin VinFast", "index_right": 0, "name_right": "Hanoi" }, "geometry": { "type": "Point", "coordinates": [ 105.9128081, 20.7352119 ] } },
{ "type": "Feature", "properties": { "osm_id": "13669035770", "code": 2590, "fclass": "vending_machine", "name_left": "Tủ đổi pin VinFast", "index_right": 0, "name_right": "Hanoi" }, "geometry": { "type": "Point", "coordinates": [ 105.7385295, 20.6951676 ] } },
{ "type": "Feature", "properties": { "osm_id": "13669035771", "code": 2590, "fclass": "vending_machine", "name_left": "Tủ đổi pin VinFast", "index_right": 0, "name_right": "Hanoi" }, "geometry": { "type": "Point", "coordinates": [ 105.7818279, 20.6189257 ] } },
{ "type": "Feature", "properties": { "osm_id": "13671874409", "code": 2590, "fclass": "vending_machine", "name_left": "Tủ đổi pin VinFast", "index_right": 0, "name_right": "Hanoi" }, "geometry": { "type": "Point", "coordinates": [ 105.7721534, 20.9804108 ] } },
{ "type": "Feature", "properties": { "osm_id": "13671874410", "code": 2590, "fclass": "vending_machine", "name_left": "Tủ đổi pin VinFast", "index_right": 0, "name_right": "Hanoi" }, "geometry": { "type": "Point", "coordinates": [ 105.7760769, 20.9768932 ] } },
{ "type": "Feature", "properties": { "osm_id": "13671874411", "code": 2590, "fclass": "vending_machine", "name_left": "Tủ đổi pin VinFast", "index_right": 0, "name_right": "Hanoi" }, "geometry": { "type": "Point", "coordinates": [ 105.7768834, 20.9721787 ] } },
{ "type": "Feature", "properties": { "osm_id": "13671874412", "code": 2590, "fclass": "vending_machine", "name_left": "Tủ đổi pin VinFast", "index_right": 0, "name_right": "Hanoi" }, "geometry": { "type": "Point", "coordinates": [ 105.7900076, 21.0242491 ] } },
{ "type": "Feature", "properties": { "osm_id": "13671874413", "code": 2590, "fclass": "vending_machine", "name_left": "Tủ đổi pin VinFast", "index_right": 0, "name_right": "Hanoi" }, "geometry": { "type": "Point", "coordinates": [ 105.7693804, 21.0147176 ] } },
{ "type": "Feature", "properties": { "osm_id": "13671874414", "code": 2590, "fclass": "vending_machine", "name_left": "Tủ đổi pin VinFast", "index_right": 0, "name_right": "Hanoi" }, "geometry": { "type": "Point", "coordinates": [ 105.7678605, 21.0282351 ] } },
{ "type": "Feature", "properties": { "osm_id": "13671874415", "code": 2590, "fclass": "vending_machine", "name_left": "Tủ đổi pin VinFast", "index_right": 0, "name_right": "Hanoi" }, "geometry": { "type": "Point", "coordinates": [ 105.7921281, 21.0417105 ] } },
{ "type": "Feature", "properties": { "osm_id": "13671874416", "code": 2590, "fclass": "vending_machine", "name_left": "Tủ đổi pin VinFast", "index_right": 0, "name_right": "Hanoi" }, "geometry": { "type": "Point", "coordinates": [ 105.8597848, 21.0140447 ] } },
{ "type": "Feature", "properties": { "osm_id": "13671874417", "code": 2590, "fclass": "vending_machine", "name_left": "Tủ đổi pin VinFast", "index_right": 0, "name_right": "Hanoi" }, "geometry": { "type": "Point", "coordinates": [ 105.8301576, 20.9697533 ] } },
{ "type": "Feature", "properties": { "osm_id": "13674955658", "code": 2590, "fclass": "vending_machine", "name_left": "Tủ đổi pin VinFast", "index_right": 0, "name_right": "Hanoi" }, "geometry": { "type": "Point", "coordinates": [ 105.753153, 21.0065914 ] } },
{ "type": "Feature", "properties": { "osm_id": "13674955659", "code": 2590, "fclass": "vending_machine", "name_left": "Tủ đổi pin VinFast", "index_right": 0, "name_right": "Hanoi" }, "geometry": { "type": "Point", "coordinates": [ 105.7540999, 21.0066077 ] } },
{ "type": "Feature", "properties": { "osm_id": "13674955660", "code": 2590, "fclass": "vending_machine", "name_left": "Tủ đổi pin VinFast", "index_right": 0, "name_right": "Hanoi" }, "geometry": { "type": "Point", "coordinates": [ 105.7824333, 20.9723039 ] } },
{ "type": "Feature", "properties": { "osm_id": "13674955661", "code": 2590, "fclass": "vending_machine", "name_left": "Tủ đổi pin VinFast", "index_right": 0, "name_right": "Hanoi" }, "geometry": { "type": "Point", "coordinates": [ 105.8572799, 21.0231294 ] } },
{ "type": "Feature", "properties": { "osm_id": "13674955662", "code": 2590, "fclass": "vending_machine", "name_left": "Tủ đổi pin VinFast", "index_right": 0, "name_right": "Hanoi" }, "geometry": { "type": "Point", "coordinates": [ 105.7902303, 20.9312058 ] } },
{ "type": "Feature", "properties": { "osm_id": "13674976562", "code": 2590, "fclass": "vending_machine", "name_left": "Tủ đổi pin VinFast", "index_right": 0, "name_right": "Hanoi" }, "geometry": { "type": "Point", "coordinates": [ 105.8020633, 20.9600081 ] } },
{ "type": "Feature", "properties": { "osm_id": "13674976563", "code": 2590, "fclass": "vending_machine", "name_left": "Tủ đổi pin VinFast", "index_right": 0, "name_right": "Hanoi" }, "geometry": { "type": "Point", "coordinates": [ 105.8179488, 20.952136 ] } },
{ "type": "Feature", "properties": { "osm_id": "13674976573", "code": 2590, "fclass": "vending_machine", "name_left": "Tủ đổi pin VinFast", "index_right": 0, "name_right": "Hanoi" }, "geometry": { "type": "Point", "coordinates": [ 105.8147492, 20.9540825 ] } },
{ "type": "Feature", "properties": { "osm_id": "13674976574", "code": 2590, "fclass": "vending_machine", "name_left": "Tủ đổi pin VinFast", "index_right": 0, "name_right": "Hanoi" }, "geometry": { "type": "Point", "coordinates": [ 105.8196886, 20.9500541 ] } },
{ "type": "Feature", "properties": { "osm_id": "13674976590", "code": 2590, "fclass": "vending_machine", "name_left": "Tủ đổi pin VinFast", "index_right": 0, "name_right": "Hanoi" }, "geometry": { "type": "Point", "coordinates": [ 105.843027, 20.9807115 ] } },
{ "type": "Feature", "properties": { "osm_id": "13674976596", "code": 2590, "fclass": "vending_machine", "name_left": "Tủ đổi pin VinFast", "index_right": 0, "name_right": "Hanoi" }, "geometry": { "type": "Point", "coordinates": [ 105.8423465, 20.976466 ] } },
{ "type": "Feature", "properties": { "osm_id": "13675000201", "code": 2590, "fclass": "vending_machine", "name_left": "Tủ đổi pin VinFast", "index_right": 0, "name_right": "Hanoi" }, "geometry": { "type": "Point", "coordinates": [ 105.8154216, 20.9842208 ] } },
{ "type": "Feature", "properties": { "osm_id": "13675000202", "code": 2590, "fclass": "vending_machine", "name_left": "Tủ đổi pin VinFast", "index_right": 0, "name_right": "Hanoi" }, "geometry": { "type": "Point", "coordinates": [ 105.8238469, 21.0175791 ] } },
{ "type": "Feature", "properties": { "osm_id": "13675000203", "code": 2590, "fclass": "vending_machine", "name_left": "Tủ đổi pin VinFast", "index_right": 0, "name_right": "Hanoi" }, "geometry": { "type": "Point", "coordinates": [ 105.8383733, 21.0088024 ] } },
{ "type": "Feature", "properties": { "osm_id": "13675000204", "code": 2590, "fclass": "vending_machine", "name_left": "Tủ đổi pin VinFast", "index_right": 0, "name_right": "Hanoi" }, "geometry": { "type": "Point", "coordinates": [ 105.8394524, 21.0079605 ] } },
{ "type": "Feature", "properties": { "osm_id": "13675000205", "code": 2590, "fclass": "vending_machine", "name_left": "Tủ đổi pin VinFast", "index_right": 0, "name_right": "Hanoi" }, "geometry": { "type": "Point", "coordinates": [ 105.8411199, 21.013518 ] } },
{ "type": "Feature", "properties": { "osm_id": "13675000206", "code": 2590, "fclass": "vending_machine", "name_left": "Tủ đổi pin VinFast", "index_right": 0, "name_right": "Hanoi" }, "geometry": { "type": "Point", "coordinates": [ 105.8393343, 21.012827 ] } },
{ "type": "Feature", "properties": { "osm_id": "13675000207", "code": 2590, "fclass": "vending_machine", "name_left": "Tủ đổi pin VinFast", "index_right": 0, "name_right": "Hanoi" }, "geometry": { "type": "Point", "coordinates": [ 105.8320543, 21.0067158 ] } },
{ "type": "Feature", "properties": { "osm_id": "13675000208", "code": 2590, "fclass": "vending_machine", "name_left": "Tủ đổi pin VinFast", "index_right": 0, "name_right": "Hanoi" }, "geometry": { "type": "Point", "coordinates": [ 105.7885253, 20.9926736 ] } },
{ "type": "Feature", "properties": { "osm_id": "13680891727", "code": 2590, "fclass": "vending_machine", "name_left": "Tủ đổi pin VinFast", "index_right": 0, "name_right": "Hanoi" }, "geometry": { "type": "Point", "coordinates": [ 105.8861268, 21.0528547 ] } },
{ "type": "Feature", "properties": { "osm_id": "13680891728", "code": 2590, "fclass": "vending_machine", "name_left": "Tủ đổi pin VinFast", "index_right": 0, "name_right": "Hanoi" }, "geometry": { "type": "Point", "coordinates": [ 105.762759, 20.9633772 ] } },
{ "type": "Feature", "properties": { "osm_id": "13680891729", "code": 2590, "fclass": "vending_machine", "name_left": "Tủ đổi pin VinFast", "index_right": 0, "name_right": "Hanoi" }, "geometry": { "type": "Point", "coordinates": [ 105.7328218, 21.0018864 ] } },
{ "type": "Feature", "properties": { "osm_id": "13680891730", "code": 2590, "fclass": "vending_machine", "name_left": "Tủ đổi pin VinFast", "index_right": 0, "name_right": "Hanoi" }, "geometry": { "type": "Point", "coordinates": [ 105.8032089, 21.0356741 ] } },
{ "type": "Feature", "properties": { "osm_id": "13680891731", "code": 2590, "fclass": "vending_machine", "name_left": "Tủ đổi pin VinFast", "index_right": 0, "name_right": "Hanoi" }, "geometry": { "type": "Point", "coordinates": [ 105.7749232, 20.9846878 ] } },
{ "type": "Feature", "properties": { "osm_id": "13684800188", "code": 2590, "fclass": "vending_machine", "name_left": "Tủ đổi pin VinFast", "index_right": 0, "name_right": "Hanoi" }, "geometry": { "type": "Point", "coordinates": [ 105.8732366, 20.9845153 ] } },
{ "type": "Feature", "properties": { "osm_id": "13684800189", "code": 2590, "fclass": "vending_machine", "name_left": "Tủ đổi pin VinFast", "index_right": 0, "name_right": "Hanoi" }, "geometry": { "type": "Point", "coordinates": [ 105.8655443, 20.9834943 ] } },
{ "type": "Feature", "properties": { "osm_id": "13684800190", "code": 2590, "fclass": "vending_machine", "name_left": "Tủ đổi pin VinFast", "index_right": 0, "name_right": "Hanoi" }, "geometry": { "type": "Point", "coordinates": [ 105.8063548, 21.0660592 ] } },
{ "type": "Feature", "properties": { "osm_id": "13684800191", "code": 2590, "fclass": "vending_machine", "name_left": "Tủ đổi pin VinFast", "index_right": 0, "name_right": "Hanoi" }, "geometry": { "type": "Point", "coordinates": [ 105.8312921, 21.0001913 ] } },
{ "type": "Feature", "properties": { "osm_id": "13684800192", "code": 2590, "fclass": "vending_machine", "name_left": "Tủ đổi pin VinFast", "index_right": 0, "name_right": "Hanoi" }, "geometry": { "type": "Point", "coordinates": [ 105.7935069, 20.9651358 ] } },
{ "type": "Feature", "properties": { "osm_id": "13685837261", "code": 2590, "fclass": "vending_machine", "name_left": "Tủ đổi pin VinFast", "index_right": 0, "name_right": "Hanoi" }, "geometry": { "type": "Point", "coordinates": [ 105.7628539, 20.9609652 ] } },
{ "type": "Feature", "properties": { "osm_id": "13685837262", "code": 2590, "fclass": "vending_machine", "name_left": "Tủ đổi pin VinFast", "index_right": 0, "name_right": "Hanoi" }, "geometry": { "type": "Point", "coordinates": [ 105.747787, 20.9744726 ] } },
{ "type": "Feature", "properties": { "osm_id": "13685837263", "code": 2590, "fclass": "vending_machine", "name_left": "Tủ đổi pin VinFast", "index_right": 0, "name_right": "Hanoi" }, "geometry": { "type": "Point", "coordinates": [ 105.7537227, 20.9695219 ] } },
{ "type": "Feature", "properties": { "osm_id": "13685837264", "code": 2590, "fclass": "vending_machine", "name_left": "Tủ đổi pin VinFast", "index_right": 0, "name_right": "Hanoi" }, "geometry": { "type": "Point", "coordinates": [ 105.7514497, 20.9524958 ] } },
{ "type": "Feature", "properties": { "osm_id": "13685837272", "code": 2590, "fclass": "vending_machine", "name_left": "Tủ đổi pin VinFast", "index_right": 0, "name_right": "Hanoi" }, "geometry": { "type": "Point", "coordinates": [ 105.808554, 20.9836636 ] } },
{ "type": "Feature", "properties": { "osm_id": "13686451916", "code": 2590, "fclass": "vending_machine", "name_left": "Tủ đổi pin VinFast", "index_right": 0, "name_right": "Hanoi" }, "geometry": { "type": "Point", "coordinates": [ 105.8422517, 20.9618499 ] } },
{ "type": "Feature", "properties": { "osm_id": "13686451917", "code": 2590, "fclass": "vending_machine", "name_left": "Tủ đổi pin VinFast", "index_right": 0, "name_right": "Hanoi" }, "geometry": { "type": "Point", "coordinates": [ 105.7725863, 21.0326485 ] } },
{ "type": "Feature", "properties": { "osm_id": "13686451918", "code": 2590, "fclass": "vending_machine", "name_left": "Tủ đổi pin VinFast", "index_right": 0, "name_right": "Hanoi" }, "geometry": { "type": "Point", "coordinates": [ 105.7874025, 21.0140708 ] } },
{ "type": "Feature", "properties": { "osm_id": "13686451919", "code": 2590, "fclass": "vending_machine", "name_left": "Tủ đổi pin VinFast", "index_right": 0, "name_right": "Hanoi" }, "geometry": { "type": "Point", "coordinates": [ 105.7661655, 21.0341568 ] } },
{ "type": "Feature", "properties": { "osm_id": "13690004468", "code": 2590, "fclass": "vending_machine", "name_left": "Tủ đổi pin VinFast", "index_right": 0, "name_right": "Hanoi" }, "geometry": { "type": "Point", "coordinates": [ 105.8709656, 21.0462297 ] } },
{ "type": "Feature", "properties": { "osm_id": "13690004469", "code": 2590, "fclass": "vending_machine", "name_left": "Tủ đổi pin VinFast", "index_right": 0, "name_right": "Hanoi" }, "geometry": { "type": "Point", "coordinates": [ 105.7365299, 20.9985635 ] } },
{ "type": "Feature", "properties": { "osm_id": "13701533098", "code": 2590, "fclass": "vending_machine", "name_left": "Tủ đổi pin VinFast", "index_right": 0, "name_right": "Hanoi" }, "geometry": { "type": "Point", "coordinates": [ 105.8542219, 21.0090727 ] } },
{ "type": "Feature", "properties": { "osm_id": "13701533099", "code": 2590, "fclass": "vending_machine", "name_left": "Tủ đổi pin VinFast", "index_right": 0, "name_right": "Hanoi" }, "geometry": { "type": "Point", "coordinates": [ 105.8044579, 20.9903984 ] } },
{ "type": "Feature", "properties": { "osm_id": "13701533100", "code": 2590, "fclass": "vending_machine", "name_left": "Tủ đổi pin VinFast", "index_right": 0, "name_right": "Hanoi" }, "geometry": { "type": "Point", "coordinates": [ 105.8640096, 20.9793188 ] } },
{ "type": "Feature", "properties": { "osm_id": "13701538802", "code": 2590, "fclass": "vending_machine", "name_left": "Tủ đổi pin VinFast", "index_right": 0, "name_right": "Hanoi" }, "geometry": { "type": "Point", "coordinates": [ 105.7376632, 20.9999501 ] } },
{ "type": "Feature", "properties": { "osm_id": "13701538803", "code": 2590, "fclass": "vending_machine", "name_left": "Tủ đổi pin VinFast", "index_right": 0, "name_right": "Hanoi" }, "geometry": { "type": "Point", "coordinates": [ 105.7635046, 20.9609539 ] } },
{ "type": "Feature", "properties": { "osm_id": "13701538804", "code": 2590, "fclass": "vending_machine", "name_left": "Tủ đổi pin VinFast", "index_right": 0, "name_right": "Hanoi" }, "geometry": { "type": "Point", "coordinates": [ 105.7724379, 20.9685173 ] } },
{ "type": "Feature", "properties": { "osm_id": "13701538805", "code": 2590, "fclass": "vending_machine", "name_left": "Tủ đổi pin VinFast", "index_right": 0, "name_right": "Hanoi" }, "geometry": { "type": "Point", "coordinates": [ 105.7761744, 21.0280354 ] } },
{ "type": "Feature", "properties": { "osm_id": "13703724838", "code": 2590, "fclass": "vending_machine", "name_left": "Tủ đổi pin VinFast", "index_right": 0, "name_right": "Hanoi" }, "geometry": { "type": "Point", "coordinates": [ 105.7283074, 21.0576978 ] } },
{ "type": "Feature", "properties": { "osm_id": "13703724839", "code": 2590, "fclass": "vending_machine", "name_left": "Tủ đổi pin VinFast", "index_right": 0, "name_right": "Hanoi" }, "geometry": { "type": "Point", "coordinates": [ 105.8682501, 20.9981403 ] } },
{ "type": "Feature", "properties": { "osm_id": "13705740557", "code": 2590, "fclass": "vending_machine", "name_left": "Tủ đổi pin VinFast", "index_right": 0, "name_right": "Hanoi" }, "geometry": { "type": "Point", "coordinates": [ 105.9130586, 21.0029804 ] } },
{ "type": "Feature", "properties": { "osm_id": "13705740558", "code": 2590, "fclass": "vending_machine", "name_left": "Tủ đổi pin VinFast", "index_right": 0, "name_right": "Hanoi" }, "geometry": { "type": "Point", "coordinates": [ 105.7935431, 21.0097244 ] } },
{ "type": "Feature", "properties": { "osm_id": "13705740559", "code": 2590, "fclass": "vending_machine", "name_left": "Tủ đổi pin VinFast", "index_right": 0, "name_right": "Hanoi" }, "geometry": { "type": "Point", "coordinates": [ 105.794738, 21.008557 ] } },
{ "type": "Feature", "properties": { "osm_id": "13711363966", "code": 2590, "fclass": "vending_machine", "name_left": "Tủ đổi pin VinFast", "index_right": 0, "name_right": "Hanoi" }, "geometry": { "type": "Point", "coordinates": [ 105.7708263, 20.9804163 ] } },
{ "type": "Feature", "properties": { "osm_id": "13713784559", "code": 2590, "fclass": "vending_machine", "name_left": "Tủ đổi pin VinFast", "index_right": 0, "name_right": "Hanoi" }, "geometry": { "type": "Point", "coordinates": [ 105.6763323, 21.0468794 ] } },
{ "type": "Feature", "properties": { "osm_id": "13716360230", "code": 2590, "fclass": "vending_machine", "name_left": "Tủ đổi pin VinFast", "index_right": 0, "name_right": "Hanoi" }, "geometry": { "type": "Point", "coordinates": [ 105.8501118, 20.9980735 ] } },
{ "type": "Feature", "properties": { "osm_id": "13716360231", "code": 2590, "fclass": "vending_machine", "name_left": "Tủ đổi pin VinFast", "index_right": 0, "name_right": "Hanoi" }, "geometry": { "type": "Point", "coordinates": [ 105.8669016, 20.9969644 ] } },
{ "type": "Feature", "properties": { "osm_id": "13723243059", "code": 2590, "fclass": "vending_machine", "name_left": "Tủ đổi pin VinFast", "index_right": 0, "name_right": "Hanoi" }, "geometry": { "type": "Point", "coordinates": [ 105.8678955, 20.9666689 ] } },
{ "type": "Feature", "properties": { "osm_id": "13724542907", "code": 2590, "fclass": "vending_machine", "name_left": "Tủ đổi pin VinFast", "index_right": 0, "name_right": "Hanoi" }, "geometry": { "type": "Point", "coordinates": [ 105.7855378, 21.0826277 ] } },
{ "type": "Feature", "properties": { "osm_id": "13733944816", "code": 2590, "fclass": "vending_machine", "name_left": "Tủ đổi pin VinFast", "index_right": 0, "name_right": "Hanoi" }, "geometry": { "type": "Point", "coordinates": [ 105.8491602, 20.9279583 ] } },
{ "type": "Feature", "properties": { "osm_id": "13751705234", "code": 2590, "fclass": "vending_machine", "name_left": "Tủ đổi pin VinFast", "index_right": 0, "name_right": "Hanoi" }, "geometry": { "type": "Point", "coordinates": [ 105.7855165, 21.0912271 ] } },
{ "type": "Feature", "properties": { "osm_id": "13751705235", "code": 2590, "fclass": "vending_machine", "name_left": "Tủ đổi pin VinFast", "index_right": 0, "name_right": "Hanoi" }, "geometry": { "type": "Point", "coordinates": [ 105.7849272, 21.0803703 ] } }
]
}
