{
"type": "FeatureCollection",
"name": "amenity_bar_hanoi",
"crs": { "type": "name", "properties": { "name": "urn:ogc:def:crs:OGC:1.3:CRS84" } },
"features": [
{ "type": "Feature", "properties": { "osm_id": "723795404", "code": 2305, "fclass": "bar", "name_left": "Quán Bar Dragonfly", "index_right": 0, "name_right": "Hanoi" }, "geometry": { "type": "Point", "coordinates": [ 105.8522274, 21.0358287 ] } },
{ "type": "Feature", "properties": { "osm_id": "723795406", "code": 2305, "fclass": "bar", "name_left": "Roots Reggae bar", "index_right": 0, "name_right": "Hanoi" }, "geometry": { "type": "Point", "coordinates": [ 105.8541586, 21.0350376 ] } },
{ "type": "Feature", "properties": { "osm_id": "723795407", "code": 2305, "fclass": "bar", "name_left": "Phuc Tan Bar", "index_right": 0, "name_right": "Hanoi" }, "geometry": { "type": "Point", "coordinates": [ 105.8551456, 21.0383923 ] } },
{ "type": "Feature", "properties": { "osm_id": "723795408", "code": 2305, "fclass": "bar", "name_left": "Solace", "index_right": 0, "name_right": "Hanoi" }, "geometry": { "type": "Point", "coordinates": [ 105.8609285, 21.0301308 ] } },
{ "type": "Feature", "properties": { "osm_id": "723795544", "code": 2305, "fclass": "bar", "name_left": "Hybra Ultra Lounge", "index_right": 0, "name_right": "Hanoi" }, "geometry": { "type": "Point", "coordinates": [ 105.853259, 21.0356982 ] } },
{ "type": "Feature", "properties": { "osm_id": "977668070", "code": 2305, "fclass": "bar", "name_left": "Sago", "index_right": 0, "name_right": "Hanoi" }, "geometry": { "type": "Point", "coordinates": [ 105.8520426, 21.0323292 ] } },
{ "type": "Feature", "properties": { "osm_id": "2090595753", "code": 2305, "fclass": "bar", "name_left": "Quán Bar 21 North", "index_right": 0, "name_right": "Hanoi" }, "geometry": { "type": "Point", "coordinates": [ 105.8340964, 21.0532288 ] } },
{ "type": "Feature", "properties": { "osm_id": "2313983420", "code": 2305, "fclass": "bar", "name_left": "Quán Bar Bamboo", "index_right": 0, "name_right": "Hanoi" }, "geometry": { "type": "Point", "coordinates": [ 105.8563025, 21.0257273 ] } },
{ "type": "Feature", "properties": { "osm_id": "3471347684", "code": 2305, "fclass": "bar", "name_left": "Quán Bia Hơi 234", "index_right": 0, "name_right": "Hanoi" }, "geometry": { "type": "Point", "coordinates": [ 105.7992694, 21.045403 ] } },
{ "type": "Feature", "properties": { "osm_id": "3544876154", "code": 2305, "fclass": "bar", "name_left": "R&R Tavern", "index_right": 0, "name_right": "Hanoi" }, "geometry": { "type": "Point", "coordinates": [ 105.836556, 21.0561475 ] } },
{ "type": "Feature", "properties": { "osm_id": "3587852170", "code": 2305, "fclass": "bar", "name_left": "Quán Beer 2ku", "index_right": 0, "name_right": "Hanoi" }, "geometry": { "type": "Point", "coordinates": [ 105.8223081, 21.0437015 ] } },
{ "type": "Feature", "properties": { "osm_id": "3671278938", "code": 2305, "fclass": "bar", "name_left": "Tadioto Bar", "index_right": 0, "name_right": "Hanoi" }, "geometry": { "type": "Point", "coordinates": [ 105.8578211, 21.0256893 ] } },
{ "type": "Feature", "properties": { "osm_id": "4125653866", "code": 2305, "fclass": "bar", "name_left": "Cama ATK", "index_right": 0, "name_right": "Hanoi" }, "geometry": { "type": "Point", "coordinates": [ 105.8511946, 21.0142409 ] } },
{ "type": "Feature", "properties": { "osm_id": "4125958090", "code": 2305, "fclass": "bar", "name_left": "Tom's Bar - Cheap Beer", "index_right": 0, "name_right": "Hanoi" }, "geometry": { "type": "Point", "coordinates": [ 105.7752796, 21.0433487 ] } },
{ "type": "Feature", "properties": { "osm_id": "4164213590", "code": 2305, "fclass": "bar", "name_left": "Quán Bia Light & Dark", "index_right": 0, "name_right": "Hanoi" }, "geometry": { "type": "Point", "coordinates": [ 105.8174694, 21.077656 ] } },
{ "type": "Feature", "properties": { "osm_id": "4242817790", "code": 2305, "fclass": "bar", "name_left": "Quán Bar Factory", "index_right": 0, "name_right": "Hanoi" }, "geometry": { "type": "Point", "coordinates": [ 105.8507166, 21.030133 ] } },
{ "type": "Feature", "properties": { "osm_id": "4242866491", "code": 2305, "fclass": "bar", "name_left": "GC Bar", "index_right": 0, "name_right": "Hanoi" }, "geometry": { "type": "Point", "coordinates": [ 105.8510117, 21.0304068 ] } },
{ "type": "Feature", "properties": { "osm_id": "4255811789", "code": 2305, "fclass": "bar", "name_left": "Vcb hang khoai", "index_right": 0, "name_right": "Hanoi" }, "geometry": { "type": "Point", "coordinates": [ 105.8481828, 21.0378873 ] } },
{ "type": "Feature", "properties": { "osm_id": "4277492653", "code": 2305, "fclass": "bar", "name_left": "Quán Bar Hanoi Ale House", "index_right": 0, "name_right": "Hanoi" }, "geometry": { "type": "Point", "coordinates": [ 105.7970841, 21.0176032 ] } },
{ "type": "Feature", "properties": { "osm_id": "4370937020", "code": 2305, "fclass": "bar", "name_left": "Laca24", "index_right": 0, "name_right": "Hanoi" }, "geometry": { "type": "Point", "coordinates": [ 105.8490598, 21.0299342 ] } },
{ "type": "Feature", "properties": { "osm_id": "4402476990", "code": 2305, "fclass": "bar", "name_left": "Temple Bar", "index_right": 0, "name_right": "Hanoi" }, "geometry": { "type": "Point", "coordinates": [ 105.8527286, 21.0359926 ] } },
{ "type": "Feature", "properties": { "osm_id": "4424369790", "code": 2305, "fclass": "bar", "name_left": "Pinky Moon", "index_right": 0, "name_right": "Hanoi" }, "geometry": { "type": "Point", "coordinates": [ 105.850226, 21.0314388 ] } },
{ "type": "Feature", "properties": { "osm_id": "4434816790", "code": 2305, "fclass": "bar", "name_left": null, "index_right": 0, "name_right": "Hanoi" }, "geometry": { "type": "Point", "coordinates": [ 105.8501757, 21.0310441 ] } },
{ "type": "Feature", "properties": { "osm_id": "4455938190", "code": 2305, "fclass": "bar", "name_left": "Cà Phê Œufs", "index_right": 0, "name_right": "Hanoi" }, "geometry": { "type": "Point", "coordinates": [ 105.8511657, 21.0322227 ] } },
{ "type": "Feature", "properties": { "osm_id": "4470184092", "code": 2305, "fclass": "bar", "name_left": null, "index_right": 0, "name_right": "Hanoi" }, "geometry": { "type": "Point", "coordinates": [ 105.8553125, 21.0234859 ] } },
{ "type": "Feature", "properties": { "osm_id": "4502649692", "code": 2305, "fclass": "bar", "name_left": "The Hut", "index_right": 0, "name_right": "Hanoi" }, "geometry": { "type": "Point", "coordinates": [ 105.8487122, 21.0307403 ] } },
{ "type": "Feature", "properties": { "osm_id": "4504236092", "code": 2305, "fclass": "bar", "name_left": null, "index_right": 0, "name_right": "Hanoi" }, "geometry": { "type": "Point", "coordinates": [ 105.8532676, 21.0360065 ] } },
{ "type": "Feature", "properties": { "osm_id": "4504236094", "code": 2305, "fclass": "bar", "name_left": null, "index_right": 0, "name_right": "Hanoi" }, "geometry": { "type": "Point", "coordinates": [ 105.8287534, 21.0622846 ] } },
{ "type": "Feature", "properties": { "osm_id": "4504236096", "code": 2305, "fclass": "bar", "name_left": null, "index_right": 0, "name_right": "Hanoi" }, "geometry": { "type": "Point", "coordinates": [ 105.839681, 21.0279841 ] } },
{ "type": "Feature", "properties": { "osm_id": "4504236098", "code": 2305, "fclass": "bar", "name_left": null, "index_right": 0, "name_right": "Hanoi" }, "geometry": { "type": "Point", "coordinates": [ 105.8288986, 21.0351536 ] } },
{ "type": "Feature", "properties": { "osm_id": "4504291990", "code": 2305, "fclass": "bar", "name_left": null, "index_right": 0, "name_right": "Hanoi" }, "geometry": { "type": "Point", "coordinates": [ 105.853885, 21.0355206 ] } },
{ "type": "Feature", "properties": { "osm_id": "4504307290", "code": 2305, "fclass": "bar", "name_left": "Quán Bia Tiệp Zubr Czech Bar", "index_right": 0, "name_right": "Hanoi" }, "geometry": { "type": "Point", "coordinates": [ 105.8434918, 21.0431074 ] } },
{ "type": "Feature", "properties": { "osm_id": "4504307389", "code": 2305, "fclass": "bar", "name_left": "Birdcage", "index_right": 0, "name_right": "Hanoi" }, "geometry": { "type": "Point", "coordinates": [ 105.8305276, 21.0718623 ] } },
{ "type": "Feature", "properties": { "osm_id": "4533330489", "code": 2305, "fclass": "bar", "name_left": null, "index_right": 0, "name_right": "Hanoi" }, "geometry": { "type": "Point", "coordinates": [ 105.8383455, 21.0304693 ] } },
{ "type": "Feature", "properties": { "osm_id": "4547730290", "code": 2305, "fclass": "bar", "name_left": "Quán Bar La Bomba Latina", "index_right": 0, "name_right": "Hanoi" }, "geometry": { "type": "Point", "coordinates": [ 105.8483479, 21.0294304 ] } },
{ "type": "Feature", "properties": { "osm_id": "4569759290", "code": 2305, "fclass": "bar", "name_left": null, "index_right": 0, "name_right": "Hanoi" }, "geometry": { "type": "Point", "coordinates": [ 105.8290694, 21.0625056 ] } },
{ "type": "Feature", "properties": { "osm_id": "4569769689", "code": 2305, "fclass": "bar", "name_left": null, "index_right": 0, "name_right": "Hanoi" }, "geometry": { "type": "Point", "coordinates": [ 105.8301031, 21.0623823 ] } },
{ "type": "Feature", "properties": { "osm_id": "4569769691", "code": 2305, "fclass": "bar", "name_left": null, "index_right": 0, "name_right": "Hanoi" }, "geometry": { "type": "Point", "coordinates": [ 105.829382, 21.062916 ] } },
{ "type": "Feature", "properties": { "osm_id": "4570094492", "code": 2305, "fclass": "bar", "name_left": null, "index_right": 0, "name_right": "Hanoi" }, "geometry": { "type": "Point", "coordinates": [ 105.8470486, 21.0211207 ] } },
{ "type": "Feature", "properties": { "osm_id": "4571213591", "code": 2305, "fclass": "bar", "name_left": null, "index_right": 0, "name_right": "Hanoi" }, "geometry": { "type": "Point", "coordinates": [ 105.84594, 21.0319897 ] } },
{ "type": "Feature", "properties": { "osm_id": "4580689690", "code": 2305, "fclass": "bar", "name_left": "Quán Bia Khu 9", "index_right": 0, "name_right": "Hanoi" }, "geometry": { "type": "Point", "coordinates": [ 105.8631666, 21.0127393 ] } },
{ "type": "Feature", "properties": { "osm_id": "4623110190", "code": 2305, "fclass": "bar", "name_left": "Quán Bar Jojo", "index_right": 0, "name_right": "Hanoi" }, "geometry": { "type": "Point", "coordinates": [ 105.8525977, 21.0353794 ] } },
{ "type": "Feature", "properties": { "osm_id": "4623110191", "code": 2305, "fclass": "bar", "name_left": null, "index_right": 0, "name_right": "Hanoi" }, "geometry": { "type": "Point", "coordinates": [ 105.8458919, 21.0320441 ] } },
{ "type": "Feature", "properties": { "osm_id": "4633938090", "code": 2305, "fclass": "bar", "name_left": null, "index_right": 0, "name_right": "Hanoi" }, "geometry": { "type": "Point", "coordinates": [ 105.8523943, 21.035374 ] } },
{ "type": "Feature", "properties": { "osm_id": "4633962393", "code": 2305, "fclass": "bar", "name_left": null, "index_right": 0, "name_right": "Hanoi" }, "geometry": { "type": "Point", "coordinates": [ 105.8307518, 21.0621359 ] } },
{ "type": "Feature", "properties": { "osm_id": "4633968590", "code": 2305, "fclass": "bar", "name_left": "Zone 17", "index_right": 0, "name_right": "Hanoi" }, "geometry": { "type": "Point", "coordinates": [ 105.8453565, 21.0458906 ] } },
{ "type": "Feature", "properties": { "osm_id": "4662962095", "code": 2305, "fclass": "bar", "name_left": "The 100 Garden", "index_right": 0, "name_right": "Hanoi" }, "geometry": { "type": "Point", "coordinates": [ 105.8289799, 21.0677926 ] } },
{ "type": "Feature", "properties": { "osm_id": "4737946876", "code": 2305, "fclass": "bar", "name_left": "Cà Phê Fagioli", "index_right": 0, "name_right": "Hanoi" }, "geometry": { "type": "Point", "coordinates": [ 105.8499933, 21.0328496 ] } },
{ "type": "Feature", "properties": { "osm_id": "4740811623", "code": 2305, "fclass": "bar", "name_left": null, "index_right": 0, "name_right": "Hanoi" }, "geometry": { "type": "Point", "coordinates": [ 105.8435548, 21.0301113 ] } },
{ "type": "Feature", "properties": { "osm_id": "4798005121", "code": 2305, "fclass": "bar", "name_left": null, "index_right": 0, "name_right": "Hanoi" }, "geometry": { "type": "Point", "coordinates": [ 105.8531449, 21.0331214 ] } },
{ "type": "Feature", "properties": { "osm_id": "4843222221", "code": 2305, "fclass": "bar", "name_left": null, "index_right": 0, "name_right": "Hanoi" }, "geometry": { "type": "Point", "coordinates": [ 105.8632229, 21.0125816 ] } },
{ "type": "Feature", "properties": { "osm_id": "4843222321", "code": 2305, "fclass": "bar", "name_left": null, "index_right": 0, "name_right": "Hanoi" }, "geometry": { "type": "Point", "coordinates": [ 105.8486503, 21.0208729 ] } },
{ "type": "Feature", "properties": { "osm_id": "4860847821", "code": 2305, "fclass": "bar", "name_left": "Quán Pub Corner", "index_right": 0, "name_right": "Hanoi" }, "geometry": { "type": "Point", "coordinates": [ 105.8517967, 21.0358184 ] } },
{ "type": "Feature", "properties": { "osm_id": "4863114821", "code": 2305, "fclass": "bar", "name_left": null, "index_right": 0, "name_right": "Hanoi" }, "geometry": { "type": "Point", "coordinates": [ 105.8448695, 21.0299576 ] } },
{ "type": "Feature", "properties": { "osm_id": "4868024121", "code": 2305, "fclass": "bar", "name_left": null, "index_right": 0, "name_right": "Hanoi" }, "geometry": { "type": "Point", "coordinates": [ 105.8261297, 21.0676835 ] } },
{ "type": "Feature", "properties": { "osm_id": "4927816521", "code": 2305, "fclass": "bar", "name_left": "Nhà Đạt Đồng Đò", "index_right": 0, "name_right": "Hanoi" }, "geometry": { "type": "Point", "coordinates": [ 105.7773955, 21.3239402 ] } },
{ "type": "Feature", "properties": { "osm_id": "4984643121", "code": 2305, "fclass": "bar", "name_left": "Prague Pub", "index_right": 0, "name_right": "Hanoi" }, "geometry": { "type": "Point", "coordinates": [ 105.851773, 21.0348523 ] } },
{ "type": "Feature", "properties": { "osm_id": "5031497529", "code": 2305, "fclass": "bar", "name_left": null, "index_right": 0, "name_right": "Hanoi" }, "geometry": { "type": "Point", "coordinates": [ 105.8536149, 21.0313036 ] } },
{ "type": "Feature", "properties": { "osm_id": "5040470321", "code": 2305, "fclass": "bar", "name_left": null, "index_right": 0, "name_right": "Hanoi" }, "geometry": { "type": "Point", "coordinates": [ 105.8494275, 21.0293554 ] } },
{ "type": "Feature", "properties": { "osm_id": "5063725721", "code": 2305, "fclass": "bar", "name_left": null, "index_right": 0, "name_right": "Hanoi" }, "geometry": { "type": "Point", "coordinates": [ 105.823344, 21.0699424 ] } },
{ "type": "Feature", "properties": { "osm_id": "5177801221", "code": 2305, "fclass": "bar", "name_left": null, "index_right": 0, "name_right": "Hanoi" }, "geometry": { "type": "Point", "coordinates": [ 105.8533325, 21.035545 ] } },
{ "type": "Feature", "properties": { "osm_id": "5221383721", "code": 2305, "fclass": "bar", "name_left": null, "index_right": 0, "name_right": "Hanoi" }, "geometry": { "type": "Point", "coordinates": [ 105.8519474, 21.0356701 ] } },
{ "type": "Feature", "properties": { "osm_id": "5302018422", "code": 2305, "fclass": "bar", "name_left": null, "index_right": 0, "name_right": "Hanoi" }, "geometry": { "type": "Point", "coordinates": [ 105.8655323, 21.0394912 ] } },
{ "type": "Feature", "properties": { "osm_id": "5318081125", "code": 2305, "fclass": "bar", "name_left": "Olag Coffee", "index_right": 0, "name_right": "Hanoi" }, "geometry": { "type": "Point", "coordinates": [ 105.8433564, 21.045116 ] } },
{ "type": "Feature", "properties": { "osm_id": "5336076221", "code": 2305, "fclass": "bar", "name_left": "Tiny Cafe", "index_right": 0, "name_right": "Hanoi" }, "geometry": { "type": "Point", "coordinates": [ 105.8407112, 21.0325759 ] } },
{ "type": "Feature", "properties": { "osm_id": "5395421321", "code": 2305, "fclass": "bar", "name_left": null, "index_right": 0, "name_right": "Hanoi" }, "geometry": { "type": "Point", "coordinates": [ 105.8541949, 21.0350555 ] } },
{ "type": "Feature", "properties": { "osm_id": "5432521822", "code": 2305, "fclass": "bar", "name_left": null, "index_right": 0, "name_right": "Hanoi" }, "geometry": { "type": "Point", "coordinates": [ 105.8520878, 21.0352035 ] } },
{ "type": "Feature", "properties": { "osm_id": "5439798022", "code": 2305, "fclass": "bar", "name_left": null, "index_right": 0, "name_right": "Hanoi" }, "geometry": { "type": "Point", "coordinates": [ 105.8484299, 21.0285103 ] } },
{ "type": "Feature", "properties": { "osm_id": "5455622566", "code": 2305, "fclass": "bar", "name_left": "Quán Bar Le Petit Bruxelles", "index_right": 0, "name_right": "Hanoi" }, "geometry": { "type": "Point", "coordinates": [ 105.8490895, 21.0301826 ] } },
{ "type": "Feature", "properties": { "osm_id": "5485806465", "code": 2305, "fclass": "bar", "name_left": "nhom6, Tửu lượng quán, T01-15", "index_right": 0, "name_right": "Hanoi" }, "geometry": { "type": "Point", "coordinates": [ 105.773857, 21.0773675 ] } },
{ "type": "Feature", "properties": { "osm_id": "5505958621", "code": 2305, "fclass": "bar", "name_left": "Hải Sản Biển Đông", "index_right": 0, "name_right": "Hanoi" }, "geometry": { "type": "Point", "coordinates": [ 105.8532395, 20.9770186 ] } },
{ "type": "Feature", "properties": { "osm_id": "5516493923", "code": 2305, "fclass": "bar", "name_left": "The Space Pub", "index_right": 0, "name_right": "Hanoi" }, "geometry": { "type": "Point", "coordinates": [ 105.8513779, 21.0326682 ] } },
{ "type": "Feature", "properties": { "osm_id": "5523872521", "code": 2305, "fclass": "bar", "name_left": "Quán Bia Hơi Corner", "index_right": 0, "name_right": "Hanoi" }, "geometry": { "type": "Point", "coordinates": [ 105.8528347, 21.0361449 ] } },
{ "type": "Feature", "properties": { "osm_id": "5594114792", "code": 2305, "fclass": "bar", "name_left": "Quán Bar Dinh", "index_right": 0, "name_right": "Hanoi" }, "geometry": { "type": "Point", "coordinates": [ 105.8202263, 21.0420896 ] } },
{ "type": "Feature", "properties": { "osm_id": "5719452022", "code": 2305, "fclass": "bar", "name_left": "Quán Bia Corner", "index_right": 0, "name_right": "Hanoi" }, "geometry": { "type": "Point", "coordinates": [ 105.8521754, 21.0347541 ] } },
{ "type": "Feature", "properties": { "osm_id": "5754711753", "code": 2305, "fclass": "bar", "name_left": null, "index_right": 0, "name_right": "Hanoi" }, "geometry": { "type": "Point", "coordinates": [ 105.8484932, 21.0294964 ] } },
{ "type": "Feature", "properties": { "osm_id": "5761142321", "code": 2305, "fclass": "bar", "name_left": null, "index_right": 0, "name_right": "Hanoi" }, "geometry": { "type": "Point", "coordinates": [ 105.8521101, 21.0359402 ] } },
{ "type": "Feature", "properties": { "osm_id": "5935456685", "code": 2305, "fclass": "bar", "name_left": "Quán Bar 5000 Dongs", "index_right": 0, "name_right": "Hanoi" }, "geometry": { "type": "Point", "coordinates": [ 105.8442895, 21.0407329 ] } },
{ "type": "Feature", "properties": { "osm_id": "5939357487", "code": 2305, "fclass": "bar", "name_left": null, "index_right": 0, "name_right": "Hanoi" }, "geometry": { "type": "Point", "coordinates": [ 105.8634234, 20.9879554 ] } },
{ "type": "Feature", "properties": { "osm_id": "5975910186", "code": 2305, "fclass": "bar", "name_left": null, "index_right": 0, "name_right": "Hanoi" }, "geometry": { "type": "Point", "coordinates": [ 105.8526469, 21.034819 ] } },
{ "type": "Feature", "properties": { "osm_id": "6033188088", "code": 2305, "fclass": "bar", "name_left": null, "index_right": 0, "name_right": "Hanoi" }, "geometry": { "type": "Point", "coordinates": [ 105.8529217, 21.0354658 ] } },
{ "type": "Feature", "properties": { "osm_id": "6033739386", "code": 2305, "fclass": "bar", "name_left": null, "index_right": 0, "name_right": "Hanoi" }, "geometry": { "type": "Point", "coordinates": [ 105.843327, 21.0294851 ] } },
{ "type": "Feature", "properties": { "osm_id": "6053785702", "code": 2305, "fclass": "bar", "name_left": "Binh Minh Jazz Club", "index_right": 0, "name_right": "Hanoi" }, "geometry": { "type": "Point", "coordinates": [ 105.8583591, 21.0240162 ] } },
{ "type": "Feature", "properties": { "osm_id": "6123226685", "code": 2305, "fclass": "bar", "name_left": null, "index_right": 0, "name_right": "Hanoi" }, "geometry": { "type": "Point", "coordinates": [ 105.8463579, 21.0375463 ] } },
{ "type": "Feature", "properties": { "osm_id": "6178539087", "code": 2305, "fclass": "bar", "name_left": null, "index_right": 0, "name_right": "Hanoi" }, "geometry": { "type": "Point", "coordinates": [ 105.850119, 21.0312406 ] } },
{ "type": "Feature", "properties": { "osm_id": "6217765986", "code": 2305, "fclass": "bar", "name_left": "Cà Phê Diiing", "index_right": 0, "name_right": "Hanoi" }, "geometry": { "type": "Point", "coordinates": [ 105.8544744, 21.0346228 ] } },
{ "type": "Feature", "properties": { "osm_id": "6232830086", "code": 2305, "fclass": "bar", "name_left": null, "index_right": 0, "name_right": "Hanoi" }, "geometry": { "type": "Point", "coordinates": [ 105.844176, 21.041852 ] } },
{ "type": "Feature", "properties": { "osm_id": "6247153385", "code": 2305, "fclass": "bar", "name_left": "Secret local pub (2nd floor)", "index_right": 0, "name_right": "Hanoi" }, "geometry": { "type": "Point", "coordinates": [ 105.8519231, 21.035739 ] } },
{ "type": "Feature", "properties": { "osm_id": "6313762385", "code": 2305, "fclass": "bar", "name_left": "Quán Bar Nameless", "index_right": 0, "name_right": "Hanoi" }, "geometry": { "type": "Point", "coordinates": [ 105.8325118, 21.0613951 ] } },
{ "type": "Feature", "properties": { "osm_id": "6325568189", "code": 2305, "fclass": "bar", "name_left": "Quan Ly", "index_right": 0, "name_right": "Hanoi" }, "geometry": { "type": "Point", "coordinates": [ 105.8500287, 21.0186653 ] } },
{ "type": "Feature", "properties": { "osm_id": "6325574585", "code": 2305, "fclass": "bar", "name_left": "Summit Lounge", "index_right": 0, "name_right": "Hanoi" }, "geometry": { "type": "Point", "coordinates": [ 105.8400537, 21.0497326 ] } },
{ "type": "Feature", "properties": { "osm_id": "6325574685", "code": 2305, "fclass": "bar", "name_left": "Rooftop bar", "index_right": 0, "name_right": "Hanoi" }, "geometry": { "type": "Point", "coordinates": [ 105.8433839, 21.0251206 ] } },
{ "type": "Feature", "properties": { "osm_id": "6433574685", "code": 2305, "fclass": "bar", "name_left": null, "index_right": 0, "name_right": "Hanoi" }, "geometry": { "type": "Point", "coordinates": [ 105.8526518, 21.036795 ] } },
{ "type": "Feature", "properties": { "osm_id": "6466509648", "code": 2305, "fclass": "bar", "name_left": "Quán Bar Blues", "index_right": 0, "name_right": "Hanoi" }, "geometry": { "type": "Point", "coordinates": [ 105.8537622, 21.0348912 ] } },
{ "type": "Feature", "properties": { "osm_id": "6466509650", "code": 2305, "fclass": "bar", "name_left": "Quán Bar Gabby", "index_right": 0, "name_right": "Hanoi" }, "geometry": { "type": "Point", "coordinates": [ 105.8538259, 21.0348252 ] } },
{ "type": "Feature", "properties": { "osm_id": "6520746785", "code": 2305, "fclass": "bar", "name_left": "Hoa' Xa Cafe", "index_right": 0, "name_right": "Hanoi" }, "geometry": { "type": "Point", "coordinates": [ 105.8504986, 21.0400191 ] } },
{ "type": "Feature", "properties": { "osm_id": "6521422585", "code": 2305, "fclass": "bar", "name_left": null, "index_right": 0, "name_right": "Hanoi" }, "geometry": { "type": "Point", "coordinates": [ 105.8519068, 21.033196 ] } },
{ "type": "Feature", "properties": { "osm_id": "6555336787", "code": 2305, "fclass": "bar", "name_left": "Quán Bar Labo", "index_right": 0, "name_right": "Hanoi" }, "geometry": { "type": "Point", "coordinates": [ 105.8225932, 21.0707565 ] } },
{ "type": "Feature", "properties": { "osm_id": "6597077263", "code": 2305, "fclass": "bar", "name_left": "Ngọc Anh", "index_right": 0, "name_right": "Hanoi" }, "geometry": { "type": "Point", "coordinates": [ 105.7975459, 21.0746656 ] } },
{ "type": "Feature", "properties": { "osm_id": "6614707185", "code": 2305, "fclass": "bar", "name_left": null, "index_right": 0, "name_right": "Hanoi" }, "geometry": { "type": "Point", "coordinates": [ 105.8508089, 21.0355143 ] } },
{ "type": "Feature", "properties": { "osm_id": "6662719064", "code": 2305, "fclass": "bar", "name_left": "Quán Bar Ler Mer Lounge", "index_right": 0, "name_right": "Hanoi" }, "geometry": { "type": "Point", "coordinates": [ 105.8563024, 21.0302993 ] } },
{ "type": "Feature", "properties": { "osm_id": "6695321086", "code": 2305, "fclass": "bar", "name_left": null, "index_right": 0, "name_right": "Hanoi" }, "geometry": { "type": "Point", "coordinates": [ 105.8535017, 21.0349665 ] } },
{ "type": "Feature", "properties": { "osm_id": "6715062086", "code": 2305, "fclass": "bar", "name_left": "Bia Nam Trung", "index_right": 0, "name_right": "Hanoi" }, "geometry": { "type": "Point", "coordinates": [ 105.8531659, 21.0349279 ] } },
{ "type": "Feature", "properties": { "osm_id": "6732336485", "code": 2305, "fclass": "bar", "name_left": "Polite & Co", "index_right": 0, "name_right": "Hanoi" }, "geometry": { "type": "Point", "coordinates": [ 105.8503877, 21.0306637 ] } },
{ "type": "Feature", "properties": { "osm_id": "6833591485", "code": 2305, "fclass": "bar", "name_left": "Thao’s Pub", "index_right": 0, "name_right": "Hanoi" }, "geometry": { "type": "Point", "coordinates": [ 105.8473533, 21.0340547 ] } },
{ "type": "Feature", "properties": { "osm_id": "6853959889", "code": 2305, "fclass": "bar", "name_left": "Quán Bar Bazo", "index_right": 0, "name_right": "Hanoi" }, "geometry": { "type": "Point", "coordinates": [ 105.8460793, 21.0361946 ] } },
{ "type": "Feature", "properties": { "osm_id": "6916249241", "code": 2305, "fclass": "bar", "name_left": "Quán Bar Lang Thang", "index_right": 0, "name_right": "Hanoi" }, "geometry": { "type": "Point", "coordinates": [ 105.8412205, 21.0468958 ] } },
{ "type": "Feature", "properties": { "osm_id": "6936078786", "code": 2305, "fclass": "bar", "name_left": "Quán Bar Lua Craft", "index_right": 0, "name_right": "Hanoi" }, "geometry": { "type": "Point", "coordinates": [ 105.8501625, 21.0348671 ] } },
{ "type": "Feature", "properties": { "osm_id": "7018754085", "code": 2305, "fclass": "bar", "name_left": null, "index_right": 0, "name_right": "Hanoi" }, "geometry": { "type": "Point", "coordinates": [ 105.8534441, 21.0357295 ] } },
{ "type": "Feature", "properties": { "osm_id": "7018825686", "code": 2305, "fclass": "bar", "name_left": null, "index_right": 0, "name_right": "Hanoi" }, "geometry": { "type": "Point", "coordinates": [ 105.8421615, 21.0265813 ] } },
{ "type": "Feature", "properties": { "osm_id": "7027696285", "code": 2305, "fclass": "bar", "name_left": null, "index_right": 0, "name_right": "Hanoi" }, "geometry": { "type": "Point", "coordinates": [ 105.8223916, 21.0707769 ] } },
{ "type": "Feature", "properties": { "osm_id": "7102092485", "code": 2305, "fclass": "bar", "name_left": null, "index_right": 0, "name_right": "Hanoi" }, "geometry": { "type": "Point", "coordinates": [ 105.8522389, 21.0346363 ] } },
{ "type": "Feature", "properties": { "osm_id": "7130142718", "code": 2305, "fclass": "bar", "name_left": "TẾT BAR", "index_right": 0, "name_right": "Hanoi" }, "geometry": { "type": "Point", "coordinates": [ 105.8518068, 21.0357904 ] } },
{ "type": "Feature", "properties": { "osm_id": "7130142719", "code": 2305, "fclass": "bar", "name_left": "TẾT BAR 2", "index_right": 0, "name_right": "Hanoi" }, "geometry": { "type": "Point", "coordinates": [ 105.8519032, 21.0358101 ] } },
{ "type": "Feature", "properties": { "osm_id": "7134808786", "code": 2305, "fclass": "bar", "name_left": null, "index_right": 0, "name_right": "Hanoi" }, "geometry": { "type": "Point", "coordinates": [ 105.8481578, 21.032438 ] } },
{ "type": "Feature", "properties": { "osm_id": "7135079485", "code": 2305, "fclass": "bar", "name_left": null, "index_right": 0, "name_right": "Hanoi" }, "geometry": { "type": "Point", "coordinates": [ 105.8470134, 21.0316998 ] } },
{ "type": "Feature", "properties": { "osm_id": "7162739588", "code": 2305, "fclass": "bar", "name_left": "Quán Beer 2ku", "index_right": 0, "name_right": "Hanoi" }, "geometry": { "type": "Point", "coordinates": [ 105.8513536, 21.0346943 ] } },
{ "type": "Feature", "properties": { "osm_id": "7162745998", "code": 2305, "fclass": "bar", "name_left": "Xupito Bar", "index_right": 0, "name_right": "Hanoi" }, "geometry": { "type": "Point", "coordinates": [ 105.8522714, 21.034672 ] } },
{ "type": "Feature", "properties": { "osm_id": "7162765217", "code": 2305, "fclass": "bar", "name_left": "Night Karaoke", "index_right": 0, "name_right": "Hanoi" }, "geometry": { "type": "Point", "coordinates": [ 105.8604542, 21.0092849 ] } },
{ "type": "Feature", "properties": { "osm_id": "7176898623", "code": 2305, "fclass": "bar", "name_left": "Quán Pub King Pirates", "index_right": 0, "name_right": "Hanoi" }, "geometry": { "type": "Point", "coordinates": [ 105.8509998, 21.0354192 ] } },
{ "type": "Feature", "properties": { "osm_id": "7178319245", "code": 2305, "fclass": "bar", "name_left": "Beer Mexico", "index_right": 0, "name_right": "Hanoi" }, "geometry": { "type": "Point", "coordinates": [ 105.8519687, 21.0348021 ] } },
{ "type": "Feature", "properties": { "osm_id": "7735419280", "code": 2305, "fclass": "bar", "name_left": "Quán Bar Hanoi Bistro", "index_right": 0, "name_right": "Hanoi" }, "geometry": { "type": "Point", "coordinates": [ 105.851938, 21.0355829 ] } },
{ "type": "Feature", "properties": { "osm_id": "7786759685", "code": 2305, "fclass": "bar", "name_left": "Tuấn bia hơi", "index_right": 0, "name_right": "Hanoi" }, "geometry": { "type": "Point", "coordinates": [ 105.8063139, 21.0451203 ] } },
{ "type": "Feature", "properties": { "osm_id": "8128571919", "code": 2305, "fclass": "bar", "name_left": "Q Bar", "index_right": 0, "name_right": "Hanoi" }, "geometry": { "type": "Point", "coordinates": [ 105.7842953, 21.0174741 ] } },
{ "type": "Feature", "properties": { "osm_id": "8337490211", "code": 2305, "fclass": "bar", "name_left": "Quán rượu LGBTQ+", "index_right": 0, "name_right": "Hanoi" }, "geometry": { "type": "Point", "coordinates": [ 105.7735515, 21.0742362 ] } },
{ "type": "Feature", "properties": { "osm_id": "8361021991", "code": 2305, "fclass": "bar", "name_left": "Quán chè sài gòn Tuyết Nhung", "index_right": 0, "name_right": "Hanoi" }, "geometry": { "type": "Point", "coordinates": [ 105.7340663, 21.053623 ] } },
{ "type": "Feature", "properties": { "osm_id": "9688005817", "code": 2305, "fclass": "bar", "name_left": null, "index_right": 0, "name_right": "Hanoi" }, "geometry": { "type": "Point", "coordinates": [ 105.8544228, 21.0330319 ] } },
{ "type": "Feature", "properties": { "osm_id": "9733952017", "code": 2305, "fclass": "bar", "name_left": "Ne Cocktail Bar", "index_right": 0, "name_right": "Hanoi" }, "geometry": { "type": "Point", "coordinates": [ 105.8462128, 21.0346612 ] } },
{ "type": "Feature", "properties": { "osm_id": "9760062017", "code": 2305, "fclass": "bar", "name_left": null, "index_right": 0, "name_right": "Hanoi" }, "geometry": { "type": "Point", "coordinates": [ 105.8522148, 21.0345528 ] } },
{ "type": "Feature", "properties": { "osm_id": "9805222023", "code": 2305, "fclass": "bar", "name_left": "1900", "index_right": 0, "name_right": "Hanoi" }, "geometry": { "type": "Point", "coordinates": [ 105.8519941, 21.0350655 ] } },
{ "type": "Feature", "properties": { "osm_id": "9805222026", "code": 2305, "fclass": "bar", "name_left": "The Spot - Pool and Leisure", "index_right": 0, "name_right": "Hanoi" }, "geometry": { "type": "Point", "coordinates": [ 105.8310522, 21.0719524 ] } },
{ "type": "Feature", "properties": { "osm_id": "9805222027", "code": 2305, "fclass": "bar", "name_left": "W-Square Co-op", "index_right": 0, "name_right": "Hanoi" }, "geometry": { "type": "Point", "coordinates": [ 105.8141646, 21.0472299 ] } },
{ "type": "Feature", "properties": { "osm_id": "9841007617", "code": 2305, "fclass": "bar", "name_left": "Chăn Con Công - Vintage Store", "index_right": 0, "name_right": "Hanoi" }, "geometry": { "type": "Point", "coordinates": [ 105.8534561, 21.0355796 ] } },
{ "type": "Feature", "properties": { "osm_id": "9931502585", "code": 2305, "fclass": "bar", "name_left": "Attic", "index_right": 0, "name_right": "Hanoi" }, "geometry": { "type": "Point", "coordinates": [ 105.854387, 21.0254189 ] } },
{ "type": "Feature", "properties": { "osm_id": "10044570364", "code": 2305, "fclass": "bar", "name_left": "Bia Loi Beo", "index_right": 0, "name_right": "Hanoi" }, "geometry": { "type": "Point", "coordinates": [ 105.8521108, 21.0347501 ] } },
{ "type": "Feature", "properties": { "osm_id": "10213883064", "code": 2305, "fclass": "bar", "name_left": "Nhậu AE", "index_right": 0, "name_right": "Hanoi" }, "geometry": { "type": "Point", "coordinates": [ 105.7730644, 21.0800603 ] } },
{ "type": "Feature", "properties": { "osm_id": "10556964409", "code": 2305, "fclass": "bar", "name_left": null, "index_right": 0, "name_right": "Hanoi" }, "geometry": { "type": "Point", "coordinates": [ 105.8162996, 21.0766299 ] } },
{ "type": "Feature", "properties": { "osm_id": "10559337409", "code": 2305, "fclass": "bar", "name_left": null, "index_right": 0, "name_right": "Hanoi" }, "geometry": { "type": "Point", "coordinates": [ 105.8475371, 21.0349112 ] } },
{ "type": "Feature", "properties": { "osm_id": "10750794205", "code": 2305, "fclass": "bar", "name_left": null, "index_right": 0, "name_right": "Hanoi" }, "geometry": { "type": "Point", "coordinates": [ 105.8270918, 21.0343616 ] } },
{ "type": "Feature", "properties": { "osm_id": "10867382607", "code": 2305, "fclass": "bar", "name_left": null, "index_right": 0, "name_right": "Hanoi" }, "geometry": { "type": "Point", "coordinates": [ 105.8465001, 21.0230949 ] } },
{ "type": "Feature", "properties": { "osm_id": "10873336106", "code": 2305, "fclass": "bar", "name_left": "Quán nhâu Ta tu do", "index_right": 0, "name_right": "Hanoi" }, "geometry": { "type": "Point", "coordinates": [ 105.8428752, 21.0465242 ] } },
{ "type": "Feature", "properties": { "osm_id": "11090789705", "code": 2305, "fclass": "bar", "name_left": null, "index_right": 0, "name_right": "Hanoi" }, "geometry": { "type": "Point", "coordinates": [ 105.8474885, 21.0243655 ] } },
{ "type": "Feature", "properties": { "osm_id": "11152981272", "code": 2305, "fclass": "bar", "name_left": "rượu ta", "index_right": 0, "name_right": "Hanoi" }, "geometry": { "type": "Point", "coordinates": [ 105.7765692, 21.068605 ] } },
{ "type": "Feature", "properties": { "osm_id": "11169410907", "code": 2305, "fclass": "bar", "name_left": null, "index_right": 0, "name_right": "Hanoi" }, "geometry": { "type": "Point", "coordinates": [ 105.7833421, 21.0582207 ] } },
{ "type": "Feature", "properties": { "osm_id": "11169410921", "code": 2305, "fclass": "bar", "name_left": null, "index_right": 0, "name_right": "Hanoi" }, "geometry": { "type": "Point", "coordinates": [ 105.7837677, 21.0577391 ] } },
{ "type": "Feature", "properties": { "osm_id": "11169410923", "code": 2305, "fclass": "bar", "name_left": null, "index_right": 0, "name_right": "Hanoi" }, "geometry": { "type": "Point", "coordinates": [ 105.7836498, 21.0574352 ] } },
{ "type": "Feature", "properties": { "osm_id": "11169410925", "code": 2305, "fclass": "bar", "name_left": null, "index_right": 0, "name_right": "Hanoi" }, "geometry": { "type": "Point", "coordinates": [ 105.7837637, 21.0573713 ] } },
{ "type": "Feature", "properties": { "osm_id": "11169410926", "code": 2305, "fclass": "bar", "name_left": null, "index_right": 0, "name_right": "Hanoi" }, "geometry": { "type": "Point", "coordinates": [ 105.7840625, 21.0571443 ] } },
{ "type": "Feature", "properties": { "osm_id": "11216969937", "code": 2305, "fclass": "bar", "name_left": null, "index_right": 0, "name_right": "Hanoi" }, "geometry": { "type": "Point", "coordinates": [ 105.8456979, 21.0324362 ] } },
{ "type": "Feature", "properties": { "osm_id": "11521920508", "code": 2305, "fclass": "bar", "name_left": "Club HIBIKI", "index_right": 0, "name_right": "Hanoi" }, "geometry": { "type": "Point", "coordinates": [ 105.8109454, 21.034953 ] } },
{ "type": "Feature", "properties": { "osm_id": "11563291214", "code": 2305, "fclass": "bar", "name_left": "Vịnh Bia", "index_right": 0, "name_right": "Hanoi" }, "geometry": { "type": "Point", "coordinates": [ 105.8084679, 21.0361537 ] } },
{ "type": "Feature", "properties": { "osm_id": "11653012643", "code": 2305, "fclass": "bar", "name_left": "The QK", "index_right": 0, "name_right": "Hanoi" }, "geometry": { "type": "Point", "coordinates": [ 105.8521, 21.0351357 ] } },
{ "type": "Feature", "properties": { "osm_id": "11655769803", "code": 2305, "fclass": "bar", "name_left": "Havana Pub", "index_right": 0, "name_right": "Hanoi" }, "geometry": { "type": "Point", "coordinates": [ 105.8528973, 21.0361083 ] } },
{ "type": "Feature", "properties": { "osm_id": "11659961146", "code": 2305, "fclass": "bar", "name_left": "Purple Blues", "index_right": 0, "name_right": "Hanoi" }, "geometry": { "type": "Point", "coordinates": [ 105.8529843, 21.035616 ] } },
{ "type": "Feature", "properties": { "osm_id": "11662620872", "code": 2305, "fclass": "bar", "name_left": "Sober Cocktails Bar", "index_right": 0, "name_right": "Hanoi" }, "geometry": { "type": "Point", "coordinates": [ 105.852264, 21.0370772 ] } },
{ "type": "Feature", "properties": { "osm_id": "11668897333", "code": 2305, "fclass": "bar", "name_left": "Ha Noi Cheers", "index_right": 0, "name_right": "Hanoi" }, "geometry": { "type": "Point", "coordinates": [ 105.8530422, 21.0366449 ] } },
{ "type": "Feature", "properties": { "osm_id": "11670927182", "code": 2305, "fclass": "bar", "name_left": "Jail Pub", "index_right": 0, "name_right": "Hanoi" }, "geometry": { "type": "Point", "coordinates": [ 105.8530242, 21.0352768 ] } },
{ "type": "Feature", "properties": { "osm_id": "11671720190", "code": 2305, "fclass": "bar", "name_left": "Warning Reggae Pub", "index_right": 0, "name_right": "Hanoi" }, "geometry": { "type": "Point", "coordinates": [ 105.8514469, 21.0364393 ] } },
{ "type": "Feature", "properties": { "osm_id": "11671786854", "code": 2305, "fclass": "bar", "name_left": "Aoki", "index_right": 0, "name_right": "Hanoi" }, "geometry": { "type": "Point", "coordinates": [ 105.8518444, 21.0355864 ] } },
{ "type": "Feature", "properties": { "osm_id": "11671786855", "code": 2305, "fclass": "bar", "name_left": "The Blues Bar", "index_right": 0, "name_right": "Hanoi" }, "geometry": { "type": "Point", "coordinates": [ 105.8518437, 21.0355578 ] } },
{ "type": "Feature", "properties": { "osm_id": "11671798250", "code": 2305, "fclass": "bar", "name_left": "Babylon2", "index_right": 0, "name_right": "Hanoi" }, "geometry": { "type": "Point", "coordinates": [ 105.8519969, 21.0354797 ] } },
{ "type": "Feature", "properties": { "osm_id": "11671806551", "code": 2305, "fclass": "bar", "name_left": "Local", "index_right": 0, "name_right": "Hanoi" }, "geometry": { "type": "Point", "coordinates": [ 105.8520618, 21.0348909 ] } },
{ "type": "Feature", "properties": { "osm_id": "11671813066", "code": 2305, "fclass": "bar", "name_left": "Double One", "index_right": 0, "name_right": "Hanoi" }, "geometry": { "type": "Point", "coordinates": [ 105.8520945, 21.0351181 ] } },
{ "type": "Feature", "properties": { "osm_id": "11671828513", "code": 2305, "fclass": "bar", "name_left": "Boom", "index_right": 0, "name_right": "Hanoi" }, "geometry": { "type": "Point", "coordinates": [ 105.8517924, 21.0347716 ] } },
{ "type": "Feature", "properties": { "osm_id": "11671832254", "code": 2305, "fclass": "bar", "name_left": "PoW", "index_right": 0, "name_right": "Hanoi" }, "geometry": { "type": "Point", "coordinates": [ 105.8520601, 21.034898 ] } },
{ "type": "Feature", "properties": { "osm_id": "11671841284", "code": 2305, "fclass": "bar", "name_left": "Factory 47", "index_right": 0, "name_right": "Hanoi" }, "geometry": { "type": "Point", "coordinates": [ 105.8517119, 21.0358092 ] } },
{ "type": "Feature", "properties": { "osm_id": "11671847621", "code": 2305, "fclass": "bar", "name_left": "Bia 45", "index_right": 0, "name_right": "Hanoi" }, "geometry": { "type": "Point", "coordinates": [ 105.8519663, 21.0347146 ] } },
{ "type": "Feature", "properties": { "osm_id": "11671847842", "code": 2305, "fclass": "bar", "name_left": "Hay", "index_right": 0, "name_right": "Hanoi" }, "geometry": { "type": "Point", "coordinates": [ 105.8520424, 21.0349476 ] } },
{ "type": "Feature", "properties": { "osm_id": "11671847988", "code": 2305, "fclass": "bar", "name_left": "Coco Bar", "index_right": 0, "name_right": "Hanoi" }, "geometry": { "type": "Point", "coordinates": [ 105.8518747, 21.0354317 ] } },
{ "type": "Feature", "properties": { "osm_id": "11671849021", "code": 2305, "fclass": "bar", "name_left": "Sportivo", "index_right": 0, "name_right": "Hanoi" }, "geometry": { "type": "Point", "coordinates": [ 105.8518541, 21.0358599 ] } },
{ "type": "Feature", "properties": { "osm_id": "11671849773", "code": 2305, "fclass": "bar", "name_left": "Quan Bar 18+", "index_right": 0, "name_right": "Hanoi" }, "geometry": { "type": "Point", "coordinates": [ 105.8520735, 21.0348365 ] } },
{ "type": "Feature", "properties": { "osm_id": "11832300270", "code": 2305, "fclass": "bar", "name_left": "Bia Hơi Hà Nội", "index_right": 0, "name_right": "Hanoi" }, "geometry": { "type": "Point", "coordinates": [ 105.8456167, 21.0405218 ] } },
{ "type": "Feature", "properties": { "osm_id": "11870867769", "code": 2305, "fclass": "bar", "name_left": "Lofita Drinks", "index_right": 0, "name_right": "Hanoi" }, "geometry": { "type": "Point", "coordinates": [ 105.8547265, 21.0204068 ] } },
{ "type": "Feature", "properties": { "osm_id": "12076519269", "code": 2305, "fclass": "bar", "name_left": "Beeznees 1920s", "index_right": 0, "name_right": "Hanoi" }, "geometry": { "type": "Point", "coordinates": [ 105.8452848, 21.0313467 ] } },
{ "type": "Feature", "properties": { "osm_id": "12373245565", "code": 2305, "fclass": "bar", "name_left": "Pub Viet (Streaming Formula 1)", "index_right": 0, "name_right": "Hanoi" }, "geometry": { "type": "Point", "coordinates": [ 105.852866, 21.036702 ] } },
{ "type": "Feature", "properties": { "osm_id": "12435798501", "code": 2305, "fclass": "bar", "name_left": "La Habanera casa del Ron", "index_right": 0, "name_right": "Hanoi" }, "geometry": { "type": "Point", "coordinates": [ 105.8260233, 21.0678621 ] } },
{ "type": "Feature", "properties": { "osm_id": "12709403503", "code": 2305, "fclass": "bar", "name_left": "Workshop14", "index_right": 0, "name_right": "Hanoi" }, "geometry": { "type": "Point", "coordinates": [ 105.8324476, 21.0582532 ] } },
{ "type": "Feature", "properties": { "osm_id": "13039561900", "code": 2305, "fclass": "bar", "name_left": "Bếp Béo", "index_right": 0, "name_right": "Hanoi" }, "geometry": { "type": "Point", "coordinates": [ 105.8422415, 21.0273189 ] } },
{ "type": "Feature", "properties": { "osm_id": "13388571601", "code": 2305, "fclass": "bar", "name_left": "Tony Vu's Brewing", "index_right": 0, "name_right": "Hanoi" }, "geometry": { "type": "Point", "coordinates": [ 105.8478029, 21.0338301 ] } },
{ "type": "Feature", "properties": { "osm_id": "13483632901", "code": 2305, "fclass": "bar", "name_left": "Aperitivo", "index_right": 0, "name_right": "Hanoi" }, "geometry": { "type": "Point", "coordinates": [ 105.8404756, 21.0484647 ] } },
{ "type": "Feature", "properties": { "osm_id": "13710033290", "code": 2305, "fclass": "bar", "name_left": "APLUS CLUB", "index_right": 0, "name_right": "Hanoi" }, "geometry": { "type": "Point", "coordinates": [ 105.8481685, 21.042132 ] } },
{ "type": "Feature", "properties": { "osm_id": "13907393002", "code": 2305, "fclass": "bar", "name_left": "Moon Men Cocktail Bar", "index_right": 0, "name_right": "Hanoi" }, "geometry": { "type": "Point", "coordinates": [ 105.84839, 21.02853 ] } },
{ "type": "Feature", "properties": { "osm_id": "14133684101", "code": 2305, "fclass": "bar", "name_left": "Beeznees 120", "index_right": 0, "name_right": "Hanoi" }, "geometry": { "type": "Point", "coordinates": [ 105.8450995, 21.031133 ] } },
{ "type": "Feature", "properties": { "osm_id": "14140334401", "code": 2305, "fclass": "bar", "name_left": "Gallery Bespoke bar", "index_right": 0, "name_right": "Hanoi" }, "geometry": { "type": "Point", "coordinates": [ 105.8460281, 21.0355983 ] } },
{ "type": "Feature", "properties": { "osm_id": "14140334501", "code": 2305, "fclass": "bar", "name_left": "Nectar Hideaway", "index_right": 0, "name_right": "Hanoi" }, "geometry": { "type": "Point", "coordinates": [ 105.8560738, 21.0247974 ] } },
{ "type": "Feature", "properties": { "osm_id": "14140334601", "code": 2305, "fclass": "bar", "name_left": "The Other Room", "index_right": 0, "name_right": "Hanoi" }, "geometry": { "type": "Point", "coordinates": [ 105.8484579, 21.0410873 ] } }
]
}
