{
"type": "FeatureCollection",
"name": "amenity_drinking_water_hanoi",
"crs": { "type": "name", "properties": { "name": "urn:ogc:def:crs:OGC:1.3:CRS84" } },
"features": [
{ "type": "Feature", "properties": { "osm_id": "4748316721", "code": 2903, "fclass": "drinking_water", "name_left": "54 vũ trọng phụng", "index_right": 0, "name_right": "Hanoi" }, "geometry": { "type": "Point", "coordinates": [ 105.809002, 20.9985524 ] } },
{ "type": "Feature", "properties": { "osm_id": "4758991221", "code": 2903, "fclass": "drinking_water", "name_left": "Quán trà đá", "index_right": 0, "name_right": "Hanoi" }, "geometry": { "type": "Point", "coordinates": [ 105.8650398, 21.0051308 ] } },
{ "type": "Feature", "properties": { "osm_id": "5942473585", "code": 2903, "fclass": "drinking_water", "name_left": null, "index_right": 0, "name_right": "Hanoi" }, "geometry": { "type": "Point", "coordinates": [ 105.8477794, 21.0249062 ] } },
{ "type": "Feature", "properties": { "osm_id": "6292723885", "code": 2903, "fclass": "drinking_water", "name_left": null, "index_right": 0, "name_right": "Hanoi" }, "geometry": { "type": "Point", "coordinates": [ 105.8502495, 21.0263777 ] } },
{ "type": "Feature", "properties": { "osm_id": "6698948887", "code": 2903, "fclass": "drinking_water", "name_left": "Trà đá Nước mia đá", "index_right": 0, "name_right": "Hanoi" }, "geometry": { "type": "Point", "coordinates": [ 105.7782313, 21.0656762 ] } },
{ "type": "Feature", "properties": { "osm_id": "9931507054", "code": 2903, "fclass": "drinking_water", "name_left": null, "index_right": 0, "name_right": "Hanoi" }, "geometry": { "type": "Point", "coordinates": [ 105.8534447, 21.0260995 ] } },
{ "type": "Feature", "properties": { "osm_id": "9931530710", "code": 2903, "fclass": "drinking_water", "name_left": null, "index_right": 0, "name_right": "Hanoi" }, "geometry": { "type": "Point", "coordinates": [ 105.8547899, 21.0275822 ] } },
{ "type": "Feature", "properties": { "osm_id": "9931540123", "code": 2903, "fclass": "drinking_water", "name_left": null, "index_right": 0, "name_right": "Hanoi" }, "geometry": { "type": "Point", "coordinates": [ 105.8012872, 21.2153612 ] } },
{ "type": "Feature", "properties": { "osm_id": "10114776470", "code": 2903, "fclass": "drinking_water", "name_left": null, "index_right": 0, "name_right": "Hanoi" }, "geometry": { "type": "Point", "coordinates": [ 105.8445302, 21.0038661 ] } },
{ "type": "Feature", "properties": { "osm_id": "10660753505", "code": 2903, "fclass": "drinking_water", "name_left": null, "index_right": 0, "name_right": "Hanoi" }, "geometry": { "type": "Point", "coordinates": [ 105.8538234, 21.0273522 ] } },
{ "type": "Feature", "properties": { "osm_id": "11191573737", "code": 2903, "fclass": "drinking_water", "name_left": null, "index_right": 0, "name_right": "Hanoi" }, "geometry": { "type": "Point", "coordinates": [ 105.8537315, 21.0297477 ] } },
{ "type": "Feature", "properties": { "osm_id": "11676700469", "code": 2903, "fclass": "drinking_water", "name_left": null, "index_right": 0, "name_right": "Hanoi" }, "geometry": { "type": "Point", "coordinates": [ 105.8340434, 21.0367523 ] } },
{ "type": "Feature", "properties": { "osm_id": "11834019569", "code": 2903, "fclass": "drinking_water", "name_left": null, "index_right": 0, "name_right": "Hanoi" }, "geometry": { "type": "Point", "coordinates": [ 105.8514172, 21.0280465 ] } },
{ "type": "Feature", "properties": { "osm_id": "11865316771", "code": 2903, "fclass": "drinking_water", "name_left": null, "index_right": 0, "name_right": "Hanoi" }, "geometry": { "type": "Point", "coordinates": [ 105.8466528, 21.031276 ] } },
{ "type": "Feature", "properties": { "osm_id": "11893374272", "code": 2903, "fclass": "drinking_water", "name_left": null, "index_right": 0, "name_right": "Hanoi" }, "geometry": { "type": "Point", "coordinates": [ 105.8519581, 21.0261536 ] } },
{ "type": "Feature", "properties": { "osm_id": "12086821054", "code": 2903, "fclass": "drinking_water", "name_left": null, "index_right": 0, "name_right": "Hanoi" }, "geometry": { "type": "Point", "coordinates": [ 105.8323055, 21.03464 ] } },
{ "type": "Feature", "properties": { "osm_id": "12129133501", "code": 2903, "fclass": "drinking_water", "name_left": null, "index_right": 0, "name_right": "Hanoi" }, "geometry": { "type": "Point", "coordinates": [ 105.854721, 21.0272682 ] } },
{ "type": "Feature", "properties": { "osm_id": "12278326273", "code": 2903, "fclass": "drinking_water", "name_left": null, "index_right": 0, "name_right": "Hanoi" }, "geometry": { "type": "Point", "coordinates": [ 105.853901, 21.0311419 ] } },
{ "type": "Feature", "properties": { "osm_id": "12538794304", "code": 2903, "fclass": "drinking_water", "name_left": null, "index_right": 0, "name_right": "Hanoi" }, "geometry": { "type": "Point", "coordinates": [ 105.7899834, 21.2191303 ] } },
{ "type": "Feature", "properties": { "osm_id": "12540668301", "code": 2903, "fclass": "drinking_water", "name_left": null, "index_right": 0, "name_right": "Hanoi" }, "geometry": { "type": "Point", "coordinates": [ 105.7887229, 21.2194747 ] } },
{ "type": "Feature", "properties": { "osm_id": "12540668506", "code": 2903, "fclass": "drinking_water", "name_left": null, "index_right": 0, "name_right": "Hanoi" }, "geometry": { "type": "Point", "coordinates": [ 105.7937865, 21.2180392 ] } },
{ "type": "Feature", "properties": { "osm_id": "12540668510", "code": 2903, "fclass": "drinking_water", "name_left": null, "index_right": 0, "name_right": "Hanoi" }, "geometry": { "type": "Point", "coordinates": [ 105.7951586, 21.2176538 ] } },
{ "type": "Feature", "properties": { "osm_id": "12540668704", "code": 2903, "fclass": "drinking_water", "name_left": null, "index_right": 0, "name_right": "Hanoi" }, "geometry": { "type": "Point", "coordinates": [ 105.7912203, 21.2187486 ] } },
{ "type": "Feature", "properties": { "osm_id": "12690411001", "code": 2903, "fclass": "drinking_water", "name_left": null, "index_right": 0, "name_right": "Hanoi" }, "geometry": { "type": "Point", "coordinates": [ 105.8462172, 21.0173765 ] } },
{ "type": "Feature", "properties": { "osm_id": "13005736901", "code": 2903, "fclass": "drinking_water", "name_left": null, "index_right": 0, "name_right": "Hanoi" }, "geometry": { "type": "Point", "coordinates": [ 105.8472437, 21.0180172 ] } },
{ "type": "Feature", "properties": { "osm_id": "13392753035", "code": 2903, "fclass": "drinking_water", "name_left": null, "index_right": 0, "name_right": "Hanoi" }, "geometry": { "type": "Point", "coordinates": [ 105.8338394, 21.0356304 ] } },
{ "type": "Feature", "properties": { "osm_id": "13950633201", "code": 2903, "fclass": "drinking_water", "name_left": null, "index_right": 0, "name_right": "Hanoi" }, "geometry": { "type": "Point", "coordinates": [ 105.7927352, 21.2174985 ] } }
]
}
