{
"type": "FeatureCollection",
"name": "amenity_marketplace_hanoi",
"crs": { "type": "name", "properties": { "name": "urn:ogc:def:crs:OGC:1.3:CRS84" } },
"features": [
{ "type": "Feature", "properties": { "osm_id": "1685291681", "code": 2016, "fclass": "marketplace", "name_left": "Chợ Chiều Thắng Lợi", "index_right": 0, "name_right": "Hanoi" }, "geometry": { "type": "Point", "coordinates": [ 105.7455509, 20.9723698 ] } },
{ "type": "Feature", "properties": { "osm_id": "1711447442", "code": 2016, "fclass": "marketplace", "name_left": "Siêu thị Thành Sơn", "index_right": 0, "name_right": "Hanoi" }, "geometry": { "type": "Point", "coordinates": [ 105.5072008, 21.1389727 ] } },
{ "type": "Feature", "properties": { "osm_id": "2136318858", "code": 2016, "fclass": "marketplace", "name_left": "Chợ Hoa Quảng Bá", "index_right": 0, "name_right": "Hanoi" }, "geometry": { "type": "Point", "coordinates": [ 105.8272643, 21.0682495 ] } },
{ "type": "Feature", "properties": { "osm_id": "2136318878", "code": 2016, "fclass": "marketplace", "name_left": null, "index_right": 0, "name_right": "Hanoi" }, "geometry": { "type": "Point", "coordinates": [ 105.8360083, 21.0770945 ] } },
{ "type": "Feature", "properties": { "osm_id": "2290037023", "code": 2016, "fclass": "marketplace", "name_left": null, "index_right": 0, "name_right": "Hanoi" }, "geometry": { "type": "Point", "coordinates": [ 105.8479567, 21.0250151 ] } },
{ "type": "Feature", "properties": { "osm_id": "2297911469", "code": 2016, "fclass": "marketplace", "name_left": null, "index_right": 0, "name_right": "Hanoi" }, "geometry": { "type": "Point", "coordinates": [ 105.8927714, 21.0596487 ] } },
{ "type": "Feature", "properties": { "osm_id": "2471647464", "code": 2016, "fclass": "marketplace", "name_left": "Chợ Phùng Khoang", "index_right": 0, "name_right": "Hanoi" }, "geometry": { "type": "Point", "coordinates": [ 105.7937986, 20.9858966 ] } },
{ "type": "Feature", "properties": { "osm_id": "3389007927", "code": 2016, "fclass": "marketplace", "name_left": "Chợ Nhân Chính", "index_right": 0, "name_right": "Hanoi" }, "geometry": { "type": "Point", "coordinates": [ 105.8093027, 20.9983875 ] } },
{ "type": "Feature", "properties": { "osm_id": "4489385889", "code": 2016, "fclass": "marketplace", "name_left": "Chợ Đêm Hàng Đào – Đồng Xuân", "index_right": 0, "name_right": "Hanoi" }, "geometry": { "type": "Point", "coordinates": [ 105.8509571, 21.0335078 ] } },
{ "type": "Feature", "properties": { "osm_id": "4532462397", "code": 2016, "fclass": "marketplace", "name_left": "Chợ Đêm", "index_right": 0, "name_right": "Hanoi" }, "geometry": { "type": "Point", "coordinates": [ 105.5021092, 21.1473208 ] } },
{ "type": "Feature", "properties": { "osm_id": "4572907889", "code": 2016, "fclass": "marketplace", "name_left": "Chợ Đêm", "index_right": 0, "name_right": "Hanoi" }, "geometry": { "type": "Point", "coordinates": [ 105.8523763, 21.0332192 ] } },
{ "type": "Feature", "properties": { "osm_id": "4698571049", "code": 2016, "fclass": "marketplace", "name_left": null, "index_right": 0, "name_right": "Hanoi" }, "geometry": { "type": "Point", "coordinates": [ 105.9911384, 21.0248258 ] } },
{ "type": "Feature", "properties": { "osm_id": "4712969789", "code": 2016, "fclass": "marketplace", "name_left": null, "index_right": 0, "name_right": "Hanoi" }, "geometry": { "type": "Point", "coordinates": [ 105.9117762, 20.9750222 ] } },
{ "type": "Feature", "properties": { "osm_id": "5485651759", "code": 2016, "fclass": "marketplace", "name_left": "Chợ Sáng Trần Quang Diệu", "index_right": 0, "name_right": "Hanoi" }, "geometry": { "type": "Point", "coordinates": [ 105.8270102, 21.0170546 ] } },
{ "type": "Feature", "properties": { "osm_id": "5485657266", "code": 2016, "fclass": "marketplace", "name_left": "Chợ Tình Sapa", "index_right": 0, "name_right": "Hanoi" }, "geometry": { "type": "Point", "coordinates": [ 105.8133716, 21.008478 ] } },
{ "type": "Feature", "properties": { "osm_id": "5485660083", "code": 2016, "fclass": "marketplace", "name_left": "Chợ Láng Thượng", "index_right": 0, "name_right": "Hanoi" }, "geometry": { "type": "Point", "coordinates": [ 105.8048715, 21.0236535 ] } },
{ "type": "Feature", "properties": { "osm_id": "5485665267", "code": 2016, "fclass": "marketplace", "name_left": "Chợ Hoa Quảng An", "index_right": 0, "name_right": "Hanoi" }, "geometry": { "type": "Point", "coordinates": [ 105.8272796, 21.0679022 ] } },
{ "type": "Feature", "properties": { "osm_id": "5485711487", "code": 2016, "fclass": "marketplace", "name_left": null, "index_right": 0, "name_right": "Hanoi" }, "geometry": { "type": "Point", "coordinates": [ 105.841697, 21.0282006 ] } },
{ "type": "Feature", "properties": { "osm_id": "6685404399", "code": 2016, "fclass": "marketplace", "name_left": "Viet Mark", "index_right": 0, "name_right": "Hanoi" }, "geometry": { "type": "Point", "coordinates": [ 105.8614475, 21.0066433 ] } },
{ "type": "Feature", "properties": { "osm_id": "6685506998", "code": 2016, "fclass": "marketplace", "name_left": null, "index_right": 0, "name_right": "Hanoi" }, "geometry": { "type": "Point", "coordinates": [ 105.8010869, 21.0201039 ] } },
{ "type": "Feature", "properties": { "osm_id": "6849181831", "code": 2016, "fclass": "marketplace", "name_left": "Chợ Xanh Linh Đàm", "index_right": 0, "name_right": "Hanoi" }, "geometry": { "type": "Point", "coordinates": [ 105.83422, 20.9658478 ] } },
{ "type": "Feature", "properties": { "osm_id": "7055975987", "code": 2016, "fclass": "marketplace", "name_left": "TK mark", "index_right": 0, "name_right": "Hanoi" }, "geometry": { "type": "Point", "coordinates": [ 105.8080635, 20.9891267 ] } },
{ "type": "Feature", "properties": { "osm_id": "7061733386", "code": 2016, "fclass": "marketplace", "name_left": null, "index_right": 0, "name_right": "Hanoi" }, "geometry": { "type": "Point", "coordinates": [ 105.8125797, 21.032155 ] } },
{ "type": "Feature", "properties": { "osm_id": "7148520378", "code": 2016, "fclass": "marketplace", "name_left": "Chợ Thôn Hoành", "index_right": 0, "name_right": "Hanoi" }, "geometry": { "type": "Point", "coordinates": [ 105.6765966, 20.8014384 ] } },
{ "type": "Feature", "properties": { "osm_id": "7178806762", "code": 2016, "fclass": "marketplace", "name_left": null, "index_right": 0, "name_right": "Hanoi" }, "geometry": { "type": "Point", "coordinates": [ 105.8772089, 21.1098019 ] } },
{ "type": "Feature", "properties": { "osm_id": "7202554793", "code": 2016, "fclass": "marketplace", "name_left": null, "index_right": 0, "name_right": "Hanoi" }, "geometry": { "type": "Point", "coordinates": [ 105.8530217, 21.032633 ] } },
{ "type": "Feature", "properties": { "osm_id": "7229303135", "code": 2016, "fclass": "marketplace", "name_left": null, "index_right": 0, "name_right": "Hanoi" }, "geometry": { "type": "Point", "coordinates": [ 105.7179216, 20.9013465 ] } },
{ "type": "Feature", "properties": { "osm_id": "8185432737", "code": 2016, "fclass": "marketplace", "name_left": "Chợ Trước Cổng Trung Tâm Y Tế", "index_right": 0, "name_right": "Hanoi" }, "geometry": { "type": "Point", "coordinates": [ 105.7788857, 20.9680682 ] } },
{ "type": "Feature", "properties": { "osm_id": "8282900558", "code": 2016, "fclass": "marketplace", "name_left": null, "index_right": 0, "name_right": "Hanoi" }, "geometry": { "type": "Point", "coordinates": [ 105.7232177, 20.9038065 ] } },
{ "type": "Feature", "properties": { "osm_id": "8938435127", "code": 2016, "fclass": "marketplace", "name_left": "Vitalmart", "index_right": 0, "name_right": "Hanoi" }, "geometry": { "type": "Point", "coordinates": [ 105.7961933, 21.0115909 ] } },
{ "type": "Feature", "properties": { "osm_id": "9237323772", "code": 2016, "fclass": "marketplace", "name_left": "Chợ Tư Đình", "index_right": 0, "name_right": "Hanoi" }, "geometry": { "type": "Point", "coordinates": [ 105.8871527, 21.0273881 ] } },
{ "type": "Feature", "properties": { "osm_id": "9584817367", "code": 2016, "fclass": "marketplace", "name_left": "Siêu Thị K", "index_right": 0, "name_right": "Hanoi" }, "geometry": { "type": "Point", "coordinates": [ 105.7768155, 21.0150675 ] } },
{ "type": "Feature", "properties": { "osm_id": "9587087000", "code": 2016, "fclass": "marketplace", "name_left": "Chợ Xanh Định Công", "index_right": 0, "name_right": "Hanoi" }, "geometry": { "type": "Point", "coordinates": [ 105.833731, 20.9848352 ] } },
{ "type": "Feature", "properties": { "osm_id": "9844633824", "code": 2016, "fclass": "marketplace", "name_left": "Chợ Hòa Lạc", "index_right": 0, "name_right": "Hanoi" }, "geometry": { "type": "Point", "coordinates": [ 105.5188858, 21.02722 ] } },
{ "type": "Feature", "properties": { "osm_id": "9976457533", "code": 2016, "fclass": "marketplace", "name_left": "Chợ Trung Tự", "index_right": 0, "name_right": "Hanoi" }, "geometry": { "type": "Point", "coordinates": [ 105.8330627, 21.0086201 ] } },
{ "type": "Feature", "properties": { "osm_id": "9976457534", "code": 2016, "fclass": "marketplace", "name_left": "Chợ Nam Đồng", "index_right": 0, "name_right": "Hanoi" }, "geometry": { "type": "Point", "coordinates": [ 105.8283958, 21.0117663 ] } },
{ "type": "Feature", "properties": { "osm_id": "10720585225", "code": 2016, "fclass": "marketplace", "name_left": "Chợ Bách Khoa", "index_right": 0, "name_right": "Hanoi" }, "geometry": { "type": "Point", "coordinates": [ 105.845399, 21.0016618 ] } },
{ "type": "Feature", "properties": { "osm_id": "10858085458", "code": 2016, "fclass": "marketplace", "name_left": "Chợ Bưởi", "index_right": 0, "name_right": "Hanoi" }, "geometry": { "type": "Point", "coordinates": [ 105.8066076, 21.0481877 ] } },
{ "type": "Feature", "properties": { "osm_id": "11506051549", "code": 2016, "fclass": "marketplace", "name_left": "Chợ dân sinh HH", "index_right": 0, "name_right": "Hanoi" }, "geometry": { "type": "Point", "coordinates": [ 105.8268188, 20.9629327 ] } },
{ "type": "Feature", "properties": { "osm_id": "11936494469", "code": 2016, "fclass": "marketplace", "name_left": null, "index_right": 0, "name_right": "Hanoi" }, "geometry": { "type": "Point", "coordinates": [ 105.8187521, 20.9671325 ] } },
{ "type": "Feature", "properties": { "osm_id": "12033021597", "code": 2016, "fclass": "marketplace", "name_left": "Hà Đăng Mart", "index_right": 0, "name_right": "Hanoi" }, "geometry": { "type": "Point", "coordinates": [ 105.7825427, 21.0151651 ] } },
{ "type": "Feature", "properties": { "osm_id": "12090162463", "code": 2016, "fclass": "marketplace", "name_left": "Chợ quê Nghiêm Xá", "index_right": 0, "name_right": "Hanoi" }, "geometry": { "type": "Point", "coordinates": [ 105.8533554, 20.8080169 ] } },
{ "type": "Feature", "properties": { "osm_id": "12177717116", "code": 2016, "fclass": "marketplace", "name_left": "Chợ Mễ Trì", "index_right": 0, "name_right": "Hanoi" }, "geometry": { "type": "Point", "coordinates": [ 105.7788194, 21.0103485 ] } },
{ "type": "Feature", "properties": { "osm_id": "12717381058", "code": 2016, "fclass": "marketplace", "name_left": "Chợ Định", "index_right": 0, "name_right": "Hanoi" }, "geometry": { "type": "Point", "coordinates": [ 105.6627411, 21.1144527 ] } },
{ "type": "Feature", "properties": { "osm_id": "12769662336", "code": 2016, "fclass": "marketplace", "name_left": "Chợ Phú Diễn", "index_right": 0, "name_right": "Hanoi" }, "geometry": { "type": "Point", "coordinates": [ 105.7581687, 21.0520228 ] } },
{ "type": "Feature", "properties": { "osm_id": "12769681330", "code": 2016, "fclass": "marketplace", "name_left": "Chợ Canh", "index_right": 0, "name_right": "Hanoi" }, "geometry": { "type": "Point", "coordinates": [ 105.7418874, 21.0343959 ] } },
{ "type": "Feature", "properties": { "osm_id": "12814113704", "code": 2016, "fclass": "marketplace", "name_left": "Chợ Cốm Mễ Trì Hạ", "index_right": 0, "name_right": "Hanoi" }, "geometry": { "type": "Point", "coordinates": [ 105.7801751, 21.0136877 ] } },
{ "type": "Feature", "properties": { "osm_id": "12980196296", "code": 2016, "fclass": "marketplace", "name_left": "Chợ Vân Canh", "index_right": 0, "name_right": "Hanoi" }, "geometry": { "type": "Point", "coordinates": [ 105.7373662, 21.034708 ] } },
{ "type": "Feature", "properties": { "osm_id": "12995557127", "code": 2016, "fclass": "marketplace", "name_left": "Chợ Mỗ Lao", "index_right": 0, "name_right": "Hanoi" }, "geometry": { "type": "Point", "coordinates": [ 105.7827636, 20.9801728 ] } },
{ "type": "Feature", "properties": { "osm_id": "13323664905", "code": 2016, "fclass": "marketplace", "name_left": "Chợ cóc Nguyễn An Ninh", "index_right": 0, "name_right": "Hanoi" }, "geometry": { "type": "Point", "coordinates": [ 105.8452366, 20.991089 ] } },
{ "type": "Feature", "properties": { "osm_id": "13336702955", "code": 2016, "fclass": "marketplace", "name_left": "Chợ Trương Định", "index_right": 0, "name_right": "Hanoi" }, "geometry": { "type": "Point", "coordinates": [ 105.8467458, 20.9846479 ] } },
{ "type": "Feature", "properties": { "osm_id": "13412701101", "code": 2016, "fclass": "marketplace", "name_left": "Nhật Tân", "index_right": 0, "name_right": "Hanoi" }, "geometry": { "type": "Point", "coordinates": [ 105.8190341, 21.0808559 ] } },
{ "type": "Feature", "properties": { "osm_id": "13449384383", "code": 2016, "fclass": "marketplace", "name_left": "Chợ Quỳnh Đô", "index_right": 0, "name_right": "Hanoi" }, "geometry": { "type": "Point", "coordinates": [ 105.8379739, 20.9358446 ] } },
{ "type": "Feature", "properties": { "osm_id": "13459658479", "code": 2016, "fclass": "marketplace", "name_left": "Chợ Tứ Liên", "index_right": 0, "name_right": "Hanoi" }, "geometry": { "type": "Point", "coordinates": [ 105.8309185, 21.0658566 ] } },
{ "type": "Feature", "properties": { "osm_id": "13464169251", "code": 2016, "fclass": "marketplace", "name_left": "Chợ tạm Thanh Hà", "index_right": 0, "name_right": "Hanoi" }, "geometry": { "type": "Point", "coordinates": [ 105.7894126, 20.928016 ] } },
{ "type": "Feature", "properties": { "osm_id": "13632874206", "code": 2016, "fclass": "marketplace", "name_left": null, "index_right": 0, "name_right": "Hanoi" }, "geometry": { "type": "Point", "coordinates": [ 105.8469957, 21.2004778 ] } },
{ "type": "Feature", "properties": { "osm_id": "13712858876", "code": 2016, "fclass": "marketplace", "name_left": "Chợ đồ cũ hồ Đền Lừ", "index_right": 0, "name_right": "Hanoi" }, "geometry": { "type": "Point", "coordinates": [ 105.8567309, 20.9847142 ] } },
{ "type": "Feature", "properties": { "osm_id": "13898953317", "code": 2016, "fclass": "marketplace", "name_left": "Chợ Lòng Thuyền", "index_right": 0, "name_right": "Hanoi" }, "geometry": { "type": "Point", "coordinates": [ 105.8818189, 20.981276 ] } },
{ "type": "Feature", "properties": { "osm_id": "13916784573", "code": 2016, "fclass": "marketplace", "name_left": "Chợ đêm Lĩnh Nam", "index_right": 0, "name_right": "Hanoi" }, "geometry": { "type": "Point", "coordinates": [ 105.8742897, 20.9839814 ] } },
{ "type": "Feature", "properties": { "osm_id": "14005747112", "code": 2016, "fclass": "marketplace", "name_left": "Chợ cá Yên Sở", "index_right": 0, "name_right": "Hanoi" }, "geometry": { "type": "Point", "coordinates": [ 105.864097, 20.9643683 ] } }
]
}
