{
"type": "FeatureCollection",
"name": "amenity_pub_hanoi",
"crs": { "type": "name", "properties": { "name": "urn:ogc:def:crs:OGC:1.3:CRS84" } },
"features": [
{ "type": "Feature", "properties": { "osm_id": "610739909", "code": 2304, "fclass": "pub", "name_left": "Quán Pub Mika", "index_right": 0, "name_right": "Hanoi" }, "geometry": { "type": "Point", "coordinates": [ 105.8495331, 21.0241143 ] } },
{ "type": "Feature", "properties": { "osm_id": "723642258", "code": 2304, "fclass": "pub", "name_left": "Quán Pub Finnegan's Irish", "index_right": 0, "name_right": "Hanoi" }, "geometry": { "type": "Point", "coordinates": [ 105.8468029, 21.0323539 ] } },
{ "type": "Feature", "properties": { "osm_id": "723642261", "code": 2304, "fclass": "pub", "name_left": "Quán Pub Irish Wolfhound", "index_right": 0, "name_right": "Hanoi" }, "geometry": { "type": "Point", "coordinates": [ 105.8537954, 21.0350376 ] } },
{ "type": "Feature", "properties": { "osm_id": "723671512", "code": 2304, "fclass": "pub", "name_left": "R&R Tavern", "index_right": 0, "name_right": "Hanoi" }, "geometry": { "type": "Point", "coordinates": [ 105.8443647, 21.027487 ] } },
{ "type": "Feature", "properties": { "osm_id": "969250576", "code": 2304, "fclass": "pub", "name_left": "Le Pub", "index_right": 0, "name_right": "Hanoi" }, "geometry": { "type": "Point", "coordinates": [ 105.8539305, 21.033101 ] } },
{ "type": "Feature", "properties": { "osm_id": "976473269", "code": 2304, "fclass": "pub", "name_left": "Cà Phê Ete", "index_right": 0, "name_right": "Hanoi" }, "geometry": { "type": "Point", "coordinates": [ 105.8269214, 21.0337988 ] } },
{ "type": "Feature", "properties": { "osm_id": "2302090842", "code": 2304, "fclass": "pub", "name_left": "Quán rượu Dân tộc", "index_right": 0, "name_right": "Hanoi" }, "geometry": { "type": "Point", "coordinates": [ 105.8528801, 21.0217027 ] } },
{ "type": "Feature", "properties": { "osm_id": "2367201529", "code": 2304, "fclass": "pub", "name_left": "Quán Bia Hơi Cường Nga", "index_right": 0, "name_right": "Hanoi" }, "geometry": { "type": "Point", "coordinates": [ 105.8413005, 21.018964 ] } },
{ "type": "Feature", "properties": { "osm_id": "2367224656", "code": 2304, "fclass": "pub", "name_left": "Quán Bia Hơi Lan Chín", "index_right": 0, "name_right": "Hanoi" }, "geometry": { "type": "Point", "coordinates": [ 105.858464, 21.0180126 ] } },
{ "type": "Feature", "properties": { "osm_id": "2536164568", "code": 2304, "fclass": "pub", "name_left": "Minh's Jazz Club", "index_right": 0, "name_right": "Hanoi" }, "geometry": { "type": "Point", "coordinates": [ 105.8448963, 21.0239498 ] } },
{ "type": "Feature", "properties": { "osm_id": "3575191010", "code": 2304, "fclass": "pub", "name_left": "Windmill microbrewery pub", "index_right": 0, "name_right": "Hanoi" }, "geometry": { "type": "Point", "coordinates": [ 105.8329725, 21.0268782 ] } },
{ "type": "Feature", "properties": { "osm_id": "4496401189", "code": 2304, "fclass": "pub", "name_left": "Quan The Pub", "index_right": 0, "name_right": "Hanoi" }, "geometry": { "type": "Point", "coordinates": [ 105.8520195, 21.0346991 ] } },
{ "type": "Feature", "properties": { "osm_id": "4532462396", "code": 2304, "fclass": "pub", "name_left": "quán nhậu đồ ăn", "index_right": 0, "name_right": "Hanoi" }, "geometry": { "type": "Point", "coordinates": [ 105.5031849, 21.1431297 ] } },
{ "type": "Feature", "properties": { "osm_id": "4535978496", "code": 2304, "fclass": "pub", "name_left": "Nhà hàng Bia Tiger", "index_right": 0, "name_right": "Hanoi" }, "geometry": { "type": "Point", "coordinates": [ 105.8011546, 21.0381893 ] } },
{ "type": "Feature", "properties": { "osm_id": "4722111290", "code": 2304, "fclass": "pub", "name_left": "삼원", "index_right": 0, "name_right": "Hanoi" }, "geometry": { "type": "Point", "coordinates": [ 105.7857255, 21.0205219 ] } },
{ "type": "Feature", "properties": { "osm_id": "4739588724", "code": 2304, "fclass": "pub", "name_left": null, "index_right": 0, "name_right": "Hanoi" }, "geometry": { "type": "Point", "coordinates": [ 105.7951503, 21.1624134 ] } },
{ "type": "Feature", "properties": { "osm_id": "4740923021", "code": 2304, "fclass": "pub", "name_left": "Karaoke Han Nam", "index_right": 0, "name_right": "Hanoi" }, "geometry": { "type": "Point", "coordinates": [ 105.7789872, 21.0190042 ] } },
{ "type": "Feature", "properties": { "osm_id": "4740933521", "code": 2304, "fclass": "pub", "name_left": "Karaoke Phoenix 2", "index_right": 0, "name_right": "Hanoi" }, "geometry": { "type": "Point", "coordinates": [ 105.8009621, 21.0057044 ] } },
{ "type": "Feature", "properties": { "osm_id": "4740933522", "code": 2304, "fclass": "pub", "name_left": "Quán Karaoke Cleopatra", "index_right": 0, "name_right": "Hanoi" }, "geometry": { "type": "Point", "coordinates": [ 105.8505589, 21.0177618 ] } },
{ "type": "Feature", "properties": { "osm_id": "4910464323", "code": 2304, "fclass": "pub", "name_left": "The Hill Station", "index_right": 0, "name_right": "Hanoi" }, "geometry": { "type": "Point", "coordinates": [ 105.8519855, 21.0355619 ] } },
{ "type": "Feature", "properties": { "osm_id": "5155376723", "code": 2304, "fclass": "pub", "name_left": null, "index_right": 0, "name_right": "Hanoi" }, "geometry": { "type": "Point", "coordinates": [ 105.8329568, 21.0576954 ] } },
{ "type": "Feature", "properties": { "osm_id": "5666394521", "code": 2304, "fclass": "pub", "name_left": null, "index_right": 0, "name_right": "Hanoi" }, "geometry": { "type": "Point", "coordinates": [ 105.8766711, 21.0483534 ] } },
{ "type": "Feature", "properties": { "osm_id": "6034195107", "code": 2304, "fclass": "pub", "name_left": "Sooul Bar", "index_right": 0, "name_right": "Hanoi" }, "geometry": { "type": "Point", "coordinates": [ 105.8236087, 21.062755 ] } },
{ "type": "Feature", "properties": { "osm_id": "6629575270", "code": 2304, "fclass": "pub", "name_left": "Quán Pub Fur Brew", "index_right": 0, "name_right": "Hanoi" }, "geometry": { "type": "Point", "coordinates": [ 105.8242329, 21.0689238 ] } },
{ "type": "Feature", "properties": { "osm_id": "7041298285", "code": 2304, "fclass": "pub", "name_left": "Quán Beer New Gentry", "index_right": 0, "name_right": "Hanoi" }, "geometry": { "type": "Point", "coordinates": [ 105.848282, 21.0321069 ] } },
{ "type": "Feature", "properties": { "osm_id": "7056024594", "code": 2304, "fclass": "pub", "name_left": "Bia Hải Xồm", "index_right": 0, "name_right": "Hanoi" }, "geometry": { "type": "Point", "coordinates": [ 105.7894262, 21.034544 ] } },
{ "type": "Feature", "properties": { "osm_id": "7056027687", "code": 2304, "fclass": "pub", "name_left": "Sơn Bia", "index_right": 0, "name_right": "Hanoi" }, "geometry": { "type": "Point", "coordinates": [ 105.7896255, 21.0344068 ] } },
{ "type": "Feature", "properties": { "osm_id": "7176883501", "code": 2304, "fclass": "pub", "name_left": "Quán Bar Cyclo", "index_right": 0, "name_right": "Hanoi" }, "geometry": { "type": "Point", "coordinates": [ 105.8520282, 21.0341681 ] } },
{ "type": "Feature", "properties": { "osm_id": "9665887047", "code": 2304, "fclass": "pub", "name_left": null, "index_right": 0, "name_right": "Hanoi" }, "geometry": { "type": "Point", "coordinates": [ 105.9111894, 21.0660836 ] } },
{ "type": "Feature", "properties": { "osm_id": "11018272006", "code": 2304, "fclass": "pub", "name_left": null, "index_right": 0, "name_right": "Hanoi" }, "geometry": { "type": "Point", "coordinates": [ 105.8459194, 21.0356858 ] } },
{ "type": "Feature", "properties": { "osm_id": "11168751429", "code": 2304, "fclass": "pub", "name_left": "Quán nhậu Tuấn Râu", "index_right": 0, "name_right": "Hanoi" }, "geometry": { "type": "Point", "coordinates": [ 105.8035611, 21.0459733 ] } },
{ "type": "Feature", "properties": { "osm_id": "11170913032", "code": 2304, "fclass": "pub", "name_left": "Nhà hàng Hải Xồm", "index_right": 0, "name_right": "Hanoi" }, "geometry": { "type": "Point", "coordinates": [ 105.8026162, 21.0458879 ] } },
{ "type": "Feature", "properties": { "osm_id": "11663147026", "code": 2304, "fclass": "pub", "name_left": null, "index_right": 0, "name_right": "Hanoi" }, "geometry": { "type": "Point", "coordinates": [ 105.8301183, 21.0705117 ] } },
{ "type": "Feature", "properties": { "osm_id": "11675985429", "code": 2304, "fclass": "pub", "name_left": "Yummy", "index_right": 0, "name_right": "Hanoi" }, "geometry": { "type": "Point", "coordinates": [ 105.8470101, 21.0387426 ] } },
{ "type": "Feature", "properties": { "osm_id": "11936097169", "code": 2304, "fclass": "pub", "name_left": null, "index_right": 0, "name_right": "Hanoi" }, "geometry": { "type": "Point", "coordinates": [ 105.8368422, 21.0015939 ] } },
{ "type": "Feature", "properties": { "osm_id": "12078134480", "code": 2304, "fclass": "pub", "name_left": null, "index_right": 0, "name_right": "Hanoi" }, "geometry": { "type": "Point", "coordinates": [ 105.8446679, 21.0306521 ] } },
{ "type": "Feature", "properties": { "osm_id": "13458318101", "code": 2304, "fclass": "pub", "name_left": "Tony Vu's Brewing", "index_right": 0, "name_right": "Hanoi" }, "geometry": { "type": "Point", "coordinates": [ 105.846951, 21.032492 ] } },
{ "type": "Feature", "properties": { "osm_id": "13662054101", "code": 2304, "fclass": "pub", "name_left": "place to drink beer by the water", "index_right": 0, "name_right": "Hanoi" }, "geometry": { "type": "Point", "coordinates": [ 105.8446081, 21.0195206 ] } },
{ "type": "Feature", "properties": { "osm_id": "13744133901", "code": 2304, "fclass": "pub", "name_left": "Ha Noi HomeBrew - Local Craft Beer", "index_right": 0, "name_right": "Hanoi" }, "geometry": { "type": "Point", "coordinates": [ 105.8543065, 21.0315178 ] } },
{ "type": "Feature", "properties": { "osm_id": "13744150701", "code": 2304, "fclass": "pub", "name_left": "Peachy Craft Beer & Coffee", "index_right": 0, "name_right": "Hanoi" }, "geometry": { "type": "Point", "coordinates": [ 105.852759, 21.0319484 ] } },
{ "type": "Feature", "properties": { "osm_id": "13744152401", "code": 2304, "fclass": "pub", "name_left": "Pasteur Street Craft Beer Bùi Thị Xuân - Premium Local Craft Beer in Hanoi", "index_right": 0, "name_right": "Hanoi" }, "geometry": { "type": "Point", "coordinates": [ 105.8497919, 21.0132395 ] } },
{ "type": "Feature", "properties": { "osm_id": "13744156401", "code": 2304, "fclass": "pub", "name_left": "Local Craft Beer - Tony Vu Brewing", "index_right": 0, "name_right": "Hanoi" }, "geometry": { "type": "Point", "coordinates": [ 105.8473286, 21.0305509 ] } },
{ "type": "Feature", "properties": { "osm_id": "13744156501", "code": 2304, "fclass": "pub", "name_left": "Bross Craft Beer", "index_right": 0, "name_right": "Hanoi" }, "geometry": { "type": "Point", "coordinates": [ 105.8441953, 21.0283529 ] } },
{ "type": "Feature", "properties": { "osm_id": "13744454701", "code": 2304, "fclass": "pub", "name_left": "Tamero Craft beer", "index_right": 0, "name_right": "Hanoi" }, "geometry": { "type": "Point", "coordinates": [ 105.8414436, 21.0271811 ] } },
{ "type": "Feature", "properties": { "osm_id": "13744465502", "code": 2304, "fclass": "pub", "name_left": "Cultra Taproom - Rooftop Bar", "index_right": 0, "name_right": "Hanoi" }, "geometry": { "type": "Point", "coordinates": [ 105.8465087, 21.030525 ] } },
{ "type": "Feature", "properties": { "osm_id": "13744465701", "code": 2304, "fclass": "pub", "name_left": "B'Ross Brewery Bross Taproom", "index_right": 0, "name_right": "Hanoi" }, "geometry": { "type": "Point", "coordinates": [ 105.8503812, 21.0304825 ] } },
{ "type": "Feature", "properties": { "osm_id": "13744465702", "code": 2304, "fclass": "pub", "name_left": "Pasteur Street Craft Beer Cửa Bắc - Premium Local Craft Beer in Hanoi", "index_right": 0, "name_right": "Hanoi" }, "geometry": { "type": "Point", "coordinates": [ 105.8431416, 21.0449655 ] } },
{ "type": "Feature", "properties": { "osm_id": "13745856602", "code": 2304, "fclass": "pub", "name_left": "C-Brewmaster x The Brewtique Craft Beer", "index_right": 0, "name_right": "Hanoi" }, "geometry": { "type": "Point", "coordinates": [ 105.8546163, 21.0318349 ] } }
]
}
