{
"type": "FeatureCollection",
"name": "amenity_fast_food_hanoi",
"crs": { "type": "name", "properties": { "name": "urn:ogc:def:crs:OGC:1.3:CRS84" } },
"features": [
{ "type": "Feature", "properties": { "osm_id": "442913494", "code": 2302, "fclass": "fast_food", "name_left": "KFC", "index_right": 0, "name_right": "Hanoi" }, "geometry": { "type": "Point", "coordinates": [ 105.8114367, 21.0109485 ] } },
{ "type": "Feature", "properties": { "osm_id": "481837568", "code": 2302, "fclass": "fast_food", "name_left": "KFC", "index_right": 0, "name_right": "Hanoi" }, "geometry": { "type": "Point", "coordinates": [ 105.8781666, 21.0470606 ] } },
{ "type": "Feature", "properties": { "osm_id": "1769566984", "code": 2302, "fclass": "fast_food", "name_left": "Nhà Hàng BBQ Chicken", "index_right": 0, "name_right": "Hanoi" }, "geometry": { "type": "Point", "coordinates": [ 105.8287829, 21.034519 ] } },
{ "type": "Feature", "properties": { "osm_id": "3514125539", "code": 2302, "fclass": "fast_food", "name_left": "Bánh Mì 25", "index_right": 0, "name_right": "Hanoi" }, "geometry": { "type": "Point", "coordinates": [ 105.8486929, 21.0360802 ] } },
{ "type": "Feature", "properties": { "osm_id": "3715457786", "code": 2302, "fclass": "fast_food", "name_left": "KFC", "index_right": 0, "name_right": "Hanoi" }, "geometry": { "type": "Point", "coordinates": [ 105.8397787, 21.0506781 ] } },
{ "type": "Feature", "properties": { "osm_id": "3830708257", "code": 2302, "fclass": "fast_food", "name_left": "Bánh Mì Bami", "index_right": 0, "name_right": "Hanoi" }, "geometry": { "type": "Point", "coordinates": [ 105.8514826, 21.0340956 ] } },
{ "type": "Feature", "properties": { "osm_id": "4352140189", "code": 2302, "fclass": "fast_food", "name_left": "Cửa Hàng Bánh Mì Aha", "index_right": 0, "name_right": "Hanoi" }, "geometry": { "type": "Point", "coordinates": [ 105.8474332, 21.0337908 ] } },
{ "type": "Feature", "properties": { "osm_id": "4382109792", "code": 2302, "fclass": "fast_food", "name_left": "Bánh Mỳ Doner Kebab Hùng Jock", "index_right": 0, "name_right": "Hanoi" }, "geometry": { "type": "Point", "coordinates": [ 105.8384247, 21.0169944 ] } },
{ "type": "Feature", "properties": { "osm_id": "4386749689", "code": 2302, "fclass": "fast_food", "name_left": "phong kham da koa", "index_right": 0, "name_right": "Hanoi" }, "geometry": { "type": "Point", "coordinates": [ 105.8506329, 21.0354586 ] } },
{ "type": "Feature", "properties": { "osm_id": "4413364391", "code": 2302, "fclass": "fast_food", "name_left": "KFC", "index_right": 0, "name_right": "Hanoi" }, "geometry": { "type": "Point", "coordinates": [ 105.8451073, 21.0422123 ] } },
{ "type": "Feature", "properties": { "osm_id": "4486425790", "code": 2302, "fclass": "fast_food", "name_left": null, "index_right": 0, "name_right": "Hanoi" }, "geometry": { "type": "Point", "coordinates": [ 105.8542317, 21.0375997 ] } },
{ "type": "Feature", "properties": { "osm_id": "4504646891", "code": 2302, "fclass": "fast_food", "name_left": "Bánh Cuốn Gia Truyền Thanh Vân", "index_right": 0, "name_right": "Hanoi" }, "geometry": { "type": "Point", "coordinates": [ 105.8471707, 21.0360528 ] } },
{ "type": "Feature", "properties": { "osm_id": "4507417291", "code": 2302, "fclass": "fast_food", "name_left": "Lotteria", "index_right": 0, "name_right": "Hanoi" }, "geometry": { "type": "Point", "coordinates": [ 105.8534481, 21.0314853 ] } },
{ "type": "Feature", "properties": { "osm_id": "4532514193", "code": 2302, "fclass": "fast_food", "name_left": "quán phở bà béo", "index_right": 0, "name_right": "Hanoi" }, "geometry": { "type": "Point", "coordinates": [ 105.5033319, 21.1430883 ] } },
{ "type": "Feature", "properties": { "osm_id": "4535978495", "code": 2302, "fclass": "fast_food", "name_left": "Lotteria", "index_right": 0, "name_right": "Hanoi" }, "geometry": { "type": "Point", "coordinates": [ 105.8009683, 21.0378262 ] } },
{ "type": "Feature", "properties": { "osm_id": "4538467361", "code": 2302, "fclass": "fast_food", "name_left": "KFC", "index_right": 0, "name_right": "Hanoi" }, "geometry": { "type": "Point", "coordinates": [ 105.8022826, 20.9913866 ] } },
{ "type": "Feature", "properties": { "osm_id": "4554131889", "code": 2302, "fclass": "fast_food", "name_left": "KFC", "index_right": 0, "name_right": "Hanoi" }, "geometry": { "type": "Point", "coordinates": [ 105.7758736, 21.0136098 ] } },
{ "type": "Feature", "properties": { "osm_id": "4582611322", "code": 2302, "fclass": "fast_food", "name_left": null, "index_right": 0, "name_right": "Hanoi" }, "geometry": { "type": "Point", "coordinates": [ 105.8473576, 21.0337892 ] } },
{ "type": "Feature", "properties": { "osm_id": "4609269794", "code": 2302, "fclass": "fast_food", "name_left": null, "index_right": 0, "name_right": "Hanoi" }, "geometry": { "type": "Point", "coordinates": [ 105.8545935, 21.0314426 ] } },
{ "type": "Feature", "properties": { "osm_id": "4631277689", "code": 2302, "fclass": "fast_food", "name_left": null, "index_right": 0, "name_right": "Hanoi" }, "geometry": { "type": "Point", "coordinates": [ 105.8501575, 21.0352997 ] } },
{ "type": "Feature", "properties": { "osm_id": "4639673391", "code": 2302, "fclass": "fast_food", "name_left": "Long Vi Dung - Nom Thit Bo Kho", "index_right": 0, "name_right": "Hanoi" }, "geometry": { "type": "Point", "coordinates": [ 105.853246, 21.0320462 ] } },
{ "type": "Feature", "properties": { "osm_id": "4667121191", "code": 2302, "fclass": "fast_food", "name_left": null, "index_right": 0, "name_right": "Hanoi" }, "geometry": { "type": "Point", "coordinates": [ 105.849941, 21.0289137 ] } },
{ "type": "Feature", "properties": { "osm_id": "4674556592", "code": 2302, "fclass": "fast_food", "name_left": null, "index_right": 0, "name_right": "Hanoi" }, "geometry": { "type": "Point", "coordinates": [ 105.8501947, 21.0297747 ] } },
{ "type": "Feature", "properties": { "osm_id": "4772225421", "code": 2302, "fclass": "fast_food", "name_left": "Banh Mi Hoi An", "index_right": 0, "name_right": "Hanoi" }, "geometry": { "type": "Point", "coordinates": [ 105.8516024, 21.0340296 ] } },
{ "type": "Feature", "properties": { "osm_id": "4859558525", "code": 2302, "fclass": "fast_food", "name_left": "KFC", "index_right": 0, "name_right": "Hanoi" }, "geometry": { "type": "Point", "coordinates": [ 105.8010942, 21.0375096 ] } },
{ "type": "Feature", "properties": { "osm_id": "4871303622", "code": 2302, "fclass": "fast_food", "name_left": null, "index_right": 0, "name_right": "Hanoi" }, "geometry": { "type": "Point", "coordinates": [ 105.3630913, 21.0607951 ] } },
{ "type": "Feature", "properties": { "osm_id": "4897173121", "code": 2302, "fclass": "fast_food", "name_left": "Phu' O'ng Beo", "index_right": 0, "name_right": "Hanoi" }, "geometry": { "type": "Point", "coordinates": [ 105.8502532, 21.035895 ] } },
{ "type": "Feature", "properties": { "osm_id": "4941574521", "code": 2302, "fclass": "fast_food", "name_left": null, "index_right": 0, "name_right": "Hanoi" }, "geometry": { "type": "Point", "coordinates": [ 105.8479233, 21.0365722 ] } },
{ "type": "Feature", "properties": { "osm_id": "5036642922", "code": 2302, "fclass": "fast_food", "name_left": "Lotteria", "index_right": 0, "name_right": "Hanoi" }, "geometry": { "type": "Point", "coordinates": [ 105.7928899, 20.9620323 ] } },
{ "type": "Feature", "properties": { "osm_id": "5112142021", "code": 2302, "fclass": "fast_food", "name_left": "KFC", "index_right": 0, "name_right": "Hanoi" }, "geometry": { "type": "Point", "coordinates": [ 105.7626457, 20.9608423 ] } },
{ "type": "Feature", "properties": { "osm_id": "5116302421", "code": 2302, "fclass": "fast_food", "name_left": "Phở Gia Truyền", "index_right": 0, "name_right": "Hanoi" }, "geometry": { "type": "Point", "coordinates": [ 105.8463792, 21.0336377 ] } },
{ "type": "Feature", "properties": { "osm_id": "5126355923", "code": 2302, "fclass": "fast_food", "name_left": "Bánh Bao Ngọc Hương", "index_right": 0, "name_right": "Hanoi" }, "geometry": { "type": "Point", "coordinates": [ 105.7812888, 20.9689263 ] } },
{ "type": "Feature", "properties": { "osm_id": "5151048421", "code": 2302, "fclass": "fast_food", "name_left": "Burger King", "index_right": 0, "name_right": "Hanoi" }, "geometry": { "type": "Point", "coordinates": [ 105.8019454, 21.0367817 ] } },
{ "type": "Feature", "properties": { "osm_id": "5157335622", "code": 2302, "fclass": "fast_food", "name_left": null, "index_right": 0, "name_right": "Hanoi" }, "geometry": { "type": "Point", "coordinates": [ 105.8519071, 21.035855 ] } },
{ "type": "Feature", "properties": { "osm_id": "5274931721", "code": 2302, "fclass": "fast_food", "name_left": "Cửa Hàng Bánh Mì Hội An", "index_right": 0, "name_right": "Hanoi" }, "geometry": { "type": "Point", "coordinates": [ 105.8509354, 21.0357103 ] } },
{ "type": "Feature", "properties": { "osm_id": "5340817221", "code": 2302, "fclass": "fast_food", "name_left": "McDonald's", "index_right": 0, "name_right": "Hanoi" }, "geometry": { "type": "Point", "coordinates": [ 105.8530718, 21.025385 ] } },
{ "type": "Feature", "properties": { "osm_id": "5350769522", "code": 2302, "fclass": "fast_food", "name_left": null, "index_right": 0, "name_right": "Hanoi" }, "geometry": { "type": "Point", "coordinates": [ 105.8408923, 20.9956274 ] } },
{ "type": "Feature", "properties": { "osm_id": "5384962122", "code": 2302, "fclass": "fast_food", "name_left": "Bánh Cuốn Bà Hoanh", "index_right": 0, "name_right": "Hanoi" }, "geometry": { "type": "Point", "coordinates": [ 105.8495643, 21.0135428 ] } },
{ "type": "Feature", "properties": { "osm_id": "5384962124", "code": 2302, "fclass": "fast_food", "name_left": "Xôi Gà", "index_right": 0, "name_right": "Hanoi" }, "geometry": { "type": "Point", "coordinates": [ 105.850354, 21.0314063 ] } },
{ "type": "Feature", "properties": { "osm_id": "5385095921", "code": 2302, "fclass": "fast_food", "name_left": null, "index_right": 0, "name_right": "Hanoi" }, "geometry": { "type": "Point", "coordinates": [ 105.85518, 21.018791 ] } },
{ "type": "Feature", "properties": { "osm_id": "5385096024", "code": 2302, "fclass": "fast_food", "name_left": "Thanh Vân Bánh Cuốn Gia Truyền", "index_right": 0, "name_right": "Hanoi" }, "geometry": { "type": "Point", "coordinates": [ 105.8519949, 21.0182107 ] } },
{ "type": "Feature", "properties": { "osm_id": "5385333722", "code": 2302, "fclass": "fast_food", "name_left": "Quán Chè Mười Sáu", "index_right": 0, "name_right": "Hanoi" }, "geometry": { "type": "Point", "coordinates": [ 105.8528281, 21.0180243 ] } },
{ "type": "Feature", "properties": { "osm_id": "5387044321", "code": 2302, "fclass": "fast_food", "name_left": null, "index_right": 0, "name_right": "Hanoi" }, "geometry": { "type": "Point", "coordinates": [ 105.8511445, 21.0190493 ] } },
{ "type": "Feature", "properties": { "osm_id": "5387201586", "code": 2302, "fclass": "fast_food", "name_left": null, "index_right": 0, "name_right": "Hanoi" }, "geometry": { "type": "Point", "coordinates": [ 105.8508622, 21.0191303 ] } },
{ "type": "Feature", "properties": { "osm_id": "5388373021", "code": 2302, "fclass": "fast_food", "name_left": null, "index_right": 0, "name_right": "Hanoi" }, "geometry": { "type": "Point", "coordinates": [ 105.8503649, 21.0193255 ] } },
{ "type": "Feature", "properties": { "osm_id": "5389741221", "code": 2302, "fclass": "fast_food", "name_left": null, "index_right": 0, "name_right": "Hanoi" }, "geometry": { "type": "Point", "coordinates": [ 105.8514346, 21.0372617 ] } },
{ "type": "Feature", "properties": { "osm_id": "5395627822", "code": 2302, "fclass": "fast_food", "name_left": "Kebab & Co", "index_right": 0, "name_right": "Hanoi" }, "geometry": { "type": "Point", "coordinates": [ 105.8531095, 21.035179 ] } },
{ "type": "Feature", "properties": { "osm_id": "5474541524", "code": 2302, "fclass": "fast_food", "name_left": null, "index_right": 0, "name_right": "Hanoi" }, "geometry": { "type": "Point", "coordinates": [ 105.8386135, 21.004751 ] } },
{ "type": "Feature", "properties": { "osm_id": "5485644612", "code": 2302, "fclass": "fast_food", "name_left": "Domino's", "index_right": 0, "name_right": "Hanoi" }, "geometry": { "type": "Point", "coordinates": [ 105.8222117, 21.0258742 ] } },
{ "type": "Feature", "properties": { "osm_id": "5485644613", "code": 2302, "fclass": "fast_food", "name_left": "Domino's", "index_right": 0, "name_right": "Hanoi" }, "geometry": { "type": "Point", "coordinates": [ 105.8511822, 21.0136614 ] } },
{ "type": "Feature", "properties": { "osm_id": "5485670930", "code": 2302, "fclass": "fast_food", "name_left": "Lotteria", "index_right": 0, "name_right": "Hanoi" }, "geometry": { "type": "Point", "coordinates": [ 105.8367052, 21.0111401 ] } },
{ "type": "Feature", "properties": { "osm_id": "5485724273", "code": 2302, "fclass": "fast_food", "name_left": "Quán chè Đầu Bếp", "index_right": 0, "name_right": "Hanoi" }, "geometry": { "type": "Point", "coordinates": [ 105.8062005, 21.023585 ] } },
{ "type": "Feature", "properties": { "osm_id": "5485739806", "code": 2302, "fclass": "fast_food", "name_left": "Nhà hàng Chef Dzung", "index_right": 0, "name_right": "Hanoi" }, "geometry": { "type": "Point", "coordinates": [ 105.8111829, 21.024114 ] } },
{ "type": "Feature", "properties": { "osm_id": "5485777714", "code": 2302, "fclass": "fast_food", "name_left": "KFC", "index_right": 0, "name_right": "Hanoi" }, "geometry": { "type": "Point", "coordinates": [ 105.8000723, 21.0158585 ] } },
{ "type": "Feature", "properties": { "osm_id": "5485879965", "code": 2302, "fclass": "fast_food", "name_left": "KFC", "index_right": 0, "name_right": "Hanoi" }, "geometry": { "type": "Point", "coordinates": [ 105.8229047, 21.0068776 ] } },
{ "type": "Feature", "properties": { "osm_id": "5486606622", "code": 2302, "fclass": "fast_food", "name_left": "Cửa Hàng Burger Street Hanoi", "index_right": 0, "name_right": "Hanoi" }, "geometry": { "type": "Point", "coordinates": [ 105.8508489, 21.0366171 ] } },
{ "type": "Feature", "properties": { "osm_id": "5490223222", "code": 2302, "fclass": "fast_food", "name_left": "Taco King", "index_right": 0, "name_right": "Hanoi" }, "geometry": { "type": "Point", "coordinates": [ 105.8474576, 21.0336939 ] } },
{ "type": "Feature", "properties": { "osm_id": "5585967726", "code": 2302, "fclass": "fast_food", "name_left": null, "index_right": 0, "name_right": "Hanoi" }, "geometry": { "type": "Point", "coordinates": [ 105.8476645, 21.0318838 ] } },
{ "type": "Feature", "properties": { "osm_id": "5614494624", "code": 2302, "fclass": "fast_food", "name_left": "The Pizza Company", "index_right": 0, "name_right": "Hanoi" }, "geometry": { "type": "Point", "coordinates": [ 105.7922694, 21.0355183 ] } },
{ "type": "Feature", "properties": { "osm_id": "5680772376", "code": 2302, "fclass": "fast_food", "name_left": "Lotteria", "index_right": 0, "name_right": "Hanoi" }, "geometry": { "type": "Point", "coordinates": [ 105.7623583, 21.0366156 ] } },
{ "type": "Feature", "properties": { "osm_id": "5760494421", "code": 2302, "fclass": "fast_food", "name_left": "Pizza place", "index_right": 0, "name_right": "Hanoi" }, "geometry": { "type": "Point", "coordinates": [ 105.7729932, 20.9788069 ] } },
{ "type": "Feature", "properties": { "osm_id": "5781047753", "code": 2302, "fclass": "fast_food", "name_left": "Lotteria", "index_right": 0, "name_right": "Hanoi" }, "geometry": { "type": "Point", "coordinates": [ 105.8363653, 21.04395 ] } },
{ "type": "Feature", "properties": { "osm_id": "5920327386", "code": 2302, "fclass": "fast_food", "name_left": "Búng & Miến Ngân Mộc", "index_right": 0, "name_right": "Hanoi" }, "geometry": { "type": "Point", "coordinates": [ 105.8228346, 21.0300581 ] } },
{ "type": "Feature", "properties": { "osm_id": "5942412285", "code": 2302, "fclass": "fast_food", "name_left": "Xôi Cô Oanh", "index_right": 0, "name_right": "Hanoi" }, "geometry": { "type": "Point", "coordinates": [ 105.7932057, 21.0321324 ] } },
{ "type": "Feature", "properties": { "osm_id": "5966485585", "code": 2302, "fclass": "fast_food", "name_left": "Xôi Yên", "index_right": 0, "name_right": "Hanoi" }, "geometry": { "type": "Point", "coordinates": [ 105.8545733, 21.0201181 ] } },
{ "type": "Feature", "properties": { "osm_id": "6136355785", "code": 2302, "fclass": "fast_food", "name_left": "Valhalla grill", "index_right": 0, "name_right": "Hanoi" }, "geometry": { "type": "Point", "coordinates": [ 105.8525932, 21.0360127 ] } },
{ "type": "Feature", "properties": { "osm_id": "6180933088", "code": 2302, "fclass": "fast_food", "name_left": null, "index_right": 0, "name_right": "Hanoi" }, "geometry": { "type": "Point", "coordinates": [ 105.8328213, 21.0426039 ] } },
{ "type": "Feature", "properties": { "osm_id": "6209501185", "code": 2302, "fclass": "fast_food", "name_left": "vang khe", "index_right": 0, "name_right": "Hanoi" }, "geometry": { "type": "Point", "coordinates": [ 105.8440992, 21.0285506 ] } },
{ "type": "Feature", "properties": { "osm_id": "6212367385", "code": 2302, "fclass": "fast_food", "name_left": "Xin chao!!", "index_right": 0, "name_right": "Hanoi" }, "geometry": { "type": "Point", "coordinates": [ 105.8539242, 21.0331799 ] } },
{ "type": "Feature", "properties": { "osm_id": "6224015609", "code": 2302, "fclass": "fast_food", "name_left": "Lotteria", "index_right": 0, "name_right": "Hanoi" }, "geometry": { "type": "Point", "coordinates": [ 105.8452337, 21.0019669 ] } },
{ "type": "Feature", "properties": { "osm_id": "6288275185", "code": 2302, "fclass": "fast_food", "name_left": "Valhalla grill", "index_right": 0, "name_right": "Hanoi" }, "geometry": { "type": "Point", "coordinates": [ 105.8316564, 21.0613593 ] } },
{ "type": "Feature", "properties": { "osm_id": "6290450885", "code": 2302, "fclass": "fast_food", "name_left": "Cửa Hàng Doner Kebab", "index_right": 0, "name_right": "Hanoi" }, "geometry": { "type": "Point", "coordinates": [ 105.8460296, 21.0403728 ] } },
{ "type": "Feature", "properties": { "osm_id": "6307722585", "code": 2302, "fclass": "fast_food", "name_left": null, "index_right": 0, "name_right": "Hanoi" }, "geometry": { "type": "Point", "coordinates": [ 105.8417674, 21.029751 ] } },
{ "type": "Feature", "properties": { "osm_id": "6313622387", "code": 2302, "fclass": "fast_food", "name_left": "Đồ Ăn Nhanh Kebab Anh Hùng", "index_right": 0, "name_right": "Hanoi" }, "geometry": { "type": "Point", "coordinates": [ 105.8545328, 21.0326733 ] } },
{ "type": "Feature", "properties": { "osm_id": "6322994586", "code": 2302, "fclass": "fast_food", "name_left": null, "index_right": 0, "name_right": "Hanoi" }, "geometry": { "type": "Point", "coordinates": [ 105.8538768, 21.0338195 ] } },
{ "type": "Feature", "properties": { "osm_id": "6348643089", "code": 2302, "fclass": "fast_food", "name_left": "Vegetarian Banh My 15k", "index_right": 0, "name_right": "Hanoi" }, "geometry": { "type": "Point", "coordinates": [ 105.8525812, 21.0360871 ] } },
{ "type": "Feature", "properties": { "osm_id": "6348643186", "code": 2302, "fclass": "fast_food", "name_left": "Cửa Hàng Doner Kebab", "index_right": 0, "name_right": "Hanoi" }, "geometry": { "type": "Point", "coordinates": [ 105.8539657, 21.0348886 ] } },
{ "type": "Feature", "properties": { "osm_id": "6491366585", "code": 2302, "fclass": "fast_food", "name_left": "Lotteria", "index_right": 0, "name_right": "Hanoi" }, "geometry": { "type": "Point", "coordinates": [ 105.824681, 21.0193684 ] } },
{ "type": "Feature", "properties": { "osm_id": "6544092285", "code": 2302, "fclass": "fast_food", "name_left": null, "index_right": 0, "name_right": "Hanoi" }, "geometry": { "type": "Point", "coordinates": [ 105.8056226, 21.01035 ] } },
{ "type": "Feature", "properties": { "osm_id": "6600726758", "code": 2302, "fclass": "fast_food", "name_left": "Cửa Hàng Ăn Nhanh M' Tacos", "index_right": 0, "name_right": "Hanoi" }, "geometry": { "type": "Point", "coordinates": [ 105.8144173, 21.0724216 ] } },
{ "type": "Feature", "properties": { "osm_id": "6602491457", "code": 2302, "fclass": "fast_food", "name_left": "Cửa Hàng Bánh Mì Hội An", "index_right": 0, "name_right": "Hanoi" }, "geometry": { "type": "Point", "coordinates": [ 105.8441539, 21.0234234 ] } },
{ "type": "Feature", "properties": { "osm_id": "6611696185", "code": 2302, "fclass": "fast_food", "name_left": "KFC", "index_right": 0, "name_right": "Hanoi" }, "geometry": { "type": "Point", "coordinates": [ 105.8516548, 21.0090272 ] } },
{ "type": "Feature", "properties": { "osm_id": "6658026112", "code": 2302, "fclass": "fast_food", "name_left": "KFC", "index_right": 0, "name_right": "Hanoi" }, "geometry": { "type": "Point", "coordinates": [ 105.8457825, 20.9977381 ] } },
{ "type": "Feature", "properties": { "osm_id": "6658873504", "code": 2302, "fclass": "fast_food", "name_left": "Lotteria", "index_right": 0, "name_right": "Hanoi" }, "geometry": { "type": "Point", "coordinates": [ 105.8503479, 20.9981829 ] } },
{ "type": "Feature", "properties": { "osm_id": "6658873511", "code": 2302, "fclass": "fast_food", "name_left": "KFC", "index_right": 0, "name_right": "Hanoi" }, "geometry": { "type": "Point", "coordinates": [ 105.8506201, 20.9999658 ] } },
{ "type": "Feature", "properties": { "osm_id": "6815332985", "code": 2302, "fclass": "fast_food", "name_left": null, "index_right": 0, "name_right": "Hanoi" }, "geometry": { "type": "Point", "coordinates": [ 105.848634, 21.0320327 ] } },
{ "type": "Feature", "properties": { "osm_id": "6846162968", "code": 2302, "fclass": "fast_food", "name_left": "Domino's", "index_right": 0, "name_right": "Hanoi" }, "geometry": { "type": "Point", "coordinates": [ 105.8232598, 20.9635394 ] } },
{ "type": "Feature", "properties": { "osm_id": "6846162969", "code": 2302, "fclass": "fast_food", "name_left": "Lotteria", "index_right": 0, "name_right": "Hanoi" }, "geometry": { "type": "Point", "coordinates": [ 105.8248332, 20.9652544 ] } },
{ "type": "Feature", "properties": { "osm_id": "6880982195", "code": 2302, "fclass": "fast_food", "name_left": "McDonald's", "index_right": 0, "name_right": "Hanoi" }, "geometry": { "type": "Point", "coordinates": [ 105.8236546, 21.0093729 ] } },
{ "type": "Feature", "properties": { "osm_id": "6880982196", "code": 2302, "fclass": "fast_food", "name_left": "McDonald's", "index_right": 0, "name_right": "Hanoi" }, "geometry": { "type": "Point", "coordinates": [ 105.8040976, 21.0054365 ] } },
{ "type": "Feature", "properties": { "osm_id": "6880982198", "code": 2302, "fclass": "fast_food", "name_left": "McDonald's", "index_right": 0, "name_right": "Hanoi" }, "geometry": { "type": "Point", "coordinates": [ 105.7952432, 21.0063873 ] } },
{ "type": "Feature", "properties": { "osm_id": "6956741551", "code": 2302, "fclass": "fast_food", "name_left": "Cửa Hàng Burger & Buns", "index_right": 0, "name_right": "Hanoi" }, "geometry": { "type": "Point", "coordinates": [ 105.8270687, 21.067109 ] } },
{ "type": "Feature", "properties": { "osm_id": "7023219088", "code": 2302, "fclass": "fast_food", "name_left": null, "index_right": 0, "name_right": "Hanoi" }, "geometry": { "type": "Point", "coordinates": [ 105.5781313, 20.9076859 ] } },
{ "type": "Feature", "properties": { "osm_id": "7043719985", "code": 2302, "fclass": "fast_food", "name_left": "Cửa Hàng Bánh Mì Phố", "index_right": 0, "name_right": "Hanoi" }, "geometry": { "type": "Point", "coordinates": [ 105.8534671, 21.031431 ] } },
{ "type": "Feature", "properties": { "osm_id": "7056017420", "code": 2302, "fclass": "fast_food", "name_left": "Lotteria", "index_right": 0, "name_right": "Hanoi" }, "geometry": { "type": "Point", "coordinates": [ 105.7952485, 21.0347459 ] } },
{ "type": "Feature", "properties": { "osm_id": "7056021081", "code": 2302, "fclass": "fast_food", "name_left": "KFC", "index_right": 0, "name_right": "Hanoi" }, "geometry": { "type": "Point", "coordinates": [ 105.8332417, 20.984314 ] } },
{ "type": "Feature", "properties": { "osm_id": "7056055219", "code": 2302, "fclass": "fast_food", "name_left": "Spaghetti Box", "index_right": 0, "name_right": "Hanoi" }, "geometry": { "type": "Point", "coordinates": [ 105.826975, 21.030348 ] } },
{ "type": "Feature", "properties": { "osm_id": "7076707481", "code": 2302, "fclass": "fast_food", "name_left": "Cửa Hàng Bánh Mì Phố", "index_right": 0, "name_right": "Hanoi" }, "geometry": { "type": "Point", "coordinates": [ 105.8464378, 21.0295292 ] } },
{ "type": "Feature", "properties": { "osm_id": "7090725785", "code": 2302, "fclass": "fast_food", "name_left": "Bún Chả - Nem Cua Bê", "index_right": 0, "name_right": "Hanoi" }, "geometry": { "type": "Point", "coordinates": [ 105.8547926, 21.0313118 ] } },
{ "type": "Feature", "properties": { "osm_id": "7106536485", "code": 2302, "fclass": "fast_food", "name_left": "Phổ Như Lự", "index_right": 0, "name_right": "Hanoi" }, "geometry": { "type": "Point", "coordinates": [ 105.8293825, 21.0415225 ] } },
{ "type": "Feature", "properties": { "osm_id": "7158101286", "code": 2302, "fclass": "fast_food", "name_left": "Cửa Hàng Bánh Mì Döner Kebab", "index_right": 0, "name_right": "Hanoi" }, "geometry": { "type": "Point", "coordinates": [ 105.8509697, 21.0394225 ] } },
{ "type": "Feature", "properties": { "osm_id": "7174945785", "code": 2302, "fclass": "fast_food", "name_left": null, "index_right": 0, "name_right": "Hanoi" }, "geometry": { "type": "Point", "coordinates": [ 105.8436323, 21.0421819 ] } },
{ "type": "Feature", "properties": { "osm_id": "7176572767", "code": 2302, "fclass": "fast_food", "name_left": null, "index_right": 0, "name_right": "Hanoi" }, "geometry": { "type": "Point", "coordinates": [ 105.8458771, 21.0350258 ] } },
{ "type": "Feature", "properties": { "osm_id": "7176640163", "code": 2302, "fclass": "fast_food", "name_left": null, "index_right": 0, "name_right": "Hanoi" }, "geometry": { "type": "Point", "coordinates": [ 105.848979, 21.0394585 ] } },
{ "type": "Feature", "properties": { "osm_id": "7176646022", "code": 2302, "fclass": "fast_food", "name_left": null, "index_right": 0, "name_right": "Hanoi" }, "geometry": { "type": "Point", "coordinates": [ 105.8467851, 21.0382052 ] } },
{ "type": "Feature", "properties": { "osm_id": "7176652317", "code": 2302, "fclass": "fast_food", "name_left": "Savor", "index_right": 0, "name_right": "Hanoi" }, "geometry": { "type": "Point", "coordinates": [ 105.8447043, 21.0273594 ] } },
{ "type": "Feature", "properties": { "osm_id": "7176653676", "code": 2302, "fclass": "fast_food", "name_left": null, "index_right": 0, "name_right": "Hanoi" }, "geometry": { "type": "Point", "coordinates": [ 105.8495, 21.0292065 ] } },
{ "type": "Feature", "properties": { "osm_id": "7176671890", "code": 2302, "fclass": "fast_food", "name_left": null, "index_right": 0, "name_right": "Hanoi" }, "geometry": { "type": "Point", "coordinates": [ 105.8461814, 21.0372785 ] } },
{ "type": "Feature", "properties": { "osm_id": "7176888410", "code": 2302, "fclass": "fast_food", "name_left": "Saits", "index_right": 0, "name_right": "Hanoi" }, "geometry": { "type": "Point", "coordinates": [ 105.8507933, 21.0355093 ] } },
{ "type": "Feature", "properties": { "osm_id": "7178779615", "code": 2302, "fclass": "fast_food", "name_left": null, "index_right": 0, "name_right": "Hanoi" }, "geometry": { "type": "Point", "coordinates": [ 105.8744097, 21.1121993 ] } },
{ "type": "Feature", "properties": { "osm_id": "7178788659", "code": 2302, "fclass": "fast_food", "name_left": null, "index_right": 0, "name_right": "Hanoi" }, "geometry": { "type": "Point", "coordinates": [ 105.8533158, 21.0317463 ] } },
{ "type": "Feature", "properties": { "osm_id": "7178791517", "code": 2302, "fclass": "fast_food", "name_left": null, "index_right": 0, "name_right": "Hanoi" }, "geometry": { "type": "Point", "coordinates": [ 105.8745027, 21.1122032 ] } },
{ "type": "Feature", "properties": { "osm_id": "7178812279", "code": 2302, "fclass": "fast_food", "name_left": null, "index_right": 0, "name_right": "Hanoi" }, "geometry": { "type": "Point", "coordinates": [ 105.8774008, 21.110756 ] } },
{ "type": "Feature", "properties": { "osm_id": "7180029735", "code": 2302, "fclass": "fast_food", "name_left": null, "index_right": 0, "name_right": "Hanoi" }, "geometry": { "type": "Point", "coordinates": [ 105.8786929, 21.0511666 ] } },
{ "type": "Feature", "properties": { "osm_id": "7180044869", "code": 2302, "fclass": "fast_food", "name_left": null, "index_right": 0, "name_right": "Hanoi" }, "geometry": { "type": "Point", "coordinates": [ 105.8789303, 21.0512797 ] } },
{ "type": "Feature", "properties": { "osm_id": "7180053090", "code": 2302, "fclass": "fast_food", "name_left": null, "index_right": 0, "name_right": "Hanoi" }, "geometry": { "type": "Point", "coordinates": [ 105.8779062, 21.0509823 ] } },
{ "type": "Feature", "properties": { "osm_id": "7189825573", "code": 2302, "fclass": "fast_food", "name_left": "Tiem Banh Mi", "index_right": 0, "name_right": "Hanoi" }, "geometry": { "type": "Point", "coordinates": [ 105.8479124, 21.0354981 ] } },
{ "type": "Feature", "properties": { "osm_id": "7202784583", "code": 2302, "fclass": "fast_food", "name_left": null, "index_right": 0, "name_right": "Hanoi" }, "geometry": { "type": "Point", "coordinates": [ 105.8572438, 21.0279541 ] } },
{ "type": "Feature", "properties": { "osm_id": "7222198618", "code": 2302, "fclass": "fast_food", "name_left": "Domino's", "index_right": 0, "name_right": "Hanoi" }, "geometry": { "type": "Point", "coordinates": [ 105.8033361, 21.0677778 ] } },
{ "type": "Feature", "properties": { "osm_id": "7540706335", "code": 2302, "fclass": "fast_food", "name_left": "Cửa Hàng Bánh Crepe", "index_right": 0, "name_right": "Hanoi" }, "geometry": { "type": "Point", "coordinates": [ 105.8239961, 21.0410683 ] } },
{ "type": "Feature", "properties": { "osm_id": "7845431718", "code": 2302, "fclass": "fast_food", "name_left": "The Pizza Company", "index_right": 0, "name_right": "Hanoi" }, "geometry": { "type": "Point", "coordinates": [ 105.8253655, 20.9634342 ] } },
{ "type": "Feature", "properties": { "osm_id": "8334797840", "code": 2302, "fclass": "fast_food", "name_left": null, "index_right": 0, "name_right": "Hanoi" }, "geometry": { "type": "Point", "coordinates": [ 105.7726327, 21.071411 ] } },
{ "type": "Feature", "properties": { "osm_id": "8334797849", "code": 2302, "fclass": "fast_food", "name_left": null, "index_right": 0, "name_right": "Hanoi" }, "geometry": { "type": "Point", "coordinates": [ 105.7725682, 21.0713958 ] } },
{ "type": "Feature", "properties": { "osm_id": "8334822634", "code": 2302, "fclass": "fast_food", "name_left": null, "index_right": 0, "name_right": "Hanoi" }, "geometry": { "type": "Point", "coordinates": [ 105.7725185, 21.0713065 ] } },
{ "type": "Feature", "properties": { "osm_id": "8336901884", "code": 2302, "fclass": "fast_food", "name_left": "Cửa Hàng Bánh Mì Hẻm", "index_right": 0, "name_right": "Hanoi" }, "geometry": { "type": "Point", "coordinates": [ 105.7723646, 21.0747513 ] } },
{ "type": "Feature", "properties": { "osm_id": "8336903751", "code": 2302, "fclass": "fast_food", "name_left": null, "index_right": 0, "name_right": "Hanoi" }, "geometry": { "type": "Point", "coordinates": [ 105.7721595, 21.074583 ] } },
{ "type": "Feature", "properties": { "osm_id": "8337493384", "code": 2302, "fclass": "fast_food", "name_left": null, "index_right": 0, "name_right": "Hanoi" }, "geometry": { "type": "Point", "coordinates": [ 105.7734559, 21.074431 ] } },
{ "type": "Feature", "properties": { "osm_id": "8345973615", "code": 2302, "fclass": "fast_food", "name_left": "nhom6,T01-5, Quán Cô Phượng", "index_right": 0, "name_right": "Hanoi" }, "geometry": { "type": "Point", "coordinates": [ 105.7753657, 21.0776744 ] } },
{ "type": "Feature", "properties": { "osm_id": "8355126718", "code": 2302, "fclass": "fast_food", "name_left": null, "index_right": 0, "name_right": "Hanoi" }, "geometry": { "type": "Point", "coordinates": [ 105.7735721, 21.0747128 ] } },
{ "type": "Feature", "properties": { "osm_id": "8356652523", "code": 2302, "fclass": "fast_food", "name_left": null, "index_right": 0, "name_right": "Hanoi" }, "geometry": { "type": "Point", "coordinates": [ 105.7770527, 21.0709323 ] } },
{ "type": "Feature", "properties": { "osm_id": "8357571565", "code": 2302, "fclass": "fast_food", "name_left": null, "index_right": 0, "name_right": "Hanoi" }, "geometry": { "type": "Point", "coordinates": [ 105.7778823, 21.0697698 ] } },
{ "type": "Feature", "properties": { "osm_id": "8736185445", "code": 2302, "fclass": "fast_food", "name_left": "Sữa chua trân châu Hạ Long", "index_right": 0, "name_right": "Hanoi" }, "geometry": { "type": "Point", "coordinates": [ 105.8368598, 21.0295298 ] } },
{ "type": "Feature", "properties": { "osm_id": "9407362504", "code": 2302, "fclass": "fast_food", "name_left": "KFC", "index_right": 0, "name_right": "Hanoi" }, "geometry": { "type": "Point", "coordinates": [ 105.8092648, 21.0609976 ] } },
{ "type": "Feature", "properties": { "osm_id": "9683275500", "code": 2302, "fclass": "fast_food", "name_left": "KFC", "index_right": 0, "name_right": "Hanoi" }, "geometry": { "type": "Point", "coordinates": [ 105.8268338, 20.9678334 ] } },
{ "type": "Feature", "properties": { "osm_id": "9738784253", "code": 2302, "fclass": "fast_food", "name_left": "Texas Chicken", "index_right": 0, "name_right": "Hanoi" }, "geometry": { "type": "Point", "coordinates": [ 105.8253056, 20.9634304 ] } },
{ "type": "Feature", "properties": { "osm_id": "9757683708", "code": 2302, "fclass": "fast_food", "name_left": "Xôi Hiệp Hoà", "index_right": 0, "name_right": "Hanoi" }, "geometry": { "type": "Point", "coordinates": [ 105.819177, 21.0235582 ] } },
{ "type": "Feature", "properties": { "osm_id": "9931504435", "code": 2302, "fclass": "fast_food", "name_left": "Banh My Lanh Ong", "index_right": 0, "name_right": "Hanoi" }, "geometry": { "type": "Point", "coordinates": [ 105.8490747, 21.0358434 ] } },
{ "type": "Feature", "properties": { "osm_id": "9931517984", "code": 2302, "fclass": "fast_food", "name_left": "Bánh Mỳ Patê", "index_right": 0, "name_right": "Hanoi" }, "geometry": { "type": "Point", "coordinates": [ 105.8489545, 21.0360561 ] } },
{ "type": "Feature", "properties": { "osm_id": "9931517986", "code": 2302, "fclass": "fast_food", "name_left": "Lotteria", "index_right": 0, "name_right": "Hanoi" }, "geometry": { "type": "Point", "coordinates": [ 105.8473412, 21.0420852 ] } },
{ "type": "Feature", "properties": { "osm_id": "9931530712", "code": 2302, "fclass": "fast_food", "name_left": null, "index_right": 0, "name_right": "Hanoi" }, "geometry": { "type": "Point", "coordinates": [ 105.8545633, 21.0329284 ] } },
{ "type": "Feature", "properties": { "osm_id": "9931534611", "code": 2302, "fclass": "fast_food", "name_left": null, "index_right": 0, "name_right": "Hanoi" }, "geometry": { "type": "Point", "coordinates": [ 105.8471392, 21.0421768 ] } },
{ "type": "Feature", "properties": { "osm_id": "9931536195", "code": 2302, "fclass": "fast_food", "name_left": "Tuhu Bread", "index_right": 0, "name_right": "Hanoi" }, "geometry": { "type": "Point", "coordinates": [ 105.841452, 20.9960402 ] } },
{ "type": "Feature", "properties": { "osm_id": "9952062617", "code": 2302, "fclass": "fast_food", "name_left": "Burger King", "index_right": 0, "name_right": "Hanoi" }, "geometry": { "type": "Point", "coordinates": [ 105.7924025, 21.2180302 ] } },
{ "type": "Feature", "properties": { "osm_id": "9964447763", "code": 2302, "fclass": "fast_food", "name_left": "KFC", "index_right": 0, "name_right": "Hanoi" }, "geometry": { "type": "Point", "coordinates": [ 105.8489954, 21.0125624 ] } },
{ "type": "Feature", "properties": { "osm_id": "10098130619", "code": 2302, "fclass": "fast_food", "name_left": "Youone Hotdog", "index_right": 0, "name_right": "Hanoi" }, "geometry": { "type": "Point", "coordinates": [ 105.8282933, 21.0191363 ] } },
{ "type": "Feature", "properties": { "osm_id": "10098130620", "code": 2302, "fclass": "fast_food", "name_left": "Youone Hotdog", "index_right": 0, "name_right": "Hanoi" }, "geometry": { "type": "Point", "coordinates": [ 105.807599, 21.0226916 ] } },
{ "type": "Feature", "properties": { "osm_id": "10098130621", "code": 2302, "fclass": "fast_food", "name_left": "Youone Hotdog", "index_right": 0, "name_right": "Hanoi" }, "geometry": { "type": "Point", "coordinates": [ 105.8454858, 20.9979589 ] } },
{ "type": "Feature", "properties": { "osm_id": "10098130622", "code": 2302, "fclass": "fast_food", "name_left": "Youone Hotdog", "index_right": 0, "name_right": "Hanoi" }, "geometry": { "type": "Point", "coordinates": [ 105.7970406, 20.986858 ] } },
{ "type": "Feature", "properties": { "osm_id": "10166537621", "code": 2302, "fclass": "fast_food", "name_left": "Quán bánh mì", "index_right": 0, "name_right": "Hanoi" }, "geometry": { "type": "Point", "coordinates": [ 105.7616145, 21.0690047 ] } },
{ "type": "Feature", "properties": { "osm_id": "10166537627", "code": 2302, "fclass": "fast_food", "name_left": "Quán bánh mì", "index_right": 0, "name_right": "Hanoi" }, "geometry": { "type": "Point", "coordinates": [ 105.7615883, 21.0691008 ] } },
{ "type": "Feature", "properties": { "osm_id": "10166537633", "code": 2302, "fclass": "fast_food", "name_left": null, "index_right": 0, "name_right": "Hanoi" }, "geometry": { "type": "Point", "coordinates": [ 105.761702, 21.0670826 ] } },
{ "type": "Feature", "properties": { "osm_id": "10166537656", "code": 2302, "fclass": "fast_food", "name_left": null, "index_right": 0, "name_right": "Hanoi" }, "geometry": { "type": "Point", "coordinates": [ 105.7626171, 21.0650984 ] } },
{ "type": "Feature", "properties": { "osm_id": "10213826362", "code": 2302, "fclass": "fast_food", "name_left": "bánh mì sài gòn", "index_right": 0, "name_right": "Hanoi" }, "geometry": { "type": "Point", "coordinates": [ 105.7728536, 21.0798973 ] } },
{ "type": "Feature", "properties": { "osm_id": "10213906581", "code": 2302, "fclass": "fast_food", "name_left": "Cơm bình dân", "index_right": 0, "name_right": "Hanoi" }, "geometry": { "type": "Point", "coordinates": [ 105.7726549, 21.0808732 ] } },
{ "type": "Feature", "properties": { "osm_id": "10219253940", "code": 2302, "fclass": "fast_food", "name_left": "gà xù", "index_right": 0, "name_right": "Hanoi" }, "geometry": { "type": "Point", "coordinates": [ 105.7727044, 21.0813291 ] } },
{ "type": "Feature", "properties": { "osm_id": "10237641709", "code": 2302, "fclass": "fast_food", "name_left": null, "index_right": 0, "name_right": "Hanoi" }, "geometry": { "type": "Point", "coordinates": [ 105.8491119, 21.0359493 ] } },
{ "type": "Feature", "properties": { "osm_id": "10244042280", "code": 2302, "fclass": "fast_food", "name_left": null, "index_right": 0, "name_right": "Hanoi" }, "geometry": { "type": "Point", "coordinates": [ 105.7736771, 21.0733582 ] } },
{ "type": "Feature", "properties": { "osm_id": "10255708096", "code": 2302, "fclass": "fast_food", "name_left": "Giải Khát Thúy Hằng", "index_right": 0, "name_right": "Hanoi" }, "geometry": { "type": "Point", "coordinates": [ 105.7770682, 21.0707724 ] } },
{ "type": "Feature", "properties": { "osm_id": "10261572489", "code": 2302, "fclass": "fast_food", "name_left": null, "index_right": 0, "name_right": "Hanoi" }, "geometry": { "type": "Point", "coordinates": [ 105.7855193, 21.038763 ] } },
{ "type": "Feature", "properties": { "osm_id": "10261572490", "code": 2302, "fclass": "fast_food", "name_left": null, "index_right": 0, "name_right": "Hanoi" }, "geometry": { "type": "Point", "coordinates": [ 105.7854191, 21.0387648 ] } },
{ "type": "Feature", "properties": { "osm_id": "10262857805", "code": 2302, "fclass": "fast_food", "name_left": "Bún Chả Mỹ Độ", "index_right": 0, "name_right": "Hanoi" }, "geometry": { "type": "Point", "coordinates": [ 105.7733605, 21.0745531 ] } },
{ "type": "Feature", "properties": { "osm_id": "10293406415", "code": 2302, "fclass": "fast_food", "name_left": "Jollibee", "index_right": 0, "name_right": "Hanoi" }, "geometry": { "type": "Point", "coordinates": [ 105.8320491, 21.0062816 ] } },
{ "type": "Feature", "properties": { "osm_id": "10298553019", "code": 2302, "fclass": "fast_food", "name_left": "Bánh mì Trâm", "index_right": 0, "name_right": "Hanoi" }, "geometry": { "type": "Point", "coordinates": [ 105.8425041, 21.0282523 ] } },
{ "type": "Feature", "properties": { "osm_id": "10298693326", "code": 2302, "fclass": "fast_food", "name_left": "Hải Xệ", "index_right": 0, "name_right": "Hanoi" }, "geometry": { "type": "Point", "coordinates": [ 105.853869, 21.0348403 ] } },
{ "type": "Feature", "properties": { "osm_id": "10621408642", "code": 2302, "fclass": "fast_food", "name_left": "Lotteria", "index_right": 0, "name_right": "Hanoi" }, "geometry": { "type": "Point", "coordinates": [ 105.8128607, 21.03203 ] } },
{ "type": "Feature", "properties": { "osm_id": "10621408652", "code": 2302, "fclass": "fast_food", "name_left": "McDonald's", "index_right": 0, "name_right": "Hanoi" }, "geometry": { "type": "Point", "coordinates": [ 105.8679256, 20.9973267 ] } },
{ "type": "Feature", "properties": { "osm_id": "10648477405", "code": 2302, "fclass": "fast_food", "name_left": "Hậu Béo", "index_right": 0, "name_right": "Hanoi" }, "geometry": { "type": "Point", "coordinates": [ 105.8379513, 21.0522774 ] } },
{ "type": "Feature", "properties": { "osm_id": "10648787605", "code": 2302, "fclass": "fast_food", "name_left": "Bún đậu Thanh Hằng", "index_right": 0, "name_right": "Hanoi" }, "geometry": { "type": "Point", "coordinates": [ 105.8530997, 21.0361708 ] } },
{ "type": "Feature", "properties": { "osm_id": "10649495905", "code": 2302, "fclass": "fast_food", "name_left": "Bún đậu Thanh Hằng", "index_right": 0, "name_right": "Hanoi" }, "geometry": { "type": "Point", "coordinates": [ 105.8530509, 21.0361835 ] } },
{ "type": "Feature", "properties": { "osm_id": "10650885412", "code": 2302, "fclass": "fast_food", "name_left": "My vằn thắn sủi cảo", "index_right": 0, "name_right": "Hanoi" }, "geometry": { "type": "Point", "coordinates": [ 105.8506807, 21.0371597 ] } },
{ "type": "Feature", "properties": { "osm_id": "10651023006", "code": 2302, "fclass": "fast_food", "name_left": "Mỳ vằn thắn Bình Tây Phố", "index_right": 0, "name_right": "Hanoi" }, "geometry": { "type": "Point", "coordinates": [ 105.850796, 21.0371679 ] } },
{ "type": "Feature", "properties": { "osm_id": "10651024105", "code": 2302, "fclass": "fast_food", "name_left": "Bánh rán mật đường", "index_right": 0, "name_right": "Hanoi" }, "geometry": { "type": "Point", "coordinates": [ 105.8509197, 21.037222 ] } },
{ "type": "Feature", "properties": { "osm_id": "10653571405", "code": 2302, "fclass": "fast_food", "name_left": "Bún chả 17 Chương Dương Độ", "index_right": 0, "name_right": "Hanoi" }, "geometry": { "type": "Point", "coordinates": [ 105.8584464, 21.0295069 ] } },
{ "type": "Feature", "properties": { "osm_id": "10656829305", "code": 2302, "fclass": "fast_food", "name_left": "Đặc sản Bánh cuốn Cao Bằng", "index_right": 0, "name_right": "Hanoi" }, "geometry": { "type": "Point", "coordinates": [ 105.8187857, 21.0103866 ] } },
{ "type": "Feature", "properties": { "osm_id": "10669108706", "code": 2302, "fclass": "fast_food", "name_left": "Sữa chua thạch lá nếp", "index_right": 0, "name_right": "Hanoi" }, "geometry": { "type": "Point", "coordinates": [ 105.8520232, 21.0334506 ] } },
{ "type": "Feature", "properties": { "osm_id": "10674994906", "code": 2302, "fclass": "fast_food", "name_left": "Cháo sườn - Cháo trai", "index_right": 0, "name_right": "Hanoi" }, "geometry": { "type": "Point", "coordinates": [ 105.8314282, 21.0339335 ] } },
{ "type": "Feature", "properties": { "osm_id": "10783518305", "code": 2302, "fclass": "fast_food", "name_left": "Bánh Mì 25", "index_right": 0, "name_right": "Hanoi" }, "geometry": { "type": "Point", "coordinates": [ 105.8487212, 21.0361708 ] } },
{ "type": "Feature", "properties": { "osm_id": "10786488995", "code": 2302, "fclass": "fast_food", "name_left": "Bánh Mi Phó", "index_right": 0, "name_right": "Hanoi" }, "geometry": { "type": "Point", "coordinates": [ 105.8442852, 21.0192639 ] } },
{ "type": "Feature", "properties": { "osm_id": "10848035596", "code": 2302, "fclass": "fast_food", "name_left": null, "index_right": 0, "name_right": "Hanoi" }, "geometry": { "type": "Point", "coordinates": [ 105.8075047, 21.0485367 ] } },
{ "type": "Feature", "properties": { "osm_id": "10864082505", "code": 2302, "fclass": "fast_food", "name_left": null, "index_right": 0, "name_right": "Hanoi" }, "geometry": { "type": "Point", "coordinates": [ 105.8475014, 21.0305447 ] } },
{ "type": "Feature", "properties": { "osm_id": "10867382908", "code": 2302, "fclass": "fast_food", "name_left": null, "index_right": 0, "name_right": "Hanoi" }, "geometry": { "type": "Point", "coordinates": [ 105.8465227, 21.0227352 ] } },
{ "type": "Feature", "properties": { "osm_id": "10878512505", "code": 2302, "fclass": "fast_food", "name_left": null, "index_right": 0, "name_right": "Hanoi" }, "geometry": { "type": "Point", "coordinates": [ 105.8560246, 21.0241673 ] } },
{ "type": "Feature", "properties": { "osm_id": "10971395906", "code": 2302, "fclass": "fast_food", "name_left": null, "index_right": 0, "name_right": "Hanoi" }, "geometry": { "type": "Point", "coordinates": [ 105.8501171, 21.0369692 ] } },
{ "type": "Feature", "properties": { "osm_id": "11085187226", "code": 2302, "fclass": "fast_food", "name_left": "Chixmax", "index_right": 0, "name_right": "Hanoi" }, "geometry": { "type": "Point", "coordinates": [ 105.8126299, 21.0767353 ] } },
{ "type": "Feature", "properties": { "osm_id": "11169202588", "code": 2302, "fclass": "fast_food", "name_left": "Duck Food", "index_right": 0, "name_right": "Hanoi" }, "geometry": { "type": "Point", "coordinates": [ 105.7814979, 21.0660673 ] } },
{ "type": "Feature", "properties": { "osm_id": "11169410910", "code": 2302, "fclass": "fast_food", "name_left": null, "index_right": 0, "name_right": "Hanoi" }, "geometry": { "type": "Point", "coordinates": [ 105.7835879, 21.0580678 ] } },
{ "type": "Feature", "properties": { "osm_id": "11169410920", "code": 2302, "fclass": "fast_food", "name_left": null, "index_right": 0, "name_right": "Hanoi" }, "geometry": { "type": "Point", "coordinates": [ 105.7836804, 21.0578667 ] } },
{ "type": "Feature", "properties": { "osm_id": "11169410927", "code": 2302, "fclass": "fast_food", "name_left": null, "index_right": 0, "name_right": "Hanoi" }, "geometry": { "type": "Point", "coordinates": [ 105.7837795, 21.0571363 ] } },
{ "type": "Feature", "properties": { "osm_id": "11210458712", "code": 2302, "fclass": "fast_food", "name_left": null, "index_right": 0, "name_right": "Hanoi" }, "geometry": { "type": "Point", "coordinates": [ 105.7864574, 21.0467617 ] } },
{ "type": "Feature", "properties": { "osm_id": "11210458713", "code": 2302, "fclass": "fast_food", "name_left": null, "index_right": 0, "name_right": "Hanoi" }, "geometry": { "type": "Point", "coordinates": [ 105.7859402, 21.0498081 ] } },
{ "type": "Feature", "properties": { "osm_id": "11211967776", "code": 2302, "fclass": "fast_food", "name_left": null, "index_right": 0, "name_right": "Hanoi" }, "geometry": { "type": "Point", "coordinates": [ 105.7843668, 21.0484994 ] } },
{ "type": "Feature", "properties": { "osm_id": "11212149493", "code": 2302, "fclass": "fast_food", "name_left": "Bánh mì Phố", "index_right": 0, "name_right": "Hanoi" }, "geometry": { "type": "Point", "coordinates": [ 105.8360645, 21.0099118 ] } },
{ "type": "Feature", "properties": { "osm_id": "11212149509", "code": 2302, "fclass": "fast_food", "name_left": "Pate Cột Đèn", "index_right": 0, "name_right": "Hanoi" }, "geometry": { "type": "Point", "coordinates": [ 105.8354522, 21.0095012 ] } },
{ "type": "Feature", "properties": { "osm_id": "11212195515", "code": 2302, "fclass": "fast_food", "name_left": "KFC", "index_right": 0, "name_right": "Hanoi" }, "geometry": { "type": "Point", "coordinates": [ 105.834392, 21.0085009 ] } },
{ "type": "Feature", "properties": { "osm_id": "11212216794", "code": 2302, "fclass": "fast_food", "name_left": "Quạc Mía Mix", "index_right": 0, "name_right": "Hanoi" }, "geometry": { "type": "Point", "coordinates": [ 105.8348681, 21.0094016 ] } },
{ "type": "Feature", "properties": { "osm_id": "11212228033", "code": 2302, "fclass": "fast_food", "name_left": "Miele Pane", "index_right": 0, "name_right": "Hanoi" }, "geometry": { "type": "Point", "coordinates": [ 105.7842981, 21.0480921 ] } },
{ "type": "Feature", "properties": { "osm_id": "11212488927", "code": 2302, "fclass": "fast_food", "name_left": null, "index_right": 0, "name_right": "Hanoi" }, "geometry": { "type": "Point", "coordinates": [ 105.7823256, 21.0487099 ] } },
{ "type": "Feature", "properties": { "osm_id": "11215223949", "code": 2302, "fclass": "fast_food", "name_left": null, "index_right": 0, "name_right": "Hanoi" }, "geometry": { "type": "Point", "coordinates": [ 105.7842861, 21.0465128 ] } },
{ "type": "Feature", "properties": { "osm_id": "11217641978", "code": 2302, "fclass": "fast_food", "name_left": "Bánh mì Anh Tuấn", "index_right": 0, "name_right": "Hanoi" }, "geometry": { "type": "Point", "coordinates": [ 105.8323414, 21.0127468 ] } },
{ "type": "Feature", "properties": { "osm_id": "11219294712", "code": 2302, "fclass": "fast_food", "name_left": null, "index_right": 0, "name_right": "Hanoi" }, "geometry": { "type": "Point", "coordinates": [ 105.7818211, 21.0490837 ] } },
{ "type": "Feature", "properties": { "osm_id": "11237992813", "code": 2302, "fclass": "fast_food", "name_left": "KFC", "index_right": 0, "name_right": "Hanoi" }, "geometry": { "type": "Point", "coordinates": [ 105.7947443, 21.0466066 ] } },
{ "type": "Feature", "properties": { "osm_id": "11301620121", "code": 2302, "fclass": "fast_food", "name_left": "Hà Thành Cháo Sườn Sụn", "index_right": 0, "name_right": "Hanoi" }, "geometry": { "type": "Point", "coordinates": [ 105.8340057, 21.0147368 ] } },
{ "type": "Feature", "properties": { "osm_id": "11335544623", "code": 2302, "fclass": "fast_food", "name_left": "Popeyes", "index_right": 0, "name_right": "Hanoi" }, "geometry": { "type": "Point", "coordinates": [ 105.8463038, 21.0019966 ] } },
{ "type": "Feature", "properties": { "osm_id": "11360043569", "code": 2302, "fclass": "fast_food", "name_left": "Banh Mi", "index_right": 0, "name_right": "Hanoi" }, "geometry": { "type": "Point", "coordinates": [ 105.847909, 20.9906068 ] } },
{ "type": "Feature", "properties": { "osm_id": "11411581952", "code": 2302, "fclass": "fast_food", "name_left": "Domino's", "index_right": 0, "name_right": "Hanoi" }, "geometry": { "type": "Point", "coordinates": [ 105.8512101, 21.0322103 ] } },
{ "type": "Feature", "properties": { "osm_id": "11419728541", "code": 2302, "fclass": "fast_food", "name_left": null, "index_right": 0, "name_right": "Hanoi" }, "geometry": { "type": "Point", "coordinates": [ 105.86096, 21.0176947 ] } },
{ "type": "Feature", "properties": { "osm_id": "11482387880", "code": 2302, "fclass": "fast_food", "name_left": "AnAn Juice House", "index_right": 0, "name_right": "Hanoi" }, "geometry": { "type": "Point", "coordinates": [ 105.8492832, 21.0128073 ] } },
{ "type": "Feature", "properties": { "osm_id": "11486942533", "code": 2302, "fclass": "fast_food", "name_left": "Bánh Mỳ Pate Cô Thu", "index_right": 0, "name_right": "Hanoi" }, "geometry": { "type": "Point", "coordinates": [ 105.8499616, 21.0149988 ] } },
{ "type": "Feature", "properties": { "osm_id": "11521920506", "code": 2302, "fclass": "fast_food", "name_left": "JOTAKO", "index_right": 0, "name_right": "Hanoi" }, "geometry": { "type": "Point", "coordinates": [ 105.8106272, 21.0349277 ] } },
{ "type": "Feature", "properties": { "osm_id": "11534643043", "code": 2302, "fclass": "fast_food", "name_left": "Lạ Dessert", "index_right": 0, "name_right": "Hanoi" }, "geometry": { "type": "Point", "coordinates": [ 105.849713, 21.0135678 ] } },
{ "type": "Feature", "properties": { "osm_id": "11534643046", "code": 2302, "fclass": "fast_food", "name_left": "Hudu Sweet", "index_right": 0, "name_right": "Hanoi" }, "geometry": { "type": "Point", "coordinates": [ 105.8497454, 21.0139689 ] } },
{ "type": "Feature", "properties": { "osm_id": "11564316618", "code": 2302, "fclass": "fast_food", "name_left": "ROHI", "index_right": 0, "name_right": "Hanoi" }, "geometry": { "type": "Point", "coordinates": [ 105.7847485, 21.0449225 ] } },
{ "type": "Feature", "properties": { "osm_id": "11569613664", "code": 2302, "fclass": "fast_food", "name_left": "Sữa chua Trân châu Hạ Long", "index_right": 0, "name_right": "Hanoi" }, "geometry": { "type": "Point", "coordinates": [ 105.7854563, 21.0426975 ] } },
{ "type": "Feature", "properties": { "osm_id": "11572142327", "code": 2302, "fclass": "fast_food", "name_left": "Bánh mì Du mục", "index_right": 0, "name_right": "Hanoi" }, "geometry": { "type": "Point", "coordinates": [ 105.786364, 21.041799 ] } },
{ "type": "Feature", "properties": { "osm_id": "11586961137", "code": 2302, "fclass": "fast_food", "name_left": null, "index_right": 0, "name_right": "Hanoi" }, "geometry": { "type": "Point", "coordinates": [ 105.7876895, 21.0422537 ] } },
{ "type": "Feature", "properties": { "osm_id": "11591740426", "code": 2302, "fclass": "fast_food", "name_left": "Bánh Mỳ Ngon", "index_right": 0, "name_right": "Hanoi" }, "geometry": { "type": "Point", "coordinates": [ 105.8493101, 21.0153622 ] } },
{ "type": "Feature", "properties": { "osm_id": "11613547709", "code": 2302, "fclass": "fast_food", "name_left": "Binbo", "index_right": 0, "name_right": "Hanoi" }, "geometry": { "type": "Point", "coordinates": [ 105.8503398, 21.0153795 ] } },
{ "type": "Feature", "properties": { "osm_id": "11617459419", "code": 2302, "fclass": "fast_food", "name_left": "Ydo!", "index_right": 0, "name_right": "Hanoi" }, "geometry": { "type": "Point", "coordinates": [ 105.7824219, 21.040598 ] } },
{ "type": "Feature", "properties": { "osm_id": "11618566518", "code": 2302, "fclass": "fast_food", "name_left": "Quầy ăn nhanh Bảo Sơn", "index_right": 0, "name_right": "Hanoi" }, "geometry": { "type": "Point", "coordinates": [ 105.7822314, 21.0380146 ] } },
{ "type": "Feature", "properties": { "osm_id": "11618566519", "code": 2302, "fclass": "fast_food", "name_left": "Rubic 8", "index_right": 0, "name_right": "Hanoi" }, "geometry": { "type": "Point", "coordinates": [ 105.7822298, 21.0379537 ] } },
{ "type": "Feature", "properties": { "osm_id": "11618566533", "code": 2302, "fclass": "fast_food", "name_left": "Trường Sa Quán", "index_right": 0, "name_right": "Hanoi" }, "geometry": { "type": "Point", "coordinates": [ 105.7822375, 21.0382063 ] } },
{ "type": "Feature", "properties": { "osm_id": "11618650230", "code": 2302, "fclass": "fast_food", "name_left": "Bánh mì A Phúc", "index_right": 0, "name_right": "Hanoi" }, "geometry": { "type": "Point", "coordinates": [ 105.78253, 21.0368634 ] } },
{ "type": "Feature", "properties": { "osm_id": "11618650231", "code": 2302, "fclass": "fast_food", "name_left": null, "index_right": 0, "name_right": "Hanoi" }, "geometry": { "type": "Point", "coordinates": [ 105.7826258, 21.0368612 ] } },
{ "type": "Feature", "properties": { "osm_id": "11618650236", "code": 2302, "fclass": "fast_food", "name_left": "Fresh Garden", "index_right": 0, "name_right": "Hanoi" }, "geometry": { "type": "Point", "coordinates": [ 105.7835532, 21.0368559 ] } },
{ "type": "Feature", "properties": { "osm_id": "11652768539", "code": 2302, "fclass": "fast_food", "name_left": "Bánh mì Bà Tại - Ăn là nhớ", "index_right": 0, "name_right": "Hanoi" }, "geometry": { "type": "Point", "coordinates": [ 105.8734073, 20.9986229 ] } },
{ "type": "Feature", "properties": { "osm_id": "11652991633", "code": 2302, "fclass": "fast_food", "name_left": "Mr. Kebab", "index_right": 0, "name_right": "Hanoi" }, "geometry": { "type": "Point", "coordinates": [ 105.852044, 21.0352621 ] } },
{ "type": "Feature", "properties": { "osm_id": "11653040776", "code": 2302, "fclass": "fast_food", "name_left": "Donar Kebab Antony", "index_right": 0, "name_right": "Hanoi" }, "geometry": { "type": "Point", "coordinates": [ 105.8506815, 21.0167367 ] } },
{ "type": "Feature", "properties": { "osm_id": "11655061818", "code": 2302, "fclass": "fast_food", "name_left": "Popeyes", "index_right": 0, "name_right": "Hanoi" }, "geometry": { "type": "Point", "coordinates": [ 105.786802, 21.0414696 ] } },
{ "type": "Feature", "properties": { "osm_id": "11655341876", "code": 2302, "fclass": "fast_food", "name_left": "Bamichao", "index_right": 0, "name_right": "Hanoi" }, "geometry": { "type": "Point", "coordinates": [ 105.8519093, 21.0376407 ] } },
{ "type": "Feature", "properties": { "osm_id": "11655877372", "code": 2302, "fclass": "fast_food", "name_left": "Căng-tin", "index_right": 0, "name_right": "Hanoi" }, "geometry": { "type": "Point", "coordinates": [ 105.8443934, 21.0004563 ] } },
{ "type": "Feature", "properties": { "osm_id": "11662204174", "code": 2302, "fclass": "fast_food", "name_left": "Bảo Vy", "index_right": 0, "name_right": "Hanoi" }, "geometry": { "type": "Point", "coordinates": [ 105.8496904, 21.0105031 ] } },
{ "type": "Feature", "properties": { "osm_id": "11662252388", "code": 2302, "fclass": "fast_food", "name_left": "Banhmi Station", "index_right": 0, "name_right": "Hanoi" }, "geometry": { "type": "Point", "coordinates": [ 105.8528316, 21.0360208 ] } },
{ "type": "Feature", "properties": { "osm_id": "11671738915", "code": 2302, "fclass": "fast_food", "name_left": "Hanoi Bami", "index_right": 0, "name_right": "Hanoi" }, "geometry": { "type": "Point", "coordinates": [ 105.8500795, 21.0363843 ] } },
{ "type": "Feature", "properties": { "osm_id": "11671757252", "code": 2302, "fclass": "fast_food", "name_left": "Chicken Zozo", "index_right": 0, "name_right": "Hanoi" }, "geometry": { "type": "Point", "coordinates": [ 105.8518793, 21.0365653 ] } },
{ "type": "Feature", "properties": { "osm_id": "11671757415", "code": 2302, "fclass": "fast_food", "name_left": "Briques", "index_right": 0, "name_right": "Hanoi" }, "geometry": { "type": "Point", "coordinates": [ 105.8504263, 21.0362758 ] } },
{ "type": "Feature", "properties": { "osm_id": "11672789769", "code": 2302, "fclass": "fast_food", "name_left": "Nga Bánh Chuối Bánh Khoai", "index_right": 0, "name_right": "Hanoi" }, "geometry": { "type": "Point", "coordinates": [ 105.8470228, 21.0337055 ] } },
{ "type": "Feature", "properties": { "osm_id": "11672848991", "code": 2302, "fclass": "fast_food", "name_left": "Bánh Mì Giò Chả Dũng Hạnh", "index_right": 0, "name_right": "Hanoi" }, "geometry": { "type": "Point", "coordinates": [ 105.8500823, 21.0098397 ] } },
{ "type": "Feature", "properties": { "osm_id": "11675985416", "code": 2302, "fclass": "fast_food", "name_left": "Dung Hoà", "index_right": 0, "name_right": "Hanoi" }, "geometry": { "type": "Point", "coordinates": [ 105.8470342, 21.0393511 ] } },
{ "type": "Feature", "properties": { "osm_id": "11675985417", "code": 2302, "fclass": "fast_food", "name_left": "Mộng Cook", "index_right": 0, "name_right": "Hanoi" }, "geometry": { "type": "Point", "coordinates": [ 105.84703, 21.0393181 ] } },
{ "type": "Feature", "properties": { "osm_id": "11675985421", "code": 2302, "fclass": "fast_food", "name_left": "Cửa hàng Mai Phương", "index_right": 0, "name_right": "Hanoi" }, "geometry": { "type": "Point", "coordinates": [ 105.8470376, 21.0392001 ] } },
{ "type": "Feature", "properties": { "osm_id": "11683982786", "code": 2302, "fclass": "fast_food", "name_left": "Bò khô Phương Dung", "index_right": 0, "name_right": "Hanoi" }, "geometry": { "type": "Point", "coordinates": [ 105.8478477, 21.0395747 ] } },
{ "type": "Feature", "properties": { "osm_id": "11683982790", "code": 2302, "fclass": "fast_food", "name_left": "Bò khô Hiệu 22", "index_right": 0, "name_right": "Hanoi" }, "geometry": { "type": "Point", "coordinates": [ 105.847899, 21.0394512 ] } },
{ "type": "Feature", "properties": { "osm_id": "11683982791", "code": 2302, "fclass": "fast_food", "name_left": "Bò khô Mỹ Hương", "index_right": 0, "name_right": "Hanoi" }, "geometry": { "type": "Point", "coordinates": [ 105.8479131, 21.0394173 ] } },
{ "type": "Feature", "properties": { "osm_id": "11683982793", "code": 2302, "fclass": "fast_food", "name_left": "Quẩy Tuyết", "index_right": 0, "name_right": "Hanoi" }, "geometry": { "type": "Point", "coordinates": [ 105.8479539, 21.0393191 ] } },
{ "type": "Feature", "properties": { "osm_id": "11793346971", "code": 2302, "fclass": "fast_food", "name_left": null, "index_right": 0, "name_right": "Hanoi" }, "geometry": { "type": "Point", "coordinates": [ 105.8507444, 21.0341476 ] } },
{ "type": "Feature", "properties": { "osm_id": "11799743443", "code": 2302, "fclass": "fast_food", "name_left": "Lotteria", "index_right": 0, "name_right": "Hanoi" }, "geometry": { "type": "Point", "coordinates": [ 105.8219357, 21.0310128 ] } },
{ "type": "Feature", "properties": { "osm_id": "11829544969", "code": 2302, "fclass": "fast_food", "name_left": "Bami King", "index_right": 0, "name_right": "Hanoi" }, "geometry": { "type": "Point", "coordinates": [ 105.8455651, 21.0405527 ] } },
{ "type": "Feature", "properties": { "osm_id": "11867796889", "code": 2302, "fclass": "fast_food", "name_left": "Burger King", "index_right": 0, "name_right": "Hanoi" }, "geometry": { "type": "Point", "coordinates": [ 105.8041974, 21.2149786 ] } },
{ "type": "Feature", "properties": { "osm_id": "11868094969", "code": 2302, "fclass": "fast_food", "name_left": "Vegan Ph", "index_right": 0, "name_right": "Hanoi" }, "geometry": { "type": "Point", "coordinates": [ 105.8447085, 21.0241889 ] } },
{ "type": "Feature", "properties": { "osm_id": "11873275169", "code": 2302, "fclass": "fast_food", "name_left": "Quán Chay An Binh", "index_right": 0, "name_right": "Hanoi" }, "geometry": { "type": "Point", "coordinates": [ 105.8573028, 21.0204415 ] } },
{ "type": "Feature", "properties": { "osm_id": "11929860879", "code": 2302, "fclass": "fast_food", "name_left": "Lotteria", "index_right": 0, "name_right": "Hanoi" }, "geometry": { "type": "Point", "coordinates": [ 105.8087662, 21.0592925 ] } },
{ "type": "Feature", "properties": { "osm_id": "12086810588", "code": 2302, "fclass": "fast_food", "name_left": "Nhà hàng Hoa Lư", "index_right": 0, "name_right": "Hanoi" }, "geometry": { "type": "Point", "coordinates": [ 105.8319808, 21.035114 ] } },
{ "type": "Feature", "properties": { "osm_id": "12104684986", "code": 2302, "fclass": "fast_food", "name_left": "Bánh Mì Phố Huế", "index_right": 0, "name_right": "Hanoi" }, "geometry": { "type": "Point", "coordinates": [ 105.8512368, 21.0161197 ] } },
{ "type": "Feature", "properties": { "osm_id": "12118199551", "code": 2302, "fclass": "fast_food", "name_left": "McDonald's", "index_right": 0, "name_right": "Hanoi" }, "geometry": { "type": "Point", "coordinates": [ 105.7823807, 21.035716 ] } },
{ "type": "Feature", "properties": { "osm_id": "12164856801", "code": 2302, "fclass": "fast_food", "name_left": "Lotteria", "index_right": 0, "name_right": "Hanoi" }, "geometry": { "type": "Point", "coordinates": [ 105.8491278, 21.0171195 ] } },
{ "type": "Feature", "properties": { "osm_id": "12213572601", "code": 2302, "fclass": "fast_food", "name_left": "PHỞ BÒ - CƠM RANG - BÚN BÒ HUẾ", "index_right": 0, "name_right": "Hanoi" }, "geometry": { "type": "Point", "coordinates": [ 105.801918, 21.0232121 ] } },
{ "type": "Feature", "properties": { "osm_id": "12277048843", "code": 2302, "fclass": "fast_food", "name_left": "Lotteria", "index_right": 0, "name_right": "Hanoi" }, "geometry": { "type": "Point", "coordinates": [ 105.7839788, 21.0168253 ] } },
{ "type": "Feature", "properties": { "osm_id": "12287492382", "code": 2302, "fclass": "fast_food", "name_left": "Marugame Udon", "index_right": 0, "name_right": "Hanoi" }, "geometry": { "type": "Point", "coordinates": [ 105.8133716, 21.0765181 ] } },
{ "type": "Feature", "properties": { "osm_id": "12287492384", "code": 2302, "fclass": "fast_food", "name_left": "Lotteria", "index_right": 0, "name_right": "Hanoi" }, "geometry": { "type": "Point", "coordinates": [ 105.8124769, 21.0756278 ] } },
{ "type": "Feature", "properties": { "osm_id": "12328253201", "code": 2302, "fclass": "fast_food", "name_left": "Unique Bread", "index_right": 0, "name_right": "Hanoi" }, "geometry": { "type": "Point", "coordinates": [ 105.8414582, 21.0457193 ] } },
{ "type": "Feature", "properties": { "osm_id": "12331430862", "code": 2302, "fclass": "fast_food", "name_left": "KFC", "index_right": 0, "name_right": "Hanoi" }, "geometry": { "type": "Point", "coordinates": [ 105.7936444, 21.007247 ] } },
{ "type": "Feature", "properties": { "osm_id": "12495759251", "code": 2302, "fclass": "fast_food", "name_left": "Canteen", "index_right": 0, "name_right": "Hanoi" }, "geometry": { "type": "Point", "coordinates": [ 105.8002523, 21.0171734 ] } },
{ "type": "Feature", "properties": { "osm_id": "12538794702", "code": 2302, "fclass": "fast_food", "name_left": "Bamboo Fast Food", "index_right": 0, "name_right": "Hanoi" }, "geometry": { "type": "Point", "coordinates": [ 105.7892888, 21.2193101 ] } },
{ "type": "Feature", "properties": { "osm_id": "12540668604", "code": 2302, "fclass": "fast_food", "name_left": "Popeyes", "index_right": 0, "name_right": "Hanoi" }, "geometry": { "type": "Point", "coordinates": [ 105.7945395, 21.2178263 ] } },
{ "type": "Feature", "properties": { "osm_id": "12540668703", "code": 2302, "fclass": "fast_food", "name_left": "Burger King", "index_right": 0, "name_right": "Hanoi" }, "geometry": { "type": "Point", "coordinates": [ 105.7911759, 21.2187685 ] } },
{ "type": "Feature", "properties": { "osm_id": "12555926213", "code": 2302, "fclass": "fast_food", "name_left": "Quan Gocda", "index_right": 0, "name_right": "Hanoi" }, "geometry": { "type": "Point", "coordinates": [ 105.8492472, 21.0295682 ] } },
{ "type": "Feature", "properties": { "osm_id": "12589868466", "code": 2302, "fclass": "fast_food", "name_left": "Texas Chicken", "index_right": 0, "name_right": "Hanoi" }, "geometry": { "type": "Point", "coordinates": [ 105.7862738, 21.036987 ] } },
{ "type": "Feature", "properties": { "osm_id": "12645523678", "code": 2302, "fclass": "fast_food", "name_left": "Lim Donuts", "index_right": 0, "name_right": "Hanoi" }, "geometry": { "type": "Point", "coordinates": [ 105.7958901, 21.0425622 ] } },
{ "type": "Feature", "properties": { "osm_id": "12658029901", "code": 2302, "fclass": "fast_food", "name_left": null, "index_right": 0, "name_right": "Hanoi" }, "geometry": { "type": "Point", "coordinates": [ 105.8401528, 21.0510413 ] } },
{ "type": "Feature", "properties": { "osm_id": "12686254101", "code": 2302, "fclass": "fast_food", "name_left": "Com Phu Quynh", "index_right": 0, "name_right": "Hanoi" }, "geometry": { "type": "Point", "coordinates": [ 105.83699, 21.0623705 ] } },
{ "type": "Feature", "properties": { "osm_id": "12823270593", "code": 2302, "fclass": "fast_food", "name_left": "Lotteria", "index_right": 0, "name_right": "Hanoi" }, "geometry": { "type": "Point", "coordinates": [ 105.8599511, 20.866666 ] } },
{ "type": "Feature", "properties": { "osm_id": "13039561897", "code": 2302, "fclass": "fast_food", "name_left": null, "index_right": 0, "name_right": "Hanoi" }, "geometry": { "type": "Point", "coordinates": [ 105.8392157, 21.0217314 ] } },
{ "type": "Feature", "properties": { "osm_id": "13169500606", "code": 2302, "fclass": "fast_food", "name_left": "Bonbagu vegan", "index_right": 0, "name_right": "Hanoi" }, "geometry": { "type": "Point", "coordinates": [ 105.8478204, 21.0343303 ] } },
{ "type": "Feature", "properties": { "osm_id": "13264733257", "code": 2302, "fclass": "fast_food", "name_left": "Kimbap Cafe", "index_right": 0, "name_right": "Hanoi" }, "geometry": { "type": "Point", "coordinates": [ 105.7939194, 21.0043719 ] } },
{ "type": "Feature", "properties": { "osm_id": "13266767124", "code": 2302, "fclass": "fast_food", "name_left": "Long Vi Dung - Gia Truyen", "index_right": 0, "name_right": "Hanoi" }, "geometry": { "type": "Point", "coordinates": [ 105.8532376, 21.0321215 ] } },
{ "type": "Feature", "properties": { "osm_id": "13266909348", "code": 2302, "fclass": "fast_food", "name_left": "The Ramen Mafia", "index_right": 0, "name_right": "Hanoi" }, "geometry": { "type": "Point", "coordinates": [ 105.8119135, 21.0184691 ] } },
{ "type": "Feature", "properties": { "osm_id": "13267116901", "code": 2302, "fclass": "fast_food", "name_left": "Bia 10000d.", "index_right": 0, "name_right": "Hanoi" }, "geometry": { "type": "Point", "coordinates": [ 105.8524892, 21.0347551 ] } },
{ "type": "Feature", "properties": { "osm_id": "13284285485", "code": 2302, "fclass": "fast_food", "name_left": "Lucky Café & Fastfood", "index_right": 0, "name_right": "Hanoi" }, "geometry": { "type": "Point", "coordinates": [ 105.8037581, 21.2138773 ] } },
{ "type": "Feature", "properties": { "osm_id": "13284316426", "code": 2302, "fclass": "fast_food", "name_left": "Big Bowl", "index_right": 0, "name_right": "Hanoi" }, "geometry": { "type": "Point", "coordinates": [ 105.8040664, 21.2139299 ] } },
{ "type": "Feature", "properties": { "osm_id": "13284316427", "code": 2302, "fclass": "fast_food", "name_left": "Louis", "index_right": 0, "name_right": "Hanoi" }, "geometry": { "type": "Point", "coordinates": [ 105.8042319, 21.2141442 ] } },
{ "type": "Feature", "properties": { "osm_id": "13284316430", "code": 2302, "fclass": "fast_food", "name_left": "Memos", "index_right": 0, "name_right": "Hanoi" }, "geometry": { "type": "Point", "coordinates": [ 105.8042978, 21.2137973 ] } },
{ "type": "Feature", "properties": { "osm_id": "13284316431", "code": 2302, "fclass": "fast_food", "name_left": "Hoa Anh", "index_right": 0, "name_right": "Hanoi" }, "geometry": { "type": "Point", "coordinates": [ 105.8040922, 21.2136237 ] } },
{ "type": "Feature", "properties": { "osm_id": "13390301201", "code": 2302, "fclass": "fast_food", "name_left": null, "index_right": 0, "name_right": "Hanoi" }, "geometry": { "type": "Point", "coordinates": [ 105.8471806, 21.0379497 ] } },
{ "type": "Feature", "properties": { "osm_id": "13391091702", "code": 2302, "fclass": "fast_food", "name_left": "Mom's", "index_right": 0, "name_right": "Hanoi" }, "geometry": { "type": "Point", "coordinates": [ 105.8464835, 21.0337114 ] } },
{ "type": "Feature", "properties": { "osm_id": "13394421701", "code": 2302, "fclass": "fast_food", "name_left": null, "index_right": 0, "name_right": "Hanoi" }, "geometry": { "type": "Point", "coordinates": [ 105.8540729, 21.0349961 ] } },
{ "type": "Feature", "properties": { "osm_id": "13413376902", "code": 2302, "fclass": "fast_food", "name_left": "Bánh mì 33", "index_right": 0, "name_right": "Hanoi" }, "geometry": { "type": "Point", "coordinates": [ 105.8518421, 21.0324243 ] } },
{ "type": "Feature", "properties": { "osm_id": "13415150801", "code": 2302, "fclass": "fast_food", "name_left": "Bánh mì", "index_right": 0, "name_right": "Hanoi" }, "geometry": { "type": "Point", "coordinates": [ 105.8470865, 21.0349713 ] } },
{ "type": "Feature", "properties": { "osm_id": "13459713601", "code": 2302, "fclass": "fast_food", "name_left": "Bánh Mì 17", "index_right": 0, "name_right": "Hanoi" }, "geometry": { "type": "Point", "coordinates": [ 105.852437, 21.0360266 ] } },
{ "type": "Feature", "properties": { "osm_id": "13479188547", "code": 2302, "fclass": "fast_food", "name_left": "Bánh Rán Cô Huế", "index_right": 0, "name_right": "Hanoi" }, "geometry": { "type": "Point", "coordinates": [ 105.8661271, 21.0465963 ] } },
{ "type": "Feature", "properties": { "osm_id": "13516278101", "code": 2302, "fclass": "fast_food", "name_left": null, "index_right": 0, "name_right": "Hanoi" }, "geometry": { "type": "Point", "coordinates": [ 105.8391307, 21.0281356 ] } },
{ "type": "Feature", "properties": { "osm_id": "13531364501", "code": 2302, "fclass": "fast_food", "name_left": "Bánh Mì ơi", "index_right": 0, "name_right": "Hanoi" }, "geometry": { "type": "Point", "coordinates": [ 105.8479828, 21.0342579 ] } },
{ "type": "Feature", "properties": { "osm_id": "13580421901", "code": 2302, "fclass": "fast_food", "name_left": "Chops", "index_right": 0, "name_right": "Hanoi" }, "geometry": { "type": "Point", "coordinates": [ 105.8292798, 21.0626967 ] } },
{ "type": "Feature", "properties": { "osm_id": "13605453003", "code": 2302, "fclass": "fast_food", "name_left": "Banh doner", "index_right": 0, "name_right": "Hanoi" }, "geometry": { "type": "Point", "coordinates": [ 105.8416714, 21.0172883 ] } },
{ "type": "Feature", "properties": { "osm_id": "13605534101", "code": 2302, "fclass": "fast_food", "name_left": "Bami king", "index_right": 0, "name_right": "Hanoi" }, "geometry": { "type": "Point", "coordinates": [ 105.8412408, 21.0180591 ] } },
{ "type": "Feature", "properties": { "osm_id": "13608814601", "code": 2302, "fclass": "fast_food", "name_left": "Pizza via he", "index_right": 0, "name_right": "Hanoi" }, "geometry": { "type": "Point", "coordinates": [ 105.8444985, 21.0323294 ] } },
{ "type": "Feature", "properties": { "osm_id": "13611818006", "code": 2302, "fclass": "fast_food", "name_left": "FIVE STAR (Fried chicken, Ga Ran)", "index_right": 0, "name_right": "Hanoi" }, "geometry": { "type": "Point", "coordinates": [ 105.8946658, 21.0610666 ] } },
{ "type": "Feature", "properties": { "osm_id": "13619626204", "code": 2302, "fclass": "fast_food", "name_left": "Fried chicken", "index_right": 0, "name_right": "Hanoi" }, "geometry": { "type": "Point", "coordinates": [ 105.8776546, 21.0534399 ] } },
{ "type": "Feature", "properties": { "osm_id": "13619633802", "code": 2302, "fclass": "fast_food", "name_left": "Banh mi & Tea", "index_right": 0, "name_right": "Hanoi" }, "geometry": { "type": "Point", "coordinates": [ 105.8771497, 21.0536691 ] } },
{ "type": "Feature", "properties": { "osm_id": "13619843501", "code": 2302, "fclass": "fast_food", "name_left": "Fried chicken", "index_right": 0, "name_right": "Hanoi" }, "geometry": { "type": "Point", "coordinates": [ 105.8776262, 21.0508012 ] } },
{ "type": "Feature", "properties": { "osm_id": "13635826401", "code": 2302, "fclass": "fast_food", "name_left": "Bánh mì chè sầu Cô Xuân", "index_right": 0, "name_right": "Hanoi" }, "geometry": { "type": "Point", "coordinates": [ 105.8019661, 21.0143576 ] } },
{ "type": "Feature", "properties": { "osm_id": "13640024701", "code": 2302, "fclass": "fast_food", "name_left": "Bánh MÌ Sài Gòn", "index_right": 0, "name_right": "Hanoi" }, "geometry": { "type": "Point", "coordinates": [ 105.8033308, 21.0162986 ] } },
{ "type": "Feature", "properties": { "osm_id": "13645114301", "code": 2302, "fclass": "fast_food", "name_left": "Jollibee", "index_right": 0, "name_right": "Hanoi" }, "geometry": { "type": "Point", "coordinates": [ 105.8013287, 21.0151277 ] } },
{ "type": "Feature", "properties": { "osm_id": "13647798301", "code": 2302, "fclass": "fast_food", "name_left": "Bánh Mì Như Hoa", "index_right": 0, "name_right": "Hanoi" }, "geometry": { "type": "Point", "coordinates": [ 105.8544321, 21.0330825 ] } },
{ "type": "Feature", "properties": { "osm_id": "13651666401", "code": 2302, "fclass": "fast_food", "name_left": "Chã - Coffee, Banh Mi, Juice, Beer, Vegetarian Food", "index_right": 0, "name_right": "Hanoi" }, "geometry": { "type": "Point", "coordinates": [ 105.8415046, 21.0244521 ] } },
{ "type": "Feature", "properties": { "osm_id": "13654191001", "code": 2302, "fclass": "fast_food", "name_left": "Ban Xeo", "index_right": 0, "name_right": "Hanoi" }, "geometry": { "type": "Point", "coordinates": [ 105.7977704, 21.032184 ] } },
{ "type": "Feature", "properties": { "osm_id": "13658260801", "code": 2302, "fclass": "fast_food", "name_left": "Bánh Mì Hải Phòng", "index_right": 0, "name_right": "Hanoi" }, "geometry": { "type": "Point", "coordinates": [ 105.801741, 21.016469 ] } },
{ "type": "Feature", "properties": { "osm_id": "13664368901", "code": 2302, "fclass": "fast_food", "name_left": "Banh Mi Vendor", "index_right": 0, "name_right": "Hanoi" }, "geometry": { "type": "Point", "coordinates": [ 105.7986215, 21.0173077 ] } },
{ "type": "Feature", "properties": { "osm_id": "13686437298", "code": 2302, "fclass": "fast_food", "name_left": null, "index_right": 0, "name_right": "Hanoi" }, "geometry": { "type": "Point", "coordinates": [ 105.8110019, 21.0196265 ] } },
{ "type": "Feature", "properties": { "osm_id": "13686504537", "code": 2302, "fclass": "fast_food", "name_left": null, "index_right": 0, "name_right": "Hanoi" }, "geometry": { "type": "Point", "coordinates": [ 105.8109829, 21.01936 ] } },
{ "type": "Feature", "properties": { "osm_id": "13686529891", "code": 2302, "fclass": "fast_food", "name_left": null, "index_right": 0, "name_right": "Hanoi" }, "geometry": { "type": "Point", "coordinates": [ 105.8102585, 21.0199553 ] } },
{ "type": "Feature", "properties": { "osm_id": "13686532312", "code": 2302, "fclass": "fast_food", "name_left": null, "index_right": 0, "name_right": "Hanoi" }, "geometry": { "type": "Point", "coordinates": [ 105.8098266, 21.0254356 ] } },
{ "type": "Feature", "properties": { "osm_id": "13688584883", "code": 2302, "fclass": "fast_food", "name_left": "Phi hong", "index_right": 0, "name_right": "Hanoi" }, "geometry": { "type": "Point", "coordinates": [ 105.8472844, 21.0342339 ] } },
{ "type": "Feature", "properties": { "osm_id": "13688607828", "code": 2302, "fclass": "fast_food", "name_left": null, "index_right": 0, "name_right": "Hanoi" }, "geometry": { "type": "Point", "coordinates": [ 105.8260542, 21.0417818 ] } },
{ "type": "Feature", "properties": { "osm_id": "13806229568", "code": 2302, "fclass": "fast_food", "name_left": "McDonald's", "index_right": 0, "name_right": "Hanoi" }, "geometry": { "type": "Point", "coordinates": [ 105.8304332, 21.031198 ] } },
{ "type": "Feature", "properties": { "osm_id": "13806229569", "code": 2302, "fclass": "fast_food", "name_left": "Jollibee", "index_right": 0, "name_right": "Hanoi" }, "geometry": { "type": "Point", "coordinates": [ 105.8304922, 21.0315054 ] } },
{ "type": "Feature", "properties": { "osm_id": "13806229577", "code": 2302, "fclass": "fast_food", "name_left": "KFC", "index_right": 0, "name_right": "Hanoi" }, "geometry": { "type": "Point", "coordinates": [ 105.83048, 21.0313479 ] } },
{ "type": "Feature", "properties": { "osm_id": "13806229592", "code": 2302, "fclass": "fast_food", "name_left": "Pepper Lunch", "index_right": 0, "name_right": "Hanoi" }, "geometry": { "type": "Point", "coordinates": [ 105.8305837, 21.0312777 ] } },
{ "type": "Feature", "properties": { "osm_id": "13912681354", "code": 2302, "fclass": "fast_food", "name_left": "KFC", "index_right": 0, "name_right": "Hanoi" }, "geometry": { "type": "Point", "coordinates": [ 105.8465773, 20.9849893 ] } },
{ "type": "Feature", "properties": { "osm_id": "13912681355", "code": 2302, "fclass": "fast_food", "name_left": "Lotteria", "index_right": 0, "name_right": "Hanoi" }, "geometry": { "type": "Point", "coordinates": [ 105.8471447, 20.983943 ] } },
{ "type": "Feature", "properties": { "osm_id": "13986170474", "code": 2302, "fclass": "fast_food", "name_left": "Kepp.", "index_right": 0, "name_right": "Hanoi" }, "geometry": { "type": "Point", "coordinates": [ 105.8514802, 21.0358791 ] } },
{ "type": "Feature", "properties": { "osm_id": "14021381656", "code": 2302, "fclass": "fast_food", "name_left": "Bánh Khúc Hoàng Thường", "index_right": 0, "name_right": "Hanoi" }, "geometry": { "type": "Point", "coordinates": [ 105.9282498, 20.9806711 ] } },
{ "type": "Feature", "properties": { "osm_id": "14141324701", "code": 2302, "fclass": "fast_food", "name_left": "Bamibread - Bánh Mì Hội An - Nguyễn Đình Chiểu.", "index_right": 0, "name_right": "Hanoi" }, "geometry": { "type": "Point", "coordinates": [ 105.8472957, 21.015162 ] } }
]
}
