{
"type": "FeatureCollection",
"name": "shop_greengrocer_hanoi",
"crs": { "type": "name", "properties": { "name": "urn:ogc:def:crs:OGC:1.3:CRS84" } },
"features": [
{ "type": "Feature", "properties": { "osm_id": "5173931321", "code": 2528, "fclass": "greengrocer", "name_left": "Cơ Sở Sản Xuất Rau Sạch Hướng Dương Xanh", "index_right": 0, "name_right": "Hanoi" }, "geometry": { "type": "Point", "coordinates": [ 105.7191157, 20.9012129 ] } },
{ "type": "Feature", "properties": { "osm_id": "5253678122", "code": 2528, "fclass": "greengrocer", "name_left": null, "index_right": 0, "name_right": "Hanoi" }, "geometry": { "type": "Point", "coordinates": [ 105.8509788, 21.0395385 ] } },
{ "type": "Feature", "properties": { "osm_id": "5254163722", "code": 2528, "fclass": "greengrocer", "name_left": null, "index_right": 0, "name_right": "Hanoi" }, "geometry": { "type": "Point", "coordinates": [ 105.8512143, 21.0392662 ] } },
{ "type": "Feature", "properties": { "osm_id": "6358070152", "code": 2528, "fclass": "greengrocer", "name_left": null, "index_right": 0, "name_right": "Hanoi" }, "geometry": { "type": "Point", "coordinates": [ 105.8995779, 21.0252592 ] } },
{ "type": "Feature", "properties": { "osm_id": "6927757885", "code": 2528, "fclass": "greengrocer", "name_left": null, "index_right": 0, "name_right": "Hanoi" }, "geometry": { "type": "Point", "coordinates": [ 105.8259058, 21.0056983 ] } },
{ "type": "Feature", "properties": { "osm_id": "7176870634", "code": 2528, "fclass": "greengrocer", "name_left": null, "index_right": 0, "name_right": "Hanoi" }, "geometry": { "type": "Point", "coordinates": [ 105.853252, 21.0329733 ] } },
{ "type": "Feature", "properties": { "osm_id": "7176894743", "code": 2528, "fclass": "greengrocer", "name_left": null, "index_right": 0, "name_right": "Hanoi" }, "geometry": { "type": "Point", "coordinates": [ 105.8530751, 21.0326348 ] } },
{ "type": "Feature", "properties": { "osm_id": "8334828432", "code": 2528, "fclass": "greengrocer", "name_left": null, "index_right": 0, "name_right": "Hanoi" }, "geometry": { "type": "Point", "coordinates": [ 105.7725792, 21.0703726 ] } },
{ "type": "Feature", "properties": { "osm_id": "9811836142", "code": 2528, "fclass": "greengrocer", "name_left": "GoldFruit", "index_right": 0, "name_right": "Hanoi" }, "geometry": { "type": "Point", "coordinates": [ 105.7378034, 21.007867 ] } },
{ "type": "Feature", "properties": { "osm_id": "10846733400", "code": 2528, "fclass": "greengrocer", "name_left": "Ngọc Châu Fruits", "index_right": 0, "name_right": "Hanoi" }, "geometry": { "type": "Point", "coordinates": [ 105.8071159, 21.0485575 ] } },
{ "type": "Feature", "properties": { "osm_id": "11168751397", "code": 2528, "fclass": "greengrocer", "name_left": "F99", "index_right": 0, "name_right": "Hanoi" }, "geometry": { "type": "Point", "coordinates": [ 105.8048877, 21.0459743 ] } },
{ "type": "Feature", "properties": { "osm_id": "11219294713", "code": 2528, "fclass": "greengrocer", "name_left": "Hành tỏi Lý Sơn", "index_right": 0, "name_right": "Hanoi" }, "geometry": { "type": "Point", "coordinates": [ 105.7818204, 21.0490506 ] } },
{ "type": "Feature", "properties": { "osm_id": "11563562480", "code": 2528, "fclass": "greengrocer", "name_left": "Hồng Nga", "index_right": 0, "name_right": "Hanoi" }, "geometry": { "type": "Point", "coordinates": [ 105.786274, 21.045046 ] } },
{ "type": "Feature", "properties": { "osm_id": "11846899574", "code": 2528, "fclass": "greengrocer", "name_left": null, "index_right": 0, "name_right": "Hanoi" }, "geometry": { "type": "Point", "coordinates": [ 105.787772, 21.0334827 ] } },
{ "type": "Feature", "properties": { "osm_id": "12074497269", "code": 2528, "fclass": "greengrocer", "name_left": "Thủy Anh Fruits", "index_right": 0, "name_right": "Hanoi" }, "geometry": { "type": "Point", "coordinates": [ 105.8471307, 21.0365087 ] } },
{ "type": "Feature", "properties": { "osm_id": "13039615008", "code": 2528, "fclass": "greengrocer", "name_left": null, "index_right": 0, "name_right": "Hanoi" }, "geometry": { "type": "Point", "coordinates": [ 105.8631457, 21.0090293 ] } },
{ "type": "Feature", "properties": { "osm_id": "13611797609", "code": 2528, "fclass": "greengrocer", "name_left": null, "index_right": 0, "name_right": "Hanoi" }, "geometry": { "type": "Point", "coordinates": [ 105.896329, 21.0597483 ] } },
{ "type": "Feature", "properties": { "osm_id": "14074419960", "code": 2528, "fclass": "greengrocer", "name_left": null, "index_right": 0, "name_right": "Hanoi" }, "geometry": { "type": "Point", "coordinates": [ 105.7925806, 21.0186763 ] } }
]
}
