{
"type": "FeatureCollection",
"name": "shop_bakery_hanoi",
"crs": { "type": "name", "properties": { "name": "urn:ogc:def:crs:OGC:1.3:CRS84" } },
"features": [
{ "type": "Feature", "properties": { "osm_id": "2136325301", "code": 2502, "fclass": "bakery", "name_left": "Saint Honore", "index_right": 0, "name_right": "Hanoi" }, "geometry": { "type": "Point", "coordinates": [ 105.8322037, 21.0610589 ] } },
{ "type": "Feature", "properties": { "osm_id": "2259067316", "code": 2502, "fclass": "bakery", "name_left": null, "index_right": 0, "name_right": "Hanoi" }, "geometry": { "type": "Point", "coordinates": [ 105.8492596, 21.0356727 ] } },
{ "type": "Feature", "properties": { "osm_id": "4170969790", "code": 2502, "fclass": "bakery", "name_left": "OH", "index_right": 0, "name_right": "Hanoi" }, "geometry": { "type": "Point", "coordinates": [ 105.8452359, 21.0361837 ] } },
{ "type": "Feature", "properties": { "osm_id": "4171014889", "code": 2502, "fclass": "bakery", "name_left": "OH", "index_right": 0, "name_right": "Hanoi" }, "geometry": { "type": "Point", "coordinates": [ 105.8536242, 21.033094 ] } },
{ "type": "Feature", "properties": { "osm_id": "4358175599", "code": 2502, "fclass": "bakery", "name_left": "Cửa Hàng Bánh Mì Bon Bon", "index_right": 0, "name_right": "Hanoi" }, "geometry": { "type": "Point", "coordinates": [ 105.8520284, 21.0360503 ] } },
{ "type": "Feature", "properties": { "osm_id": "4427721996", "code": 2502, "fclass": "bakery", "name_left": "Cửa Hàng Bánh Mì King Roti", "index_right": 0, "name_right": "Hanoi" }, "geometry": { "type": "Point", "coordinates": [ 105.8507319, 21.0324733 ] } },
{ "type": "Feature", "properties": { "osm_id": "4578730890", "code": 2502, "fclass": "bakery", "name_left": "Bánh Mì V+", "index_right": 0, "name_right": "Hanoi" }, "geometry": { "type": "Point", "coordinates": [ 105.8699126, 20.999203 ] } },
{ "type": "Feature", "properties": { "osm_id": "4582360689", "code": 2502, "fclass": "bakery", "name_left": null, "index_right": 0, "name_right": "Hanoi" }, "geometry": { "type": "Point", "coordinates": [ 105.8557908, 21.0338796 ] } },
{ "type": "Feature", "properties": { "osm_id": "5138049422", "code": 2502, "fclass": "bakery", "name_left": "Cửa Hàng Bánh Mì Gia Thanh", "index_right": 0, "name_right": "Hanoi" }, "geometry": { "type": "Point", "coordinates": [ 105.8506333, 21.037447 ] } },
{ "type": "Feature", "properties": { "osm_id": "5210793222", "code": 2502, "fclass": "bakery", "name_left": null, "index_right": 0, "name_right": "Hanoi" }, "geometry": { "type": "Point", "coordinates": [ 105.8433386, 21.0236871 ] } },
{ "type": "Feature", "properties": { "osm_id": "5272918321", "code": 2502, "fclass": "bakery", "name_left": null, "index_right": 0, "name_right": "Hanoi" }, "geometry": { "type": "Point", "coordinates": [ 105.8543166, 21.0322333 ] } },
{ "type": "Feature", "properties": { "osm_id": "5342137922", "code": 2502, "fclass": "bakery", "name_left": null, "index_right": 0, "name_right": "Hanoi" }, "geometry": { "type": "Point", "coordinates": [ 105.8503601, 21.0295166 ] } },
{ "type": "Feature", "properties": { "osm_id": "5344208223", "code": 2502, "fclass": "bakery", "name_left": "Madame Huong", "index_right": 0, "name_right": "Hanoi" }, "geometry": { "type": "Point", "coordinates": [ 105.8519106, 21.0228635 ] } },
{ "type": "Feature", "properties": { "osm_id": "5382848321", "code": 2502, "fclass": "bakery", "name_left": null, "index_right": 0, "name_right": "Hanoi" }, "geometry": { "type": "Point", "coordinates": [ 105.8536014, 21.0167931 ] } },
{ "type": "Feature", "properties": { "osm_id": "5398575921", "code": 2502, "fclass": "bakery", "name_left": null, "index_right": 0, "name_right": "Hanoi" }, "geometry": { "type": "Point", "coordinates": [ 105.8498211, 21.03405 ] } },
{ "type": "Feature", "properties": { "osm_id": "5407355424", "code": 2502, "fclass": "bakery", "name_left": "Tous les Jours", "index_right": 0, "name_right": "Hanoi" }, "geometry": { "type": "Point", "coordinates": [ 105.8516759, 21.015195 ] } },
{ "type": "Feature", "properties": { "osm_id": "5478452022", "code": 2502, "fclass": "bakery", "name_left": null, "index_right": 0, "name_right": "Hanoi" }, "geometry": { "type": "Point", "coordinates": [ 105.8472909, 21.0385223 ] } },
{ "type": "Feature", "properties": { "osm_id": "5479578121", "code": 2502, "fclass": "bakery", "name_left": null, "index_right": 0, "name_right": "Hanoi" }, "geometry": { "type": "Point", "coordinates": [ 105.8571891, 21.0229132 ] } },
{ "type": "Feature", "properties": { "osm_id": "5485733755", "code": 2502, "fclass": "bakery", "name_left": "Saint Honore", "index_right": 0, "name_right": "Hanoi" }, "geometry": { "type": "Point", "coordinates": [ 105.8222527, 21.025897 ] } },
{ "type": "Feature", "properties": { "osm_id": "5485861753", "code": 2502, "fclass": "bakery", "name_left": "Cửa Hàng Bánh Mì Bami King", "index_right": 0, "name_right": "Hanoi" }, "geometry": { "type": "Point", "coordinates": [ 105.8280594, 21.0271738 ] } },
{ "type": "Feature", "properties": { "osm_id": "5485871757", "code": 2502, "fclass": "bakery", "name_left": "Cửa Hàng Bánh Mì Anh Hòa", "index_right": 0, "name_right": "Hanoi" }, "geometry": { "type": "Point", "coordinates": [ 105.8214368, 21.0030493 ] } },
{ "type": "Feature", "properties": { "osm_id": "5618701921", "code": 2502, "fclass": "bakery", "name_left": "Fresh Garden", "index_right": 0, "name_right": "Hanoi" }, "geometry": { "type": "Point", "coordinates": [ 105.8470314, 21.038917 ] } },
{ "type": "Feature", "properties": { "osm_id": "5678697421", "code": 2502, "fclass": "bakery", "name_left": "Cửa Hàng Bánh Mì Mochi Sweet", "index_right": 0, "name_right": "Hanoi" }, "geometry": { "type": "Point", "coordinates": [ 105.8391446, 21.0499879 ] } },
{ "type": "Feature", "properties": { "osm_id": "5791840453", "code": 2502, "fclass": "bakery", "name_left": "Bakery Cafe", "index_right": 0, "name_right": "Hanoi" }, "geometry": { "type": "Point", "coordinates": [ 105.8539027, 21.032961 ] } },
{ "type": "Feature", "properties": { "osm_id": "5999457186", "code": 2502, "fclass": "bakery", "name_left": "Triêù patisserie", "index_right": 0, "name_right": "Hanoi" }, "geometry": { "type": "Point", "coordinates": [ 105.847071, 21.0311013 ] } },
{ "type": "Feature", "properties": { "osm_id": "6029974185", "code": 2502, "fclass": "bakery", "name_left": "The Note Cafe", "index_right": 0, "name_right": "Hanoi" }, "geometry": { "type": "Point", "coordinates": [ 105.8508607, 21.0315876 ] } },
{ "type": "Feature", "properties": { "osm_id": "6122788185", "code": 2502, "fclass": "bakery", "name_left": null, "index_right": 0, "name_right": "Hanoi" }, "geometry": { "type": "Point", "coordinates": [ 105.8446998, 21.029078 ] } },
{ "type": "Feature", "properties": { "osm_id": "6146962285", "code": 2502, "fclass": "bakery", "name_left": "Paris Gâteaux", "index_right": 0, "name_right": "Hanoi" }, "geometry": { "type": "Point", "coordinates": [ 105.8234623, 21.026966 ] } },
{ "type": "Feature", "properties": { "osm_id": "6204697285", "code": 2502, "fclass": "bakery", "name_left": "Cửa Hàng Bánh Mì Pháp Anh Hoa", "index_right": 0, "name_right": "Hanoi" }, "geometry": { "type": "Point", "coordinates": [ 105.8445856, 21.0298851 ] } },
{ "type": "Feature", "properties": { "osm_id": "6638268522", "code": 2502, "fclass": "bakery", "name_left": null, "index_right": 0, "name_right": "Hanoi" }, "geometry": { "type": "Point", "coordinates": [ 105.8405357, 21.0523471 ] } },
{ "type": "Feature", "properties": { "osm_id": "6694192025", "code": 2502, "fclass": "bakery", "name_left": "Saint Honoré", "index_right": 0, "name_right": "Hanoi" }, "geometry": { "type": "Point", "coordinates": [ 105.7919127, 21.0797439 ] } },
{ "type": "Feature", "properties": { "osm_id": "6734132385", "code": 2502, "fclass": "bakery", "name_left": "Cửa Hàng Bánh Mì Minh Ngoc", "index_right": 0, "name_right": "Hanoi" }, "geometry": { "type": "Point", "coordinates": [ 105.8635973, 21.0061179 ] } },
{ "type": "Feature", "properties": { "osm_id": "6798176413", "code": 2502, "fclass": "bakery", "name_left": "O’ Douceurs", "index_right": 0, "name_right": "Hanoi" }, "geometry": { "type": "Point", "coordinates": [ 105.8565552, 21.0234575 ] } },
{ "type": "Feature", "properties": { "osm_id": "7055997855", "code": 2502, "fclass": "bakery", "name_left": "Fresh Garden", "index_right": 0, "name_right": "Hanoi" }, "geometry": { "type": "Point", "coordinates": [ 105.7890704, 21.0352629 ] } },
{ "type": "Feature", "properties": { "osm_id": "7176876715", "code": 2502, "fclass": "bakery", "name_left": null, "index_right": 0, "name_right": "Hanoi" }, "geometry": { "type": "Point", "coordinates": [ 105.8505085, 21.0325839 ] } },
{ "type": "Feature", "properties": { "osm_id": "7178800458", "code": 2502, "fclass": "bakery", "name_left": null, "index_right": 0, "name_right": "Hanoi" }, "geometry": { "type": "Point", "coordinates": [ 105.8766101, 21.1116671 ] } },
{ "type": "Feature", "properties": { "osm_id": "7178812430", "code": 2502, "fclass": "bakery", "name_left": "Cửa Hàng Bánh Mì Diệu Linh", "index_right": 0, "name_right": "Hanoi" }, "geometry": { "type": "Point", "coordinates": [ 105.876877, 21.111277 ] } },
{ "type": "Feature", "properties": { "osm_id": "8353950520", "code": 2502, "fclass": "bakery", "name_left": "Bánh Mì Bánh Ngọt Thu Bốn", "index_right": 0, "name_right": "Hanoi" }, "geometry": { "type": "Point", "coordinates": [ 105.772939, 21.0720745 ] } },
{ "type": "Feature", "properties": { "osm_id": "8354742064", "code": 2502, "fclass": "bakery", "name_left": null, "index_right": 0, "name_right": "Hanoi" }, "geometry": { "type": "Point", "coordinates": [ 105.7771671, 21.0708993 ] } },
{ "type": "Feature", "properties": { "osm_id": "8357499900", "code": 2502, "fclass": "bakery", "name_left": "Tiệm Bánh Tình Thân", "index_right": 0, "name_right": "Hanoi" }, "geometry": { "type": "Point", "coordinates": [ 105.7735745, 21.0746898 ] } },
{ "type": "Feature", "properties": { "osm_id": "8360897933", "code": 2502, "fclass": "bakery", "name_left": "Cửa Hàng Bánh Mì Flan", "index_right": 0, "name_right": "Hanoi" }, "geometry": { "type": "Point", "coordinates": [ 105.7850075, 21.0914078 ] } },
{ "type": "Feature", "properties": { "osm_id": "8363339074", "code": 2502, "fclass": "bakery", "name_left": null, "index_right": 0, "name_right": "Hanoi" }, "geometry": { "type": "Point", "coordinates": [ 105.7796211, 21.0665166 ] } },
{ "type": "Feature", "properties": { "osm_id": "8440236617", "code": 2502, "fclass": "bakery", "name_left": "Cửa Hàng Bánh Rán Cổ Truyền Mật Đường", "index_right": 0, "name_right": "Hanoi" }, "geometry": { "type": "Point", "coordinates": [ 105.8508998, 21.0371669 ] } },
{ "type": "Feature", "properties": { "osm_id": "8519952875", "code": 2502, "fclass": "bakery", "name_left": "Tous les Jours", "index_right": 0, "name_right": "Hanoi" }, "geometry": { "type": "Point", "coordinates": [ 105.7989924, 21.0044803 ] } },
{ "type": "Feature", "properties": { "osm_id": "9586940673", "code": 2502, "fclass": "bakery", "name_left": "Bread Factory - Mỹ Đình", "index_right": 0, "name_right": "Hanoi" }, "geometry": { "type": "Point", "coordinates": [ 105.7763396, 21.0156895 ] } },
{ "type": "Feature", "properties": { "osm_id": "9667623719", "code": 2502, "fclass": "bakery", "name_left": "Poeme - Japanese Bakery", "index_right": 0, "name_right": "Hanoi" }, "geometry": { "type": "Point", "coordinates": [ 105.9072946, 21.0603781 ] } },
{ "type": "Feature", "properties": { "osm_id": "9671622120", "code": 2502, "fclass": "bakery", "name_left": "Phuong Min", "index_right": 0, "name_right": "Hanoi" }, "geometry": { "type": "Point", "coordinates": [ 105.8551076, 21.0338355 ] } },
{ "type": "Feature", "properties": { "osm_id": "9811836140", "code": 2502, "fclass": "bakery", "name_left": "Tous les Jours", "index_right": 0, "name_right": "Hanoi" }, "geometry": { "type": "Point", "coordinates": [ 105.7378979, 21.0086743 ] } },
{ "type": "Feature", "properties": { "osm_id": "9846594217", "code": 2502, "fclass": "bakery", "name_left": null, "index_right": 0, "name_right": "Hanoi" }, "geometry": { "type": "Point", "coordinates": [ 105.8506536, 21.0323348 ] } },
{ "type": "Feature", "properties": { "osm_id": "9931518375", "code": 2502, "fclass": "bakery", "name_left": null, "index_right": 0, "name_right": "Hanoi" }, "geometry": { "type": "Point", "coordinates": [ 105.8481259, 21.0342528 ] } },
{ "type": "Feature", "properties": { "osm_id": "9931538820", "code": 2502, "fclass": "bakery", "name_left": null, "index_right": 0, "name_right": "Hanoi" }, "geometry": { "type": "Point", "coordinates": [ 105.8262964, 21.0679647 ] } },
{ "type": "Feature", "properties": { "osm_id": "10181792917", "code": 2502, "fclass": "bakery", "name_left": "Sapo Bakery", "index_right": 0, "name_right": "Hanoi" }, "geometry": { "type": "Point", "coordinates": [ 105.7772158, 20.9723752 ] } },
{ "type": "Feature", "properties": { "osm_id": "10257020085", "code": 2502, "fclass": "bakery", "name_left": "Tiệm Bánh Shine", "index_right": 0, "name_right": "Hanoi" }, "geometry": { "type": "Point", "coordinates": [ 105.7732524, 21.0769168 ] } },
{ "type": "Feature", "properties": { "osm_id": "10257020087", "code": 2502, "fclass": "bakery", "name_left": "Bánh Xèo Sài Gòn", "index_right": 0, "name_right": "Hanoi" }, "geometry": { "type": "Point", "coordinates": [ 105.7736729, 21.0771947 ] } },
{ "type": "Feature", "properties": { "osm_id": "10257020098", "code": 2502, "fclass": "bakery", "name_left": "Bánh mỳ Sài Gòn", "index_right": 0, "name_right": "Hanoi" }, "geometry": { "type": "Point", "coordinates": [ 105.7738407, 21.0773072 ] } },
{ "type": "Feature", "properties": { "osm_id": "10293434911", "code": 2502, "fclass": "bakery", "name_left": "Coba Bakery", "index_right": 0, "name_right": "Hanoi" }, "geometry": { "type": "Point", "coordinates": [ 105.8501442, 21.0319179 ] } },
{ "type": "Feature", "properties": { "osm_id": "10621408650", "code": 2502, "fclass": "bakery", "name_left": "Paris Baguette", "index_right": 0, "name_right": "Hanoi" }, "geometry": { "type": "Point", "coordinates": [ 105.8145928, 21.0313309 ] } },
{ "type": "Feature", "properties": { "osm_id": "10848035602", "code": 2502, "fclass": "bakery", "name_left": "Đức Minh Bakery", "index_right": 0, "name_right": "Hanoi" }, "geometry": { "type": "Point", "coordinates": [ 105.8080394, 21.0484617 ] } },
{ "type": "Feature", "properties": { "osm_id": "10856105375", "code": 2502, "fclass": "bakery", "name_left": null, "index_right": 0, "name_right": "Hanoi" }, "geometry": { "type": "Point", "coordinates": [ 105.8101569, 21.047975 ] } },
{ "type": "Feature", "properties": { "osm_id": "10910936305", "code": 2502, "fclass": "bakery", "name_left": null, "index_right": 0, "name_right": "Hanoi" }, "geometry": { "type": "Point", "coordinates": [ 105.8525635, 21.0255633 ] } },
{ "type": "Feature", "properties": { "osm_id": "10910936405", "code": 2502, "fclass": "bakery", "name_left": null, "index_right": 0, "name_right": "Hanoi" }, "geometry": { "type": "Point", "coordinates": [ 105.8499467, 21.031801 ] } },
{ "type": "Feature", "properties": { "osm_id": "11158192627", "code": 2502, "fclass": "bakery", "name_left": "Jamun Coffee & Bakery", "index_right": 0, "name_right": "Hanoi" }, "geometry": { "type": "Point", "coordinates": [ 105.7877033, 21.0198052 ] } },
{ "type": "Feature", "properties": { "osm_id": "11190957376", "code": 2502, "fclass": "bakery", "name_left": "Quan Banh Mi", "index_right": 0, "name_right": "Hanoi" }, "geometry": { "type": "Point", "coordinates": [ 105.7846813, 21.0561201 ] } },
{ "type": "Feature", "properties": { "osm_id": "11212544442", "code": 2502, "fclass": "bakery", "name_left": "Fresh Garden", "index_right": 0, "name_right": "Hanoi" }, "geometry": { "type": "Point", "coordinates": [ 105.8337179, 21.0084537 ] } },
{ "type": "Feature", "properties": { "osm_id": "11281683521", "code": 2502, "fclass": "bakery", "name_left": "Nguyễn Sơn Bakery", "index_right": 0, "name_right": "Hanoi" }, "geometry": { "type": "Point", "coordinates": [ 105.8316387, 21.0163375 ] } },
{ "type": "Feature", "properties": { "osm_id": "11572142333", "code": 2502, "fclass": "bakery", "name_left": "Lilicake", "index_right": 0, "name_right": "Hanoi" }, "geometry": { "type": "Point", "coordinates": [ 105.7866627, 21.0418018 ] } },
{ "type": "Feature", "properties": { "osm_id": "11671752242", "code": 2502, "fclass": "bakery", "name_left": "Hanoi Croissant & Coffee", "index_right": 0, "name_right": "Hanoi" }, "geometry": { "type": "Point", "coordinates": [ 105.848216, 21.0353689 ] } },
{ "type": "Feature", "properties": { "osm_id": "11680905569", "code": 2502, "fclass": "bakery", "name_left": null, "index_right": 0, "name_right": "Hanoi" }, "geometry": { "type": "Point", "coordinates": [ 105.8252653, 21.068197 ] } },
{ "type": "Feature", "properties": { "osm_id": "11760044688", "code": 2502, "fclass": "bakery", "name_left": "Hi bakery", "index_right": 0, "name_right": "Hanoi" }, "geometry": { "type": "Point", "coordinates": [ 105.8233627, 21.070141 ] } },
{ "type": "Feature", "properties": { "osm_id": "11772843569", "code": 2502, "fclass": "bakery", "name_left": "Paris kitchen", "index_right": 0, "name_right": "Hanoi" }, "geometry": { "type": "Point", "coordinates": [ 105.8463608, 21.029195 ] } },
{ "type": "Feature", "properties": { "osm_id": "11782452949", "code": 2502, "fclass": "bakery", "name_left": "Mesa Bakery & Coffee", "index_right": 0, "name_right": "Hanoi" }, "geometry": { "type": "Point", "coordinates": [ 105.8512958, 21.0155041 ] } },
{ "type": "Feature", "properties": { "osm_id": "11873781569", "code": 2502, "fclass": "bakery", "name_left": "Amélie Cakery", "index_right": 0, "name_right": "Hanoi" }, "geometry": { "type": "Point", "coordinates": [ 105.8456359, 21.0416395 ] } },
{ "type": "Feature", "properties": { "osm_id": "12241016558", "code": 2502, "fclass": "bakery", "name_left": "Saint-Honoré", "index_right": 0, "name_right": "Hanoi" }, "geometry": { "type": "Point", "coordinates": [ 105.8681498, 21.0623486 ] } },
{ "type": "Feature", "properties": { "osm_id": "12277048853", "code": 2502, "fclass": "bakery", "name_left": "Tous les Jours", "index_right": 0, "name_right": "Hanoi" }, "geometry": { "type": "Point", "coordinates": [ 105.7838779, 21.0172084 ] } },
{ "type": "Feature", "properties": { "osm_id": "12279263085", "code": 2502, "fclass": "bakery", "name_left": "Fermented Hanoi", "index_right": 0, "name_right": "Hanoi" }, "geometry": { "type": "Point", "coordinates": [ 105.841481, 21.0454971 ] } },
{ "type": "Feature", "properties": { "osm_id": "12402868001", "code": 2502, "fclass": "bakery", "name_left": "Banh My Phuc", "index_right": 0, "name_right": "Hanoi" }, "geometry": { "type": "Point", "coordinates": [ 105.8422621, 21.0435359 ] } },
{ "type": "Feature", "properties": { "osm_id": "12538794306", "code": 2502, "fclass": "bakery", "name_left": "Vietnam Cafe Bakery", "index_right": 0, "name_right": "Hanoi" }, "geometry": { "type": "Point", "coordinates": [ 105.7893424, 21.2192866 ] } },
{ "type": "Feature", "properties": { "osm_id": "12540668711", "code": 2502, "fclass": "bakery", "name_left": "Fresh Garden", "index_right": 0, "name_right": "Hanoi" }, "geometry": { "type": "Point", "coordinates": [ 105.7940673, 21.2179646 ] } },
{ "type": "Feature", "properties": { "osm_id": "12655194404", "code": 2502, "fclass": "bakery", "name_left": "Bé Ne Bakery", "index_right": 0, "name_right": "Hanoi" }, "geometry": { "type": "Point", "coordinates": [ 105.8326395, 21.0610083 ] } },
{ "type": "Feature", "properties": { "osm_id": "12987360701", "code": 2502, "fclass": "bakery", "name_left": "Beard papa's", "index_right": 0, "name_right": "Hanoi" }, "geometry": { "type": "Point", "coordinates": [ 105.8450682, 21.0291223 ] } },
{ "type": "Feature", "properties": { "osm_id": "13264767784", "code": 2502, "fclass": "bakery", "name_left": "Bread Factory", "index_right": 0, "name_right": "Hanoi" }, "geometry": { "type": "Point", "coordinates": [ 105.7949451, 21.005897 ] } },
{ "type": "Feature", "properties": { "osm_id": "13284330529", "code": 2502, "fclass": "bakery", "name_left": "Sky", "index_right": 0, "name_right": "Hanoi" }, "geometry": { "type": "Point", "coordinates": [ 105.8041777, 21.2154816 ] } },
{ "type": "Feature", "properties": { "osm_id": "13418020229", "code": 2502, "fclass": "bakery", "name_left": null, "index_right": 0, "name_right": "Hanoi" }, "geometry": { "type": "Point", "coordinates": [ 105.861124, 20.8677277 ] } },
{ "type": "Feature", "properties": { "osm_id": "13418020270", "code": 2502, "fclass": "bakery", "name_left": null, "index_right": 0, "name_right": "Hanoi" }, "geometry": { "type": "Point", "coordinates": [ 105.8610958, 20.8675111 ] } },
{ "type": "Feature", "properties": { "osm_id": "13434529864", "code": 2502, "fclass": "bakery", "name_left": "Bang My Puc", "index_right": 0, "name_right": "Hanoi" }, "geometry": { "type": "Point", "coordinates": [ 105.8198419, 21.0421394 ] } },
{ "type": "Feature", "properties": { "osm_id": "13434542257", "code": 2502, "fclass": "bakery", "name_left": "Hien Lu Ong Bakery", "index_right": 0, "name_right": "Hanoi" }, "geometry": { "type": "Point", "coordinates": [ 105.7500547, 20.6897729 ] } },
{ "type": "Feature", "properties": { "osm_id": "13511929898", "code": 2502, "fclass": "bakery", "name_left": null, "index_right": 0, "name_right": "Hanoi" }, "geometry": { "type": "Point", "coordinates": [ 105.8422645, 21.0435493 ] } },
{ "type": "Feature", "properties": { "osm_id": "13511930675", "code": 2502, "fclass": "bakery", "name_left": null, "index_right": 0, "name_right": "Hanoi" }, "geometry": { "type": "Point", "coordinates": [ 105.8425458, 21.0434637 ] } },
{ "type": "Feature", "properties": { "osm_id": "13542563101", "code": 2502, "fclass": "bakery", "name_left": "Banh Mi Quan - good cheap banh mi", "index_right": 0, "name_right": "Hanoi" }, "geometry": { "type": "Point", "coordinates": [ 105.8341626, 21.0289223 ] } },
{ "type": "Feature", "properties": { "osm_id": "13608814901", "code": 2502, "fclass": "bakery", "name_left": null, "index_right": 0, "name_right": "Hanoi" }, "geometry": { "type": "Point", "coordinates": [ 105.8438263, 21.0300609 ] } },
{ "type": "Feature", "properties": { "osm_id": "13609333901", "code": 2502, "fclass": "bakery", "name_left": null, "index_right": 0, "name_right": "Hanoi" }, "geometry": { "type": "Point", "coordinates": [ 105.8400345, 21.0275109 ] } },
{ "type": "Feature", "properties": { "osm_id": "13619633701", "code": 2502, "fclass": "bakery", "name_left": null, "index_right": 0, "name_right": "Hanoi" }, "geometry": { "type": "Point", "coordinates": [ 105.8780544, 21.0526307 ] } },
{ "type": "Feature", "properties": { "osm_id": "13619633801", "code": 2502, "fclass": "bakery", "name_left": null, "index_right": 0, "name_right": "Hanoi" }, "geometry": { "type": "Point", "coordinates": [ 105.8777391, 21.0521234 ] } },
{ "type": "Feature", "properties": { "osm_id": "13619649801", "code": 2502, "fclass": "bakery", "name_left": "Banh Bao Bao An", "index_right": 0, "name_right": "Hanoi" }, "geometry": { "type": "Point", "coordinates": [ 105.8788232, 21.0534144 ] } },
{ "type": "Feature", "properties": { "osm_id": "13636470527", "code": 2502, "fclass": "bakery", "name_left": "Tous Les Jours", "index_right": 0, "name_right": "Hanoi" }, "geometry": { "type": "Point", "coordinates": [ 105.8037107, 21.0140081 ] } },
{ "type": "Feature", "properties": { "osm_id": "13637676301", "code": 2502, "fclass": "bakery", "name_left": "Fresh Garden", "index_right": 0, "name_right": "Hanoi" }, "geometry": { "type": "Point", "coordinates": [ 105.803805, 21.0146823 ] } },
{ "type": "Feature", "properties": { "osm_id": "13640066201", "code": 2502, "fclass": "bakery", "name_left": "L'Păng Baker", "index_right": 0, "name_right": "Hanoi" }, "geometry": { "type": "Point", "coordinates": [ 105.8002886, 21.0182747 ] } },
{ "type": "Feature", "properties": { "osm_id": "14085075401", "code": 2502, "fclass": "bakery", "name_left": null, "index_right": 0, "name_right": "Hanoi" }, "geometry": { "type": "Point", "coordinates": [ 105.8489153, 21.0412539 ] } }
]
}
