{
"type": "FeatureCollection",
"name": "shop_beverages_hanoi",
"crs": { "type": "name", "properties": { "name": "urn:ogc:def:crs:OGC:1.3:CRS84" } },
"features": [
{ "type": "Feature", "properties": { "osm_id": "977668091", "code": 2518, "fclass": "beverages", "name_left": null, "index_right": 0, "name_right": "Hanoi" }, "geometry": { "type": "Point", "coordinates": [ 105.8468517, 21.0311777 ] } },
{ "type": "Feature", "properties": { "osm_id": "4228029094", "code": 2518, "fclass": "beverages", "name_left": "Cửa Hàng Đồ Uống Luogo", "index_right": 0, "name_right": "Hanoi" }, "geometry": { "type": "Point", "coordinates": [ 105.8233332, 21.0057536 ] } },
{ "type": "Feature", "properties": { "osm_id": "4242139392", "code": 2518, "fclass": "beverages", "name_left": "Whacky Drank", "index_right": 0, "name_right": "Hanoi" }, "geometry": { "type": "Point", "coordinates": [ 105.8467814, 21.0321874 ] } },
{ "type": "Feature", "properties": { "osm_id": "4327005490", "code": 2518, "fclass": "beverages", "name_left": "Cửa Hàng Beer Hồng Hưởng", "index_right": 0, "name_right": "Hanoi" }, "geometry": { "type": "Point", "coordinates": [ 105.8121309, 21.0184864 ] } },
{ "type": "Feature", "properties": { "osm_id": "4336252791", "code": 2518, "fclass": "beverages", "name_left": "Pow pow Snow", "index_right": 0, "name_right": "Hanoi" }, "geometry": { "type": "Point", "coordinates": [ 105.8252292, 21.0344297 ] } },
{ "type": "Feature", "properties": { "osm_id": "4352139989", "code": 2518, "fclass": "beverages", "name_left": "Nước ép trai cay tuổi Nguyễn chat", "index_right": 0, "name_right": "Hanoi" }, "geometry": { "type": "Point", "coordinates": [ 105.8529993, 21.0363923 ] } },
{ "type": "Feature", "properties": { "osm_id": "4453205990", "code": 2518, "fclass": "beverages", "name_left": null, "index_right": 0, "name_right": "Hanoi" }, "geometry": { "type": "Point", "coordinates": [ 105.814957, 21.034515 ] } },
{ "type": "Feature", "properties": { "osm_id": "4524182892", "code": 2518, "fclass": "beverages", "name_left": null, "index_right": 0, "name_right": "Hanoi" }, "geometry": { "type": "Point", "coordinates": [ 105.847534, 21.0152969 ] } },
{ "type": "Feature", "properties": { "osm_id": "4583502890", "code": 2518, "fclass": "beverages", "name_left": "Nước ép trái cây", "index_right": 0, "name_right": "Hanoi" }, "geometry": { "type": "Point", "coordinates": [ 105.849035, 21.0339509 ] } },
{ "type": "Feature", "properties": { "osm_id": "4700551365", "code": 2518, "fclass": "beverages", "name_left": "Quán Rượu Likka Stow", "index_right": 0, "name_right": "Hanoi" }, "geometry": { "type": "Point", "coordinates": [ 105.8503362, 21.0354898 ] } },
{ "type": "Feature", "properties": { "osm_id": "4744465825", "code": 2518, "fclass": "beverages", "name_left": "Sữa chua mít", "index_right": 0, "name_right": "Hanoi" }, "geometry": { "type": "Point", "coordinates": [ 105.8512975, 21.0251736 ] } },
{ "type": "Feature", "properties": { "osm_id": "5010584324", "code": 2518, "fclass": "beverages", "name_left": null, "index_right": 0, "name_right": "Hanoi" }, "geometry": { "type": "Point", "coordinates": [ 105.853998, 21.0338345 ] } },
{ "type": "Feature", "properties": { "osm_id": "5377896021", "code": 2518, "fclass": "beverages", "name_left": "Lẩu Hồng Hải", "index_right": 0, "name_right": "Hanoi" }, "geometry": { "type": "Point", "coordinates": [ 105.763673, 20.975428 ] } },
{ "type": "Feature", "properties": { "osm_id": "5385096021", "code": 2518, "fclass": "beverages", "name_left": null, "index_right": 0, "name_right": "Hanoi" }, "geometry": { "type": "Point", "coordinates": [ 105.85455, 21.01865 ] } },
{ "type": "Feature", "properties": { "osm_id": "5414139621", "code": 2518, "fclass": "beverages", "name_left": "Smoothie", "index_right": 0, "name_right": "Hanoi" }, "geometry": { "type": "Point", "coordinates": [ 105.8529731, 21.0357381 ] } },
{ "type": "Feature", "properties": { "osm_id": "5631545221", "code": 2518, "fclass": "beverages", "name_left": "Juice Bazar", "index_right": 0, "name_right": "Hanoi" }, "geometry": { "type": "Point", "coordinates": [ 105.8433814, 21.0292509 ] } },
{ "type": "Feature", "properties": { "osm_id": "5753234222", "code": 2518, "fclass": "beverages", "name_left": null, "index_right": 0, "name_right": "Hanoi" }, "geometry": { "type": "Point", "coordinates": [ 105.8583585, 21.0263144 ] } },
{ "type": "Feature", "properties": { "osm_id": "6448043685", "code": 2518, "fclass": "beverages", "name_left": "Nuoc Mia", "index_right": 0, "name_right": "Hanoi" }, "geometry": { "type": "Point", "coordinates": [ 105.8454024, 21.030141 ] } },
{ "type": "Feature", "properties": { "osm_id": "6681633041", "code": 2518, "fclass": "beverages", "name_left": "Trivin Sa Ltd", "index_right": 0, "name_right": "Hanoi" }, "geometry": { "type": "Point", "coordinates": [ 105.8674664, 21.0597052 ] } },
{ "type": "Feature", "properties": { "osm_id": "6681633042", "code": 2518, "fclass": "beverages", "name_left": "Quán Rượu La Martiniquaise", "index_right": 0, "name_right": "Hanoi" }, "geometry": { "type": "Point", "coordinates": [ 105.8674798, 21.0596852 ] } },
{ "type": "Feature", "properties": { "osm_id": "7008652385", "code": 2518, "fclass": "beverages", "name_left": null, "index_right": 0, "name_right": "Hanoi" }, "geometry": { "type": "Point", "coordinates": [ 105.8481217, 21.0323813 ] } },
{ "type": "Feature", "properties": { "osm_id": "7176665446", "code": 2518, "fclass": "beverages", "name_left": null, "index_right": 0, "name_right": "Hanoi" }, "geometry": { "type": "Point", "coordinates": [ 105.8494202, 21.0238256 ] } },
{ "type": "Feature", "properties": { "osm_id": "7176850935", "code": 2518, "fclass": "beverages", "name_left": null, "index_right": 0, "name_right": "Hanoi" }, "geometry": { "type": "Point", "coordinates": [ 105.8508606, 21.0355334 ] } },
{ "type": "Feature", "properties": { "osm_id": "7178802377", "code": 2518, "fclass": "beverages", "name_left": null, "index_right": 0, "name_right": "Hanoi" }, "geometry": { "type": "Point", "coordinates": [ 105.8508245, 21.0359807 ] } },
{ "type": "Feature", "properties": { "osm_id": "7202784579", "code": 2518, "fclass": "beverages", "name_left": "The Warehouse", "index_right": 0, "name_right": "Hanoi" }, "geometry": { "type": "Point", "coordinates": [ 105.8499608, 21.0303148 ] } },
{ "type": "Feature", "properties": { "osm_id": "8320483364", "code": 2518, "fclass": "beverages", "name_left": "Sâm Ngọc Linh Á Châu", "index_right": 0, "name_right": "Hanoi" }, "geometry": { "type": "Point", "coordinates": [ 105.7947583, 21.0185585 ] } },
{ "type": "Feature", "properties": { "osm_id": "8357763623", "code": 2518, "fclass": "beverages", "name_left": "Green Smoothies", "index_right": 0, "name_right": "Hanoi" }, "geometry": { "type": "Point", "coordinates": [ 105.9000197, 21.0271879 ] } },
{ "type": "Feature", "properties": { "osm_id": "9593946645", "code": 2518, "fclass": "beverages", "name_left": "Diony Winestore", "index_right": 0, "name_right": "Hanoi" }, "geometry": { "type": "Point", "coordinates": [ 105.8209968, 21.0559681 ] } },
{ "type": "Feature", "properties": { "osm_id": "9742983017", "code": 2518, "fclass": "beverages", "name_left": "Beo Coffee", "index_right": 0, "name_right": "Hanoi" }, "geometry": { "type": "Point", "coordinates": [ 105.841096, 21.0174232 ] } },
{ "type": "Feature", "properties": { "osm_id": "9942330802", "code": 2518, "fclass": "beverages", "name_left": "Grand Vin de Bordeux", "index_right": 0, "name_right": "Hanoi" }, "geometry": { "type": "Point", "coordinates": [ 105.8198704, 21.0129672 ] } },
{ "type": "Feature", "properties": { "osm_id": "10175388418", "code": 2518, "fclass": "beverages", "name_left": "THỞ - Wine Space", "index_right": 0, "name_right": "Hanoi" }, "geometry": { "type": "Point", "coordinates": [ 105.8224714, 21.0351965 ] } },
{ "type": "Feature", "properties": { "osm_id": "10219253941", "code": 2518, "fclass": "beverages", "name_left": "giải khát 43", "index_right": 0, "name_right": "Hanoi" }, "geometry": { "type": "Point", "coordinates": [ 105.7732432, 21.0808588 ] } },
{ "type": "Feature", "properties": { "osm_id": "10219271552", "code": 2518, "fclass": "beverages", "name_left": "Giải Khát Thúy Hằng", "index_right": 0, "name_right": "Hanoi" }, "geometry": { "type": "Point", "coordinates": [ 105.7756453, 21.0783913 ] } },
{ "type": "Feature", "properties": { "osm_id": "10692718106", "code": 2518, "fclass": "beverages", "name_left": null, "index_right": 0, "name_right": "Hanoi" }, "geometry": { "type": "Point", "coordinates": [ 105.8311281, 21.0363062 ] } },
{ "type": "Feature", "properties": { "osm_id": "10765202471", "code": 2518, "fclass": "beverages", "name_left": "Tiệm Nước Trần Thị Hoa", "index_right": 0, "name_right": "Hanoi" }, "geometry": { "type": "Point", "coordinates": [ 105.857926, 21.0433448 ] } },
{ "type": "Feature", "properties": { "osm_id": "11167518119", "code": 2518, "fclass": "beverages", "name_left": null, "index_right": 0, "name_right": "Hanoi" }, "geometry": { "type": "Point", "coordinates": [ 105.7927294, 21.0282143 ] } },
{ "type": "Feature", "properties": { "osm_id": "11212149485", "code": 2518, "fclass": "beverages", "name_left": "Bami Sami", "index_right": 0, "name_right": "Hanoi" }, "geometry": { "type": "Point", "coordinates": [ 105.8363638, 21.0101878 ] } },
{ "type": "Feature", "properties": { "osm_id": "11212195519", "code": 2518, "fclass": "beverages", "name_left": "Fruity Happy", "index_right": 0, "name_right": "Hanoi" }, "geometry": { "type": "Point", "coordinates": [ 105.8342336, 21.0083915 ] } },
{ "type": "Feature", "properties": { "osm_id": "11263842278", "code": 2518, "fclass": "beverages", "name_left": "Rau Má Tươi", "index_right": 0, "name_right": "Hanoi" }, "geometry": { "type": "Point", "coordinates": [ 105.8328757, 21.0151928 ] } },
{ "type": "Feature", "properties": { "osm_id": "11281683526", "code": 2518, "fclass": "beverages", "name_left": "Chè Bát Phố Cổ", "index_right": 0, "name_right": "Hanoi" }, "geometry": { "type": "Point", "coordinates": [ 105.8316011, 21.0163655 ] } },
{ "type": "Feature", "properties": { "osm_id": "11286510058", "code": 2518, "fclass": "beverages", "name_left": "FunnyMonkey", "index_right": 0, "name_right": "Hanoi" }, "geometry": { "type": "Point", "coordinates": [ 105.8314704, 21.0171161 ] } },
{ "type": "Feature", "properties": { "osm_id": "11301620120", "code": 2518, "fclass": "beverages", "name_left": "Trà Chanh Xiên Que", "index_right": 0, "name_right": "Hanoi" }, "geometry": { "type": "Point", "coordinates": [ 105.8340057, 21.0147743 ] } },
{ "type": "Feature", "properties": { "osm_id": "11505968811", "code": 2518, "fclass": "beverages", "name_left": "Vang Online by Buy2sell", "index_right": 0, "name_right": "Hanoi" }, "geometry": { "type": "Point", "coordinates": [ 105.8505374, 21.0137424 ] } },
{ "type": "Feature", "properties": { "osm_id": "11573225484", "code": 2518, "fclass": "beverages", "name_left": null, "index_right": 0, "name_right": "Hanoi" }, "geometry": { "type": "Point", "coordinates": [ 105.7886147, 21.0435615 ] } },
{ "type": "Feature", "properties": { "osm_id": "11601353635", "code": 2518, "fclass": "beverages", "name_left": "Shop Tuấn Hằng", "index_right": 0, "name_right": "Hanoi" }, "geometry": { "type": "Point", "coordinates": [ 105.8493715, 21.0168619 ] } },
{ "type": "Feature", "properties": { "osm_id": "11615961402", "code": 2518, "fclass": "beverages", "name_left": "Wine Time", "index_right": 0, "name_right": "Hanoi" }, "geometry": { "type": "Point", "coordinates": [ 105.8499924, 21.0161291 ] } },
{ "type": "Feature", "properties": { "osm_id": "11671667651", "code": 2518, "fclass": "beverages", "name_left": "Shop Ruou Dang Quang", "index_right": 0, "name_right": "Hanoi" }, "geometry": { "type": "Point", "coordinates": [ 105.8514786, 21.0365537 ] } },
{ "type": "Feature", "properties": { "osm_id": "11985285020", "code": 2518, "fclass": "beverages", "name_left": "Mixue", "index_right": 0, "name_right": "Hanoi" }, "geometry": { "type": "Point", "coordinates": [ 105.8097613, 21.023475 ] } },
{ "type": "Feature", "properties": { "osm_id": "12068379433", "code": 2518, "fclass": "beverages", "name_left": "Cửa hàng Bia hơi Hà Nội", "index_right": 0, "name_right": "Hanoi" }, "geometry": { "type": "Point", "coordinates": [ 105.8216323, 21.0417403 ] } },
{ "type": "Feature", "properties": { "osm_id": "12098955401", "code": 2518, "fclass": "beverages", "name_left": "Da Da", "index_right": 0, "name_right": "Hanoi" }, "geometry": { "type": "Point", "coordinates": [ 105.8510344, 21.0156922 ] } },
{ "type": "Feature", "properties": { "osm_id": "12165016002", "code": 2518, "fclass": "beverages", "name_left": "Jing Herbal Spirits", "index_right": 0, "name_right": "Hanoi" }, "geometry": { "type": "Point", "coordinates": [ 105.8508084, 21.0136476 ] } },
{ "type": "Feature", "properties": { "osm_id": "12538794301", "code": 2518, "fclass": "beverages", "name_left": "JDV Jalux Duty Free Vietnam", "index_right": 0, "name_right": "Hanoi" }, "geometry": { "type": "Point", "coordinates": [ 105.7908373, 21.2188809 ] } },
{ "type": "Feature", "properties": { "osm_id": "12540668508", "code": 2518, "fclass": "beverages", "name_left": "JDV Jalux Duty Free Vietnam", "index_right": 0, "name_right": "Hanoi" }, "geometry": { "type": "Point", "coordinates": [ 105.7943285, 21.217884 ] } },
{ "type": "Feature", "properties": { "osm_id": "12540668511", "code": 2518, "fclass": "beverages", "name_left": "Nasco Duty Free TDN", "index_right": 0, "name_right": "Hanoi" }, "geometry": { "type": "Point", "coordinates": [ 105.795433, 21.2175737 ] } },
{ "type": "Feature", "properties": { "osm_id": "12540668707", "code": 2518, "fclass": "beverages", "name_left": "LOTTE Duty Free", "index_right": 0, "name_right": "Hanoi" }, "geometry": { "type": "Point", "coordinates": [ 105.7926742, 21.2185481 ] } },
{ "type": "Feature", "properties": { "osm_id": "13394364432", "code": 2518, "fclass": "beverages", "name_left": null, "index_right": 0, "name_right": "Hanoi" }, "geometry": { "type": "Point", "coordinates": [ 105.8601274, 20.8627962 ] } },
{ "type": "Feature", "properties": { "osm_id": "13394364433", "code": 2518, "fclass": "beverages", "name_left": null, "index_right": 0, "name_right": "Hanoi" }, "geometry": { "type": "Point", "coordinates": [ 105.8599667, 20.863885 ] } },
{ "type": "Feature", "properties": { "osm_id": "13408720220", "code": 2518, "fclass": "beverages", "name_left": "Trà Chanh Ly Sa", "index_right": 0, "name_right": "Hanoi" }, "geometry": { "type": "Point", "coordinates": [ 105.8592893, 20.8718599 ] } },
{ "type": "Feature", "properties": { "osm_id": "13420769659", "code": 2518, "fclass": "beverages", "name_left": "Flojus", "index_right": 0, "name_right": "Hanoi" }, "geometry": { "type": "Point", "coordinates": [ 105.8599641, 20.8664737 ] } },
{ "type": "Feature", "properties": { "osm_id": "13551354002", "code": 2518, "fclass": "beverages", "name_left": null, "index_right": 0, "name_right": "Hanoi" }, "geometry": { "type": "Point", "coordinates": [ 105.9025411, 21.0699594 ] } },
{ "type": "Feature", "properties": { "osm_id": "13555646101", "code": 2518, "fclass": "beverages", "name_left": "Smoothie 25k", "index_right": 0, "name_right": "Hanoi" }, "geometry": { "type": "Point", "coordinates": [ 105.8543893, 21.032922 ] } },
{ "type": "Feature", "properties": { "osm_id": "13605453703", "code": 2518, "fclass": "beverages", "name_left": null, "index_right": 0, "name_right": "Hanoi" }, "geometry": { "type": "Point", "coordinates": [ 105.8418055, 21.0144583 ] } },
{ "type": "Feature", "properties": { "osm_id": "13619634201", "code": 2518, "fclass": "beverages", "name_left": null, "index_right": 0, "name_right": "Hanoi" }, "geometry": { "type": "Point", "coordinates": [ 105.8780278, 21.05283 ] } },
{ "type": "Feature", "properties": { "osm_id": "13646102201", "code": 2518, "fclass": "beverages", "name_left": null, "index_right": 0, "name_right": "Hanoi" }, "geometry": { "type": "Point", "coordinates": [ 105.8426126, 21.1990533 ] } },
{ "type": "Feature", "properties": { "osm_id": "14086684801", "code": 2518, "fclass": "beverages", "name_left": null, "index_right": 0, "name_right": "Hanoi" }, "geometry": { "type": "Point", "coordinates": [ 105.8173241, 21.206076 ] } },
{ "type": "Feature", "properties": { "osm_id": "14102378901", "code": 2518, "fclass": "beverages", "name_left": "Trà sữa Mingxue", "index_right": 0, "name_right": "Hanoi" }, "geometry": { "type": "Point", "coordinates": [ 105.7637932, 21.035385 ] } },
{ "type": "Feature", "properties": { "osm_id": "14174773901", "code": 2518, "fclass": "beverages", "name_left": "Trà Chanh Nam Béo", "index_right": 0, "name_right": "Hanoi" }, "geometry": { "type": "Point", "coordinates": [ 105.8221831, 21.0690757 ] } }
]
}
