{
"type": "FeatureCollection",
"name": "shop_supermarket_hanoi",
"crs": { "type": "name", "properties": { "name": "urn:ogc:def:crs:OGC:1.3:CRS84" } },
"features": [
{ "type": "Feature", "properties": { "osm_id": "442977400", "code": 2501, "fclass": "supermarket", "name_left": "WinMart", "index_right": 0, "name_right": "Hanoi" }, "geometry": { "type": "Point", "coordinates": [ 105.8495236, 21.0115759 ] } },
{ "type": "Feature", "properties": { "osm_id": "977640029", "code": 2501, "fclass": "supermarket", "name_left": "Media Mart Cầu Giấy", "index_right": 0, "name_right": "Hanoi" }, "geometry": { "type": "Point", "coordinates": [ 105.791874, 21.035431 ] } },
{ "type": "Feature", "properties": { "osm_id": "977647385", "code": 2501, "fclass": "supermarket", "name_left": "Japan Supermarket", "index_right": 0, "name_right": "Hanoi" }, "geometry": { "type": "Point", "coordinates": [ 105.8458111, 21.0294273 ] } },
{ "type": "Feature", "properties": { "osm_id": "977668079", "code": 2501, "fclass": "supermarket", "name_left": "Siêu Thị Hapro", "index_right": 0, "name_right": "Hanoi" }, "geometry": { "type": "Point", "coordinates": [ 105.8482851, 21.0307067 ] } },
{ "type": "Feature", "properties": { "osm_id": "1724947875", "code": 2501, "fclass": "supermarket", "name_left": null, "index_right": 0, "name_right": "Hanoi" }, "geometry": { "type": "Point", "coordinates": [ 105.8000567, 21.0341584 ] } },
{ "type": "Feature", "properties": { "osm_id": "2021225711", "code": 2501, "fclass": "supermarket", "name_left": null, "index_right": 0, "name_right": "Hanoi" }, "geometry": { "type": "Point", "coordinates": [ 105.81112, 21.024243 ] } },
{ "type": "Feature", "properties": { "osm_id": "3150526966", "code": 2501, "fclass": "supermarket", "name_left": "WinMart", "index_right": 0, "name_right": "Hanoi" }, "geometry": { "type": "Point", "coordinates": [ 105.8553923, 21.029586 ] } },
{ "type": "Feature", "properties": { "osm_id": "3471347683", "code": 2501, "fclass": "supermarket", "name_left": "SFarm©", "index_right": 0, "name_right": "Hanoi" }, "geometry": { "type": "Point", "coordinates": [ 105.7992667, 21.0451847 ] } },
{ "type": "Feature", "properties": { "osm_id": "3644820386", "code": 2501, "fclass": "supermarket", "name_left": "Hệ Thống Siêu Thị Mái Ấm Online", "index_right": 0, "name_right": "Hanoi" }, "geometry": { "type": "Point", "coordinates": [ 105.8142732, 21.1183065 ] } },
{ "type": "Feature", "properties": { "osm_id": "3684940919", "code": 2501, "fclass": "supermarket", "name_left": "Xưởng tranh kính nghệ thuật", "index_right": 0, "name_right": "Hanoi" }, "geometry": { "type": "Point", "coordinates": [ 105.4856939, 21.1108861 ] } },
{ "type": "Feature", "properties": { "osm_id": "3799178113", "code": 2501, "fclass": "supermarket", "name_left": "Cửa Hàng Tiện Ích Bảo Long", "index_right": 0, "name_right": "Hanoi" }, "geometry": { "type": "Point", "coordinates": [ 105.8320905, 20.9648945 ] } },
{ "type": "Feature", "properties": { "osm_id": "3844123780", "code": 2501, "fclass": "supermarket", "name_left": "Siêu Thị Xe Đạp Điện Thành Tuyến Sơn Tây", "index_right": 0, "name_right": "Hanoi" }, "geometry": { "type": "Point", "coordinates": [ 105.499349, 21.1213151 ] } },
{ "type": "Feature", "properties": { "osm_id": "3844127179", "code": 2501, "fclass": "supermarket", "name_left": "Siêu Thị Điện Máy Thành Tuyến - Sơn Tây", "index_right": 0, "name_right": "Hanoi" }, "geometry": { "type": "Point", "coordinates": [ 105.4991669, 21.1210538 ] } },
{ "type": "Feature", "properties": { "osm_id": "3937714031", "code": 2501, "fclass": "supermarket", "name_left": "Pet Mart Kim Mã", "index_right": 0, "name_right": "Hanoi" }, "geometry": { "type": "Point", "coordinates": [ 105.8246645, 21.0318491 ] } },
{ "type": "Feature", "properties": { "osm_id": "3937714032", "code": 2501, "fclass": "supermarket", "name_left": "Pet Mart Đại Cồ Việt", "index_right": 0, "name_right": "Hanoi" }, "geometry": { "type": "Point", "coordinates": [ 105.8511563, 21.0084427 ] } },
{ "type": "Feature", "properties": { "osm_id": "4091988292", "code": 2501, "fclass": "supermarket", "name_left": "Pizza Hut", "index_right": 0, "name_right": "Hanoi" }, "geometry": { "type": "Point", "coordinates": [ 105.8447867, 20.9804803 ] } },
{ "type": "Feature", "properties": { "osm_id": "4155614990", "code": 2501, "fclass": "supermarket", "name_left": "Street Market", "index_right": 0, "name_right": "Hanoi" }, "geometry": { "type": "Point", "coordinates": [ 105.8387225, 21.026708 ] } },
{ "type": "Feature", "properties": { "osm_id": "4285828706", "code": 2501, "fclass": "supermarket", "name_left": "VNJ", "index_right": 0, "name_right": "Hanoi" }, "geometry": { "type": "Point", "coordinates": [ 105.8052876, 20.9863879 ] } },
{ "type": "Feature", "properties": { "osm_id": "4304794291", "code": 2501, "fclass": "supermarket", "name_left": "Xuan Mai Market", "index_right": 0, "name_right": "Hanoi" }, "geometry": { "type": "Point", "coordinates": [ 105.5795156, 20.9010961 ] } },
{ "type": "Feature", "properties": { "osm_id": "4304794292", "code": 2501, "fclass": "supermarket", "name_left": "Siêu Thị Lan Chi", "index_right": 0, "name_right": "Hanoi" }, "geometry": { "type": "Point", "coordinates": [ 105.5812071, 20.8931071 ] } },
{ "type": "Feature", "properties": { "osm_id": "4388678293", "code": 2501, "fclass": "supermarket", "name_left": "Chợ Phúc Đồng", "index_right": 0, "name_right": "Hanoi" }, "geometry": { "type": "Point", "coordinates": [ 105.9027786, 21.0397757 ] } },
{ "type": "Feature", "properties": { "osm_id": "4423192489", "code": 2501, "fclass": "supermarket", "name_left": null, "index_right": 0, "name_right": "Hanoi" }, "geometry": { "type": "Point", "coordinates": [ 105.8501184, 21.0301114 ] } },
{ "type": "Feature", "properties": { "osm_id": "4458010392", "code": 2501, "fclass": "supermarket", "name_left": null, "index_right": 0, "name_right": "Hanoi" }, "geometry": { "type": "Point", "coordinates": [ 105.8534205, 21.0357863 ] } },
{ "type": "Feature", "properties": { "osm_id": "4554110090", "code": 2501, "fclass": "supermarket", "name_left": "Big C", "index_right": 0, "name_right": "Hanoi" }, "geometry": { "type": "Point", "coordinates": [ 105.7781996, 21.0155361 ] } },
{ "type": "Feature", "properties": { "osm_id": "4578730790", "code": 2501, "fclass": "supermarket", "name_left": "Siêu thị V+", "index_right": 0, "name_right": "Hanoi" }, "geometry": { "type": "Point", "coordinates": [ 105.870358, 20.9994822 ] } },
{ "type": "Feature", "properties": { "osm_id": "4625392008", "code": 2501, "fclass": "supermarket", "name_left": "Nội Thất Đồ Gỗ Được Phát", "index_right": 0, "name_right": "Hanoi" }, "geometry": { "type": "Point", "coordinates": [ 105.9075773, 21.1400505 ] } },
{ "type": "Feature", "properties": { "osm_id": "4631390667", "code": 2501, "fclass": "supermarket", "name_left": "Siêu Thị Đầm Trấu", "index_right": 0, "name_right": "Hanoi" }, "geometry": { "type": "Point", "coordinates": [ 105.8647486, 21.0122959 ] } },
{ "type": "Feature", "properties": { "osm_id": "4741290347", "code": 2501, "fclass": "supermarket", "name_left": "Cửa Hàng Tự Chọn GT Mart", "index_right": 0, "name_right": "Hanoi" }, "geometry": { "type": "Point", "coordinates": [ 105.8465822, 21.0040643 ] } },
{ "type": "Feature", "properties": { "osm_id": "4750152424", "code": 2501, "fclass": "supermarket", "name_left": "Siêu thị gia đình", "index_right": 0, "name_right": "Hanoi" }, "geometry": { "type": "Point", "coordinates": [ 105.8525636, 20.9986173 ] } },
{ "type": "Feature", "properties": { "osm_id": "4776220022", "code": 2501, "fclass": "supermarket", "name_left": "Siêu Thị Hapro", "index_right": 0, "name_right": "Hanoi" }, "geometry": { "type": "Point", "coordinates": [ 105.8416221, 21.0245405 ] } },
{ "type": "Feature", "properties": { "osm_id": "4781116321", "code": 2501, "fclass": "supermarket", "name_left": null, "index_right": 0, "name_right": "Hanoi" }, "geometry": { "type": "Point", "coordinates": [ 105.8500272, 21.0351507 ] } },
{ "type": "Feature", "properties": { "osm_id": "4785798523", "code": 2501, "fclass": "supermarket", "name_left": "Siêu Thị Hapro", "index_right": 0, "name_right": "Hanoi" }, "geometry": { "type": "Point", "coordinates": [ 105.8583853, 21.0189202 ] } },
{ "type": "Feature", "properties": { "osm_id": "4877067121", "code": 2501, "fclass": "supermarket", "name_left": "Siêu thị Hằng Vui", "index_right": 0, "name_right": "Hanoi" }, "geometry": { "type": "Point", "coordinates": [ 105.8327165, 20.9653352 ] } },
{ "type": "Feature", "properties": { "osm_id": "4907004322", "code": 2501, "fclass": "supermarket", "name_left": null, "index_right": 0, "name_right": "Hanoi" }, "geometry": { "type": "Point", "coordinates": [ 105.8378919, 21.028469 ] } },
{ "type": "Feature", "properties": { "osm_id": "5003334222", "code": 2501, "fclass": "supermarket", "name_left": "Co-op Mart", "index_right": 0, "name_right": "Hanoi" }, "geometry": { "type": "Point", "coordinates": [ 105.8663369, 21.0452716 ] } },
{ "type": "Feature", "properties": { "osm_id": "5059466323", "code": 2501, "fclass": "supermarket", "name_left": null, "index_right": 0, "name_right": "Hanoi" }, "geometry": { "type": "Point", "coordinates": [ 105.749619, 20.9640138 ] } },
{ "type": "Feature", "properties": { "osm_id": "5123787182", "code": 2501, "fclass": "supermarket", "name_left": "Siêu thị Đức Thành", "index_right": 0, "name_right": "Hanoi" }, "geometry": { "type": "Point", "coordinates": [ 105.859713, 20.9839016 ] } },
{ "type": "Feature", "properties": { "osm_id": "5205741622", "code": 2501, "fclass": "supermarket", "name_left": "Gấu Bon Sumo", "index_right": 0, "name_right": "Hanoi" }, "geometry": { "type": "Point", "coordinates": [ 105.8314415, 21.0343991 ] } },
{ "type": "Feature", "properties": { "osm_id": "5302018622", "code": 2501, "fclass": "supermarket", "name_left": "WinMart", "index_right": 0, "name_right": "Hanoi" }, "geometry": { "type": "Point", "coordinates": [ 105.8699299, 21.0419364 ] } },
{ "type": "Feature", "properties": { "osm_id": "5332620421", "code": 2501, "fclass": "supermarket", "name_left": null, "index_right": 0, "name_right": "Hanoi" }, "geometry": { "type": "Point", "coordinates": [ 105.8402, 21.0422916 ] } },
{ "type": "Feature", "properties": { "osm_id": "5436612021", "code": 2501, "fclass": "supermarket", "name_left": "Strassenmarkt", "index_right": 0, "name_right": "Hanoi" }, "geometry": { "type": "Point", "coordinates": [ 105.8510354, 21.0387182 ] } },
{ "type": "Feature", "properties": { "osm_id": "5485666060", "code": 2501, "fclass": "supermarket", "name_left": "Siêu thị điện máy Mediamart", "index_right": 0, "name_right": "Hanoi" }, "geometry": { "type": "Point", "coordinates": [ 105.8123132, 21.029254 ] } },
{ "type": "Feature", "properties": { "osm_id": "5485793231", "code": 2501, "fclass": "supermarket", "name_left": "Mỹ Phẩm Jesse Store", "index_right": 0, "name_right": "Hanoi" }, "geometry": { "type": "Point", "coordinates": [ 105.7737717, 21.0771397 ] } },
{ "type": "Feature", "properties": { "osm_id": "5485804469", "code": 2501, "fclass": "supermarket", "name_left": "Siêu Thị T-Mart", "index_right": 0, "name_right": "Hanoi" }, "geometry": { "type": "Point", "coordinates": [ 105.8361347, 20.9753211 ] } },
{ "type": "Feature", "properties": { "osm_id": "5485816793", "code": 2501, "fclass": "supermarket", "name_left": "Siêu thị Minh Hoa", "index_right": 0, "name_right": "Hanoi" }, "geometry": { "type": "Point", "coordinates": [ 105.822998, 21.013239 ] } },
{ "type": "Feature", "properties": { "osm_id": "5485830477", "code": 2501, "fclass": "supermarket", "name_left": "Siêu Thị T-Mart", "index_right": 0, "name_right": "Hanoi" }, "geometry": { "type": "Point", "coordinates": [ 105.8361596, 20.9713145 ] } },
{ "type": "Feature", "properties": { "osm_id": "5485847900", "code": 2501, "fclass": "supermarket", "name_left": "T Mart", "index_right": 0, "name_right": "Hanoi" }, "geometry": { "type": "Point", "coordinates": [ 105.7826551, 21.0644931 ] } },
{ "type": "Feature", "properties": { "osm_id": "5485850279", "code": 2501, "fclass": "supermarket", "name_left": "FPT Shop", "index_right": 0, "name_right": "Hanoi" }, "geometry": { "type": "Point", "coordinates": [ 105.8020389, 21.0201337 ] } },
{ "type": "Feature", "properties": { "osm_id": "5485879595", "code": 2501, "fclass": "supermarket", "name_left": "Siêu thị điện máy Trần Anh", "index_right": 0, "name_right": "Hanoi" }, "geometry": { "type": "Point", "coordinates": [ 105.7984778, 21.024315 ] } },
{ "type": "Feature", "properties": { "osm_id": "5526778624", "code": 2501, "fclass": "supermarket", "name_left": "WinMart", "index_right": 0, "name_right": "Hanoi" }, "geometry": { "type": "Point", "coordinates": [ 105.8225074, 20.9641395 ] } },
{ "type": "Feature", "properties": { "osm_id": "5575925625", "code": 2501, "fclass": "supermarket", "name_left": null, "index_right": 0, "name_right": "Hanoi" }, "geometry": { "type": "Point", "coordinates": [ 105.8498142, 21.2302584 ] } },
{ "type": "Feature", "properties": { "osm_id": "5579554621", "code": 2501, "fclass": "supermarket", "name_left": "Seikamart", "index_right": 0, "name_right": "Hanoi" }, "geometry": { "type": "Point", "coordinates": [ 105.8477851, 21.0115978 ] } },
{ "type": "Feature", "properties": { "osm_id": "5579660621", "code": 2501, "fclass": "supermarket", "name_left": "WinMart", "index_right": 0, "name_right": "Hanoi" }, "geometry": { "type": "Point", "coordinates": [ 105.9162056, 21.050733 ] } },
{ "type": "Feature", "properties": { "osm_id": "5593636925", "code": 2501, "fclass": "supermarket", "name_left": "WinMart", "index_right": 0, "name_right": "Hanoi" }, "geometry": { "type": "Point", "coordinates": [ 105.8443272, 20.9794717 ] } },
{ "type": "Feature", "properties": { "osm_id": "5593660421", "code": 2501, "fclass": "supermarket", "name_left": "Siêu thị Mường Thanh H1", "index_right": 0, "name_right": "Hanoi" }, "geometry": { "type": "Point", "coordinates": [ 105.8259662, 20.9642759 ] } },
{ "type": "Feature", "properties": { "osm_id": "5593662121", "code": 2501, "fclass": "supermarket", "name_left": "Siêu thị Mường Thanh H2", "index_right": 0, "name_right": "Hanoi" }, "geometry": { "type": "Point", "coordinates": [ 105.8273063, 20.9648992 ] } },
{ "type": "Feature", "properties": { "osm_id": "5593898821", "code": 2501, "fclass": "supermarket", "name_left": "Siêu Thị Hapro", "index_right": 0, "name_right": "Hanoi" }, "geometry": { "type": "Point", "coordinates": [ 105.8328793, 21.0281849 ] } },
{ "type": "Feature", "properties": { "osm_id": "5595959521", "code": 2501, "fclass": "supermarket", "name_left": "WinMart", "index_right": 0, "name_right": "Hanoi" }, "geometry": { "type": "Point", "coordinates": [ 105.8321759, 21.0060945 ] } },
{ "type": "Feature", "properties": { "osm_id": "5603389634", "code": 2501, "fclass": "supermarket", "name_left": "Qmart Vĩnh Hưng", "index_right": 0, "name_right": "Hanoi" }, "geometry": { "type": "Point", "coordinates": [ 105.8800623, 20.9990338 ] } },
{ "type": "Feature", "properties": { "osm_id": "5603479821", "code": 2501, "fclass": "supermarket", "name_left": "Siêu thị Minh Hoa Thái Hà", "index_right": 0, "name_right": "Hanoi" }, "geometry": { "type": "Point", "coordinates": [ 105.8197131, 21.013353 ] } },
{ "type": "Feature", "properties": { "osm_id": "5603611822", "code": 2501, "fclass": "supermarket", "name_left": "Siêu thị Hoàng Cầu", "index_right": 0, "name_right": "Hanoi" }, "geometry": { "type": "Point", "coordinates": [ 105.8258285, 21.0176252 ] } },
{ "type": "Feature", "properties": { "osm_id": "5603809224", "code": 2501, "fclass": "supermarket", "name_left": "Siêu Thị Intimex", "index_right": 0, "name_right": "Hanoi" }, "geometry": { "type": "Point", "coordinates": [ 105.8177924, 21.0293755 ] } },
{ "type": "Feature", "properties": { "osm_id": "5603878921", "code": 2501, "fclass": "supermarket", "name_left": "Siêu Thị Intimex", "index_right": 0, "name_right": "Hanoi" }, "geometry": { "type": "Point", "coordinates": [ 105.8251982, 21.028135 ] } },
{ "type": "Feature", "properties": { "osm_id": "5603879232", "code": 2501, "fclass": "supermarket", "name_left": "Unimart Giảng Võ", "index_right": 0, "name_right": "Hanoi" }, "geometry": { "type": "Point", "coordinates": [ 105.8226439, 21.0260451 ] } },
{ "type": "Feature", "properties": { "osm_id": "5605957125", "code": 2501, "fclass": "supermarket", "name_left": "Siêu thị Thành Đô - Hồ Tùng Mậu", "index_right": 0, "name_right": "Hanoi" }, "geometry": { "type": "Point", "coordinates": [ 105.7648694, 21.0407173 ] } },
{ "type": "Feature", "properties": { "osm_id": "5606598224", "code": 2501, "fclass": "supermarket", "name_left": "Tops Market", "index_right": 0, "name_right": "Hanoi" }, "geometry": { "type": "Point", "coordinates": [ 105.8286292, 20.9998667 ] } },
{ "type": "Feature", "properties": { "osm_id": "5608461621", "code": 2501, "fclass": "supermarket", "name_left": "BRG Mart", "index_right": 0, "name_right": "Hanoi" }, "geometry": { "type": "Point", "coordinates": [ 105.8351653, 21.0063252 ] } },
{ "type": "Feature", "properties": { "osm_id": "5611266121", "code": 2501, "fclass": "supermarket", "name_left": "Siêu thị Thành Công", "index_right": 0, "name_right": "Hanoi" }, "geometry": { "type": "Point", "coordinates": [ 105.828332, 20.9987006 ] } },
{ "type": "Feature", "properties": { "osm_id": "5616868222", "code": 2501, "fclass": "supermarket", "name_left": "WinMart", "index_right": 0, "name_right": "Hanoi" }, "geometry": { "type": "Point", "coordinates": [ 105.7892184, 20.9746026 ] } },
{ "type": "Feature", "properties": { "osm_id": "5618765421", "code": 2501, "fclass": "supermarket", "name_left": "Siêu thị Đức Thành", "index_right": 0, "name_right": "Hanoi" }, "geometry": { "type": "Point", "coordinates": [ 105.75863, 20.9727956 ] } },
{ "type": "Feature", "properties": { "osm_id": "5619162221", "code": 2501, "fclass": "supermarket", "name_left": "Siêu thị Mường Thanh", "index_right": 0, "name_right": "Hanoi" }, "geometry": { "type": "Point", "coordinates": [ 105.7998171, 20.9601717 ] } },
{ "type": "Feature", "properties": { "osm_id": "5619165232", "code": 2501, "fclass": "supermarket", "name_left": "Siêu Thị Hapro", "index_right": 0, "name_right": "Hanoi" }, "geometry": { "type": "Point", "coordinates": [ 105.8157284, 21.0226588 ] } },
{ "type": "Feature", "properties": { "osm_id": "5621495822", "code": 2501, "fclass": "supermarket", "name_left": "Siêu Thị Intimex", "index_right": 0, "name_right": "Hanoi" }, "geometry": { "type": "Point", "coordinates": [ 105.8080023, 21.0515919 ] } },
{ "type": "Feature", "properties": { "osm_id": "5627922722", "code": 2501, "fclass": "supermarket", "name_left": "Siêu thị Mega Ngọc Hồi", "index_right": 0, "name_right": "Hanoi" }, "geometry": { "type": "Point", "coordinates": [ 105.8521478, 20.9143597 ] } },
{ "type": "Feature", "properties": { "osm_id": "5632029722", "code": 2501, "fclass": "supermarket", "name_left": "WinMart", "index_right": 0, "name_right": "Hanoi" }, "geometry": { "type": "Point", "coordinates": [ 105.8374033, 20.9997316 ] } },
{ "type": "Feature", "properties": { "osm_id": "5638848622", "code": 2501, "fclass": "supermarket", "name_left": "Unik mart Thuỵ Khuê", "index_right": 0, "name_right": "Hanoi" }, "geometry": { "type": "Point", "coordinates": [ 105.8229993, 21.0432384 ] } },
{ "type": "Feature", "properties": { "osm_id": "5639988476", "code": 2501, "fclass": "supermarket", "name_left": "Co.opmart", "index_right": 0, "name_right": "Hanoi" }, "geometry": { "type": "Point", "coordinates": [ 105.7902001, 20.9825538 ] } },
{ "type": "Feature", "properties": { "osm_id": "5639988477", "code": 2501, "fclass": "supermarket", "name_left": "Tops Market", "index_right": 0, "name_right": "Hanoi" }, "geometry": { "type": "Point", "coordinates": [ 105.7854355, 20.9789425 ] } },
{ "type": "Feature", "properties": { "osm_id": "5694054027", "code": 2501, "fclass": "supermarket", "name_left": "Vin+ 38 Đào Cam Mộc", "index_right": 0, "name_right": "Hanoi" }, "geometry": { "type": "Point", "coordinates": [ 105.8685287, 21.1412624 ] } },
{ "type": "Feature", "properties": { "osm_id": "5694054028", "code": 2501, "fclass": "supermarket", "name_left": "Vin+ Tổ 25 Đ.Anh", "index_right": 0, "name_right": "Hanoi" }, "geometry": { "type": "Point", "coordinates": [ 105.8443361, 21.1708102 ] } },
{ "type": "Feature", "properties": { "osm_id": "5694054122", "code": 2501, "fclass": "supermarket", "name_left": "Vin +19 T22 Đ.Anh", "index_right": 0, "name_right": "Hanoi" }, "geometry": { "type": "Point", "coordinates": [ 105.8568805, 21.1696205 ] } },
{ "type": "Feature", "properties": { "osm_id": "5757756521", "code": 2501, "fclass": "supermarket", "name_left": "Siêu thị Thành Đô 193 Vĩnh Hưng", "index_right": 0, "name_right": "Hanoi" }, "geometry": { "type": "Point", "coordinates": [ 105.8774569, 20.9881788 ] } },
{ "type": "Feature", "properties": { "osm_id": "5757769521", "code": 2501, "fclass": "supermarket", "name_left": "Siêu thị Thành Đô - 285 Lĩnh Nam", "index_right": 0, "name_right": "Hanoi" }, "geometry": { "type": "Point", "coordinates": [ 105.8744379, 20.9840472 ] } },
{ "type": "Feature", "properties": { "osm_id": "5769451454", "code": 2501, "fclass": "supermarket", "name_left": "Siêu Thị Intimex", "index_right": 0, "name_right": "Hanoi" }, "geometry": { "type": "Point", "coordinates": [ 105.87763, 21.0441004 ] } },
{ "type": "Feature", "properties": { "osm_id": "5814793053", "code": 2501, "fclass": "supermarket", "name_left": "Brgmart", "index_right": 0, "name_right": "Hanoi" }, "geometry": { "type": "Point", "coordinates": [ 105.850622, 21.0288967 ] } },
{ "type": "Feature", "properties": { "osm_id": "5918039687", "code": 2501, "fclass": "supermarket", "name_left": "Siêu Thị Hàng Đức", "index_right": 0, "name_right": "Hanoi" }, "geometry": { "type": "Point", "coordinates": [ 105.834472, 21.0528046 ] } },
{ "type": "Feature", "properties": { "osm_id": "5920578385", "code": 2501, "fclass": "supermarket", "name_left": "Siêu Thị Unikmart sảnh D", "index_right": 0, "name_right": "Hanoi" }, "geometry": { "type": "Point", "coordinates": [ 105.8027216, 20.9976544 ] } },
{ "type": "Feature", "properties": { "osm_id": "6014427285", "code": 2501, "fclass": "supermarket", "name_left": "Siêu Thị Hapro", "index_right": 0, "name_right": "Hanoi" }, "geometry": { "type": "Point", "coordinates": [ 105.8473135, 21.0302694 ] } },
{ "type": "Feature", "properties": { "osm_id": "6017147489", "code": 2501, "fclass": "supermarket", "name_left": null, "index_right": 0, "name_right": "Hanoi" }, "geometry": { "type": "Point", "coordinates": [ 105.822333, 21.0673913 ] } },
{ "type": "Feature", "properties": { "osm_id": "6024114885", "code": 2501, "fclass": "supermarket", "name_left": "H Mart", "index_right": 0, "name_right": "Hanoi" }, "geometry": { "type": "Point", "coordinates": [ 105.8592192, 21.0165116 ] } },
{ "type": "Feature", "properties": { "osm_id": "6031199885", "code": 2501, "fclass": "supermarket", "name_left": "Siêu Thị Hapro", "index_right": 0, "name_right": "Hanoi" }, "geometry": { "type": "Point", "coordinates": [ 105.8613508, 21.0013398 ] } },
{ "type": "Feature", "properties": { "osm_id": "6120794885", "code": 2501, "fclass": "supermarket", "name_left": "Siêu Thị Hapro", "index_right": 0, "name_right": "Hanoi" }, "geometry": { "type": "Point", "coordinates": [ 105.7751531, 21.1292221 ] } },
{ "type": "Feature", "properties": { "osm_id": "6155720287", "code": 2501, "fclass": "supermarket", "name_left": "K Market", "index_right": 0, "name_right": "Hanoi" }, "geometry": { "type": "Point", "coordinates": [ 105.8506108, 21.0323778 ] } },
{ "type": "Feature", "properties": { "osm_id": "6169690585", "code": 2501, "fclass": "supermarket", "name_left": "Lan Thu Viện Bỏng", "index_right": 0, "name_right": "Hanoi" }, "geometry": { "type": "Point", "coordinates": [ 105.7939538, 20.9639976 ] } },
{ "type": "Feature", "properties": { "osm_id": "6206888191", "code": 2501, "fclass": "supermarket", "name_left": "AV Food", "index_right": 0, "name_right": "Hanoi" }, "geometry": { "type": "Point", "coordinates": [ 105.8029066, 20.9974193 ] } },
{ "type": "Feature", "properties": { "osm_id": "6223959585", "code": 2501, "fclass": "supermarket", "name_left": "Siêu thị Thành Đô 23 Tả Thanh Oai", "index_right": 0, "name_right": "Hanoi" }, "geometry": { "type": "Point", "coordinates": [ 105.8099682, 20.9543037 ] } },
{ "type": "Feature", "properties": { "osm_id": "6243862587", "code": 2501, "fclass": "supermarket", "name_left": "Unikmart", "index_right": 0, "name_right": "Hanoi" }, "geometry": { "type": "Point", "coordinates": [ 105.8021921, 21.0027355 ] } },
{ "type": "Feature", "properties": { "osm_id": "6373396052", "code": 2501, "fclass": "supermarket", "name_left": "Cutepets - Siêu Thị Chó Mèo", "index_right": 0, "name_right": "Hanoi" }, "geometry": { "type": "Point", "coordinates": [ 105.7800263, 20.9791873 ] } },
{ "type": "Feature", "properties": { "osm_id": "6419223349", "code": 2501, "fclass": "supermarket", "name_left": "Thanh Do", "index_right": 0, "name_right": "Hanoi" }, "geometry": { "type": "Point", "coordinates": [ 105.8654104, 21.0029358 ] } },
{ "type": "Feature", "properties": { "osm_id": "6437524885", "code": 2501, "fclass": "supermarket", "name_left": null, "index_right": 0, "name_right": "Hanoi" }, "geometry": { "type": "Point", "coordinates": [ 105.8505197, 21.028295 ] } },
{ "type": "Feature", "properties": { "osm_id": "6573674285", "code": 2501, "fclass": "supermarket", "name_left": "Siêu Thị Easy Mart", "index_right": 0, "name_right": "Hanoi" }, "geometry": { "type": "Point", "coordinates": [ 105.8058362, 20.9946631 ] } },
{ "type": "Feature", "properties": { "osm_id": "6621648085", "code": 2501, "fclass": "supermarket", "name_left": "K-market Xuân Diệ", "index_right": 0, "name_right": "Hanoi" }, "geometry": { "type": "Point", "coordinates": [ 105.8264692, 21.0662921 ] } },
{ "type": "Feature", "properties": { "osm_id": "6621785885", "code": 2501, "fclass": "supermarket", "name_left": "WinMart", "index_right": 0, "name_right": "Hanoi" }, "geometry": { "type": "Point", "coordinates": [ 105.8259918, 21.0407594 ] } },
{ "type": "Feature", "properties": { "osm_id": "6630407485", "code": 2501, "fclass": "supermarket", "name_left": "Tops Market", "index_right": 0, "name_right": "Hanoi" }, "geometry": { "type": "Point", "coordinates": [ 105.8085208, 20.9832736 ] } },
{ "type": "Feature", "properties": { "osm_id": "6641028792", "code": 2501, "fclass": "supermarket", "name_left": "UNLIM Tailor - Bespoke Tailoring Service", "index_right": 0, "name_right": "Hanoi" }, "geometry": { "type": "Point", "coordinates": [ 105.8253323, 21.0316688 ] } },
{ "type": "Feature", "properties": { "osm_id": "6652529904", "code": 2501, "fclass": "supermarket", "name_left": "Fuji Mart", "index_right": 0, "name_right": "Hanoi" }, "geometry": { "type": "Point", "coordinates": [ 105.841208, 21.0184193 ] } },
{ "type": "Feature", "properties": { "osm_id": "6658577897", "code": 2501, "fclass": "supermarket", "name_left": "WinMart", "index_right": 0, "name_right": "Hanoi" }, "geometry": { "type": "Point", "coordinates": [ 105.7687784, 21.0284021 ] } },
{ "type": "Feature", "properties": { "osm_id": "6685429311", "code": 2501, "fclass": "supermarket", "name_left": null, "index_right": 0, "name_right": "Hanoi" }, "geometry": { "type": "Point", "coordinates": [ 105.7655417, 21.0370876 ] } },
{ "type": "Feature", "properties": { "osm_id": "6685558879", "code": 2501, "fclass": "supermarket", "name_left": "WinMart", "index_right": 0, "name_right": "Hanoi" }, "geometry": { "type": "Point", "coordinates": [ 105.796293, 21.0143653 ] } },
{ "type": "Feature", "properties": { "osm_id": "6725510486", "code": 2501, "fclass": "supermarket", "name_left": "WinMart", "index_right": 0, "name_right": "Hanoi" }, "geometry": { "type": "Point", "coordinates": [ 105.8781521, 20.9702249 ] } },
{ "type": "Feature", "properties": { "osm_id": "6794340541", "code": 2501, "fclass": "supermarket", "name_left": "Siêu Thị Minh Đức Green", "index_right": 0, "name_right": "Hanoi" }, "geometry": { "type": "Point", "coordinates": [ 105.8296484, 20.9706077 ] } },
{ "type": "Feature", "properties": { "osm_id": "6795015291", "code": 2501, "fclass": "supermarket", "name_left": "Siêu Thị Tiện Lợi KT Mart", "index_right": 0, "name_right": "Hanoi" }, "geometry": { "type": "Point", "coordinates": [ 105.7920778, 21.0476134 ] } },
{ "type": "Feature", "properties": { "osm_id": "6811944360", "code": 2501, "fclass": "supermarket", "name_left": "K-Market", "index_right": 0, "name_right": "Hanoi" }, "geometry": { "type": "Point", "coordinates": [ 105.7834359, 21.0012178 ] } },
{ "type": "Feature", "properties": { "osm_id": "6917933675", "code": 2501, "fclass": "supermarket", "name_left": null, "index_right": 0, "name_right": "Hanoi" }, "geometry": { "type": "Point", "coordinates": [ 105.9114894, 21.0637936 ] } },
{ "type": "Feature", "properties": { "osm_id": "6917941516", "code": 2501, "fclass": "supermarket", "name_left": "True Mart+", "index_right": 0, "name_right": "Hanoi" }, "geometry": { "type": "Point", "coordinates": [ 105.9139557, 21.0595919 ] } },
{ "type": "Feature", "properties": { "osm_id": "6917941591", "code": 2501, "fclass": "supermarket", "name_left": "Siêu Thị Hapro", "index_right": 0, "name_right": "Hanoi" }, "geometry": { "type": "Point", "coordinates": [ 105.9073563, 21.0657753 ] } },
{ "type": "Feature", "properties": { "osm_id": "6924038647", "code": 2501, "fclass": "supermarket", "name_left": "Sói Biên", "index_right": 0, "name_right": "Hanoi" }, "geometry": { "type": "Point", "coordinates": [ 105.9109651, 21.0627267 ] } },
{ "type": "Feature", "properties": { "osm_id": "6968319585", "code": 2501, "fclass": "supermarket", "name_left": "Siêu Thị Annam Gourmet", "index_right": 0, "name_right": "Hanoi" }, "geometry": { "type": "Point", "coordinates": [ 105.8280816, 21.0639402 ] } },
{ "type": "Feature", "properties": { "osm_id": "6979569185", "code": 2501, "fclass": "supermarket", "name_left": null, "index_right": 0, "name_right": "Hanoi" }, "geometry": { "type": "Point", "coordinates": [ 105.8163946, 21.0033595 ] } },
{ "type": "Feature", "properties": { "osm_id": "6992010985", "code": 2501, "fclass": "supermarket", "name_left": "BRGMart", "index_right": 0, "name_right": "Hanoi" }, "geometry": { "type": "Point", "coordinates": [ 105.8514357, 21.0388469 ] } },
{ "type": "Feature", "properties": { "osm_id": "7056057519", "code": 2501, "fclass": "supermarket", "name_left": "siêu thị 24h ninja mark", "index_right": 0, "name_right": "Hanoi" }, "geometry": { "type": "Point", "coordinates": [ 105.809927, 20.982949 ] } },
{ "type": "Feature", "properties": { "osm_id": "7074068386", "code": 2501, "fclass": "supermarket", "name_left": "Siêu Thị Lan Chi", "index_right": 0, "name_right": "Hanoi" }, "geometry": { "type": "Point", "coordinates": [ 105.4970012, 21.0982919 ] } },
{ "type": "Feature", "properties": { "osm_id": "7094805085", "code": 2501, "fclass": "supermarket", "name_left": "TH MART ĐỘI 3 Lạc Thị", "index_right": 0, "name_right": "Hanoi" }, "geometry": { "type": "Point", "coordinates": [ 105.8346774, 20.92349 ] } },
{ "type": "Feature", "properties": { "osm_id": "7134960186", "code": 2501, "fclass": "supermarket", "name_left": "WinMart", "index_right": 0, "name_right": "Hanoi" }, "geometry": { "type": "Point", "coordinates": [ 105.801833, 21.0074716 ] } },
{ "type": "Feature", "properties": { "osm_id": "7147892985", "code": 2501, "fclass": "supermarket", "name_left": "WinMart", "index_right": 0, "name_right": "Hanoi" }, "geometry": { "type": "Point", "coordinates": [ 105.7961018, 21.0067651 ] } },
{ "type": "Feature", "properties": { "osm_id": "7230076587", "code": 2501, "fclass": "supermarket", "name_left": "The Oasis", "index_right": 0, "name_right": "Hanoi" }, "geometry": { "type": "Point", "coordinates": [ 105.8320611, 21.0611067 ] } },
{ "type": "Feature", "properties": { "osm_id": "7657313796", "code": 2501, "fclass": "supermarket", "name_left": "TH Mart Nguyễn Lân", "index_right": 0, "name_right": "Hanoi" }, "geometry": { "type": "Point", "coordinates": [ 105.8364139, 20.9950659 ] } },
{ "type": "Feature", "properties": { "osm_id": "7788139069", "code": 2501, "fclass": "supermarket", "name_left": "Siêu thị Tòa nhà Huy Hoàng", "index_right": 0, "name_right": "Hanoi" }, "geometry": { "type": "Point", "coordinates": [ 105.8079419, 20.9927898 ] } },
{ "type": "Feature", "properties": { "osm_id": "7848826898", "code": 2501, "fclass": "supermarket", "name_left": "Siêu Thị Lanchi Mart", "index_right": 0, "name_right": "Hanoi" }, "geometry": { "type": "Point", "coordinates": [ 105.7129633, 20.9288418 ] } },
{ "type": "Feature", "properties": { "osm_id": "8140616824", "code": 2501, "fclass": "supermarket", "name_left": "Nhà sách Sư phạm TVHL", "index_right": 0, "name_right": "Hanoi" }, "geometry": { "type": "Point", "coordinates": [ 105.7386453, 21.0280272 ] } },
{ "type": "Feature", "properties": { "osm_id": "8204154517", "code": 2501, "fclass": "supermarket", "name_left": "Siêu Thị Hapro", "index_right": 0, "name_right": "Hanoi" }, "geometry": { "type": "Point", "coordinates": [ 105.870501, 21.0459882 ] } },
{ "type": "Feature", "properties": { "osm_id": "8267269060", "code": 2501, "fclass": "supermarket", "name_left": "Mega Market", "index_right": 0, "name_right": "Hanoi" }, "geometry": { "type": "Point", "coordinates": [ 105.8406422, 20.9857415 ] } },
{ "type": "Feature", "properties": { "osm_id": "8348032117", "code": 2501, "fclass": "supermarket", "name_left": "Siêu thị gia đình Thúy tĩnh", "index_right": 0, "name_right": "Hanoi" }, "geometry": { "type": "Point", "coordinates": [ 105.7780219, 21.0838054 ] } },
{ "type": "Feature", "properties": { "osm_id": "8354756783", "code": 2501, "fclass": "supermarket", "name_left": null, "index_right": 0, "name_right": "Hanoi" }, "geometry": { "type": "Point", "coordinates": [ 105.7772691, 21.0707826 ] } },
{ "type": "Feature", "properties": { "osm_id": "8356702103", "code": 2501, "fclass": "supermarket", "name_left": null, "index_right": 0, "name_right": "Hanoi" }, "geometry": { "type": "Point", "coordinates": [ 105.7772475, 21.0681574 ] } },
{ "type": "Feature", "properties": { "osm_id": "8359608322", "code": 2501, "fclass": "supermarket", "name_left": null, "index_right": 0, "name_right": "Hanoi" }, "geometry": { "type": "Point", "coordinates": [ 105.777606, 21.0700638 ] } },
{ "type": "Feature", "properties": { "osm_id": "8360335974", "code": 2501, "fclass": "supermarket", "name_left": "Sản Vật Việt Bắc", "index_right": 0, "name_right": "Hanoi" }, "geometry": { "type": "Point", "coordinates": [ 105.7619606, 21.065421 ] } },
{ "type": "Feature", "properties": { "osm_id": "8361021993", "code": 2501, "fclass": "supermarket", "name_left": "Siêu thị bếp gas Sinh Viên", "index_right": 0, "name_right": "Hanoi" }, "geometry": { "type": "Point", "coordinates": [ 105.7344516, 21.0536682 ] } },
{ "type": "Feature", "properties": { "osm_id": "8389055279", "code": 2501, "fclass": "supermarket", "name_left": "Tinh Dầu 100", "index_right": 0, "name_right": "Hanoi" }, "geometry": { "type": "Point", "coordinates": [ 105.8622289, 21.003113 ] } },
{ "type": "Feature", "properties": { "osm_id": "8577311117", "code": 2501, "fclass": "supermarket", "name_left": "Siêu Thị BRG", "index_right": 0, "name_right": "Hanoi" }, "geometry": { "type": "Point", "coordinates": [ 105.8567809, 21.1383517 ] } },
{ "type": "Feature", "properties": { "osm_id": "8577357417", "code": 2501, "fclass": "supermarket", "name_left": "Siêu Thị BRG", "index_right": 0, "name_right": "Hanoi" }, "geometry": { "type": "Point", "coordinates": [ 105.8768821, 21.1114121 ] } },
{ "type": "Feature", "properties": { "osm_id": "8618217365", "code": 2501, "fclass": "supermarket", "name_left": "Hazu Shop", "index_right": 0, "name_right": "Hanoi" }, "geometry": { "type": "Point", "coordinates": [ 105.7728934, 21.0348579 ] } },
{ "type": "Feature", "properties": { "osm_id": "8763403938", "code": 2501, "fclass": "supermarket", "name_left": "Big C", "index_right": 0, "name_right": "Hanoi" }, "geometry": { "type": "Point", "coordinates": [ 105.7826693, 21.1863594 ] } },
{ "type": "Feature", "properties": { "osm_id": "8831932484", "code": 2501, "fclass": "supermarket", "name_left": "Chợ Xanh Văn Quán", "index_right": 0, "name_right": "Hanoi" }, "geometry": { "type": "Point", "coordinates": [ 105.7914454, 20.9742689 ] } },
{ "type": "Feature", "properties": { "osm_id": "8887233359", "code": 2501, "fclass": "supermarket", "name_left": null, "index_right": 0, "name_right": "Hanoi" }, "geometry": { "type": "Point", "coordinates": [ 105.7753232, 21.0445526 ] } },
{ "type": "Feature", "properties": { "osm_id": "8900260998", "code": 2501, "fclass": "supermarket", "name_left": "WinMart", "index_right": 0, "name_right": "Hanoi" }, "geometry": { "type": "Point", "coordinates": [ 105.8137396, 21.0791125 ] } },
{ "type": "Feature", "properties": { "osm_id": "8940145717", "code": 2501, "fclass": "supermarket", "name_left": "Siêu thị Đức Thành", "index_right": 0, "name_right": "Hanoi" }, "geometry": { "type": "Point", "coordinates": [ 105.8523693, 20.9833531 ] } },
{ "type": "Feature", "properties": { "osm_id": "8943684244", "code": 2501, "fclass": "supermarket", "name_left": "WinMart", "index_right": 0, "name_right": "Hanoi" }, "geometry": { "type": "Point", "coordinates": [ 105.8278952, 21.02091 ] } },
{ "type": "Feature", "properties": { "osm_id": "8956733283", "code": 2501, "fclass": "supermarket", "name_left": "AEON MaxValu", "index_right": 0, "name_right": "Hanoi" }, "geometry": { "type": "Point", "coordinates": [ 105.8142339, 20.990925 ] } },
{ "type": "Feature", "properties": { "osm_id": "9342743556", "code": 2501, "fclass": "supermarket", "name_left": "Siêu thị Lanchi Mart", "index_right": 0, "name_right": "Hanoi" }, "geometry": { "type": "Point", "coordinates": [ 105.6635783, 21.085962 ] } },
{ "type": "Feature", "properties": { "osm_id": "9395684499", "code": 2501, "fclass": "supermarket", "name_left": "Hico Trung Tâm Mua Sắm Online Uy Tín", "index_right": 0, "name_right": "Hanoi" }, "geometry": { "type": "Point", "coordinates": [ 105.8047926, 21.0171575 ] } },
{ "type": "Feature", "properties": { "osm_id": "9593560395", "code": 2501, "fclass": "supermarket", "name_left": "K-Market - Splendora", "index_right": 0, "name_right": "Hanoi" }, "geometry": { "type": "Point", "coordinates": [ 105.7230641, 21.0159966 ] } },
{ "type": "Feature", "properties": { "osm_id": "9738862198", "code": 2501, "fclass": "supermarket", "name_left": "AEON MaxValu Linh Đàm", "index_right": 0, "name_right": "Hanoi" }, "geometry": { "type": "Point", "coordinates": [ 105.8230327, 20.9640845 ] } },
{ "type": "Feature", "properties": { "osm_id": "9811836141", "code": 2501, "fclass": "supermarket", "name_left": "Sakuko Japanese Store", "index_right": 0, "name_right": "Hanoi" }, "geometry": { "type": "Point", "coordinates": [ 105.7374138, 21.0082198 ] } },
{ "type": "Feature", "properties": { "osm_id": "9811836143", "code": 2501, "fclass": "supermarket", "name_left": "Daily Mart", "index_right": 0, "name_right": "Hanoi" }, "geometry": { "type": "Point", "coordinates": [ 105.7379071, 21.0079794 ] } },
{ "type": "Feature", "properties": { "osm_id": "9980248118", "code": 2501, "fclass": "supermarket", "name_left": "GO!", "index_right": 0, "name_right": "Hanoi" }, "geometry": { "type": "Point", "coordinates": [ 105.793202, 21.0075494 ] } },
{ "type": "Feature", "properties": { "osm_id": "10002340409", "code": 2501, "fclass": "supermarket", "name_left": "GO!", "index_right": 0, "name_right": "Hanoi" }, "geometry": { "type": "Point", "coordinates": [ 105.8932747, 21.0508114 ] } },
{ "type": "Feature", "properties": { "osm_id": "10035906583", "code": 2501, "fclass": "supermarket", "name_left": "WinMart", "index_right": 0, "name_right": "Hanoi" }, "geometry": { "type": "Point", "coordinates": [ 105.7815895, 21.0200135 ] } },
{ "type": "Feature", "properties": { "osm_id": "10166537622", "code": 2501, "fclass": "supermarket", "name_left": "Quán tạp hóa", "index_right": 0, "name_right": "Hanoi" }, "geometry": { "type": "Point", "coordinates": [ 105.7615789, 21.0697305 ] } },
{ "type": "Feature", "properties": { "osm_id": "10223164766", "code": 2501, "fclass": "supermarket", "name_left": null, "index_right": 0, "name_right": "Hanoi" }, "geometry": { "type": "Point", "coordinates": [ 105.7221254, 21.0160616 ] } },
{ "type": "Feature", "properties": { "osm_id": "10229783479", "code": 2501, "fclass": "supermarket", "name_left": "Máy Photocopy TNT, đại lý máy photo giá rẻ", "index_right": 0, "name_right": "Hanoi" }, "geometry": { "type": "Point", "coordinates": [ 105.8260919, 20.9711523 ] } },
{ "type": "Feature", "properties": { "osm_id": "10255177794", "code": 2501, "fclass": "supermarket", "name_left": "Shop 10k Nga Ngố", "index_right": 0, "name_right": "Hanoi" }, "geometry": { "type": "Point", "coordinates": [ 105.7746032, 21.0740589 ] } },
{ "type": "Feature", "properties": { "osm_id": "10621408635", "code": 2501, "fclass": "supermarket", "name_left": "WinMart", "index_right": 0, "name_right": "Hanoi" }, "geometry": { "type": "Point", "coordinates": [ 105.8094935, 21.0233096 ] } },
{ "type": "Feature", "properties": { "osm_id": "10621408645", "code": 2501, "fclass": "supermarket", "name_left": "WinMart", "index_right": 0, "name_right": "Hanoi" }, "geometry": { "type": "Point", "coordinates": [ 105.815145, 21.0312281 ] } },
{ "type": "Feature", "properties": { "osm_id": "10648151771", "code": 2501, "fclass": "supermarket", "name_left": "Trung tâm kính cường lực cũ Phúc Trung Kiên", "index_right": 0, "name_right": "Hanoi" }, "geometry": { "type": "Point", "coordinates": [ 105.7732403, 21.0571467 ] } },
{ "type": "Feature", "properties": { "osm_id": "10653373905", "code": 2501, "fclass": "supermarket", "name_left": null, "index_right": 0, "name_right": "Hanoi" }, "geometry": { "type": "Point", "coordinates": [ 105.8436493, 21.0284379 ] } },
{ "type": "Feature", "properties": { "osm_id": "10709719739", "code": 2501, "fclass": "supermarket", "name_left": "Hoa lụa nhà trồng", "index_right": 0, "name_right": "Hanoi" }, "geometry": { "type": "Point", "coordinates": [ 105.8724139, 21.0416208 ] } },
{ "type": "Feature", "properties": { "osm_id": "10811135952", "code": 2501, "fclass": "supermarket", "name_left": "Chợ thôn Tri Chỉ", "index_right": 0, "name_right": "Hanoi" }, "geometry": { "type": "Point", "coordinates": [ 105.8292155, 20.7841007 ] } },
{ "type": "Feature", "properties": { "osm_id": "10839011533", "code": 2501, "fclass": "supermarket", "name_left": null, "index_right": 0, "name_right": "Hanoi" }, "geometry": { "type": "Point", "coordinates": [ 105.8506288, 21.028926 ] } },
{ "type": "Feature", "properties": { "osm_id": "10855443205", "code": 2501, "fclass": "supermarket", "name_left": null, "index_right": 0, "name_right": "Hanoi" }, "geometry": { "type": "Point", "coordinates": [ 105.8876602, 20.9248566 ] } },
{ "type": "Feature", "properties": { "osm_id": "10872918341", "code": 2501, "fclass": "supermarket", "name_left": "FujiMart", "index_right": 0, "name_right": "Hanoi" }, "geometry": { "type": "Point", "coordinates": [ 105.8090924, 21.0520038 ] } },
{ "type": "Feature", "properties": { "osm_id": "11152625106", "code": 2501, "fclass": "supermarket", "name_left": "Tomibun", "index_right": 0, "name_right": "Hanoi" }, "geometry": { "type": "Point", "coordinates": [ 105.8548727, 21.0213583 ] } },
{ "type": "Feature", "properties": { "osm_id": "11152959981", "code": 2501, "fclass": "supermarket", "name_left": "siêu thị 24/7", "index_right": 0, "name_right": "Hanoi" }, "geometry": { "type": "Point", "coordinates": [ 105.7732193, 21.0722689 ] } },
{ "type": "Feature", "properties": { "osm_id": "11167471087", "code": 2501, "fclass": "supermarket", "name_left": "Hà Đăng Mart", "index_right": 0, "name_right": "Hanoi" }, "geometry": { "type": "Point", "coordinates": [ 105.793548, 21.028823 ] } },
{ "type": "Feature", "properties": { "osm_id": "11243880807", "code": 2501, "fclass": "supermarket", "name_left": "WinMart", "index_right": 0, "name_right": "Hanoi" }, "geometry": { "type": "Point", "coordinates": [ 105.7916407, 20.9635026 ] } },
{ "type": "Feature", "properties": { "osm_id": "11461525804", "code": 2501, "fclass": "supermarket", "name_left": "Organica", "index_right": 0, "name_right": "Hanoi" }, "geometry": { "type": "Point", "coordinates": [ 105.857578, 21.0255339 ] } },
{ "type": "Feature", "properties": { "osm_id": "11617459420", "code": 2501, "fclass": "supermarket", "name_left": "Siêu thị Sinh viên", "index_right": 0, "name_right": "Hanoi" }, "geometry": { "type": "Point", "coordinates": [ 105.7819984, 21.0409025 ] } },
{ "type": "Feature", "properties": { "osm_id": "11672849003", "code": 2501, "fclass": "supermarket", "name_left": "APG Eco-mart", "index_right": 0, "name_right": "Hanoi" }, "geometry": { "type": "Point", "coordinates": [ 105.8505773, 21.0095423 ] } },
{ "type": "Feature", "properties": { "osm_id": "11765598470", "code": 2501, "fclass": "supermarket", "name_left": null, "index_right": 0, "name_right": "Hanoi" }, "geometry": { "type": "Point", "coordinates": [ 105.8499669, 21.0318336 ] } },
{ "type": "Feature", "properties": { "osm_id": "11821698442", "code": 2501, "fclass": "supermarket", "name_left": null, "index_right": 0, "name_right": "Hanoi" }, "geometry": { "type": "Point", "coordinates": [ 105.9533631, 21.0165706 ] } },
{ "type": "Feature", "properties": { "osm_id": "11886910769", "code": 2501, "fclass": "supermarket", "name_left": null, "index_right": 0, "name_right": "Hanoi" }, "geometry": { "type": "Point", "coordinates": [ 105.841007, 21.0450045 ] } },
{ "type": "Feature", "properties": { "osm_id": "12065665803", "code": 2501, "fclass": "supermarket", "name_left": "WinMart", "index_right": 0, "name_right": "Hanoi" }, "geometry": { "type": "Point", "coordinates": [ 105.8026643, 21.04395 ] } },
{ "type": "Feature", "properties": { "osm_id": "12072786766", "code": 2501, "fclass": "supermarket", "name_left": "WinMart", "index_right": 0, "name_right": "Hanoi" }, "geometry": { "type": "Point", "coordinates": [ 105.7597621, 21.0360639 ] } },
{ "type": "Feature", "properties": { "osm_id": "12072961918", "code": 2501, "fclass": "supermarket", "name_left": "WinMart", "index_right": 0, "name_right": "Hanoi" }, "geometry": { "type": "Point", "coordinates": [ 105.7858607, 21.0272402 ] } },
{ "type": "Feature", "properties": { "osm_id": "12076904471", "code": 2501, "fclass": "supermarket", "name_left": "Thiện Điện Thoại, Thiện Phụ Kiện", "index_right": 0, "name_right": "Hanoi" }, "geometry": { "type": "Point", "coordinates": [ 105.5357599, 20.986922 ] } },
{ "type": "Feature", "properties": { "osm_id": "12085369604", "code": 2501, "fclass": "supermarket", "name_left": "WinMart", "index_right": 0, "name_right": "Hanoi" }, "geometry": { "type": "Point", "coordinates": [ 105.8036339, 21.0006808 ] } },
{ "type": "Feature", "properties": { "osm_id": "12104684989", "code": 2501, "fclass": "supermarket", "name_left": "ShikiMart", "index_right": 0, "name_right": "Hanoi" }, "geometry": { "type": "Point", "coordinates": [ 105.8512238, 21.0161962 ] } },
{ "type": "Feature", "properties": { "osm_id": "12117964070", "code": 2501, "fclass": "supermarket", "name_left": "WinMart", "index_right": 0, "name_right": "Hanoi" }, "geometry": { "type": "Point", "coordinates": [ 105.7009532, 21.0740473 ] } },
{ "type": "Feature", "properties": { "osm_id": "12118006235", "code": 2501, "fclass": "supermarket", "name_left": "WinMart", "index_right": 0, "name_right": "Hanoi" }, "geometry": { "type": "Point", "coordinates": [ 105.8550689, 21.0034959 ] } },
{ "type": "Feature", "properties": { "osm_id": "12173037181", "code": 2501, "fclass": "supermarket", "name_left": "WinMart", "index_right": 0, "name_right": "Hanoi" }, "geometry": { "type": "Point", "coordinates": [ 105.6724653, 21.0836226 ] } },
{ "type": "Feature", "properties": { "osm_id": "12213546992", "code": 2501, "fclass": "supermarket", "name_left": "WinMart", "index_right": 0, "name_right": "Hanoi" }, "geometry": { "type": "Point", "coordinates": [ 105.821519, 21.0077764 ] } },
{ "type": "Feature", "properties": { "osm_id": "12228968664", "code": 2501, "fclass": "supermarket", "name_left": "Siêu thị B11 Kim Liên", "index_right": 0, "name_right": "Hanoi" }, "geometry": { "type": "Point", "coordinates": [ 105.83513, 21.0075497 ] } },
{ "type": "Feature", "properties": { "osm_id": "12240739572", "code": 2501, "fclass": "supermarket", "name_left": "Tops Market", "index_right": 0, "name_right": "Hanoi" }, "geometry": { "type": "Point", "coordinates": [ 105.7563084, 20.9657517 ] } },
{ "type": "Feature", "properties": { "osm_id": "12252610131", "code": 2501, "fclass": "supermarket", "name_left": "Fuji Mart", "index_right": 0, "name_right": "Hanoi" }, "geometry": { "type": "Point", "coordinates": [ 105.818248, 21.0433213 ] } },
{ "type": "Feature", "properties": { "osm_id": "12277048846", "code": 2501, "fclass": "supermarket", "name_left": "Youth Market", "index_right": 0, "name_right": "Hanoi" }, "geometry": { "type": "Point", "coordinates": [ 105.7832399, 21.0174777 ] } },
{ "type": "Feature", "properties": { "osm_id": "12277048848", "code": 2501, "fclass": "supermarket", "name_left": "K-Market", "index_right": 0, "name_right": "Hanoi" }, "geometry": { "type": "Point", "coordinates": [ 105.7840355, 21.0183484 ] } },
{ "type": "Feature", "properties": { "osm_id": "12277048852", "code": 2501, "fclass": "supermarket", "name_left": "K-Market", "index_right": 0, "name_right": "Hanoi" }, "geometry": { "type": "Point", "coordinates": [ 105.7844497, 21.0168081 ] } },
{ "type": "Feature", "properties": { "osm_id": "12287492374", "code": 2501, "fclass": "supermarket", "name_left": "Lotte Mart", "index_right": 0, "name_right": "Hanoi" }, "geometry": { "type": "Point", "coordinates": [ 105.8129155, 21.076605 ] } },
{ "type": "Feature", "properties": { "osm_id": "12372330758", "code": 2501, "fclass": "supermarket", "name_left": "K-Market", "index_right": 0, "name_right": "Hanoi" }, "geometry": { "type": "Point", "coordinates": [ 105.7740509, 21.009303 ] } },
{ "type": "Feature", "properties": { "osm_id": "12378781694", "code": 2501, "fclass": "supermarket", "name_left": "WinMart", "index_right": 0, "name_right": "Hanoi" }, "geometry": { "type": "Point", "coordinates": [ 105.8279935, 21.0640797 ] } },
{ "type": "Feature", "properties": { "osm_id": "12473015244", "code": 2501, "fclass": "supermarket", "name_left": "WinMart", "index_right": 0, "name_right": "Hanoi" }, "geometry": { "type": "Point", "coordinates": [ 105.8747613, 21.0780299 ] } },
{ "type": "Feature", "properties": { "osm_id": "12511798979", "code": 2501, "fclass": "supermarket", "name_left": "WinMart", "index_right": 0, "name_right": "Hanoi" }, "geometry": { "type": "Point", "coordinates": [ 105.8226869, 21.0195364 ] } },
{ "type": "Feature", "properties": { "osm_id": "12549262758", "code": 2501, "fclass": "supermarket", "name_left": "FujiMart", "index_right": 0, "name_right": "Hanoi" }, "geometry": { "type": "Point", "coordinates": [ 105.8219659, 21.0055645 ] } },
{ "type": "Feature", "properties": { "osm_id": "12570970072", "code": 2501, "fclass": "supermarket", "name_left": "Văn Khấn Cúng", "index_right": 0, "name_right": "Hanoi" }, "geometry": { "type": "Point", "coordinates": [ 105.8344162, 20.9644845 ] } },
{ "type": "Feature", "properties": { "osm_id": "12757792515", "code": 2501, "fclass": "supermarket", "name_left": "WinMart", "index_right": 0, "name_right": "Hanoi" }, "geometry": { "type": "Point", "coordinates": [ 105.8069288, 21.0656732 ] } },
{ "type": "Feature", "properties": { "osm_id": "12811072432", "code": 2501, "fclass": "supermarket", "name_left": "Điện máy Bick Bosch", "index_right": 0, "name_right": "Hanoi" }, "geometry": { "type": "Point", "coordinates": [ 105.6753808, 21.1702601 ] } },
{ "type": "Feature", "properties": { "osm_id": "12829686367", "code": 2501, "fclass": "supermarket", "name_left": "WinMart", "index_right": 0, "name_right": "Hanoi" }, "geometry": { "type": "Point", "coordinates": [ 105.8633466, 21.0111335 ] } },
{ "type": "Feature", "properties": { "osm_id": "12840330523", "code": 2501, "fclass": "supermarket", "name_left": "AEON MaxValu", "index_right": 0, "name_right": "Hanoi" }, "geometry": { "type": "Point", "coordinates": [ 105.8168794, 21.0364155 ] } },
{ "type": "Feature", "properties": { "osm_id": "12843468536", "code": 2501, "fclass": "supermarket", "name_left": "AEON MaxValu", "index_right": 0, "name_right": "Hanoi" }, "geometry": { "type": "Point", "coordinates": [ 105.7879846, 21.0183057 ] } },
{ "type": "Feature", "properties": { "osm_id": "12857874390", "code": 2501, "fclass": "supermarket", "name_left": "AEON MaxValu", "index_right": 0, "name_right": "Hanoi" }, "geometry": { "type": "Point", "coordinates": [ 105.7932648, 21.00299 ] } },
{ "type": "Feature", "properties": { "osm_id": "12863854992", "code": 2501, "fclass": "supermarket", "name_left": "AEON MaxValu", "index_right": 0, "name_right": "Hanoi" }, "geometry": { "type": "Point", "coordinates": [ 105.7949624, 21.063478 ] } },
{ "type": "Feature", "properties": { "osm_id": "12914997411", "code": 2501, "fclass": "supermarket", "name_left": "WinMart", "index_right": 0, "name_right": "Hanoi" }, "geometry": { "type": "Point", "coordinates": [ 105.777435, 20.9725969 ] } },
{ "type": "Feature", "properties": { "osm_id": "12921157660", "code": 2501, "fclass": "supermarket", "name_left": "AEON MaxValu", "index_right": 0, "name_right": "Hanoi" }, "geometry": { "type": "Point", "coordinates": [ 105.9442984, 20.9932694 ] } },
{ "type": "Feature", "properties": { "osm_id": "13111302714", "code": 2501, "fclass": "supermarket", "name_left": "Rèm Màn Chăn ga gối đệm Quyền Lan", "index_right": 0, "name_right": "Hanoi" }, "geometry": { "type": "Point", "coordinates": [ 105.5390884, 21.1114033 ] } },
{ "type": "Feature", "properties": { "osm_id": "13238906601", "code": 2501, "fclass": "supermarket", "name_left": null, "index_right": 0, "name_right": "Hanoi" }, "geometry": { "type": "Point", "coordinates": [ 105.8477414, 21.0116782 ] } },
{ "type": "Feature", "properties": { "osm_id": "13240102801", "code": 2501, "fclass": "supermarket", "name_left": null, "index_right": 0, "name_right": "Hanoi" }, "geometry": { "type": "Point", "coordinates": [ 105.8321394, 21.0322095 ] } },
{ "type": "Feature", "properties": { "osm_id": "13340116815", "code": 2501, "fclass": "supermarket", "name_left": "Brgmart", "index_right": 0, "name_right": "Hanoi" }, "geometry": { "type": "Point", "coordinates": [ 105.8499739, 21.0302632 ] } },
{ "type": "Feature", "properties": { "osm_id": "13392138849", "code": 2501, "fclass": "supermarket", "name_left": "Vinamilk", "index_right": 0, "name_right": "Hanoi" }, "geometry": { "type": "Point", "coordinates": [ 105.7375836, 21.0348629 ] } },
{ "type": "Feature", "properties": { "osm_id": "13415760107", "code": 2501, "fclass": "supermarket", "name_left": "Cho phiên xanh", "index_right": 0, "name_right": "Hanoi" }, "geometry": { "type": "Point", "coordinates": [ 105.8260703, 21.037372 ] } },
{ "type": "Feature", "properties": { "osm_id": "13434543128", "code": 2501, "fclass": "supermarket", "name_left": null, "index_right": 0, "name_right": "Hanoi" }, "geometry": { "type": "Point", "coordinates": [ 105.7497513, 20.6899788 ] } },
{ "type": "Feature", "properties": { "osm_id": "13569316626", "code": 2501, "fclass": "supermarket", "name_left": "T-Mart", "index_right": 0, "name_right": "Hanoi" }, "geometry": { "type": "Point", "coordinates": [ 105.8334152, 20.9843731 ] } },
{ "type": "Feature", "properties": { "osm_id": "13595661101", "code": 2501, "fclass": "supermarket", "name_left": "FujiMart", "index_right": 0, "name_right": "Hanoi" }, "geometry": { "type": "Point", "coordinates": [ 105.8116902, 20.9986499 ] } },
{ "type": "Feature", "properties": { "osm_id": "13629196851", "code": 2501, "fclass": "supermarket", "name_left": "Công ty Nguyễn Gia", "index_right": 0, "name_right": "Hanoi" }, "geometry": { "type": "Point", "coordinates": [ 105.7317821, 21.0381113 ] } },
{ "type": "Feature", "properties": { "osm_id": "13900175364", "code": 2501, "fclass": "supermarket", "name_left": "FujiMart", "index_right": 0, "name_right": "Hanoi" }, "geometry": { "type": "Point", "coordinates": [ 105.7395155, 20.9972925 ] } },
{ "type": "Feature", "properties": { "osm_id": "13917548002", "code": 2501, "fclass": "supermarket", "name_left": "FujiMart", "index_right": 0, "name_right": "Hanoi" }, "geometry": { "type": "Point", "coordinates": [ 105.8237535, 21.0194726 ] } },
{ "type": "Feature", "properties": { "osm_id": "14004358517", "code": 2501, "fclass": "supermarket", "name_left": "Công ty Cổ phần Xây dựng và Công Nghệ Bình Định", "index_right": 0, "name_right": "Hanoi" }, "geometry": { "type": "Point", "coordinates": [ 105.4454328, 21.1806623 ] } },
{ "type": "Feature", "properties": { "osm_id": "14058428179", "code": 2501, "fclass": "supermarket", "name_left": "Lotte Mart", "index_right": 0, "name_right": "Hanoi" }, "geometry": { "type": "Point", "coordinates": [ 105.812833, 21.0323151 ] } },
{ "type": "Feature", "properties": { "osm_id": "14072223285", "code": 2501, "fclass": "supermarket", "name_left": "Showroom Hoàng Giáp Lê Trọng Tấn", "index_right": 0, "name_right": "Hanoi" }, "geometry": { "type": "Point", "coordinates": [ 105.7401517, 20.9768626 ] } },
{ "type": "Feature", "properties": { "osm_id": "14102378801", "code": 2501, "fclass": "supermarket", "name_left": "Tmart", "index_right": 0, "name_right": "Hanoi" }, "geometry": { "type": "Point", "coordinates": [ 105.7641593, 21.0355305 ] } },
{ "type": "Feature", "properties": { "osm_id": "14137150492", "code": 2501, "fclass": "supermarket", "name_left": null, "index_right": 0, "name_right": "Hanoi" }, "geometry": { "type": "Point", "coordinates": [ 105.8261329, 21.0612162 ] } }
]
}
