{
"type": "FeatureCollection",
"name": "isochrone_shop_wine_drive",
"crs": { "type": "name", "properties": { "name": "urn:ogc:def:crs:OGC:1.3:CRS84" } },
"features": [
{ "type": "Feature", "properties": { "threshold_s": 300, "time_label": "5 min drive" }, "geometry": { "type": "Polygon", "coordinates": [ [ [ 38.7681263, 9.000064 ], [ 38.769043, 9.0027762 ], [ 38.7717739, 9.0033601 ], [ 38.7740211, 9.0034718 ], [ 38.774843, 9.0010288 ], [ 38.7766984, 8.9999864 ], [ 38.7766126, 8.999646 ], [ 38.7763283, 8.9988565 ], [ 38.7763041, 8.9957546 ], [ 38.7770756, 8.992736 ], [ 38.7780153, 8.9925672 ], [ 38.778576, 8.992462 ], [ 38.7797226, 8.9922354 ], [ 38.7816045, 8.9919559 ], [ 38.7816924, 8.991925 ], [ 38.7816987, 8.9917573 ], [ 38.7811683, 8.9898306 ], [ 38.7788101, 8.9895706 ], [ 38.7771993, 8.9889938 ], [ 38.7750877, 8.9907234 ], [ 38.7730466, 8.9897253 ], [ 38.7726688, 8.9892939 ], [ 38.7718676, 8.9877508 ], [ 38.7708995, 8.987194 ], [ 38.7711194, 8.9883651 ], [ 38.7706285, 8.9900889 ], [ 38.7685902, 8.9904968 ], [ 38.7690329, 8.9931543 ], [ 38.768621, 8.9952975 ], [ 38.7682519, 8.9964896 ], [ 38.7682505, 8.9968962 ], [ 38.7681263, 9.000064 ] ] ] } },
{ "type": "Feature", "properties": { "threshold_s": 600, "time_label": "10 min drive" }, "geometry": { "type": "Polygon", "coordinates": [ [ [ 38.7626954, 9.0108388 ], [ 38.76206, 9.0111118 ], [ 38.7627294, 9.0115076 ], [ 38.7654659, 9.0106243 ], [ 38.7672657, 9.0106467 ], [ 38.7702843, 9.0101555 ], [ 38.7706225, 9.010122 ], [ 38.7724962, 9.0100703 ], [ 38.7742634, 9.0124589 ], [ 38.7743465, 9.0124832 ], [ 38.7778035, 9.0124771 ], [ 38.777605, 9.0085597 ], [ 38.7812226, 9.0070596 ], [ 38.7817273, 9.007227 ], [ 38.7827072, 9.0061669 ], [ 38.7838566, 9.0045185 ], [ 38.7832893, 9.0030005 ], [ 38.7852584, 9.0000068 ], [ 38.7869011, 8.9980859 ], [ 38.7891596, 8.9951631 ], [ 38.7900146, 8.9944088 ], [ 38.7907049, 8.9923927 ], [ 38.7905229, 8.9906157 ], [ 38.7920318, 8.9875297 ], [ 38.791375, 8.9871117 ], [ 38.789819799999989, 8.986366 ], [ 38.7888132, 8.9859297 ], [ 38.7879749, 8.9856538 ], [ 38.7855757, 8.9849273 ], [ 38.7842988, 8.9845215 ], [ 38.7829895, 8.9840922 ], [ 38.7824454, 8.9839019 ], [ 38.781234, 8.9834683 ], [ 38.7786772, 8.9809764 ], [ 38.7785874, 8.9809511 ], [ 38.7752954, 8.9803589 ], [ 38.7728924, 8.9803205 ], [ 38.771043, 8.9807541 ], [ 38.7709102, 8.9816138 ], [ 38.7705655, 8.9839412 ], [ 38.76691, 8.9832305 ], [ 38.7662418, 8.9812714 ], [ 38.7659251, 8.9808102 ], [ 38.7653106, 8.9799761 ], [ 38.7640365, 8.9799769 ], [ 38.7634462, 8.979985 ], [ 38.7606946, 8.9807142 ], [ 38.760037, 8.9838182 ], [ 38.7595277, 8.9865796 ], [ 38.7593683, 8.989876 ], [ 38.7594068, 8.9930156 ], [ 38.759554, 8.9967245 ], [ 38.7593601, 8.9973697 ], [ 38.7586856, 8.9999436 ], [ 38.7587711, 9.0014635 ], [ 38.7592483, 9.0043831 ], [ 38.7602373, 9.0063444 ], [ 38.7614091, 9.0067937 ], [ 38.7636137, 9.009863 ], [ 38.7626954, 9.0108388 ] ] ] } },
{ "type": "Feature", "properties": { "threshold_s": 900, "time_label": "15 min drive" }, "geometry": { "type": "Polygon", "coordinates": [ [ [ 38.7503444, 9.0116155 ], [ 38.7536536, 9.0182268 ], [ 38.7586505, 9.0180415 ], [ 38.7645123, 9.0221623 ], [ 38.7650922, 9.0223314 ], [ 38.7686595, 9.0207369 ], [ 38.7739203, 9.0217859 ], [ 38.7748887, 9.021689 ], [ 38.7752527, 9.0215768 ], [ 38.782235, 9.0183828 ], [ 38.7875045, 9.0160762 ], [ 38.7875552, 9.0160411 ], [ 38.7914267, 9.009869 ], [ 38.7925181, 9.0080703 ], [ 38.7917389, 9.0056483 ], [ 38.7941482, 8.9979968 ], [ 38.7946719, 8.9978068 ], [ 38.7965052, 8.9969379 ], [ 38.797957, 8.9920335 ], [ 38.799967, 8.9868141 ], [ 38.7996331, 8.9854045 ], [ 38.7965669, 8.9878238 ], [ 38.791375, 8.9871117 ], [ 38.7899075, 8.9859732 ], [ 38.7880106, 8.9854871 ], [ 38.7855757, 8.9849273 ], [ 38.7842988, 8.9845215 ], [ 38.7787516, 8.9794447 ], [ 38.7777914, 8.9763594 ], [ 38.7755072, 8.9716351 ], [ 38.7752672, 8.9716781 ], [ 38.7727569, 8.9732909 ], [ 38.7654244, 8.9727788 ], [ 38.7640962, 8.9718863 ], [ 38.7609422, 8.9727954 ], [ 38.7574417, 8.9741084 ], [ 38.7524505, 8.9800202 ], [ 38.7503703, 8.9849363 ], [ 38.748865, 8.9929325 ], [ 38.747801699999989, 8.9943885 ], [ 38.7477913, 8.9945172 ], [ 38.7478575, 8.9947548 ], [ 38.7491795, 8.997489 ], [ 38.7500351, 8.9979637 ], [ 38.7528127, 9.0007658 ], [ 38.7526578, 9.0074973 ], [ 38.7503444, 9.0116155 ] ] ] } }
]
}
