{
"type": "FeatureCollection",
"name": "isochrone_amenity_drinking_water_drive",
"crs": { "type": "name", "properties": { "name": "urn:ogc:def:crs:OGC:1.3:CRS84" } },
"features": [
{ "type": "Feature", "properties": { "threshold_s": 300, "time_label": "5 min drive" }, "geometry": { "type": "Polygon", "coordinates": [ [ [ 38.7030396, 8.9723662 ], [ 38.7032911, 8.9744652 ], [ 38.7035975, 8.9744844 ], [ 38.7057853, 8.9756135 ], [ 38.7078233, 8.9742831 ], [ 38.7085293, 8.9743943 ], [ 38.7092046, 8.9740936 ], [ 38.7097858, 8.9738359 ], [ 38.7107423, 8.973403 ], [ 38.7110888, 8.9732445 ], [ 38.7120216, 8.9728206 ], [ 38.713758, 8.9722018 ], [ 38.7149674, 8.9715603 ], [ 38.7161401, 8.9698102 ], [ 38.7155005, 8.9684485 ], [ 38.7149107, 8.966471 ], [ 38.7145731, 8.9664342 ], [ 38.7144134, 8.9664039 ], [ 38.7139912, 8.9664064 ], [ 38.7137368, 8.9664115 ], [ 38.7134827, 8.9664139 ], [ 38.7130286, 8.966315 ], [ 38.7114121, 8.9645081 ], [ 38.7120306, 8.9638736 ], [ 38.7129534, 8.9636095 ], [ 38.7136728, 8.9617756 ], [ 38.7117772, 8.9602285 ], [ 38.7116689, 8.960046 ], [ 38.7116398, 8.9601888 ], [ 38.7116251, 8.9603827 ], [ 38.7114597, 8.962623 ], [ 38.7114208, 8.963849 ], [ 38.7113571, 8.9645981 ], [ 38.7097062, 8.9659719 ], [ 38.7077826, 8.9653489 ], [ 38.7075511, 8.9638947 ], [ 38.7052834, 8.9636222 ], [ 38.7059028, 8.9616931 ], [ 38.7059901, 8.9615764 ], [ 38.7061007, 8.9608228 ], [ 38.7064034, 8.959663 ], [ 38.7041751, 8.9603363 ], [ 38.702921, 8.960042 ], [ 38.7027645, 8.9600065 ], [ 38.7026118, 8.9602087 ], [ 38.7023662, 8.9614045 ], [ 38.7027848, 8.9627965 ], [ 38.7017026, 8.964079 ], [ 38.7015584, 8.9642617 ], [ 38.7013595, 8.9668015 ], [ 38.7021558, 8.9674436 ], [ 38.7026037, 8.9679609 ], [ 38.7033042, 8.9688567 ], [ 38.7038798, 8.9707111 ], [ 38.7030396, 8.9723662 ] ] ] } },
{ "type": "Feature", "properties": { "threshold_s": 600, "time_label": "10 min drive" }, "geometry": { "type": "Polygon", "coordinates": [ [ [ 38.6946158, 8.9787356 ], [ 38.6953197, 8.9797142 ], [ 38.6971305, 8.9809448 ], [ 38.6985553, 8.9808574 ], [ 38.7039784, 8.9764145 ], [ 38.7057853, 8.9756135 ], [ 38.7065117, 8.9752925 ], [ 38.7076208, 8.974797 ], [ 38.7079365, 8.9746578 ], [ 38.7085293, 8.9743943 ], [ 38.7089684, 8.9741971 ], [ 38.7092046, 8.9740936 ], [ 38.7097858, 8.9738359 ], [ 38.7107423, 8.973403 ], [ 38.7110888, 8.9732445 ], [ 38.7137725, 8.9724536 ], [ 38.7206829, 8.9750566 ], [ 38.7213911, 8.9756873 ], [ 38.7233107, 8.975741 ], [ 38.7234369, 8.9751753 ], [ 38.7237431, 8.9735448 ], [ 38.7247438, 8.967833 ], [ 38.7252565, 8.9659516 ], [ 38.7244731, 8.960367 ], [ 38.7193358, 8.9556942 ], [ 38.7174137, 8.9514514 ], [ 38.7156814, 8.9509822 ], [ 38.7137612, 8.9506522 ], [ 38.7087649, 8.9521945 ], [ 38.706019499999989, 8.9539817 ], [ 38.7042975, 8.9555025 ], [ 38.6972613, 8.9539438 ], [ 38.6967489, 8.9534902 ], [ 38.6957145, 8.9536041 ], [ 38.6934453, 8.9582368 ], [ 38.693562, 8.9605524 ], [ 38.6949742, 8.9614784 ], [ 38.6973037, 8.9678437 ], [ 38.6929491, 8.9700675 ], [ 38.6919154, 8.9705047 ], [ 38.6920311, 8.9726709 ], [ 38.6933614, 8.9763654 ], [ 38.6940234, 8.9777605 ], [ 38.6946158, 8.9787356 ] ] ] } },
{ "type": "Feature", "properties": { "threshold_s": 900, "time_label": "15 min drive" }, "geometry": { "type": "Polygon", "coordinates": [ [ [ 38.6884399, 8.9842379 ], [ 38.689723, 8.9868862 ], [ 38.6929392, 8.9887105 ], [ 38.6969275, 8.9885841 ], [ 38.6978363, 8.9881056 ], [ 38.7043217, 8.9845778 ], [ 38.7038834, 8.9806209 ], [ 38.7092462, 8.9784889 ], [ 38.7100346, 8.97858 ], [ 38.7106962, 8.978577 ], [ 38.714999, 8.9805731 ], [ 38.719303, 8.9836928 ], [ 38.7223984, 8.9810641 ], [ 38.7230837, 8.980366 ], [ 38.7282267, 8.9758101 ], [ 38.7296868, 8.9752961 ], [ 38.7322075, 8.9738249 ], [ 38.7319377, 8.9689565 ], [ 38.7335819, 8.9654407 ], [ 38.7338065, 8.9651427 ], [ 38.7338521, 8.9650684 ], [ 38.732747, 8.9604117 ], [ 38.7312097, 8.9569829 ], [ 38.7290916, 8.9523734 ], [ 38.7287362, 8.9520045 ], [ 38.7255665, 8.9454609 ], [ 38.7253649, 8.9451573 ], [ 38.7252582, 8.945024 ], [ 38.7240815, 8.944222 ], [ 38.7202932, 8.9428596 ], [ 38.7193868, 8.9430442 ], [ 38.7169259, 8.9451545 ], [ 38.7157618, 8.9461813 ], [ 38.7111602, 8.9483774 ], [ 38.7068989, 8.9474827 ], [ 38.6996703, 8.9451477 ], [ 38.6990152, 8.9448806 ], [ 38.69786, 8.9443823 ], [ 38.6966338, 8.9437687 ], [ 38.6943372, 8.9436391 ], [ 38.6934225, 8.9440339 ], [ 38.6880448, 8.9485971 ], [ 38.684802, 8.9512162 ], [ 38.686433, 8.9528989 ], [ 38.6859083, 8.9599987 ], [ 38.6854872, 8.9606094 ], [ 38.6851023, 8.9612095 ], [ 38.6834991, 8.9686877 ], [ 38.6819351, 8.9723173 ], [ 38.682834, 8.9747762 ], [ 38.6831065, 8.9753887 ], [ 38.6859513, 8.9797952 ], [ 38.6884399, 8.9842379 ] ] ] } },
{ "type": "Feature", "properties": { "threshold_s": 300, "time_label": "5 min drive" }, "geometry": { "type": "Polygon", "coordinates": [ [ [ 38.8187528, 8.8385423 ], [ 38.8194555, 8.8384522 ], [ 38.8188037, 8.8381182 ], [ 38.8187528, 8.8385423 ] ] ] } },
{ "type": "Feature", "properties": { "threshold_s": 600, "time_label": "10 min drive" }, "geometry": { "type": "Polygon", "coordinates": [ [ [ 38.8187528, 8.8385423 ], [ 38.8194555, 8.8384522 ], [ 38.8188037, 8.8381182 ], [ 38.8187528, 8.8385423 ] ] ] } },
{ "type": "Feature", "properties": { "threshold_s": 900, "time_label": "15 min drive" }, "geometry": { "type": "Polygon", "coordinates": [ [ [ 38.8187528, 8.8385423 ], [ 38.8194555, 8.8384522 ], [ 38.8188037, 8.8381182 ], [ 38.8187528, 8.8385423 ] ] ] } },
{ "type": "Feature", "properties": { "threshold_s": 300, "time_label": "5 min drive" }, "geometry": { "type": "Polygon", "coordinates": [ [ [ 38.7248078, 8.963049 ], [ 38.7251359, 8.9647645 ], [ 38.7270441, 8.9655836 ], [ 38.727375, 8.9653815 ], [ 38.727859, 8.965116 ], [ 38.7288639, 8.9647068 ], [ 38.7302428, 8.9644781 ], [ 38.7313496, 8.9646863 ], [ 38.7335819, 8.9654407 ], [ 38.7338065, 8.9651427 ], [ 38.7338521, 8.9650684 ], [ 38.733273, 8.9646673 ], [ 38.7337236, 8.9625548 ], [ 38.7347155, 8.9619706 ], [ 38.7352396, 8.9611247 ], [ 38.7351846, 8.9609923 ], [ 38.7348681, 8.9596248 ], [ 38.7334362, 8.9591808 ], [ 38.733176899999989, 8.9569398 ], [ 38.7335671, 8.9563225 ], [ 38.7364709, 8.9560006 ], [ 38.733087, 8.9556029 ], [ 38.732454, 8.9546242 ], [ 38.7324205, 8.9523999 ], [ 38.732519, 8.9518222 ], [ 38.7330755, 8.9499822 ], [ 38.733206, 8.9497495 ], [ 38.7322864, 8.9497901 ], [ 38.7311321, 8.9504265 ], [ 38.7300864, 8.9512903 ], [ 38.7301135, 8.9516866 ], [ 38.7301407, 8.9521526 ], [ 38.731062, 8.9531298 ], [ 38.7311816, 8.9554112 ], [ 38.7306932, 8.9555078 ], [ 38.7292903, 8.9552506 ], [ 38.728762, 8.9552402 ], [ 38.7272777, 8.9556214 ], [ 38.7266015, 8.9562245 ], [ 38.7255286, 8.9576791 ], [ 38.7248902, 8.9588554 ], [ 38.7245228, 8.9604517 ], [ 38.7236738, 8.9611234 ], [ 38.7231038, 8.9613597 ], [ 38.7231113, 8.9625946 ], [ 38.7248078, 8.963049 ] ] ] } },
{ "type": "Feature", "properties": { "threshold_s": 600, "time_label": "10 min drive" }, "geometry": { "type": "Polygon", "coordinates": [ [ [ 38.7128595, 8.9667916 ], [ 38.7130442, 8.9680264 ], [ 38.7189853, 8.9700705 ], [ 38.7198439, 8.9703886 ], [ 38.7237888, 8.9707442 ], [ 38.7266294, 8.9728033 ], [ 38.7276338, 8.9743338 ], [ 38.7296868, 8.9752961 ], [ 38.7346587, 8.9739573 ], [ 38.7375861, 8.9741636 ], [ 38.7429767, 8.9727105 ], [ 38.7434813, 8.9705768 ], [ 38.7407647, 8.9696851 ], [ 38.7372129, 8.9662997 ], [ 38.7355458, 8.9629714 ], [ 38.7352396, 8.9611247 ], [ 38.7364709, 8.9560006 ], [ 38.7416386, 8.9527331 ], [ 38.7419392, 8.951485 ], [ 38.7420845, 8.9508667 ], [ 38.7422418, 8.9502442 ], [ 38.7423251, 8.9499041 ], [ 38.7423969, 8.9496075 ], [ 38.7424729, 8.9492846 ], [ 38.7426053, 8.948739 ], [ 38.7423963, 8.9468909 ], [ 38.7417747, 8.945377 ], [ 38.7407958, 8.9439545 ], [ 38.7396323, 8.9425541 ], [ 38.737807, 8.9407308 ], [ 38.7340245, 8.9393792 ], [ 38.7336878, 8.9394434 ], [ 38.7322478, 8.9405618 ], [ 38.7260826, 8.942055 ], [ 38.7237417, 8.9448268 ], [ 38.7215566, 8.9491322 ], [ 38.7199029, 8.9525868 ], [ 38.7181476, 8.9559264 ], [ 38.7136436, 8.9602259 ], [ 38.7135471, 8.9609676 ], [ 38.7130066, 8.9653424 ], [ 38.7128595, 8.9667916 ] ] ] } },
{ "type": "Feature", "properties": { "threshold_s": 900, "time_label": "15 min drive" }, "geometry": { "type": "Polygon", "coordinates": [ [ [ 38.7065975, 8.9731981 ], [ 38.7073432, 8.974348 ], [ 38.7079365, 8.9746578 ], [ 38.7085293, 8.9743943 ], [ 38.7089684, 8.9741971 ], [ 38.7092046, 8.9740936 ], [ 38.7097858, 8.9738359 ], [ 38.7140299, 8.9732737 ], [ 38.7189332, 8.9793883 ], [ 38.7215909, 8.9811187 ], [ 38.7223984, 8.9810641 ], [ 38.7301493, 8.9825139 ], [ 38.7325033, 8.9848697 ], [ 38.737172, 8.9846817 ], [ 38.7392856, 8.9844684 ], [ 38.7468322, 8.9817306 ], [ 38.7515388, 8.9784886 ], [ 38.751993, 8.9781171 ], [ 38.7514735, 8.9690677 ], [ 38.7510712, 8.9681477 ], [ 38.7509096, 8.9586491 ], [ 38.7507816, 8.9530888 ], [ 38.7529674, 8.9470237 ], [ 38.7532161, 8.946207 ], [ 38.7522927, 8.9448724 ], [ 38.7514446, 8.9439975 ], [ 38.7472455, 8.9384746 ], [ 38.7455144, 8.9347312 ], [ 38.7399185, 8.9330791 ], [ 38.7338218, 8.9279367 ], [ 38.7332416, 8.9279218 ], [ 38.7321389, 8.9288938 ], [ 38.7302269, 8.9314915 ], [ 38.7280331, 8.9344362 ], [ 38.7208172, 8.9348974 ], [ 38.7195191, 8.9350239 ], [ 38.7162273, 8.9410286 ], [ 38.711669, 8.948827 ], [ 38.7068067, 8.9555528 ], [ 38.7029762, 8.9578823 ], [ 38.7039602, 8.9610498 ], [ 38.7044255, 8.9679168 ], [ 38.7065975, 8.9731981 ] ] ] } },
{ "type": "Feature", "properties": { "threshold_s": 300, "time_label": "5 min drive" }, "geometry": { "type": "Polygon", "coordinates": [ [ [ 38.7899619, 8.994329 ], [ 38.7900146, 8.9944088 ], [ 38.7918475, 8.9944966 ], [ 38.7933804, 8.9941166 ], [ 38.7944663, 8.9929127 ], [ 38.7952184, 8.9928401 ], [ 38.7970592, 8.9929145 ], [ 38.797341, 8.9927148 ], [ 38.797957, 8.9920335 ], [ 38.7976136, 8.9913002 ], [ 38.8018267, 8.9898213 ], [ 38.7992705, 8.9883311 ], [ 38.7976586, 8.9872854 ], [ 38.7971379, 8.9861223 ], [ 38.7967554, 8.986409 ], [ 38.7962286, 8.9869708 ], [ 38.7948121, 8.988467 ], [ 38.7942992, 8.9887271 ], [ 38.7933953, 8.9891541 ], [ 38.7920318, 8.9875297 ], [ 38.791375, 8.9871117 ], [ 38.789819799999989, 8.986366 ], [ 38.7906399, 8.9883331 ], [ 38.7908448, 8.9901828 ], [ 38.7905229, 8.9906157 ], [ 38.7897353, 8.991741 ], [ 38.790229, 8.9920772 ], [ 38.7907049, 8.9923927 ], [ 38.7899619, 8.994329 ] ] ] } },
{ "type": "Feature", "properties": { "threshold_s": 600, "time_label": "10 min drive" }, "geometry": { "type": "Polygon", "coordinates": [ [ [ 38.7822667, 8.9992671 ], [ 38.7823378, 9.0013971 ], [ 38.782411, 9.0014722 ], [ 38.7863282, 9.0029323 ], [ 38.7882641, 9.0032555 ], [ 38.7906855, 8.9993148 ], [ 38.7913789, 8.9990156 ], [ 38.7970185, 9.0037105 ], [ 38.7976324, 9.0038828 ], [ 38.7987573, 9.0041948 ], [ 38.8012192, 9.004282 ], [ 38.8016061, 9.0039712 ], [ 38.8019402, 9.0036834 ], [ 38.8070261, 8.9987976 ], [ 38.8102361, 8.9937654 ], [ 38.8113809, 8.9918976 ], [ 38.8121692, 8.9905254 ], [ 38.8114187, 8.9892505 ], [ 38.8094608, 8.9871787 ], [ 38.8035562, 8.9852867 ], [ 38.8021619, 8.9853275 ], [ 38.7996331, 8.9854045 ], [ 38.7971379, 8.9861223 ], [ 38.789819799999989, 8.986366 ], [ 38.788826, 8.985809 ], [ 38.7855757, 8.9849273 ], [ 38.7842988, 8.9845215 ], [ 38.7829895, 8.9840922 ], [ 38.7790937, 8.9824536 ], [ 38.7789774, 8.9838548 ], [ 38.7799272, 8.9853434 ], [ 38.7805548, 8.9870377 ], [ 38.7779248, 8.992709 ], [ 38.7792163, 8.9939508 ], [ 38.7822667, 8.9992671 ] ] ] } },
{ "type": "Feature", "properties": { "threshold_s": 900, "time_label": "15 min drive" }, "geometry": { "type": "Polygon", "coordinates": [ [ [ 38.7704085, 9.0001463 ], [ 38.7751776, 9.0098829 ], [ 38.7835138, 9.0134781 ], [ 38.7874922, 9.0136376 ], [ 38.7990194, 9.0130044 ], [ 38.8032581, 9.015064 ], [ 38.8066212, 9.0124266 ], [ 38.8085412, 9.0106981 ], [ 38.8122471, 9.0067603 ], [ 38.8194698, 8.9974246 ], [ 38.8200174, 8.9966206 ], [ 38.8216274, 8.9918036 ], [ 38.8217426, 8.9875036 ], [ 38.8213356, 8.9856355 ], [ 38.8206262, 8.9846351 ], [ 38.8066972, 8.9860036 ], [ 38.8035562, 8.9852867 ], [ 38.8021619, 8.9853275 ], [ 38.7996331, 8.9854045 ], [ 38.7899075, 8.9859732 ], [ 38.7880106, 8.9854871 ], [ 38.7777914, 8.9763594 ], [ 38.7756114, 8.9726492 ], [ 38.7683591, 8.9778904 ], [ 38.7700921, 8.9906088 ], [ 38.7693603, 8.996808 ], [ 38.7704085, 9.0001463 ] ] ] } },
{ "type": "Feature", "properties": { "threshold_s": 300, "time_label": "5 min drive" }, "geometry": { "type": "Polygon", "coordinates": [ [ [ 38.7899619, 8.994329 ], [ 38.7900146, 8.9944088 ], [ 38.7918475, 8.9944966 ], [ 38.7933804, 8.9941166 ], [ 38.7944663, 8.9929127 ], [ 38.7952184, 8.9928401 ], [ 38.7970592, 8.9929145 ], [ 38.797341, 8.9927148 ], [ 38.797957, 8.9920335 ], [ 38.7976136, 8.9913002 ], [ 38.8018267, 8.9898213 ], [ 38.7992705, 8.9883311 ], [ 38.7976586, 8.9872854 ], [ 38.7971379, 8.9861223 ], [ 38.7967554, 8.986409 ], [ 38.7962286, 8.9869708 ], [ 38.7948121, 8.988467 ], [ 38.7942992, 8.9887271 ], [ 38.7933953, 8.9891541 ], [ 38.7920318, 8.9875297 ], [ 38.791375, 8.9871117 ], [ 38.789819799999989, 8.986366 ], [ 38.7906399, 8.9883331 ], [ 38.7908448, 8.9901828 ], [ 38.7905229, 8.9906157 ], [ 38.7897353, 8.991741 ], [ 38.790229, 8.9920772 ], [ 38.7907049, 8.9923927 ], [ 38.7899619, 8.994329 ] ] ] } },
{ "type": "Feature", "properties": { "threshold_s": 600, "time_label": "10 min drive" }, "geometry": { "type": "Polygon", "coordinates": [ [ [ 38.7822667, 8.9992671 ], [ 38.7823378, 9.0013971 ], [ 38.782411, 9.0014722 ], [ 38.7863282, 9.0029323 ], [ 38.7882641, 9.0032555 ], [ 38.7906855, 8.9993148 ], [ 38.7913789, 8.9990156 ], [ 38.7970185, 9.0037105 ], [ 38.7976324, 9.0038828 ], [ 38.7987573, 9.0041948 ], [ 38.8012192, 9.004282 ], [ 38.8016061, 9.0039712 ], [ 38.8019402, 9.0036834 ], [ 38.8070261, 8.9987976 ], [ 38.8102361, 8.9937654 ], [ 38.8113809, 8.9918976 ], [ 38.8121692, 8.9905254 ], [ 38.8114187, 8.9892505 ], [ 38.8094608, 8.9871787 ], [ 38.8035562, 8.9852867 ], [ 38.8021619, 8.9853275 ], [ 38.7996331, 8.9854045 ], [ 38.7971379, 8.9861223 ], [ 38.789819799999989, 8.986366 ], [ 38.788826, 8.985809 ], [ 38.7855757, 8.9849273 ], [ 38.7842988, 8.9845215 ], [ 38.7829895, 8.9840922 ], [ 38.7790937, 8.9824536 ], [ 38.7789774, 8.9838548 ], [ 38.7799272, 8.9853434 ], [ 38.7805548, 8.9870377 ], [ 38.7779248, 8.992709 ], [ 38.7792163, 8.9939508 ], [ 38.7822667, 8.9992671 ] ] ] } },
{ "type": "Feature", "properties": { "threshold_s": 900, "time_label": "15 min drive" }, "geometry": { "type": "Polygon", "coordinates": [ [ [ 38.7704085, 9.0001463 ], [ 38.7751776, 9.0098829 ], [ 38.7835138, 9.0134781 ], [ 38.7874922, 9.0136376 ], [ 38.7990194, 9.0130044 ], [ 38.8032581, 9.015064 ], [ 38.8066212, 9.0124266 ], [ 38.8085412, 9.0106981 ], [ 38.8122471, 9.0067603 ], [ 38.8194698, 8.9974246 ], [ 38.8200174, 8.9966206 ], [ 38.8216274, 8.9918036 ], [ 38.8217426, 8.9875036 ], [ 38.8213356, 8.9856355 ], [ 38.8206262, 8.9846351 ], [ 38.8066972, 8.9860036 ], [ 38.8035562, 8.9852867 ], [ 38.8021619, 8.9853275 ], [ 38.7996331, 8.9854045 ], [ 38.7899075, 8.9859732 ], [ 38.7880106, 8.9854871 ], [ 38.7777914, 8.9763594 ], [ 38.7756114, 8.9726492 ], [ 38.7683591, 8.9778904 ], [ 38.7700921, 8.9906088 ], [ 38.7693603, 8.996808 ], [ 38.7704085, 9.0001463 ] ] ] } }
]
}
