{
"type": "FeatureCollection",
"name": "isochrone_shop_kiosk_drive",
"crs": { "type": "name", "properties": { "name": "urn:ogc:def:crs:OGC:1.3:CRS84" } },
"features": [
{ "type": "Feature", "properties": { "threshold_s": 300, "time_label": "5 min drive" }, "geometry": { "type": "Polygon", "coordinates": [ [ [ 38.7435738, 9.0287764 ], [ 38.7433317, 9.0288728 ], [ 38.745241, 9.0302293 ], [ 38.7452999, 9.0301931 ], [ 38.7472081, 9.0293312 ], [ 38.7484038, 9.0311236 ], [ 38.7472213, 9.032079 ], [ 38.7469049, 9.0323628 ], [ 38.7471559, 9.0325573 ], [ 38.7475825, 9.0323943 ], [ 38.7485994, 9.0316501 ], [ 38.7504699, 9.0328679 ], [ 38.75095, 9.0327385 ], [ 38.751755, 9.032577 ], [ 38.7518043, 9.0325728 ], [ 38.7527272, 9.0324999 ], [ 38.7529134, 9.0324932 ], [ 38.7549, 9.0340673 ], [ 38.7553975, 9.0323865 ], [ 38.7559373, 9.0307996 ], [ 38.7568262, 9.030107 ], [ 38.7576451, 9.0285006 ], [ 38.7581126, 9.0269965 ], [ 38.76061210000001, 9.0274013 ], [ 38.76061330000001, 9.0273217 ], [ 38.7577313, 9.0264413 ], [ 38.7576048, 9.024946 ], [ 38.7575279, 9.0235574 ], [ 38.7568448, 9.0227596 ], [ 38.7561953, 9.0200771 ], [ 38.755685, 9.0209076 ], [ 38.7536067, 9.0215262 ], [ 38.7524033, 9.0192765 ], [ 38.7524126, 9.0191699 ], [ 38.7523119, 9.0191611 ], [ 38.7523037, 9.0192633 ], [ 38.7506728, 9.0212438 ], [ 38.75038, 9.0212209 ], [ 38.7502159, 9.0212092 ], [ 38.7494123, 9.0211759 ], [ 38.7505797, 9.0229467 ], [ 38.7497291, 9.0238254 ], [ 38.747689, 9.0250316 ], [ 38.7466154, 9.0246799 ], [ 38.7464572, 9.0246276 ], [ 38.745275, 9.0256588 ], [ 38.7452193, 9.0273356 ], [ 38.7441712, 9.0284912 ], [ 38.7435738, 9.0287764 ] ] ] } },
{ "type": "Feature", "properties": { "threshold_s": 600, "time_label": "10 min drive" }, "geometry": { "type": "Polygon", "coordinates": [ [ [ 38.7414803, 9.0373756 ], [ 38.7410877, 9.0396242 ], [ 38.7429183, 9.0400339 ], [ 38.7463036, 9.041451 ], [ 38.7498467, 9.0434292 ], [ 38.7540054, 9.043656 ], [ 38.7565811, 9.0429639 ], [ 38.7565413, 9.0397014 ], [ 38.7587068, 9.036244 ], [ 38.7603589, 9.0356761 ], [ 38.7620831, 9.0353314 ], [ 38.7632315, 9.0343164 ], [ 38.7654192, 9.0307943 ], [ 38.7633917, 9.0291295 ], [ 38.7625209, 9.0267749 ], [ 38.7624111, 9.0266163 ], [ 38.7616201, 9.0233396 ], [ 38.7638895, 9.0199177 ], [ 38.7650242, 9.0169385 ], [ 38.7645019, 9.0170063 ], [ 38.7636993, 9.017064 ], [ 38.7631065, 9.0171496 ], [ 38.7629355, 9.0171841 ], [ 38.7623398, 9.017288 ], [ 38.7587022, 9.0179263 ], [ 38.7566767, 9.0148583 ], [ 38.7586435, 9.0127141 ], [ 38.7593389, 9.0118938 ], [ 38.7594056, 9.011551 ], [ 38.7593965, 9.0114302 ], [ 38.7591779, 9.0112723 ], [ 38.7576903, 9.0118964 ], [ 38.7551354, 9.0094268 ], [ 38.7535663, 9.009591 ], [ 38.7498135, 9.0113847 ], [ 38.7482888, 9.0109348 ], [ 38.7460468, 9.0114413 ], [ 38.7444428, 9.0128526 ], [ 38.7432928, 9.0147559 ], [ 38.7416949, 9.0162818 ], [ 38.7401381, 9.0200432 ], [ 38.7391113, 9.0207865 ], [ 38.738640599999989, 9.0210474 ], [ 38.7353951, 9.0222044 ], [ 38.7349658, 9.0222472 ], [ 38.7335289, 9.0249806 ], [ 38.733439, 9.0256799 ], [ 38.7338878, 9.0292468 ], [ 38.735255, 9.0316164 ], [ 38.7366399, 9.0346148 ], [ 38.7380116, 9.0355651 ], [ 38.7385896, 9.035751 ], [ 38.7414803, 9.0373756 ] ] ] } },
{ "type": "Feature", "properties": { "threshold_s": 900, "time_label": "15 min drive" }, "geometry": { "type": "Polygon", "coordinates": [ [ [ 38.7308286, 9.042755 ], [ 38.7321677, 9.0456449 ], [ 38.7351885, 9.0477024 ], [ 38.739597, 9.0495643 ], [ 38.7406751, 9.0508444 ], [ 38.7428468, 9.0532492 ], [ 38.7439418, 9.0534743 ], [ 38.7489405, 9.0536645 ], [ 38.7533629, 9.05423 ], [ 38.7575758, 9.0539344 ], [ 38.760223, 9.0527569 ], [ 38.7604893, 9.0526153 ], [ 38.7619097, 9.0490886 ], [ 38.7652703, 9.0454849 ], [ 38.7678988, 9.0418997 ], [ 38.7721408, 9.0387546 ], [ 38.7730517, 9.0384456 ], [ 38.7744829, 9.0351596 ], [ 38.775375, 9.0328458 ], [ 38.7739974, 9.0298455 ], [ 38.7726027, 9.029819 ], [ 38.7696171, 9.026581 ], [ 38.7707329, 9.0240985 ], [ 38.7713573, 9.0204686 ], [ 38.7742627, 9.0186566 ], [ 38.774797, 9.0185944 ], [ 38.7755278, 9.0174113 ], [ 38.7743465, 9.0124832 ], [ 38.7706413, 9.0092666 ], [ 38.7679271, 9.0042908 ], [ 38.766122, 9.0039908 ], [ 38.7643257, 9.0041211 ], [ 38.763349, 9.0045134 ], [ 38.7585693, 9.0015672 ], [ 38.758485, 8.999819 ], [ 38.7551196, 8.9978093 ], [ 38.7548415, 8.9978151 ], [ 38.7529688, 8.9982115 ], [ 38.7522358, 8.9986429 ], [ 38.7471426, 9.0000833 ], [ 38.7454493, 9.0011653 ], [ 38.7405517, 9.0016754 ], [ 38.739708899999989, 9.0047463 ], [ 38.7367107, 9.0088253 ], [ 38.7359332, 9.0101339 ], [ 38.7356693, 9.0105975 ], [ 38.7330361, 9.0140917 ], [ 38.7314063, 9.0144722 ], [ 38.7289514, 9.0141945 ], [ 38.7281239, 9.0140582 ], [ 38.7277527, 9.0146688 ], [ 38.7266323, 9.0168388 ], [ 38.7255172, 9.019411 ], [ 38.7255433, 9.0216256 ], [ 38.7249787, 9.024868 ], [ 38.722997, 9.0279126 ], [ 38.7244528, 9.0303933 ], [ 38.7253331, 9.0339774 ], [ 38.7277843, 9.0367578 ], [ 38.7305473, 9.0409807 ], [ 38.7307241, 9.0417843 ], [ 38.7308286, 9.042755 ] ] ] } },
{ "type": "Feature", "properties": { "threshold_s": 300, "time_label": "5 min drive" }, "geometry": { "type": "Polygon", "coordinates": [ [ [ 38.7589558, 8.9240405 ], [ 38.7589171, 8.9271134 ], [ 38.7614334, 8.9266839 ], [ 38.7642678, 8.9280367 ], [ 38.7652629, 8.9297203 ], [ 38.7675779, 8.9313611 ], [ 38.7682445, 8.9295578 ], [ 38.7681373, 8.9288881 ], [ 38.7675151, 8.9277337 ], [ 38.766051, 8.9251588 ], [ 38.7667828, 8.9219933 ], [ 38.768427, 8.9210203 ], [ 38.7693007, 8.9204716 ], [ 38.7702032, 8.9199201 ], [ 38.7710931, 8.9194227 ], [ 38.7716048, 8.9191467 ], [ 38.7722459, 8.9188675 ], [ 38.7719715, 8.9177107 ], [ 38.7708029, 8.9157749 ], [ 38.7678369, 8.9146897 ], [ 38.7665329, 8.9140315 ], [ 38.7637464, 8.9120776 ], [ 38.7635736, 8.9120019 ], [ 38.7632103, 8.9128309 ], [ 38.7626269, 8.914082 ], [ 38.7602087, 8.9158494 ], [ 38.7589784, 8.9159903 ], [ 38.7562388, 8.9170715 ], [ 38.7559028, 8.9178419 ], [ 38.7563817, 8.9182651 ], [ 38.7577818, 8.9190549 ], [ 38.7589368, 8.9225986 ], [ 38.7589558, 8.9240405 ] ] ] } },
{ "type": "Feature", "properties": { "threshold_s": 600, "time_label": "10 min drive" }, "geometry": { "type": "Polygon", "coordinates": [ [ [ 38.7598836, 8.9360797 ], [ 38.7596932, 8.9379106 ], [ 38.7608868, 8.9389771 ], [ 38.7615674, 8.9389625 ], [ 38.7629749, 8.9379093 ], [ 38.7644369, 8.936242 ], [ 38.7681933, 8.9357829 ], [ 38.7703039, 8.9373162 ], [ 38.7710331, 8.9386429 ], [ 38.7710994, 8.9387713 ], [ 38.7714243, 8.9390959 ], [ 38.7736715, 8.9393587 ], [ 38.7754118, 8.936514 ], [ 38.7786296, 8.9346516 ], [ 38.7795516, 8.9301325 ], [ 38.7788053, 8.9279041 ], [ 38.7765764, 8.923548 ], [ 38.7790288, 8.9206677 ], [ 38.7794154, 8.9203348 ], [ 38.7818361, 8.9174857 ], [ 38.781245, 8.9128611 ], [ 38.7769419, 8.9105477 ], [ 38.7765561, 8.9099349 ], [ 38.7742556, 8.9073623 ], [ 38.7714292, 8.9048853 ], [ 38.767246, 8.9014101 ], [ 38.7649847, 8.9014335 ], [ 38.763461, 8.9019748 ], [ 38.7598751, 8.9041518 ], [ 38.7586067, 8.9056722 ], [ 38.7576917, 8.9073241 ], [ 38.7574926, 8.9077659 ], [ 38.7539935, 8.9113695 ], [ 38.7508868, 8.9111516 ], [ 38.7501861, 8.9122983 ], [ 38.750162, 8.914234 ], [ 38.7524539, 8.9186552 ], [ 38.7526886, 8.9189573 ], [ 38.7547821, 8.9190686 ], [ 38.756042, 8.9195713 ], [ 38.7589368, 8.9225986 ], [ 38.7589952, 8.9234564 ], [ 38.7531437, 8.9246421 ], [ 38.7554607, 8.926309 ], [ 38.7588814, 8.9300036 ], [ 38.7588708, 8.9308813 ], [ 38.7598836, 8.9360797 ] ] ] } },
{ "type": "Feature", "properties": { "threshold_s": 900, "time_label": "15 min drive" }, "geometry": { "type": "Polygon", "coordinates": [ [ [ 38.7599544, 8.9471517 ], [ 38.7604402, 8.9487674 ], [ 38.7692811, 8.9497113 ], [ 38.7758132, 8.9483132 ], [ 38.7792908, 8.9452964 ], [ 38.7821299, 8.9422765 ], [ 38.7823833, 8.9380657 ], [ 38.7819461, 8.9291482 ], [ 38.7849435, 8.9241203 ], [ 38.7887996, 8.9195107 ], [ 38.7891434, 8.9175704 ], [ 38.789882, 8.9100642 ], [ 38.7880267, 8.90952 ], [ 38.780236, 8.912336 ], [ 38.7801664, 8.9033754 ], [ 38.7808409, 8.9026219 ], [ 38.7810852, 8.9021848 ], [ 38.781511, 8.9015942 ], [ 38.7806789, 8.9006519 ], [ 38.7798735, 8.9000322 ], [ 38.7748798, 8.8929927 ], [ 38.7740112, 8.8931773 ], [ 38.7704194, 8.8941161 ], [ 38.761729, 8.8939637 ], [ 38.7567294, 8.8950595 ], [ 38.7516909, 8.8985773 ], [ 38.7472158, 8.9034422 ], [ 38.7483513, 8.9089845 ], [ 38.7487391, 8.9105984 ], [ 38.750162, 8.914234 ], [ 38.7524539, 8.9186552 ], [ 38.7531437, 8.9246421 ], [ 38.7499658, 8.9330847 ], [ 38.7494688, 8.9342482 ], [ 38.7527396, 8.9389374 ], [ 38.7538366, 8.9394063 ], [ 38.7593029, 8.9433821 ], [ 38.7599544, 8.9471517 ] ] ] } },
{ "type": "Feature", "properties": { "threshold_s": 300, "time_label": "5 min drive" }, "geometry": { "type": "Polygon", "coordinates": [ [ [ 38.7253797, 8.9978604 ], [ 38.7256919, 8.9982672 ], [ 38.7268985, 8.9991841 ], [ 38.7274674, 8.99912 ], [ 38.7289264, 8.9982376 ], [ 38.7302594, 8.9977804 ], [ 38.7307139, 8.9976947 ], [ 38.732501, 9.001813 ], [ 38.7329972, 9.0026872 ], [ 38.7330776, 9.0026316 ], [ 38.7325948, 9.0017547 ], [ 38.7308209, 8.9976433 ], [ 38.7316547, 8.9970266 ], [ 38.7324621, 8.9965338 ], [ 38.7344089, 8.9966973 ], [ 38.7351872, 8.9964457 ], [ 38.7363319, 8.9957165 ], [ 38.7376045, 8.9950873 ], [ 38.7392383, 8.9966999 ], [ 38.7394221, 8.997372 ], [ 38.7394639, 8.9978997 ], [ 38.7403735, 8.9979056 ], [ 38.7403071, 8.9962181 ], [ 38.7414043, 8.9942008 ], [ 38.7419007, 8.9927539 ], [ 38.741192, 8.9921603 ], [ 38.7401914, 8.9904123 ], [ 38.7384434, 8.9890888 ], [ 38.7376133, 8.9892067 ], [ 38.7375073, 8.9892226 ], [ 38.7362266, 8.9892398 ], [ 38.7350048, 8.9882145 ], [ 38.7347534, 8.9875085 ], [ 38.7334344, 8.9873191 ], [ 38.7328336, 8.9881682 ], [ 38.7323374, 8.9888358 ], [ 38.7318071, 8.9905608 ], [ 38.7314819, 8.9928798 ], [ 38.7306756, 8.9935185 ], [ 38.7300958, 8.9939767 ], [ 38.7281075, 8.9943971 ], [ 38.7271369, 8.9932141 ], [ 38.7278068, 8.9946508 ], [ 38.7258931, 8.995587 ], [ 38.7253797, 8.9978604 ] ] ] } },
{ "type": "Feature", "properties": { "threshold_s": 600, "time_label": "10 min drive" }, "geometry": { "type": "Polygon", "coordinates": [ [ [ 38.7189773, 9.0029713 ], [ 38.7193601, 9.0036258 ], [ 38.7199702, 9.0042617 ], [ 38.7193998, 9.0029948 ], [ 38.7220337, 8.9992215 ], [ 38.7224929, 8.9990797 ], [ 38.7236724, 8.9987142 ], [ 38.7268985, 8.9991841 ], [ 38.7274674, 8.99912 ], [ 38.7289264, 8.9982376 ], [ 38.732501, 9.001813 ], [ 38.730182, 9.0046135 ], [ 38.7292146, 9.0052443 ], [ 38.7285474, 9.0064755 ], [ 38.7284978, 9.0065722 ], [ 38.7286855, 9.0089895 ], [ 38.7321181, 9.0117201 ], [ 38.7344752, 9.0132766 ], [ 38.7363181, 9.0130325 ], [ 38.7376042, 9.0120621 ], [ 38.7389403, 9.0110598 ], [ 38.7389141, 9.0108949 ], [ 38.7387193, 9.0103826 ], [ 38.7387063, 9.0084186 ], [ 38.7435774, 9.0082213 ], [ 38.7436921, 9.00817 ], [ 38.7467113, 9.0053251 ], [ 38.7469735, 9.0027395 ], [ 38.7488058, 8.9986111 ], [ 38.7503466, 8.994908 ], [ 38.75072, 8.994021 ], [ 38.7500986, 8.9892798 ], [ 38.7506529, 8.9845084 ], [ 38.7465178, 8.9822653 ], [ 38.7444504, 8.9826411 ], [ 38.7412755, 8.9806774 ], [ 38.7401336, 8.9797618 ], [ 38.7383627, 8.9785833 ], [ 38.7332414, 8.9782144 ], [ 38.7328836, 8.9778363 ], [ 38.7313138, 8.9771965 ], [ 38.7283872, 8.9787856 ], [ 38.7270547, 8.9798003 ], [ 38.7258008, 8.9824669 ], [ 38.7226693, 8.9857573 ], [ 38.7201629, 8.9848828 ], [ 38.7196875, 8.984451 ], [ 38.7181131, 8.9889998 ], [ 38.717421, 8.9901426 ], [ 38.7173929, 8.9902075 ], [ 38.7169688, 8.9929217 ], [ 38.7187348, 8.9973036 ], [ 38.7189357, 9.0001877 ], [ 38.7189773, 9.0029713 ] ] ] } },
{ "type": "Feature", "properties": { "threshold_s": 900, "time_label": "15 min drive" }, "geometry": { "type": "Polygon", "coordinates": [ [ [ 38.7191807, 9.0122896 ], [ 38.7207234, 9.0147076 ], [ 38.7253703, 9.0172097 ], [ 38.7274374, 9.0188895 ], [ 38.7302496, 9.0210369 ], [ 38.7340452, 9.0237449 ], [ 38.7371667, 9.0241826 ], [ 38.7426813, 9.0210971 ], [ 38.7466965, 9.0189733 ], [ 38.7516063, 9.015912 ], [ 38.7533839, 9.0117472 ], [ 38.7560328, 9.0070649 ], [ 38.757125, 9.0039735 ], [ 38.7584014, 9.0008902 ], [ 38.7621622, 8.9957887 ], [ 38.7591078, 8.9902103 ], [ 38.7595927, 8.986554 ], [ 38.7599712, 8.9807353 ], [ 38.7593244, 8.9792221 ], [ 38.7549105, 8.9779306 ], [ 38.7514347, 8.9748539 ], [ 38.7468161, 8.970967 ], [ 38.7421094, 8.9706271 ], [ 38.7385016, 8.9691304 ], [ 38.736105, 8.9695883 ], [ 38.731406, 8.9690896 ], [ 38.7313134, 8.9690899 ], [ 38.7276923, 8.9702858 ], [ 38.7276987, 8.9714324 ], [ 38.7279053, 8.9730765 ], [ 38.7221546, 8.9757076 ], [ 38.7216407, 8.9755521 ], [ 38.7158603, 8.9774068 ], [ 38.7156299, 8.9780071 ], [ 38.7144644, 8.9810443 ], [ 38.7150717, 8.9817318 ], [ 38.7158087, 8.9826106 ], [ 38.7165458, 8.9869257 ], [ 38.7125153, 8.9887289 ], [ 38.7103656, 8.988313 ], [ 38.7086718, 8.9871707 ], [ 38.7085155, 8.9870446 ], [ 38.7083799, 8.9871736 ], [ 38.7079533, 8.9876657 ], [ 38.7093247, 8.9936113 ], [ 38.7101751, 8.995012 ], [ 38.7143733, 9.0001679 ], [ 38.7189773, 9.0029713 ], [ 38.7188894, 9.0059185 ], [ 38.7190919, 9.0068716 ], [ 38.7191591, 9.0121974 ], [ 38.7191807, 9.0122896 ] ] ] } },
{ "type": "Feature", "properties": { "threshold_s": 300, "time_label": "5 min drive" }, "geometry": { "type": "Polygon", "coordinates": [ [ [ 38.7456875, 9.0454928 ], [ 38.7459053, 9.0458491 ], [ 38.7471673, 9.0469322 ], [ 38.7476045, 9.0471177 ], [ 38.7492837, 9.0467177 ], [ 38.7506824, 9.0473136 ], [ 38.7516554, 9.0472512 ], [ 38.7521066, 9.0449463 ], [ 38.7541593, 9.0450531 ], [ 38.7542611, 9.0450911 ], [ 38.7552401, 9.0458515 ], [ 38.755617, 9.0458933 ], [ 38.7560377, 9.0453047 ], [ 38.7565811, 9.0429639 ], [ 38.7557499, 9.0426901 ], [ 38.7543348, 9.0412716 ], [ 38.7559159, 9.0397791 ], [ 38.7565413, 9.0397014 ], [ 38.7555497, 9.0379841 ], [ 38.7581953, 9.0360799 ], [ 38.7582831, 9.0359975 ], [ 38.7550527, 9.0350946 ], [ 38.7528617, 9.035044 ], [ 38.7518043, 9.0325728 ], [ 38.751755, 9.032577 ], [ 38.75095, 9.0327385 ], [ 38.7498634, 9.0331639 ], [ 38.7492119, 9.0335496 ], [ 38.7473671, 9.0347685 ], [ 38.7455097, 9.0345712 ], [ 38.7443637, 9.0371691 ], [ 38.7437411, 9.0379618 ], [ 38.7434531, 9.038981 ], [ 38.7438561, 9.041361 ], [ 38.7447586, 9.0435775 ], [ 38.7456875, 9.0454928 ] ] ] } },
{ "type": "Feature", "properties": { "threshold_s": 600, "time_label": "10 min drive" }, "geometry": { "type": "Polygon", "coordinates": [ [ [ 38.7385026, 9.0518541 ], [ 38.7395808, 9.0546524 ], [ 38.7410129, 9.0559353 ], [ 38.7410798, 9.0559945 ], [ 38.7436166, 9.0569715 ], [ 38.7475285, 9.0571478 ], [ 38.7487938, 9.0578297 ], [ 38.7518571, 9.0557107 ], [ 38.7526869, 9.0561186 ], [ 38.7539978, 9.0561037 ], [ 38.7569102, 9.0555767 ], [ 38.7583493, 9.0559329 ], [ 38.7592571, 9.055992 ], [ 38.7621709, 9.053994 ], [ 38.7624706, 9.0535973 ], [ 38.762197, 9.0520584 ], [ 38.7621454, 9.0508758 ], [ 38.7619097, 9.0490886 ], [ 38.7627872, 9.0464914 ], [ 38.7652703, 9.0454849 ], [ 38.765882499999989, 9.0434368 ], [ 38.7674857, 9.0414061 ], [ 38.7683929, 9.0391379 ], [ 38.7678545, 9.036653 ], [ 38.7677492, 9.0363419 ], [ 38.7675585, 9.0358251 ], [ 38.7664081, 9.0326913 ], [ 38.7664014, 9.0314507 ], [ 38.7633917, 9.0291295 ], [ 38.7611664, 9.0293214 ], [ 38.7581126, 9.0269965 ], [ 38.7576048, 9.024946 ], [ 38.7555133, 9.0243534 ], [ 38.7536041, 9.0241676 ], [ 38.752741, 9.02144 ], [ 38.7522197, 9.0213585 ], [ 38.752127, 9.0213476 ], [ 38.7512899, 9.0212942 ], [ 38.7497291, 9.0238254 ], [ 38.7464572, 9.0246276 ], [ 38.745275, 9.0256588 ], [ 38.7414669, 9.0261991 ], [ 38.7408818, 9.026716 ], [ 38.7408274, 9.0267846 ], [ 38.7404256, 9.0274322 ], [ 38.7375489, 9.0298709 ], [ 38.7380256, 9.0328911 ], [ 38.7350242, 9.0343964 ], [ 38.7341841, 9.0341678 ], [ 38.7341834, 9.0342732 ], [ 38.7348936, 9.0348074 ], [ 38.7361394, 9.0369618 ], [ 38.7349042, 9.0394737 ], [ 38.7337925, 9.0409325 ], [ 38.7340043, 9.0430298 ], [ 38.7341995, 9.043839 ], [ 38.736129, 9.0447854 ], [ 38.7387244, 9.0475686 ], [ 38.7376063, 9.0487515 ], [ 38.7374034, 9.0488487 ], [ 38.737321799999989, 9.0496628 ], [ 38.73761, 9.0502414 ], [ 38.7385026, 9.0518541 ] ] ] } },
{ "type": "Feature", "properties": { "threshold_s": 900, "time_label": "15 min drive" }, "geometry": { "type": "Polygon", "coordinates": [ [ [ 38.7293083, 9.0574194 ], [ 38.7332008, 9.0640745 ], [ 38.7375638, 9.0645091 ], [ 38.7407942, 9.0663559 ], [ 38.7420905, 9.0670584 ], [ 38.7473856, 9.068081 ], [ 38.7489543, 9.0683146 ], [ 38.7491736, 9.0683011 ], [ 38.750691, 9.0677495 ], [ 38.7552677, 9.0664969 ], [ 38.7609954, 9.065757 ], [ 38.7620154, 9.0655545 ], [ 38.7625028, 9.065414 ], [ 38.7639672, 9.0644578 ], [ 38.7691273, 9.0610003 ], [ 38.7696614, 9.0606323 ], [ 38.772142, 9.0534494 ], [ 38.7739502, 9.0513606 ], [ 38.7743813, 9.0493544 ], [ 38.7743943, 9.049238 ], [ 38.774861, 9.0464728 ], [ 38.7753446, 9.0443806 ], [ 38.7791536, 9.0381632 ], [ 38.7770047, 9.0312073 ], [ 38.773523, 9.0284492 ], [ 38.7722482, 9.0279523 ], [ 38.7717946, 9.0280784 ], [ 38.7706975, 9.0282685 ], [ 38.767701, 9.0287114 ], [ 38.7624111, 9.0266163 ], [ 38.7616201, 9.0233396 ], [ 38.7638225, 9.0193203 ], [ 38.7638073, 9.0191651 ], [ 38.7606025, 9.0183832 ], [ 38.7586435, 9.0127141 ], [ 38.7585196, 9.0125992 ], [ 38.7533592, 9.010613 ], [ 38.7498135, 9.0113847 ], [ 38.7473376, 9.0123175 ], [ 38.7454169, 9.0141312 ], [ 38.7387877, 9.0168914 ], [ 38.7381812, 9.0170798 ], [ 38.7326105, 9.0193875 ], [ 38.7302901, 9.0252354 ], [ 38.7286166, 9.0265256 ], [ 38.726631, 9.028458 ], [ 38.7233667, 9.0355076 ], [ 38.7246354, 9.0407431 ], [ 38.7241848, 9.0443085 ], [ 38.7243063, 9.0464057 ], [ 38.7245368, 9.0470733 ], [ 38.727509, 9.0531756 ], [ 38.7280893, 9.0556864 ], [ 38.7293083, 9.0574194 ] ] ] } },
{ "type": "Feature", "properties": { "threshold_s": 300, "time_label": "5 min drive" }, "geometry": { "type": "Polygon", "coordinates": [ [ [ 38.8148688, 9.0299234 ], [ 38.8149015, 9.0299632 ], [ 38.8165315, 9.0308887 ], [ 38.8172622, 9.0311012 ], [ 38.8196889, 9.0308282 ], [ 38.8219205, 9.0322375 ], [ 38.8208033, 9.0302269 ], [ 38.8209589, 9.0292428 ], [ 38.8228669, 9.0278268 ], [ 38.8240645, 9.0284802 ], [ 38.8258325, 9.0273667 ], [ 38.8286259, 9.0265318 ], [ 38.8286578, 9.0264556 ], [ 38.8272819, 9.0259255 ], [ 38.8265137, 9.0234793 ], [ 38.8264976, 9.0231439 ], [ 38.8263137, 9.0225126 ], [ 38.8244149, 9.0213634 ], [ 38.82342, 9.0190943 ], [ 38.8229662, 9.0190218 ], [ 38.821483, 9.0189667 ], [ 38.8204923, 9.0190843 ], [ 38.8198926, 9.0192105 ], [ 38.8187501, 9.0202826 ], [ 38.8169497, 9.0197374 ], [ 38.8151325, 9.0204597 ], [ 38.8133688, 9.0197109 ], [ 38.811054, 9.0201534 ], [ 38.8096449, 9.0204194 ], [ 38.8078818, 9.0205801 ], [ 38.8077958, 9.0213498 ], [ 38.8087057, 9.0226739 ], [ 38.809741099999989, 9.0235964 ], [ 38.8107857, 9.0242689 ], [ 38.8129946, 9.0250146 ], [ 38.8140818, 9.0259528 ], [ 38.8143496, 9.0279621 ], [ 38.8144722, 9.0294405 ], [ 38.8148688, 9.0299234 ] ] ] } },
{ "type": "Feature", "properties": { "threshold_s": 600, "time_label": "10 min drive" }, "geometry": { "type": "Polygon", "coordinates": [ [ [ 38.8093754, 9.0315008 ], [ 38.8097374, 9.0344652 ], [ 38.8152304, 9.0361549 ], [ 38.8176145, 9.0370062 ], [ 38.8204647, 9.0380402 ], [ 38.8216254, 9.0379456 ], [ 38.8222731, 9.0378254 ], [ 38.823517699999989, 9.0370374 ], [ 38.8243117, 9.036503 ], [ 38.8299657, 9.0368718 ], [ 38.8312777, 9.0385724 ], [ 38.8316202, 9.0380409 ], [ 38.8334698, 9.0335267 ], [ 38.8347944, 9.0330479 ], [ 38.8362123, 9.0323377 ], [ 38.8372118, 9.0316096 ], [ 38.8377418, 9.0310116 ], [ 38.8378052, 9.0308846 ], [ 38.8385591, 9.0292689 ], [ 38.8363802, 9.0267885 ], [ 38.8362739, 9.023057 ], [ 38.8360585, 9.0217651 ], [ 38.8323952, 9.0198527 ], [ 38.8303554, 9.0157136 ], [ 38.829668, 9.013391 ], [ 38.8293784, 9.0130399 ], [ 38.8278637, 9.012638 ], [ 38.8262543, 9.0122158 ], [ 38.8220379, 9.012678 ], [ 38.8174128, 9.0151084 ], [ 38.8149607, 9.0141972 ], [ 38.8132233, 9.0144189 ], [ 38.8132313, 9.0149019 ], [ 38.811054, 9.0201534 ], [ 38.8096449, 9.0204194 ], [ 38.8089635, 9.0205448 ], [ 38.8078818, 9.0205801 ], [ 38.804643, 9.0191079 ], [ 38.8038278, 9.0181359 ], [ 38.8027788, 9.0155716 ], [ 38.8012821, 9.0163717 ], [ 38.7967567, 9.0182941 ], [ 38.7974495, 9.0215959 ], [ 38.7986196, 9.0231216 ], [ 38.8008549, 9.0254157 ], [ 38.8020936, 9.0264203 ], [ 38.8075975, 9.0272945 ], [ 38.8093754, 9.0315008 ] ] ] } },
{ "type": "Feature", "properties": { "threshold_s": 900, "time_label": "15 min drive" }, "geometry": { "type": "Polygon", "coordinates": [ [ [ 38.7883272, 9.0290683 ], [ 38.7884042, 9.0291921 ], [ 38.7925162, 9.0311958 ], [ 38.7943505, 9.0307929 ], [ 38.7968678, 9.0306899 ], [ 38.8031475, 9.0364072 ], [ 38.8042312, 9.0365115 ], [ 38.8097365, 9.0345983 ], [ 38.8144658, 9.0377323 ], [ 38.8140965, 9.0458443 ], [ 38.8150185, 9.0461783 ], [ 38.8166174, 9.046587 ], [ 38.8167786, 9.0465382 ], [ 38.8248239, 9.0468382 ], [ 38.8262937, 9.0478753 ], [ 38.8278838, 9.0487306 ], [ 38.8292886, 9.0489338 ], [ 38.8315027, 9.0483604 ], [ 38.837142, 9.0464329 ], [ 38.8389629, 9.042661 ], [ 38.8427854, 9.0391048 ], [ 38.8470028, 9.0363553 ], [ 38.8489654, 9.0346761 ], [ 38.8489931, 9.0342418 ], [ 38.8476707, 9.0261374 ], [ 38.8474627, 9.0248018 ], [ 38.8431535, 9.0189998 ], [ 38.8401131, 9.0108522 ], [ 38.8400892, 9.0103911 ], [ 38.8368286, 9.0074636 ], [ 38.8289485, 9.0034542 ], [ 38.8283148, 9.0031541 ], [ 38.8244101, 9.0017102 ], [ 38.8184192, 9.0028096 ], [ 38.8121889, 9.0035668 ], [ 38.809306, 9.005337 ], [ 38.8021486, 9.0062351 ], [ 38.7982363, 9.0060494 ], [ 38.7974873, 9.0060231 ], [ 38.79709230000001, 9.0065462 ], [ 38.7951733, 9.0094049 ], [ 38.7945046, 9.0111732 ], [ 38.7872721, 9.0151271 ], [ 38.7862093, 9.0222595 ], [ 38.7862048, 9.0223421 ], [ 38.7883272, 9.0290683 ] ] ] } },
{ "type": "Feature", "properties": { "threshold_s": 300, "time_label": "5 min drive" }, "geometry": { "type": "Polygon", "coordinates": [ [ [ 38.7659995, 8.9008158 ], [ 38.7668459, 8.9028384 ], [ 38.7670156, 8.902927 ], [ 38.7696928, 8.902683 ], [ 38.7711549, 8.9036882 ], [ 38.771328, 8.9031716 ], [ 38.7719249, 8.9016463 ], [ 38.7722479, 8.9011311 ], [ 38.774598, 8.89969 ], [ 38.775254, 8.8995869 ], [ 38.7760148, 8.8995025 ], [ 38.777892, 8.899718 ], [ 38.7799364, 8.9009424 ], [ 38.7806936, 8.8994702 ], [ 38.7824573, 8.8971472 ], [ 38.782787, 8.8971635 ], [ 38.7837198, 8.8971602 ], [ 38.7828192, 8.8962758 ], [ 38.7821755, 8.8960095 ], [ 38.7800203, 8.8969528 ], [ 38.7786306, 8.895075 ], [ 38.7785196, 8.8938551 ], [ 38.778047, 8.8932124 ], [ 38.777684, 8.8928362 ], [ 38.7770925, 8.8908579 ], [ 38.7792167, 8.8889091 ], [ 38.7807956, 8.8903742 ], [ 38.7808449, 8.8875728 ], [ 38.7796185, 8.8877578 ], [ 38.7791525, 8.8888501 ], [ 38.7763336, 8.8902478 ], [ 38.7757639, 8.8889009 ], [ 38.7761149, 8.8868364 ], [ 38.774276, 8.885842 ], [ 38.7721829, 8.887023 ], [ 38.7710194, 8.8871957 ], [ 38.7706371, 8.8872524 ], [ 38.7701887, 8.8879602 ], [ 38.7701934, 8.8881482 ], [ 38.7701855, 8.8884016 ], [ 38.7672735, 8.8898926 ], [ 38.7652506, 8.8883152 ], [ 38.7645246, 8.8907968 ], [ 38.7651489, 8.8921959 ], [ 38.7651553, 8.8920253 ], [ 38.76739280000001, 8.8899622 ], [ 38.7691574, 8.8917298 ], [ 38.7704194, 8.8941161 ], [ 38.7706802, 8.8955247 ], [ 38.7708232, 8.8971105 ], [ 38.7692171, 8.8984296 ], [ 38.7671323, 8.8974119 ], [ 38.7667045, 8.8969462 ], [ 38.7662753, 8.8964056 ], [ 38.7652883, 8.8979691 ], [ 38.7647612, 8.8996174 ], [ 38.7646102, 8.9004448 ], [ 38.7659995, 8.9008158 ] ] ] } },
{ "type": "Feature", "properties": { "threshold_s": 600, "time_label": "10 min drive" }, "geometry": { "type": "Polygon", "coordinates": [ [ [ 38.7631066, 8.9132011 ], [ 38.76303930000001, 8.9135248 ], [ 38.7632471, 8.913559 ], [ 38.7640044, 8.9132747 ], [ 38.7657061, 8.9127289 ], [ 38.768406, 8.9135971 ], [ 38.7698849, 8.9130217 ], [ 38.7714804, 8.912438 ], [ 38.7738276, 8.9124545 ], [ 38.7755623, 8.9115866 ], [ 38.776583, 8.9107936 ], [ 38.7765561, 8.9099349 ], [ 38.7759864, 8.9067897 ], [ 38.7771709, 8.9037201 ], [ 38.7786913, 8.9035796 ], [ 38.7801664, 8.9033754 ], [ 38.7824135, 8.90246 ], [ 38.7840852, 8.9041447 ], [ 38.782971, 8.9059834 ], [ 38.7825369, 8.906303 ], [ 38.7827267, 8.9066475 ], [ 38.7837794, 8.9068078 ], [ 38.7849782, 8.9059148 ], [ 38.7863074, 8.9042984 ], [ 38.7865222, 8.9038242 ], [ 38.7852651, 8.9013855 ], [ 38.7855787, 8.9005542 ], [ 38.7862068, 8.8980859 ], [ 38.7880825, 8.895989 ], [ 38.7886786, 8.8957071 ], [ 38.7889497, 8.8955886 ], [ 38.7894606, 8.8953213 ], [ 38.7897252, 8.8951883 ], [ 38.7899805, 8.89506 ], [ 38.7903106, 8.8942592 ], [ 38.7902164, 8.8932525 ], [ 38.7888485, 8.8925805 ], [ 38.7875721, 8.8918364 ], [ 38.786058, 8.8890811 ], [ 38.7869233, 8.8874147 ], [ 38.7877156, 8.8866087 ], [ 38.7872502, 8.8844257 ], [ 38.7867614, 8.8834541 ], [ 38.7847693, 8.8815397 ], [ 38.7849058, 8.8794511 ], [ 38.7853353, 8.8787436 ], [ 38.7846725, 8.8786133 ], [ 38.7823518, 8.8761799 ], [ 38.7794361, 8.875317 ], [ 38.7774631, 8.8766588 ], [ 38.7766194, 8.8768937 ], [ 38.7738888, 8.8765743 ], [ 38.7713999, 8.8784011 ], [ 38.7698177, 8.8783314 ], [ 38.7670539, 8.8792558 ], [ 38.7642045, 8.8795444 ], [ 38.7627948, 8.8811124 ], [ 38.7628488, 8.8820665 ], [ 38.7628792, 8.8821203 ], [ 38.7630406, 8.8847033 ], [ 38.7602158, 8.8856752 ], [ 38.75972, 8.8854201 ], [ 38.7589408, 8.884706 ], [ 38.7570298, 8.8855354 ], [ 38.7561218, 8.887254 ], [ 38.7556527, 8.8886602 ], [ 38.756671, 8.8907168 ], [ 38.756319, 8.8928759 ], [ 38.7567294, 8.8950595 ], [ 38.7571355, 8.8977255 ], [ 38.7565246, 8.898872 ], [ 38.7560365, 8.8998465 ], [ 38.7564569, 8.9020846 ], [ 38.7570104, 8.9041697 ], [ 38.7583077, 8.9071542 ], [ 38.7604297, 8.9082071 ], [ 38.7613736, 8.910042 ], [ 38.7628756, 8.9111019 ], [ 38.7631066, 8.9132011 ] ] ] } },
{ "type": "Feature", "properties": { "threshold_s": 900, "time_label": "15 min drive" }, "geometry": { "type": "Polygon", "coordinates": [ [ [ 38.7562388, 8.9170715 ], [ 38.7563817, 8.9182651 ], [ 38.7598168, 8.9205519 ], [ 38.7638902, 8.9234606 ], [ 38.7646504, 8.9232597 ], [ 38.7648154, 8.9231575 ], [ 38.7667828, 8.9219933 ], [ 38.768427, 8.9210203 ], [ 38.7693007, 8.9204716 ], [ 38.7722459, 8.9188675 ], [ 38.774351, 8.9149169 ], [ 38.777513, 8.9152183 ], [ 38.7834462, 8.9159519 ], [ 38.7862642, 8.9142222 ], [ 38.7904456, 8.9114605 ], [ 38.789882, 8.9100642 ], [ 38.7888639, 8.9069062 ], [ 38.7875902, 8.9025621 ], [ 38.7862068, 8.8980859 ], [ 38.7880825, 8.895989 ], [ 38.7886786, 8.8957071 ], [ 38.7889497, 8.8955886 ], [ 38.7894606, 8.8953213 ], [ 38.7897252, 8.8951883 ], [ 38.7899805, 8.89506 ], [ 38.7927742, 8.8912038 ], [ 38.7875721, 8.8918364 ], [ 38.7877156, 8.8866087 ], [ 38.7916685, 8.8822217 ], [ 38.7930934, 8.8809416 ], [ 38.7937586, 8.8792455 ], [ 38.7938391, 8.8746895 ], [ 38.7930353, 8.8746968 ], [ 38.7896469, 8.8696637 ], [ 38.789504, 8.8695205 ], [ 38.7886181, 8.868762 ], [ 38.7874801, 8.8694301 ], [ 38.7865518, 8.8705643 ], [ 38.7835273, 8.8750637 ], [ 38.7795013, 8.8750597 ], [ 38.7745017, 8.8739069 ], [ 38.7748142, 8.8706076 ], [ 38.7732048, 8.867972 ], [ 38.7724444, 8.8676884 ], [ 38.7708887, 8.8679373 ], [ 38.770119, 8.8686915 ], [ 38.7689914, 8.8696862 ], [ 38.76706870000001, 8.8712832 ], [ 38.7655381, 8.8729796 ], [ 38.7652427, 8.8733213 ], [ 38.7639394, 8.8747855 ], [ 38.7590803, 8.8743482 ], [ 38.7589778, 8.8743954 ], [ 38.7594357, 8.8803996 ], [ 38.7570298, 8.8855354 ], [ 38.7540306, 8.8846602 ], [ 38.7524524, 8.8870235 ], [ 38.7492835, 8.8916357 ], [ 38.7504879, 8.8928521 ], [ 38.7517056, 8.8980247 ], [ 38.7500466, 8.9013292 ], [ 38.7470242, 8.9028478 ], [ 38.7465445, 8.9031009 ], [ 38.7487525, 8.9058565 ], [ 38.7483513, 8.9089845 ], [ 38.7522289, 8.9133372 ], [ 38.7562388, 8.9170715 ] ] ] } },
{ "type": "Feature", "properties": { "threshold_s": 300, "time_label": "5 min drive" }, "geometry": { "type": "Polygon", "coordinates": [ [ [ 38.7494933, 8.9515279 ], [ 38.7508956, 8.9540085 ], [ 38.7518379, 8.9538302 ], [ 38.7539145, 8.952087 ], [ 38.7543269, 8.9518195 ], [ 38.7547486, 8.9496682 ], [ 38.7558394, 8.947598 ], [ 38.7561004, 8.9474479 ], [ 38.7592615, 8.95035 ], [ 38.7595374, 8.9509795 ], [ 38.7597567, 8.9520808 ], [ 38.7602853, 8.9522603 ], [ 38.7614958, 8.9525099 ], [ 38.7609355, 8.9500806 ], [ 38.7612636, 8.9486256 ], [ 38.7597544, 8.9484631 ], [ 38.7581194, 8.9458735 ], [ 38.7594397, 8.944691 ], [ 38.7584641, 8.9421169 ], [ 38.758741, 8.9406331 ], [ 38.7577768, 8.9393905 ], [ 38.7561433, 8.9384856 ], [ 38.7558724, 8.9385598 ], [ 38.7541265, 8.9406319 ], [ 38.752761, 8.9406596 ], [ 38.7501886, 8.9390449 ], [ 38.7493833, 8.9401641 ], [ 38.7481704, 8.9423726 ], [ 38.7475176, 8.9438839 ], [ 38.7470053, 8.9453879 ], [ 38.7455904, 8.9469519 ], [ 38.7464304, 8.9475103 ], [ 38.7480074, 8.9501081 ], [ 38.748453499999989, 8.9504961 ], [ 38.7494933, 8.9515279 ] ] ] } },
{ "type": "Feature", "properties": { "threshold_s": 600, "time_label": "10 min drive" }, "geometry": { "type": "Polygon", "coordinates": [ [ [ 38.7422287, 8.9561532 ], [ 38.7429656, 8.9598609 ], [ 38.746077, 8.9588322 ], [ 38.7473327, 8.9615528 ], [ 38.748434, 8.9624604 ], [ 38.748499099999989, 8.9624584 ], [ 38.7514499, 8.962329 ], [ 38.7517772, 8.9621726 ], [ 38.7560557, 8.9619609 ], [ 38.7595697, 8.9619555 ], [ 38.7608874, 8.9624099 ], [ 38.7609345, 8.962415 ], [ 38.7613862, 8.9611565 ], [ 38.7640562, 8.9583092 ], [ 38.7640214, 8.9576842 ], [ 38.764001, 8.9574999 ], [ 38.76364490000001, 8.9555997 ], [ 38.7635111, 8.954252 ], [ 38.7634047, 8.953329 ], [ 38.7633968, 8.9532148 ], [ 38.7617457, 8.9519426 ], [ 38.7609355, 8.9500806 ], [ 38.7612636, 8.9486256 ], [ 38.7648323, 8.947793 ], [ 38.7650031, 8.9478818 ], [ 38.7678722, 8.9487095 ], [ 38.7657954, 8.9457131 ], [ 38.7664135, 8.943651 ], [ 38.7649015, 8.9419151 ], [ 38.7633346, 8.9403366 ], [ 38.7615674, 8.9389625 ], [ 38.7598836, 8.9360797 ], [ 38.7576368, 8.9340032 ], [ 38.7592359, 8.9312294 ], [ 38.7583495, 8.9310189 ], [ 38.755791, 8.9307788 ], [ 38.7550425, 8.9308073 ], [ 38.753863, 8.9311467 ], [ 38.7525392, 8.9318241 ], [ 38.7503852, 8.9328834 ], [ 38.7479572, 8.9310957 ], [ 38.7457426, 8.9299017 ], [ 38.745157, 8.9297881 ], [ 38.7424849, 8.9301141 ], [ 38.7409205, 8.9321477 ], [ 38.7407787, 8.9331302 ], [ 38.7399598, 8.9356416 ], [ 38.7390876, 8.9371395 ], [ 38.7392106, 8.9379975 ], [ 38.7392507, 8.9383385 ], [ 38.7392742, 8.938634 ], [ 38.7390824, 8.9420529 ], [ 38.7359986, 8.9446844 ], [ 38.7359335, 8.9482196 ], [ 38.7372274, 8.9498387 ], [ 38.7393635, 8.9526991 ], [ 38.7412389, 8.9554323 ], [ 38.7422287, 8.9561532 ] ] ] } },
{ "type": "Feature", "properties": { "threshold_s": 900, "time_label": "15 min drive" }, "geometry": { "type": "Polygon", "coordinates": [ [ [ 38.7415858, 8.9646898 ], [ 38.7428134, 8.968824 ], [ 38.744081799999989, 8.970068 ], [ 38.7488548, 8.9741892 ], [ 38.751356199999989, 8.9733778 ], [ 38.757068, 8.9723735 ], [ 38.7570116, 8.9719198 ], [ 38.7602142, 8.9666508 ], [ 38.7620422, 8.967196 ], [ 38.7627354, 8.9676055 ], [ 38.7638272, 8.967659 ], [ 38.7643277, 8.9676341 ], [ 38.7667509, 8.9662586 ], [ 38.7685313, 8.9651209 ], [ 38.7726464, 8.9617668 ], [ 38.7728872, 8.9614966 ], [ 38.7745996, 8.9593655 ], [ 38.7745828, 8.9580144 ], [ 38.7744443, 8.9568579 ], [ 38.7743485, 8.9562908 ], [ 38.774085, 8.9546643 ], [ 38.7714533, 8.9491198 ], [ 38.7731861, 8.9433383 ], [ 38.7732589, 8.9417349 ], [ 38.7732076, 8.9412051 ], [ 38.7718141, 8.9400581 ], [ 38.7681933, 8.9357829 ], [ 38.7679884, 8.9301183 ], [ 38.7677755, 8.9301123 ], [ 38.7644273, 8.9306227 ], [ 38.7588899, 8.9293005 ], [ 38.7541648, 8.9275505 ], [ 38.753379, 8.9273714 ], [ 38.7496293, 8.9221434 ], [ 38.7494405, 8.9219131 ], [ 38.7472001, 8.9203207 ], [ 38.742656, 8.9203168 ], [ 38.7380062, 8.9209645 ], [ 38.7358041, 8.9214864 ], [ 38.7346805, 8.9245584 ], [ 38.7374858, 8.9276429 ], [ 38.7339035, 8.9321621 ], [ 38.7327524, 8.9325623 ], [ 38.7295014, 8.9382174 ], [ 38.7300081, 8.9409011 ], [ 38.7273096, 8.9454686 ], [ 38.7270379, 8.9458754 ], [ 38.7261587, 8.9484321 ], [ 38.7262592, 8.9489311 ], [ 38.7278912, 8.9524826 ], [ 38.7285447, 8.9530967 ], [ 38.7327658, 8.9569266 ], [ 38.7335671, 8.9563225 ], [ 38.7403759, 8.9568763 ], [ 38.7404933, 8.9609058 ], [ 38.7414488, 8.9644008 ], [ 38.7415858, 8.9646898 ] ] ] } },
{ "type": "Feature", "properties": { "threshold_s": 300, "time_label": "5 min drive" }, "geometry": { "type": "Polygon", "coordinates": [ [ [ 38.7503255, 8.9546422 ], [ 38.7506488, 8.9550004 ], [ 38.7514364, 8.9545396 ], [ 38.7518379, 8.9538302 ], [ 38.752403, 8.9528318 ], [ 38.75506750000001, 8.953034 ], [ 38.7551063, 8.952354 ], [ 38.7555027, 8.9511237 ], [ 38.7592615, 8.95035 ], [ 38.7595374, 8.9509795 ], [ 38.7598007, 8.949731 ], [ 38.7560588, 8.9495278 ], [ 38.7563914, 8.9470942 ], [ 38.7576346, 8.9460449 ], [ 38.7580195, 8.9458991 ], [ 38.7581194, 8.9458735 ], [ 38.7594397, 8.944691 ], [ 38.7584641, 8.9421169 ], [ 38.758741, 8.9406331 ], [ 38.7577768, 8.9393905 ], [ 38.75693050000001, 8.9390526 ], [ 38.7563136, 8.9393772 ], [ 38.7553427, 8.939825 ], [ 38.752761, 8.9406596 ], [ 38.7502438, 8.9406284 ], [ 38.7497448, 8.940308 ], [ 38.7495635, 8.9401772 ], [ 38.7494405, 8.9400866 ], [ 38.7493833, 8.9401641 ], [ 38.7483571, 8.9415918 ], [ 38.7471013, 8.9420844 ], [ 38.7463687, 8.9444555 ], [ 38.7453021, 8.9455472 ], [ 38.7443279, 8.9470577 ], [ 38.7455141, 8.9482392 ], [ 38.7465764, 8.9491001 ], [ 38.7478928, 8.951352 ], [ 38.7498187, 8.952433 ], [ 38.7503255, 8.9546422 ] ] ] } },
{ "type": "Feature", "properties": { "threshold_s": 600, "time_label": "10 min drive" }, "geometry": { "type": "Polygon", "coordinates": [ [ [ 38.741532, 8.9558019 ], [ 38.7429656, 8.9598609 ], [ 38.74513, 8.9614496 ], [ 38.7475589, 8.9635569 ], [ 38.7486182, 8.9642293 ], [ 38.7486843, 8.9642291 ], [ 38.7509709, 8.9633434 ], [ 38.7534156, 8.9629685 ], [ 38.756285, 8.962315 ], [ 38.7597596, 8.9602601 ], [ 38.7601084, 8.9600609 ], [ 38.7607164, 8.9597051 ], [ 38.7614843, 8.9580241 ], [ 38.76364490000001, 8.9555997 ], [ 38.7635111, 8.954252 ], [ 38.7634047, 8.953329 ], [ 38.7633968, 8.9532148 ], [ 38.7617457, 8.9519426 ], [ 38.7609355, 8.9500806 ], [ 38.7612636, 8.9486256 ], [ 38.7648323, 8.947793 ], [ 38.7650031, 8.9478818 ], [ 38.7657954, 8.9457131 ], [ 38.7664135, 8.943651 ], [ 38.7649015, 8.9419151 ], [ 38.7625732, 8.9409152 ], [ 38.7597019, 8.9397035 ], [ 38.7574157, 8.9365091 ], [ 38.7576368, 8.9340032 ], [ 38.7592359, 8.9312294 ], [ 38.7563968, 8.9308426 ], [ 38.755791, 8.9307788 ], [ 38.7550425, 8.9308073 ], [ 38.753863, 8.9311467 ], [ 38.7525392, 8.9318241 ], [ 38.7503852, 8.9328834 ], [ 38.7481308, 8.9315917 ], [ 38.7475412, 8.9310741 ], [ 38.7457665, 8.9302213 ], [ 38.7424849, 8.9301141 ], [ 38.7409971, 8.9326751 ], [ 38.7407787, 8.9331302 ], [ 38.7408279, 8.9341561 ], [ 38.7390876, 8.9371395 ], [ 38.737807, 8.9407308 ], [ 38.7363949, 8.9424816 ], [ 38.7350102, 8.9443899 ], [ 38.7345058, 8.9482886 ], [ 38.7366857, 8.9505038 ], [ 38.7381752, 8.9526622 ], [ 38.7388181, 8.9533071 ], [ 38.7412389, 8.9554323 ], [ 38.741532, 8.9558019 ] ] ] } },
{ "type": "Feature", "properties": { "threshold_s": 900, "time_label": "15 min drive" }, "geometry": { "type": "Polygon", "coordinates": [ [ [ 38.7414488, 8.9644008 ], [ 38.7421094, 8.9706271 ], [ 38.7468163, 8.9736847 ], [ 38.7480412, 8.9750508 ], [ 38.7488619, 8.9753689 ], [ 38.7489269, 8.9753662 ], [ 38.7514347, 8.9748539 ], [ 38.757237, 8.9730796 ], [ 38.76242, 8.9685074 ], [ 38.7670696, 8.9647863 ], [ 38.7711628, 8.9620696 ], [ 38.7723252, 8.9613283 ], [ 38.7732793, 8.9582428 ], [ 38.7733469, 8.9568601 ], [ 38.7730485, 8.9559726 ], [ 38.7719383, 8.9543518 ], [ 38.771338, 8.9480016 ], [ 38.772688, 8.9431351 ], [ 38.772123, 8.9424272 ], [ 38.768943, 8.9425753 ], [ 38.7681933, 8.9357829 ], [ 38.767362, 8.9308112 ], [ 38.7604603, 8.9313766 ], [ 38.7588899, 8.9293005 ], [ 38.7541648, 8.9275505 ], [ 38.749187, 8.9225397 ], [ 38.7472001, 8.9203207 ], [ 38.742656, 8.9203168 ], [ 38.7377674, 8.9210586 ], [ 38.7362429, 8.9219772 ], [ 38.7360187, 8.9222456 ], [ 38.7348024, 8.9243023 ], [ 38.7374858, 8.9276429 ], [ 38.7339035, 8.9321621 ], [ 38.7315971, 8.9351272 ], [ 38.7295014, 8.9382174 ], [ 38.7273696, 8.9443254 ], [ 38.7262623, 8.9448618 ], [ 38.7248986, 8.9464576 ], [ 38.7239026, 8.9489642 ], [ 38.7239063, 8.9490538 ], [ 38.7266574, 8.9525726 ], [ 38.730846, 8.957169 ], [ 38.7313537, 8.9572644 ], [ 38.733176899999989, 8.9569398 ], [ 38.7403759, 8.9568763 ], [ 38.7404933, 8.9609058 ], [ 38.7414488, 8.9644008 ] ] ] } },
{ "type": "Feature", "properties": { "threshold_s": 300, "time_label": "5 min drive" }, "geometry": { "type": "Polygon", "coordinates": [ [ [ 38.7603235, 8.9841974 ], [ 38.7612221, 8.9851544 ], [ 38.7619202, 8.9856735 ], [ 38.7639646, 8.9857223 ], [ 38.7645036, 8.9855142 ], [ 38.7676154, 8.9842259 ], [ 38.7662418, 8.9812714 ], [ 38.7659251, 8.9808102 ], [ 38.7650426, 8.9787808 ], [ 38.7650392, 8.976104 ], [ 38.7652743, 8.9732919 ], [ 38.7660779, 8.9717093 ], [ 38.7664998, 8.9707517 ], [ 38.7655318, 8.9710292 ], [ 38.7645882, 8.9715171 ], [ 38.7613593, 8.9707294 ], [ 38.7605834, 8.9740789 ], [ 38.7596897, 8.9769291 ], [ 38.7596943, 8.9779839 ], [ 38.7579608, 8.9816198 ], [ 38.7603235, 8.9841974 ] ] ] } },
{ "type": "Feature", "properties": { "threshold_s": 600, "time_label": "10 min drive" }, "geometry": { "type": "Polygon", "coordinates": [ [ [ 38.7537883, 8.9923434 ], [ 38.754675, 8.9938327 ], [ 38.7562667, 8.9945462 ], [ 38.7598005, 8.9955437 ], [ 38.7654586, 8.9948231 ], [ 38.7666894, 8.9957111 ], [ 38.7672745, 8.9956139 ], [ 38.77013, 8.9942115 ], [ 38.7745084, 8.9936124 ], [ 38.7748148, 8.9924547 ], [ 38.7764753, 8.9868029 ], [ 38.7773605, 8.9852209 ], [ 38.777491, 8.9812854 ], [ 38.7770538, 8.9803839 ], [ 38.7753195, 8.9786739 ], [ 38.7736018, 8.9788135 ], [ 38.7687171, 8.9780856 ], [ 38.7683591, 8.9778904 ], [ 38.7656622, 8.9723626 ], [ 38.7660779, 8.9717093 ], [ 38.7664998, 8.9707517 ], [ 38.7681896, 8.9660117 ], [ 38.768958499999989, 8.9650687 ], [ 38.7696234, 8.9636751 ], [ 38.7696023, 8.9623863 ], [ 38.7694981, 8.9622213 ], [ 38.7686775, 8.9609369 ], [ 38.7684276, 8.9605573 ], [ 38.7671116, 8.9599743 ], [ 38.7613862, 8.9611565 ], [ 38.7592765, 8.9610057 ], [ 38.7561091, 8.9619282 ], [ 38.7556649, 8.9621462 ], [ 38.7539944, 8.9631662 ], [ 38.7502609, 8.9667641 ], [ 38.7512636, 8.9691897 ], [ 38.7540807, 8.9716655 ], [ 38.7517611, 8.9769732 ], [ 38.7513245, 8.9774483 ], [ 38.7497742, 8.9817466 ], [ 38.7478419, 8.9848579 ], [ 38.7478922, 8.9855711 ], [ 38.7484798, 8.9867709 ], [ 38.7486479, 8.9869149 ], [ 38.7528229, 8.989431 ], [ 38.7537883, 8.9923434 ] ] ] } },
{ "type": "Feature", "properties": { "threshold_s": 900, "time_label": "15 min drive" }, "geometry": { "type": "Polygon", "coordinates": [ [ [ 38.7386231, 8.9886543 ], [ 38.7392676, 8.9926514 ], [ 38.7408335, 8.9933132 ], [ 38.7453967, 8.9958182 ], [ 38.748930799999989, 8.9998262 ], [ 38.7497913, 9.0011928 ], [ 38.7531698, 9.0041116 ], [ 38.7546592, 9.0046769 ], [ 38.7598548, 9.0054021 ], [ 38.7687166, 9.0066328 ], [ 38.7740211, 9.0034718 ], [ 38.7766984, 8.9999864 ], [ 38.7821738, 8.9945403 ], [ 38.7845344, 8.9902803 ], [ 38.7852267, 8.987993 ], [ 38.7856999, 8.9863203 ], [ 38.7855757, 8.9849273 ], [ 38.7787516, 8.9794447 ], [ 38.7777914, 8.9763594 ], [ 38.7759295, 8.9724099 ], [ 38.7750556, 8.9694476 ], [ 38.7746049, 8.9599046 ], [ 38.775242, 8.9583361 ], [ 38.7755169, 8.9575612 ], [ 38.7753178, 8.956777 ], [ 38.7742697, 8.9534014 ], [ 38.7688027, 8.948857 ], [ 38.7648323, 8.947793 ], [ 38.7559418, 8.9518981 ], [ 38.7530065, 8.9534279 ], [ 38.7476609, 8.9574208 ], [ 38.7442128, 8.9655784 ], [ 38.7428784, 8.9669177 ], [ 38.7411668, 8.9711839 ], [ 38.7388001, 8.9807726 ], [ 38.7386231, 8.9886543 ] ] ] } },
{ "type": "Feature", "properties": { "threshold_s": 300, "time_label": "5 min drive" }, "geometry": { "type": "Polygon", "coordinates": [ [ [ 38.760377, 8.984903 ], [ 38.7612816, 8.9859275 ], [ 38.7627198, 8.9862213 ], [ 38.765272, 8.9860874 ], [ 38.7658015, 8.9856989 ], [ 38.7676154, 8.9842259 ], [ 38.7662418, 8.9812714 ], [ 38.7659251, 8.9808102 ], [ 38.7650426, 8.9787808 ], [ 38.7650392, 8.976104 ], [ 38.7652743, 8.9732919 ], [ 38.7660779, 8.9717093 ], [ 38.7664998, 8.9707517 ], [ 38.7655318, 8.9710292 ], [ 38.7645882, 8.9715171 ], [ 38.7613593, 8.9707294 ], [ 38.7605834, 8.9740789 ], [ 38.7596897, 8.9769291 ], [ 38.7596943, 8.9779839 ], [ 38.7579608, 8.9816198 ], [ 38.760377, 8.984903 ] ] ] } },
{ "type": "Feature", "properties": { "threshold_s": 600, "time_label": "10 min drive" }, "geometry": { "type": "Polygon", "coordinates": [ [ [ 38.7478922, 8.9855711 ], [ 38.7484661, 8.9879114 ], [ 38.7485859, 8.9879394 ], [ 38.7525952, 8.9897352 ], [ 38.7537883, 8.9923434 ], [ 38.7549439, 8.9946507 ], [ 38.7597039, 8.9959808 ], [ 38.7609304, 8.9951202 ], [ 38.7656003, 8.9952358 ], [ 38.766689, 8.9969817 ], [ 38.766772, 8.9969781 ], [ 38.7702186, 8.9948896 ], [ 38.774816199999989, 8.9941075 ], [ 38.7758495, 8.9920804 ], [ 38.777445299999989, 8.9880264 ], [ 38.7786342, 8.9830658 ], [ 38.7785645, 8.9821469 ], [ 38.7784405, 8.9816191 ], [ 38.7769645, 8.9775777 ], [ 38.7756856, 8.9776485 ], [ 38.7733966, 8.9781525 ], [ 38.7687171, 8.9780856 ], [ 38.7683591, 8.9778904 ], [ 38.7680454, 8.9777212 ], [ 38.7676058, 8.9774758 ], [ 38.7652743, 8.9732919 ], [ 38.7656622, 8.9723626 ], [ 38.7660779, 8.9717093 ], [ 38.7664998, 8.9707517 ], [ 38.7681896, 8.9660117 ], [ 38.768958499999989, 8.9650687 ], [ 38.7696234, 8.9636751 ], [ 38.7691293, 8.9622311 ], [ 38.7686171, 8.9613226 ], [ 38.7680128, 8.9605714 ], [ 38.7670048, 8.9604185 ], [ 38.7665363, 8.9607523 ], [ 38.7613862, 8.9611565 ], [ 38.7606904, 8.9612635 ], [ 38.7590507, 8.9620808 ], [ 38.7546019, 8.9637399 ], [ 38.7527402, 8.9662076 ], [ 38.7518933, 8.9676702 ], [ 38.7540807, 8.9716655 ], [ 38.7514057, 8.9760475 ], [ 38.7497169, 8.9780273 ], [ 38.7495639, 8.9802349 ], [ 38.7478159, 8.9834376 ], [ 38.7478086, 8.9840864 ], [ 38.7478244, 8.9850778 ], [ 38.7478922, 8.9855711 ] ] ] } },
{ "type": "Feature", "properties": { "threshold_s": 900, "time_label": "15 min drive" }, "geometry": { "type": "Polygon", "coordinates": [ [ [ 38.7382566, 8.9884032 ], [ 38.7391173, 8.9940268 ], [ 38.7393096, 8.9941036 ], [ 38.7473184, 8.9987266 ], [ 38.7493209, 9.0013617 ], [ 38.7544001, 9.0055835 ], [ 38.7545946, 9.0057032 ], [ 38.7547566, 9.0057969 ], [ 38.7590704, 9.0068685 ], [ 38.7663964, 9.0070441 ], [ 38.7699708, 9.0073954 ], [ 38.7757771, 9.0033548 ], [ 38.782616, 8.9950866 ], [ 38.7858171, 8.9901332 ], [ 38.7865421, 8.9882794 ], [ 38.786632, 8.9870718 ], [ 38.7855757, 8.9849273 ], [ 38.7787516, 8.9794447 ], [ 38.7777914, 8.9763594 ], [ 38.7759295, 8.9724099 ], [ 38.7750556, 8.9694476 ], [ 38.7746049, 8.9599046 ], [ 38.775242, 8.9583361 ], [ 38.7755169, 8.9575612 ], [ 38.7753178, 8.956777 ], [ 38.7742697, 8.9534014 ], [ 38.771108, 8.9517216 ], [ 38.7690797, 8.9520986 ], [ 38.7601136, 8.9511388 ], [ 38.7562682, 8.9524804 ], [ 38.7517344, 8.9550123 ], [ 38.7479847, 8.9578427 ], [ 38.7440529, 8.9658615 ], [ 38.7430934, 8.9678844 ], [ 38.7421094, 8.9706271 ], [ 38.739083, 8.9786417 ], [ 38.7378399, 8.9807893 ], [ 38.7382566, 8.9884032 ] ] ] } },
{ "type": "Feature", "properties": { "threshold_s": 300, "time_label": "5 min drive" }, "geometry": { "type": "Polygon", "coordinates": [ [ [ 38.7540763, 8.9687278 ], [ 38.7547973, 8.9695155 ], [ 38.755781399999989, 8.9695229 ], [ 38.756673, 8.9690124 ], [ 38.7565422, 8.9679672 ], [ 38.7566851, 8.9669946 ], [ 38.7588272, 8.9661457 ], [ 38.7602142, 8.9666508 ], [ 38.7620422, 8.967196 ], [ 38.762618, 8.9673329 ], [ 38.7628423, 8.9658809 ], [ 38.7632151, 8.9633794 ], [ 38.7633621, 8.962338 ], [ 38.7613862, 8.9611565 ], [ 38.7607164, 8.9597051 ], [ 38.7614843, 8.9580241 ], [ 38.7640562, 8.9583092 ], [ 38.7640214, 8.9576842 ], [ 38.764001, 8.9574999 ], [ 38.7638096, 8.9575442 ], [ 38.7603619, 8.9570516 ], [ 38.759245, 8.956673 ], [ 38.757739, 8.9577501 ], [ 38.7562482, 8.9578487 ], [ 38.7543209, 8.9598397 ], [ 38.7539297, 8.9607387 ], [ 38.7528311, 8.9627643 ], [ 38.7538638, 8.9642348 ], [ 38.7534762, 8.9657466 ], [ 38.7529498, 8.966868 ], [ 38.7537597, 8.9682181 ], [ 38.7540763, 8.9687278 ] ] ] } },
{ "type": "Feature", "properties": { "threshold_s": 600, "time_label": "10 min drive" }, "geometry": { "type": "Polygon", "coordinates": [ [ [ 38.7459546, 8.9713903 ], [ 38.7478795, 8.9736819 ], [ 38.7517611, 8.9769732 ], [ 38.7566249, 8.980382 ], [ 38.7611354, 8.9799716 ], [ 38.7619528, 8.9791188 ], [ 38.7624999, 8.9784998 ], [ 38.7628459, 8.9776635 ], [ 38.7632147, 8.9764116 ], [ 38.7613593, 8.9707294 ], [ 38.7643277, 8.9676341 ], [ 38.766784800000011, 8.966058 ], [ 38.7675187, 8.9656543 ], [ 38.7718099, 8.962378 ], [ 38.7726464, 8.9617668 ], [ 38.7728872, 8.9614966 ], [ 38.7742362, 8.9585456 ], [ 38.7741191, 8.9565936 ], [ 38.774057, 8.9559735 ], [ 38.7733372, 8.9544932 ], [ 38.7710631, 8.951835 ], [ 38.7690797, 8.9520986 ], [ 38.7650031, 8.9478818 ], [ 38.7654933, 8.9463752 ], [ 38.7610491, 8.9474346 ], [ 38.7560588, 8.9495278 ], [ 38.7547486, 8.9496682 ], [ 38.7541316, 8.9497782 ], [ 38.7537807, 8.9500531 ], [ 38.7531486, 8.9507499 ], [ 38.7503255, 8.9546422 ], [ 38.7464974, 8.9584282 ], [ 38.746077, 8.9588322 ], [ 38.7457092, 8.9611077 ], [ 38.7461293, 8.9642524 ], [ 38.7441039, 8.9691003 ], [ 38.7459546, 8.9713903 ] ] ] } },
{ "type": "Feature", "properties": { "threshold_s": 900, "time_label": "15 min drive" }, "geometry": { "type": "Polygon", "coordinates": [ [ [ 38.735481299999989, 8.9742963 ], [ 38.7361579, 8.9750756 ], [ 38.7430794, 8.9803576 ], [ 38.7480312, 8.9858545 ], [ 38.753266, 8.9884972 ], [ 38.7591453, 8.9913732 ], [ 38.7689877, 8.9865387 ], [ 38.7690569, 8.9864664 ], [ 38.7676154, 8.9842259 ], [ 38.7669368, 8.9766912 ], [ 38.770035, 8.9725261 ], [ 38.7715801, 8.967035 ], [ 38.7746049, 8.9599046 ], [ 38.7783507, 8.9528039 ], [ 38.7792402, 8.9509342 ], [ 38.7759608, 8.9454448 ], [ 38.773277899999989, 8.940861 ], [ 38.7711035, 8.938612 ], [ 38.7619592, 8.9372218 ], [ 38.7598461, 8.9378391 ], [ 38.7501968, 8.9407104 ], [ 38.7498575, 8.941114 ], [ 38.7425456, 8.9489772 ], [ 38.7412506, 8.9499145 ], [ 38.7400258, 8.9507621 ], [ 38.7383851, 8.9518382 ], [ 38.7381944, 8.9519562 ], [ 38.7388181, 8.9533071 ], [ 38.7403759, 8.9568763 ], [ 38.7358058, 8.9664959 ], [ 38.7340753, 8.9706794 ], [ 38.735481299999989, 8.9742963 ] ] ] } },
{ "type": "Feature", "properties": { "threshold_s": 300, "time_label": "5 min drive" }, "geometry": { "type": "Polygon", "coordinates": [ [ [ 38.766175, 9.0194163 ], [ 38.7638895, 9.0199177 ], [ 38.7650922, 9.0223314 ], [ 38.7664473, 9.0226405 ], [ 38.7666902, 9.0194705 ], [ 38.7676275, 9.0197284 ], [ 38.7677259, 9.0197702 ], [ 38.7686595, 9.0207369 ], [ 38.7708838, 9.0203264 ], [ 38.7713573, 9.0204686 ], [ 38.7723687, 9.02177 ], [ 38.7717222, 9.0232818 ], [ 38.7722297, 9.0251154 ], [ 38.7722787, 9.0259286 ], [ 38.7725207, 9.0260996 ], [ 38.7739329, 9.0250723 ], [ 38.7739588, 9.0248857 ], [ 38.7745161, 9.0236071 ], [ 38.7763746, 9.0235218 ], [ 38.7765878, 9.0251981 ], [ 38.7782289, 9.0233603 ], [ 38.7782833, 9.0227338 ], [ 38.778017, 9.0205492 ], [ 38.778081, 9.0202005 ], [ 38.7782413, 9.0194063 ], [ 38.7771591, 9.017689 ], [ 38.7766469, 9.0163656 ], [ 38.775128, 9.0168441 ], [ 38.7741335, 9.0152535 ], [ 38.773148, 9.0145762 ], [ 38.7712012, 9.0155134 ], [ 38.7699102, 9.014068 ], [ 38.7698139, 9.0132732 ], [ 38.7695735, 9.0120323 ], [ 38.7683696, 9.0132238 ], [ 38.7684856, 9.0141974 ], [ 38.7684944, 9.0142876 ], [ 38.7686282, 9.015342 ], [ 38.7674265, 9.0166327 ], [ 38.7659352, 9.0168131 ], [ 38.7657801, 9.0168339 ], [ 38.766175, 9.0194163 ] ] ] } },
{ "type": "Feature", "properties": { "threshold_s": 600, "time_label": "10 min drive" }, "geometry": { "type": "Polygon", "coordinates": [ [ [ 38.7636532, 9.0296992 ], [ 38.7635197, 9.0297327 ], [ 38.7639705, 9.0296349 ], [ 38.7668135, 9.0296198 ], [ 38.7696665, 9.0317334 ], [ 38.7709504, 9.0340645 ], [ 38.7719675, 9.0350362 ], [ 38.7722643, 9.0352881 ], [ 38.7725503, 9.0352767 ], [ 38.7731138, 9.0347368 ], [ 38.7766302, 9.0325063 ], [ 38.7790479, 9.0321575 ], [ 38.7842055, 9.0301541 ], [ 38.785542, 9.0298968 ], [ 38.7864765, 9.028295 ], [ 38.7878562, 9.0238515 ], [ 38.7894271, 9.0214538 ], [ 38.7893873, 9.0209707 ], [ 38.7871463, 9.0184091 ], [ 38.7857034, 9.0172699 ], [ 38.7842112, 9.0161675 ], [ 38.7811587, 9.0112123 ], [ 38.780713, 9.0097015 ], [ 38.7798661, 9.0040376 ], [ 38.7768754, 9.0031859 ], [ 38.7753379, 9.0044741 ], [ 38.7700586, 9.006106 ], [ 38.768828, 9.0061181 ], [ 38.7643986, 9.0090118 ], [ 38.7594056, 9.011551 ], [ 38.7627136, 9.0143638 ], [ 38.7587022, 9.0179263 ], [ 38.7576248, 9.0176281 ], [ 38.755531, 9.0174041 ], [ 38.7554835, 9.0175438 ], [ 38.7562676, 9.0198411 ], [ 38.7562849, 9.0198801 ], [ 38.7563631, 9.0199277 ], [ 38.7600498, 9.0221853 ], [ 38.7602254, 9.0222978 ], [ 38.7605536, 9.0224021 ], [ 38.7645123, 9.0221623 ], [ 38.7664952, 9.0274613 ], [ 38.7636532, 9.0296992 ] ] ] } },
{ "type": "Feature", "properties": { "threshold_s": 900, "time_label": "15 min drive" }, "geometry": { "type": "Polygon", "coordinates": [ [ [ 38.7573179, 9.0358262 ], [ 38.760091, 9.0388978 ], [ 38.7656921, 9.042178 ], [ 38.7678988, 9.0418997 ], [ 38.7733985, 9.0448605 ], [ 38.774161, 9.0451615 ], [ 38.7745291, 9.0452189 ], [ 38.7761863, 9.0444292 ], [ 38.7818965, 9.0410802 ], [ 38.7828712, 9.0413032 ], [ 38.788646, 9.0371199 ], [ 38.7913411, 9.0328014 ], [ 38.7947311, 9.0312946 ], [ 38.7973537, 9.0288307 ], [ 38.7983101, 9.0230691 ], [ 38.7992964, 9.0204626 ], [ 38.7992848, 9.0191203 ], [ 38.7945083, 9.014418 ], [ 38.7934121, 9.012522 ], [ 38.7909497, 9.0087312 ], [ 38.7898343, 9.0055715 ], [ 38.7894034, 9.0046542 ], [ 38.7873295, 8.9978484 ], [ 38.7860546, 8.996506 ], [ 38.7807734, 8.9938303 ], [ 38.7744617, 8.9938188 ], [ 38.7710027, 8.9963483 ], [ 38.7666297, 8.9961166 ], [ 38.7636837, 8.9968352 ], [ 38.7609245, 9.000468 ], [ 38.7578892, 9.0014296 ], [ 38.7530085, 9.0043225 ], [ 38.752014, 9.0072861 ], [ 38.7461139, 9.011589 ], [ 38.7436837, 9.0164679 ], [ 38.747628, 9.0216931 ], [ 38.748433, 9.0240763 ], [ 38.751818, 9.0272397 ], [ 38.7531912, 9.0297342 ], [ 38.7541779, 9.0325832 ], [ 38.7573179, 9.0358262 ] ] ] } },
{ "type": "Feature", "properties": { "threshold_s": 300, "time_label": "5 min drive" }, "geometry": { "type": "Polygon", "coordinates": [ [ [ 38.7722297, 9.0251154 ], [ 38.7722787, 9.0259286 ], [ 38.7725207, 9.0260996 ], [ 38.7735065, 9.0265939 ], [ 38.77690290000001, 9.0259574 ], [ 38.7770203, 9.025766 ], [ 38.777594, 9.0246542 ], [ 38.7796031, 9.0223489 ], [ 38.7799554, 9.0211994 ], [ 38.7804623, 9.0179874 ], [ 38.7795994, 9.0155365 ], [ 38.777837, 9.0134105 ], [ 38.7761009, 9.0118694 ], [ 38.7751447, 9.0097636 ], [ 38.7742957, 9.0098175 ], [ 38.7725128, 9.0102701 ], [ 38.7692515, 9.0104413 ], [ 38.768797, 9.0113452 ], [ 38.7683696, 9.0132238 ], [ 38.7654814, 9.0154268 ], [ 38.7640158, 9.0171291 ], [ 38.766175, 9.0194163 ], [ 38.7686595, 9.0207369 ], [ 38.7708838, 9.0203264 ], [ 38.7717222, 9.0232818 ], [ 38.7722297, 9.0251154 ] ] ] } },
{ "type": "Feature", "properties": { "threshold_s": 600, "time_label": "10 min drive" }, "geometry": { "type": "Polygon", "coordinates": [ [ [ 38.7631958, 9.029803 ], [ 38.7636394, 9.0308323 ], [ 38.7684305, 9.0329237 ], [ 38.769884, 9.0342295 ], [ 38.771258, 9.0349868 ], [ 38.7722643, 9.0352881 ], [ 38.7725503, 9.0352767 ], [ 38.7736848, 9.0351991 ], [ 38.7781019, 9.0335024 ], [ 38.7821767, 9.0308299 ], [ 38.7859405, 9.0306672 ], [ 38.7860223, 9.0306152 ], [ 38.7866551, 9.0300591 ], [ 38.7877832, 9.0281623 ], [ 38.7893949, 9.0228691 ], [ 38.7903417, 9.0214052 ], [ 38.7902824, 9.0210024 ], [ 38.7872746, 9.0165079 ], [ 38.7866215, 9.0149869 ], [ 38.785812, 9.0135777 ], [ 38.7841769, 9.008861 ], [ 38.7838566, 9.0045185 ], [ 38.7836735, 9.0030581 ], [ 38.783090799999989, 9.0006189 ], [ 38.7796696, 9.0006454 ], [ 38.7735825, 8.9997115 ], [ 38.7716421, 9.0009861 ], [ 38.7682422, 9.0046012 ], [ 38.7643308, 9.0075099 ], [ 38.7591779, 9.0112723 ], [ 38.7588792, 9.0116653 ], [ 38.7585196, 9.0125992 ], [ 38.7543086, 9.017315 ], [ 38.753888, 9.0173878 ], [ 38.7536536, 9.0182268 ], [ 38.755685, 9.0209076 ], [ 38.7600498, 9.0221853 ], [ 38.7602254, 9.0222978 ], [ 38.7614021, 9.0232701 ], [ 38.7633917, 9.0291295 ], [ 38.7631958, 9.029803 ] ] ] } },
{ "type": "Feature", "properties": { "threshold_s": 900, "time_label": "15 min drive" }, "geometry": { "type": "Polygon", "coordinates": [ [ [ 38.7540847, 9.0327214 ], [ 38.7579791, 9.0380662 ], [ 38.7620077, 9.0410376 ], [ 38.7646477, 9.0427305 ], [ 38.7656056, 9.0433262 ], [ 38.7694638, 9.0449786 ], [ 38.7735437, 9.0461664 ], [ 38.7770125, 9.045045 ], [ 38.782942, 9.0416807 ], [ 38.788646, 9.0371199 ], [ 38.788999, 9.0366321 ], [ 38.7898711, 9.0353037 ], [ 38.7947311, 9.0312946 ], [ 38.7971356, 9.0300338 ], [ 38.7981611, 9.0287943 ], [ 38.7986196, 9.0231216 ], [ 38.8012768, 9.0197874 ], [ 38.8012379, 9.0196774 ], [ 38.7972575, 9.0171011 ], [ 38.7956759, 9.013702 ], [ 38.7950857, 9.0111877 ], [ 38.7948845, 9.0085895 ], [ 38.7946479, 9.0046967 ], [ 38.7946308, 9.0046325 ], [ 38.7924222, 8.9980253 ], [ 38.7926327, 8.9956682 ], [ 38.7910791, 8.9942343 ], [ 38.7847989, 8.9917454 ], [ 38.7830666, 8.9913983 ], [ 38.7771993, 8.9889938 ], [ 38.7725604, 8.990016 ], [ 38.7664925, 8.9943395 ], [ 38.762479, 8.9967163 ], [ 38.758485, 8.999819 ], [ 38.7556243, 9.0006326 ], [ 38.7527306, 9.0028713 ], [ 38.7525602, 9.0030854 ], [ 38.7522414, 9.0038919 ], [ 38.7517324, 9.0049461 ], [ 38.7502626, 9.0077974 ], [ 38.7461556, 9.0104021 ], [ 38.7451161, 9.01093 ], [ 38.7427584, 9.0162719 ], [ 38.7427155, 9.0163732 ], [ 38.7425301, 9.0168306 ], [ 38.7445602, 9.0201826 ], [ 38.7471945, 9.025634 ], [ 38.7523777, 9.0300754 ], [ 38.7540847, 9.0327214 ] ] ] } },
{ "type": "Feature", "properties": { "threshold_s": 300, "time_label": "5 min drive" }, "geometry": { "type": "Polygon", "coordinates": [ [ [ 38.7722297, 9.0251154 ], [ 38.7722787, 9.0259286 ], [ 38.7725207, 9.0260996 ], [ 38.7735065, 9.0265939 ], [ 38.77690290000001, 9.0259574 ], [ 38.7770203, 9.025766 ], [ 38.777594, 9.0246542 ], [ 38.7796031, 9.0223489 ], [ 38.7799554, 9.0211994 ], [ 38.7804623, 9.0179874 ], [ 38.7795994, 9.0155365 ], [ 38.777837, 9.0134105 ], [ 38.7761009, 9.0118694 ], [ 38.7751447, 9.0097636 ], [ 38.7742957, 9.0098175 ], [ 38.7725128, 9.0102701 ], [ 38.7692515, 9.0104413 ], [ 38.768797, 9.0113452 ], [ 38.7683696, 9.0132238 ], [ 38.7654814, 9.0154268 ], [ 38.7640158, 9.0171291 ], [ 38.766175, 9.0194163 ], [ 38.7686595, 9.0207369 ], [ 38.7708838, 9.0203264 ], [ 38.7717222, 9.0232818 ], [ 38.7722297, 9.0251154 ] ] ] } },
{ "type": "Feature", "properties": { "threshold_s": 600, "time_label": "10 min drive" }, "geometry": { "type": "Polygon", "coordinates": [ [ [ 38.7631958, 9.029803 ], [ 38.7636394, 9.0308323 ], [ 38.7684305, 9.0329237 ], [ 38.769884, 9.0342295 ], [ 38.771258, 9.0349868 ], [ 38.7722643, 9.0352881 ], [ 38.7725503, 9.0352767 ], [ 38.7736848, 9.0351991 ], [ 38.7781019, 9.0335024 ], [ 38.7821767, 9.0308299 ], [ 38.7859405, 9.0306672 ], [ 38.7860223, 9.0306152 ], [ 38.7866551, 9.0300591 ], [ 38.7877832, 9.0281623 ], [ 38.7893949, 9.0228691 ], [ 38.7903417, 9.0214052 ], [ 38.7902824, 9.0210024 ], [ 38.7872746, 9.0165079 ], [ 38.7866215, 9.0149869 ], [ 38.785812, 9.0135777 ], [ 38.7841769, 9.008861 ], [ 38.7838566, 9.0045185 ], [ 38.7836735, 9.0030581 ], [ 38.783090799999989, 9.0006189 ], [ 38.7796696, 9.0006454 ], [ 38.7735825, 8.9997115 ], [ 38.7716421, 9.0009861 ], [ 38.7682422, 9.0046012 ], [ 38.7643308, 9.0075099 ], [ 38.7591779, 9.0112723 ], [ 38.7588792, 9.0116653 ], [ 38.7585196, 9.0125992 ], [ 38.7543086, 9.017315 ], [ 38.753888, 9.0173878 ], [ 38.7536536, 9.0182268 ], [ 38.755685, 9.0209076 ], [ 38.7600498, 9.0221853 ], [ 38.7602254, 9.0222978 ], [ 38.7614021, 9.0232701 ], [ 38.7633917, 9.0291295 ], [ 38.7631958, 9.029803 ] ] ] } },
{ "type": "Feature", "properties": { "threshold_s": 900, "time_label": "15 min drive" }, "geometry": { "type": "Polygon", "coordinates": [ [ [ 38.7540847, 9.0327214 ], [ 38.7579791, 9.0380662 ], [ 38.7620077, 9.0410376 ], [ 38.7646477, 9.0427305 ], [ 38.7656056, 9.0433262 ], [ 38.7694638, 9.0449786 ], [ 38.7735437, 9.0461664 ], [ 38.7770125, 9.045045 ], [ 38.782942, 9.0416807 ], [ 38.788646, 9.0371199 ], [ 38.788999, 9.0366321 ], [ 38.7898711, 9.0353037 ], [ 38.7947311, 9.0312946 ], [ 38.7971356, 9.0300338 ], [ 38.7981611, 9.0287943 ], [ 38.7986196, 9.0231216 ], [ 38.8012768, 9.0197874 ], [ 38.8012379, 9.0196774 ], [ 38.7972575, 9.0171011 ], [ 38.7956759, 9.013702 ], [ 38.7950857, 9.0111877 ], [ 38.7948845, 9.0085895 ], [ 38.7946479, 9.0046967 ], [ 38.7946308, 9.0046325 ], [ 38.7924222, 8.9980253 ], [ 38.7926327, 8.9956682 ], [ 38.7910791, 8.9942343 ], [ 38.7847989, 8.9917454 ], [ 38.7830666, 8.9913983 ], [ 38.7771993, 8.9889938 ], [ 38.7725604, 8.990016 ], [ 38.7664925, 8.9943395 ], [ 38.762479, 8.9967163 ], [ 38.758485, 8.999819 ], [ 38.7556243, 9.0006326 ], [ 38.7527306, 9.0028713 ], [ 38.7525602, 9.0030854 ], [ 38.7522414, 9.0038919 ], [ 38.7517324, 9.0049461 ], [ 38.7502626, 9.0077974 ], [ 38.7461556, 9.0104021 ], [ 38.7451161, 9.01093 ], [ 38.7427584, 9.0162719 ], [ 38.7427155, 9.0163732 ], [ 38.7425301, 9.0168306 ], [ 38.7445602, 9.0201826 ], [ 38.7471945, 9.025634 ], [ 38.7523777, 9.0300754 ], [ 38.7540847, 9.0327214 ] ] ] } },
{ "type": "Feature", "properties": { "threshold_s": 300, "time_label": "5 min drive" }, "geometry": { "type": "Polygon", "coordinates": [ [ [ 38.7722297, 9.0251154 ], [ 38.7722787, 9.0259286 ], [ 38.7725207, 9.0260996 ], [ 38.7735065, 9.0265939 ], [ 38.77690290000001, 9.0259574 ], [ 38.7770203, 9.025766 ], [ 38.777594, 9.0246542 ], [ 38.7796031, 9.0223489 ], [ 38.7799554, 9.0211994 ], [ 38.7804623, 9.0179874 ], [ 38.7795994, 9.0155365 ], [ 38.777837, 9.0134105 ], [ 38.7761009, 9.0118694 ], [ 38.7751447, 9.0097636 ], [ 38.7742957, 9.0098175 ], [ 38.7725128, 9.0102701 ], [ 38.7692515, 9.0104413 ], [ 38.768797, 9.0113452 ], [ 38.7683696, 9.0132238 ], [ 38.7654814, 9.0154268 ], [ 38.7640158, 9.0171291 ], [ 38.766175, 9.0194163 ], [ 38.7686595, 9.0207369 ], [ 38.7708838, 9.0203264 ], [ 38.7717222, 9.0232818 ], [ 38.7722297, 9.0251154 ] ] ] } },
{ "type": "Feature", "properties": { "threshold_s": 600, "time_label": "10 min drive" }, "geometry": { "type": "Polygon", "coordinates": [ [ [ 38.7631958, 9.029803 ], [ 38.7636394, 9.0308323 ], [ 38.7684305, 9.0329237 ], [ 38.769884, 9.0342295 ], [ 38.771258, 9.0349868 ], [ 38.7722643, 9.0352881 ], [ 38.7725503, 9.0352767 ], [ 38.7736848, 9.0351991 ], [ 38.7781019, 9.0335024 ], [ 38.7821767, 9.0308299 ], [ 38.7859405, 9.0306672 ], [ 38.7860223, 9.0306152 ], [ 38.7866551, 9.0300591 ], [ 38.7877832, 9.0281623 ], [ 38.7893949, 9.0228691 ], [ 38.7903417, 9.0214052 ], [ 38.7902824, 9.0210024 ], [ 38.7872746, 9.0165079 ], [ 38.7866215, 9.0149869 ], [ 38.785812, 9.0135777 ], [ 38.7841769, 9.008861 ], [ 38.7838566, 9.0045185 ], [ 38.7836735, 9.0030581 ], [ 38.783090799999989, 9.0006189 ], [ 38.7796696, 9.0006454 ], [ 38.7735825, 8.9997115 ], [ 38.7716421, 9.0009861 ], [ 38.7682422, 9.0046012 ], [ 38.7643308, 9.0075099 ], [ 38.7591779, 9.0112723 ], [ 38.7588792, 9.0116653 ], [ 38.7585196, 9.0125992 ], [ 38.7543086, 9.017315 ], [ 38.753888, 9.0173878 ], [ 38.7536536, 9.0182268 ], [ 38.755685, 9.0209076 ], [ 38.7600498, 9.0221853 ], [ 38.7602254, 9.0222978 ], [ 38.7614021, 9.0232701 ], [ 38.7633917, 9.0291295 ], [ 38.7631958, 9.029803 ] ] ] } },
{ "type": "Feature", "properties": { "threshold_s": 900, "time_label": "15 min drive" }, "geometry": { "type": "Polygon", "coordinates": [ [ [ 38.7540847, 9.0327214 ], [ 38.7579791, 9.0380662 ], [ 38.7620077, 9.0410376 ], [ 38.7646477, 9.0427305 ], [ 38.7656056, 9.0433262 ], [ 38.7694638, 9.0449786 ], [ 38.7735437, 9.0461664 ], [ 38.7770125, 9.045045 ], [ 38.782942, 9.0416807 ], [ 38.788646, 9.0371199 ], [ 38.788999, 9.0366321 ], [ 38.7898711, 9.0353037 ], [ 38.7947311, 9.0312946 ], [ 38.7971356, 9.0300338 ], [ 38.7981611, 9.0287943 ], [ 38.7986196, 9.0231216 ], [ 38.8012768, 9.0197874 ], [ 38.8012379, 9.0196774 ], [ 38.7972575, 9.0171011 ], [ 38.7956759, 9.013702 ], [ 38.7950857, 9.0111877 ], [ 38.7948845, 9.0085895 ], [ 38.7946479, 9.0046967 ], [ 38.7946308, 9.0046325 ], [ 38.7924222, 8.9980253 ], [ 38.7926327, 8.9956682 ], [ 38.7910791, 8.9942343 ], [ 38.7847989, 8.9917454 ], [ 38.7830666, 8.9913983 ], [ 38.7771993, 8.9889938 ], [ 38.7725604, 8.990016 ], [ 38.7664925, 8.9943395 ], [ 38.762479, 8.9967163 ], [ 38.758485, 8.999819 ], [ 38.7556243, 9.0006326 ], [ 38.7527306, 9.0028713 ], [ 38.7525602, 9.0030854 ], [ 38.7522414, 9.0038919 ], [ 38.7517324, 9.0049461 ], [ 38.7502626, 9.0077974 ], [ 38.7461556, 9.0104021 ], [ 38.7451161, 9.01093 ], [ 38.7427584, 9.0162719 ], [ 38.7427155, 9.0163732 ], [ 38.7425301, 9.0168306 ], [ 38.7445602, 9.0201826 ], [ 38.7471945, 9.025634 ], [ 38.7523777, 9.0300754 ], [ 38.7540847, 9.0327214 ] ] ] } },
{ "type": "Feature", "properties": { "threshold_s": 300, "time_label": "5 min drive" }, "geometry": { "type": "Polygon", "coordinates": [ [ [ 38.7638895, 9.0199177 ], [ 38.7650922, 9.0223314 ], [ 38.7664473, 9.0226405 ], [ 38.766175, 9.0194163 ], [ 38.7666902, 9.0194705 ], [ 38.7676275, 9.0197284 ], [ 38.7677259, 9.0197702 ], [ 38.7686595, 9.0207369 ], [ 38.7708838, 9.0203264 ], [ 38.7713573, 9.0204686 ], [ 38.7723687, 9.02177 ], [ 38.7717222, 9.0232818 ], [ 38.7722297, 9.0251154 ], [ 38.7734231, 9.0249135 ], [ 38.7739166, 9.0240686 ], [ 38.7763746, 9.0235218 ], [ 38.7766007, 9.0235376 ], [ 38.7782833, 9.0227338 ], [ 38.7791009, 9.0224574 ], [ 38.7796941, 9.0220515 ], [ 38.7799554, 9.0211994 ], [ 38.7800579, 9.019619 ], [ 38.7804623, 9.0179874 ], [ 38.7795994, 9.0155365 ], [ 38.7781044, 9.0145299 ], [ 38.777837, 9.0134105 ], [ 38.7778035, 9.0124771 ], [ 38.7770095, 9.0108942 ], [ 38.7751447, 9.0097636 ], [ 38.7763497, 9.0075451 ], [ 38.7753949, 9.008012 ], [ 38.7736581, 9.0079186 ], [ 38.7740014, 9.0088061 ], [ 38.7725128, 9.0102701 ], [ 38.7732789, 9.0121882 ], [ 38.773148, 9.0145762 ], [ 38.7712012, 9.0155134 ], [ 38.7699102, 9.014068 ], [ 38.7698139, 9.0132732 ], [ 38.7695735, 9.0120323 ], [ 38.769581, 9.011501 ], [ 38.7695029, 9.0107419 ], [ 38.7692515, 9.0104413 ], [ 38.7672657, 9.0106467 ], [ 38.7672256, 9.0115334 ], [ 38.767167, 9.0123421 ], [ 38.7684856, 9.0141974 ], [ 38.7663692, 9.0156361 ], [ 38.766101, 9.0156017 ], [ 38.7654814, 9.0154268 ], [ 38.7649382, 9.0162277 ], [ 38.7631065, 9.0171496 ], [ 38.7629355, 9.0171841 ], [ 38.7623398, 9.017288 ], [ 38.7623666, 9.0174082 ], [ 38.7636571, 9.0176742 ], [ 38.7638895, 9.0199177 ] ] ] } },
{ "type": "Feature", "properties": { "threshold_s": 600, "time_label": "10 min drive" }, "geometry": { "type": "Polygon", "coordinates": [ [ [ 38.7523037, 9.0192633 ], [ 38.754346, 9.0216889 ], [ 38.7546091, 9.0217117 ], [ 38.7555976, 9.0217609 ], [ 38.7600498, 9.0221853 ], [ 38.7602254, 9.0222978 ], [ 38.7614021, 9.0232701 ], [ 38.7616201, 9.0233396 ], [ 38.7650922, 9.0223314 ], [ 38.7673037, 9.0253571 ], [ 38.7664952, 9.0274613 ], [ 38.7635072, 9.0296583 ], [ 38.7635197, 9.0297327 ], [ 38.7637138, 9.0300983 ], [ 38.7668135, 9.0296198 ], [ 38.7696665, 9.0317334 ], [ 38.7725503, 9.0352767 ], [ 38.775312, 9.0329041 ], [ 38.7766302, 9.0325063 ], [ 38.7783575, 9.0319742 ], [ 38.7792177, 9.0312554 ], [ 38.7802271, 9.0305908 ], [ 38.7840727, 9.0293788 ], [ 38.7857026, 9.0282428 ], [ 38.7863276, 9.0246843 ], [ 38.7873243, 9.0235556 ], [ 38.7876648, 9.0232365 ], [ 38.7888875, 9.0215812 ], [ 38.7883827, 9.0212326 ], [ 38.787837, 9.0208872 ], [ 38.786564, 9.019551 ], [ 38.7889022, 9.0159914 ], [ 38.7867309, 9.0126232 ], [ 38.7865018, 9.0107454 ], [ 38.7847403, 9.0066431 ], [ 38.7852859, 9.0045649 ], [ 38.7853398, 9.0043516 ], [ 38.784741, 9.0019017 ], [ 38.7839798, 8.9998376 ], [ 38.7827763, 8.9993254 ], [ 38.7792988, 8.9978577 ], [ 38.7791942, 8.9979054 ], [ 38.7783258, 8.9985267 ], [ 38.7739914, 8.9989883 ], [ 38.7722506, 8.9984578 ], [ 38.770898099999989, 8.9992638 ], [ 38.7706407, 8.9997545 ], [ 38.7675149, 9.0030812 ], [ 38.7647674, 9.0061136 ], [ 38.7632801, 9.0060954 ], [ 38.7627101, 9.0070834 ], [ 38.7588742, 9.0086394 ], [ 38.7576903, 9.0118964 ], [ 38.7585196, 9.0125992 ], [ 38.7555162, 9.0160017 ], [ 38.7526023, 9.0162803 ], [ 38.7518654, 9.0166783 ], [ 38.751575699999989, 9.0171898 ], [ 38.7523037, 9.0192633 ] ] ] } },
{ "type": "Feature", "properties": { "threshold_s": 900, "time_label": "15 min drive" }, "geometry": { "type": "Polygon", "coordinates": [ [ [ 38.7426813, 9.0210971 ], [ 38.7459093, 9.0267541 ], [ 38.7512775, 9.0305243 ], [ 38.7540847, 9.0327214 ], [ 38.7573179, 9.0358262 ], [ 38.7584061, 9.0370047 ], [ 38.760091, 9.0388978 ], [ 38.7654082, 9.0400723 ], [ 38.7678988, 9.0418997 ], [ 38.773845, 9.0443406 ], [ 38.7752145, 9.0440842 ], [ 38.7813319, 9.0400888 ], [ 38.7821976, 9.0400112 ], [ 38.7866579, 9.0379459 ], [ 38.7882839, 9.036338 ], [ 38.7933345, 9.0314512 ], [ 38.7943505, 9.0307929 ], [ 38.7964456, 9.0288702 ], [ 38.7964648, 9.0288238 ], [ 38.7974667, 9.0235442 ], [ 38.7992964, 9.0204626 ], [ 38.7994298, 9.0188571 ], [ 38.7982312, 9.0172209 ], [ 38.7963315, 9.0103532 ], [ 38.7966599, 9.0077434 ], [ 38.795201, 9.0056441 ], [ 38.7946308, 9.0046325 ], [ 38.7941482, 8.9979968 ], [ 38.7943467, 8.9950463 ], [ 38.7918435, 8.9923162 ], [ 38.7917543, 8.9922639 ], [ 38.788291, 8.9915527 ], [ 38.7829238, 8.9893312 ], [ 38.777445299999989, 8.9880264 ], [ 38.7711194, 8.9883651 ], [ 38.7662967, 8.9928308 ], [ 38.7627677, 8.9945858 ], [ 38.7575434, 8.9980193 ], [ 38.7542811, 8.9997419 ], [ 38.7513207, 9.0020037 ], [ 38.7507367, 9.0031157 ], [ 38.7504336, 9.0036879 ], [ 38.7501171, 9.0043078 ], [ 38.7500717, 9.0048308 ], [ 38.7461556, 9.0104021 ], [ 38.7445199, 9.0100214 ], [ 38.7443043, 9.0100188 ], [ 38.7441227, 9.0100953 ], [ 38.7440647, 9.0101702 ], [ 38.7410116, 9.0161342 ], [ 38.7407, 9.0169157 ], [ 38.7426813, 9.0210971 ] ] ] } },
{ "type": "Feature", "properties": { "threshold_s": 300, "time_label": "5 min drive" }, "geometry": { "type": "Polygon", "coordinates": [ [ [ 38.7722297, 9.0251154 ], [ 38.7722787, 9.0259286 ], [ 38.7725207, 9.0260996 ], [ 38.7735065, 9.0265939 ], [ 38.77690290000001, 9.0259574 ], [ 38.7770203, 9.025766 ], [ 38.777594, 9.0246542 ], [ 38.7796031, 9.0223489 ], [ 38.7799554, 9.0211994 ], [ 38.7804623, 9.0179874 ], [ 38.7795994, 9.0155365 ], [ 38.777837, 9.0134105 ], [ 38.7761009, 9.0118694 ], [ 38.7751447, 9.0097636 ], [ 38.7742957, 9.0098175 ], [ 38.7725128, 9.0102701 ], [ 38.7692515, 9.0104413 ], [ 38.768797, 9.0113452 ], [ 38.7683696, 9.0132238 ], [ 38.7654814, 9.0154268 ], [ 38.7640158, 9.0171291 ], [ 38.766175, 9.0194163 ], [ 38.7686595, 9.0207369 ], [ 38.7708838, 9.0203264 ], [ 38.7717222, 9.0232818 ], [ 38.7722297, 9.0251154 ] ] ] } },
{ "type": "Feature", "properties": { "threshold_s": 600, "time_label": "10 min drive" }, "geometry": { "type": "Polygon", "coordinates": [ [ [ 38.7631958, 9.029803 ], [ 38.7636394, 9.0308323 ], [ 38.7684305, 9.0329237 ], [ 38.769884, 9.0342295 ], [ 38.771258, 9.0349868 ], [ 38.7722643, 9.0352881 ], [ 38.7725503, 9.0352767 ], [ 38.7736848, 9.0351991 ], [ 38.7781019, 9.0335024 ], [ 38.7821767, 9.0308299 ], [ 38.7859405, 9.0306672 ], [ 38.7860223, 9.0306152 ], [ 38.7866551, 9.0300591 ], [ 38.7877832, 9.0281623 ], [ 38.7893949, 9.0228691 ], [ 38.7903417, 9.0214052 ], [ 38.7902824, 9.0210024 ], [ 38.7872746, 9.0165079 ], [ 38.7866215, 9.0149869 ], [ 38.785812, 9.0135777 ], [ 38.7841769, 9.008861 ], [ 38.7838566, 9.0045185 ], [ 38.7836735, 9.0030581 ], [ 38.783090799999989, 9.0006189 ], [ 38.7796696, 9.0006454 ], [ 38.7735825, 8.9997115 ], [ 38.7716421, 9.0009861 ], [ 38.7682422, 9.0046012 ], [ 38.7643308, 9.0075099 ], [ 38.7591779, 9.0112723 ], [ 38.7588792, 9.0116653 ], [ 38.7585196, 9.0125992 ], [ 38.7543086, 9.017315 ], [ 38.753888, 9.0173878 ], [ 38.7536536, 9.0182268 ], [ 38.755685, 9.0209076 ], [ 38.7600498, 9.0221853 ], [ 38.7602254, 9.0222978 ], [ 38.7614021, 9.0232701 ], [ 38.7633917, 9.0291295 ], [ 38.7631958, 9.029803 ] ] ] } },
{ "type": "Feature", "properties": { "threshold_s": 900, "time_label": "15 min drive" }, "geometry": { "type": "Polygon", "coordinates": [ [ [ 38.7540847, 9.0327214 ], [ 38.7579791, 9.0380662 ], [ 38.7620077, 9.0410376 ], [ 38.7646477, 9.0427305 ], [ 38.7656056, 9.0433262 ], [ 38.7694638, 9.0449786 ], [ 38.7735437, 9.0461664 ], [ 38.7770125, 9.045045 ], [ 38.782942, 9.0416807 ], [ 38.788646, 9.0371199 ], [ 38.788999, 9.0366321 ], [ 38.7898711, 9.0353037 ], [ 38.7947311, 9.0312946 ], [ 38.7971356, 9.0300338 ], [ 38.7981611, 9.0287943 ], [ 38.7986196, 9.0231216 ], [ 38.8012768, 9.0197874 ], [ 38.8012379, 9.0196774 ], [ 38.7972575, 9.0171011 ], [ 38.7956759, 9.013702 ], [ 38.7950857, 9.0111877 ], [ 38.7948845, 9.0085895 ], [ 38.7946479, 9.0046967 ], [ 38.7946308, 9.0046325 ], [ 38.7924222, 8.9980253 ], [ 38.7926327, 8.9956682 ], [ 38.7910791, 8.9942343 ], [ 38.7847989, 8.9917454 ], [ 38.7830666, 8.9913983 ], [ 38.7771993, 8.9889938 ], [ 38.7725604, 8.990016 ], [ 38.7664925, 8.9943395 ], [ 38.762479, 8.9967163 ], [ 38.758485, 8.999819 ], [ 38.7556243, 9.0006326 ], [ 38.7527306, 9.0028713 ], [ 38.7525602, 9.0030854 ], [ 38.7522414, 9.0038919 ], [ 38.7517324, 9.0049461 ], [ 38.7502626, 9.0077974 ], [ 38.7461556, 9.0104021 ], [ 38.7451161, 9.01093 ], [ 38.7427584, 9.0162719 ], [ 38.7427155, 9.0163732 ], [ 38.7425301, 9.0168306 ], [ 38.7445602, 9.0201826 ], [ 38.7471945, 9.025634 ], [ 38.7523777, 9.0300754 ], [ 38.7540847, 9.0327214 ] ] ] } },
{ "type": "Feature", "properties": { "threshold_s": 300, "time_label": "5 min drive" }, "geometry": { "type": "Polygon", "coordinates": [ [ [ 38.7638895, 9.0199177 ], [ 38.7650922, 9.0223314 ], [ 38.7664473, 9.0226405 ], [ 38.766175, 9.0194163 ], [ 38.7666902, 9.0194705 ], [ 38.7676275, 9.0197284 ], [ 38.7677259, 9.0197702 ], [ 38.7686595, 9.0207369 ], [ 38.7708838, 9.0203264 ], [ 38.7713573, 9.0204686 ], [ 38.7723687, 9.02177 ], [ 38.7717222, 9.0232818 ], [ 38.7722297, 9.0251154 ], [ 38.7734231, 9.0249135 ], [ 38.7739166, 9.0240686 ], [ 38.7763746, 9.0235218 ], [ 38.7766007, 9.0235376 ], [ 38.7782833, 9.0227338 ], [ 38.7791009, 9.0224574 ], [ 38.7796941, 9.0220515 ], [ 38.7799554, 9.0211994 ], [ 38.7800579, 9.019619 ], [ 38.7804623, 9.0179874 ], [ 38.7795994, 9.0155365 ], [ 38.7781044, 9.0145299 ], [ 38.777837, 9.0134105 ], [ 38.7778035, 9.0124771 ], [ 38.7770095, 9.0108942 ], [ 38.7751447, 9.0097636 ], [ 38.7763497, 9.0075451 ], [ 38.7753949, 9.008012 ], [ 38.7736581, 9.0079186 ], [ 38.7740014, 9.0088061 ], [ 38.7725128, 9.0102701 ], [ 38.7732789, 9.0121882 ], [ 38.773148, 9.0145762 ], [ 38.7712012, 9.0155134 ], [ 38.7699102, 9.014068 ], [ 38.7698139, 9.0132732 ], [ 38.7695735, 9.0120323 ], [ 38.769581, 9.011501 ], [ 38.7695029, 9.0107419 ], [ 38.7692515, 9.0104413 ], [ 38.7672657, 9.0106467 ], [ 38.7672256, 9.0115334 ], [ 38.767167, 9.0123421 ], [ 38.7684856, 9.0141974 ], [ 38.7663692, 9.0156361 ], [ 38.766101, 9.0156017 ], [ 38.7654814, 9.0154268 ], [ 38.7649382, 9.0162277 ], [ 38.7631065, 9.0171496 ], [ 38.7629355, 9.0171841 ], [ 38.7623398, 9.017288 ], [ 38.7623666, 9.0174082 ], [ 38.7636571, 9.0176742 ], [ 38.7638895, 9.0199177 ] ] ] } },
{ "type": "Feature", "properties": { "threshold_s": 600, "time_label": "10 min drive" }, "geometry": { "type": "Polygon", "coordinates": [ [ [ 38.7523037, 9.0192633 ], [ 38.754346, 9.0216889 ], [ 38.7546091, 9.0217117 ], [ 38.7555976, 9.0217609 ], [ 38.7600498, 9.0221853 ], [ 38.7602254, 9.0222978 ], [ 38.7614021, 9.0232701 ], [ 38.7616201, 9.0233396 ], [ 38.7650922, 9.0223314 ], [ 38.7673037, 9.0253571 ], [ 38.7664952, 9.0274613 ], [ 38.7635072, 9.0296583 ], [ 38.7635197, 9.0297327 ], [ 38.7637138, 9.0300983 ], [ 38.7668135, 9.0296198 ], [ 38.7696665, 9.0317334 ], [ 38.7725503, 9.0352767 ], [ 38.775312, 9.0329041 ], [ 38.7766302, 9.0325063 ], [ 38.7783575, 9.0319742 ], [ 38.7792177, 9.0312554 ], [ 38.7802271, 9.0305908 ], [ 38.7840727, 9.0293788 ], [ 38.7857026, 9.0282428 ], [ 38.7863276, 9.0246843 ], [ 38.7873243, 9.0235556 ], [ 38.7876648, 9.0232365 ], [ 38.7888875, 9.0215812 ], [ 38.7883827, 9.0212326 ], [ 38.787837, 9.0208872 ], [ 38.786564, 9.019551 ], [ 38.7889022, 9.0159914 ], [ 38.7867309, 9.0126232 ], [ 38.7865018, 9.0107454 ], [ 38.7847403, 9.0066431 ], [ 38.7852859, 9.0045649 ], [ 38.7853398, 9.0043516 ], [ 38.784741, 9.0019017 ], [ 38.7839798, 8.9998376 ], [ 38.7827763, 8.9993254 ], [ 38.7792988, 8.9978577 ], [ 38.7791942, 8.9979054 ], [ 38.7783258, 8.9985267 ], [ 38.7739914, 8.9989883 ], [ 38.7722506, 8.9984578 ], [ 38.770898099999989, 8.9992638 ], [ 38.7706407, 8.9997545 ], [ 38.7675149, 9.0030812 ], [ 38.7647674, 9.0061136 ], [ 38.7632801, 9.0060954 ], [ 38.7627101, 9.0070834 ], [ 38.7588742, 9.0086394 ], [ 38.7576903, 9.0118964 ], [ 38.7585196, 9.0125992 ], [ 38.7555162, 9.0160017 ], [ 38.7526023, 9.0162803 ], [ 38.7518654, 9.0166783 ], [ 38.751575699999989, 9.0171898 ], [ 38.7523037, 9.0192633 ] ] ] } },
{ "type": "Feature", "properties": { "threshold_s": 900, "time_label": "15 min drive" }, "geometry": { "type": "Polygon", "coordinates": [ [ [ 38.7426813, 9.0210971 ], [ 38.7459093, 9.0267541 ], [ 38.7512775, 9.0305243 ], [ 38.7540847, 9.0327214 ], [ 38.7573179, 9.0358262 ], [ 38.7584061, 9.0370047 ], [ 38.760091, 9.0388978 ], [ 38.7654082, 9.0400723 ], [ 38.7678988, 9.0418997 ], [ 38.773845, 9.0443406 ], [ 38.7752145, 9.0440842 ], [ 38.7813319, 9.0400888 ], [ 38.7821976, 9.0400112 ], [ 38.7866579, 9.0379459 ], [ 38.7882839, 9.036338 ], [ 38.7933345, 9.0314512 ], [ 38.7943505, 9.0307929 ], [ 38.7964456, 9.0288702 ], [ 38.7964648, 9.0288238 ], [ 38.7974667, 9.0235442 ], [ 38.7992964, 9.0204626 ], [ 38.7994298, 9.0188571 ], [ 38.7982312, 9.0172209 ], [ 38.7963315, 9.0103532 ], [ 38.7966599, 9.0077434 ], [ 38.795201, 9.0056441 ], [ 38.7946308, 9.0046325 ], [ 38.7941482, 8.9979968 ], [ 38.7943467, 8.9950463 ], [ 38.7918435, 8.9923162 ], [ 38.7917543, 8.9922639 ], [ 38.788291, 8.9915527 ], [ 38.7829238, 8.9893312 ], [ 38.777445299999989, 8.9880264 ], [ 38.7711194, 8.9883651 ], [ 38.7662967, 8.9928308 ], [ 38.7627677, 8.9945858 ], [ 38.7575434, 8.9980193 ], [ 38.7542811, 8.9997419 ], [ 38.7513207, 9.0020037 ], [ 38.7507367, 9.0031157 ], [ 38.7504336, 9.0036879 ], [ 38.7501171, 9.0043078 ], [ 38.7500717, 9.0048308 ], [ 38.7461556, 9.0104021 ], [ 38.7445199, 9.0100214 ], [ 38.7443043, 9.0100188 ], [ 38.7441227, 9.0100953 ], [ 38.7440647, 9.0101702 ], [ 38.7410116, 9.0161342 ], [ 38.7407, 9.0169157 ], [ 38.7426813, 9.0210971 ] ] ] } },
{ "type": "Feature", "properties": { "threshold_s": 300, "time_label": "5 min drive" }, "geometry": { "type": "Polygon", "coordinates": [ [ [ 38.7638895, 9.0199177 ], [ 38.7650922, 9.0223314 ], [ 38.7664473, 9.0226405 ], [ 38.766175, 9.0194163 ], [ 38.7666902, 9.0194705 ], [ 38.7676275, 9.0197284 ], [ 38.7677259, 9.0197702 ], [ 38.7686595, 9.0207369 ], [ 38.7708838, 9.0203264 ], [ 38.7713573, 9.0204686 ], [ 38.7723687, 9.02177 ], [ 38.7717222, 9.0232818 ], [ 38.7722297, 9.0251154 ], [ 38.7734231, 9.0249135 ], [ 38.7739166, 9.0240686 ], [ 38.7763746, 9.0235218 ], [ 38.7766007, 9.0235376 ], [ 38.7782833, 9.0227338 ], [ 38.7791009, 9.0224574 ], [ 38.7796941, 9.0220515 ], [ 38.7799554, 9.0211994 ], [ 38.7800579, 9.019619 ], [ 38.7804623, 9.0179874 ], [ 38.7795994, 9.0155365 ], [ 38.7781044, 9.0145299 ], [ 38.777837, 9.0134105 ], [ 38.7778035, 9.0124771 ], [ 38.7770095, 9.0108942 ], [ 38.7751447, 9.0097636 ], [ 38.7763497, 9.0075451 ], [ 38.7753949, 9.008012 ], [ 38.7736581, 9.0079186 ], [ 38.7740014, 9.0088061 ], [ 38.7725128, 9.0102701 ], [ 38.7732789, 9.0121882 ], [ 38.773148, 9.0145762 ], [ 38.7712012, 9.0155134 ], [ 38.7699102, 9.014068 ], [ 38.7698139, 9.0132732 ], [ 38.7695735, 9.0120323 ], [ 38.769581, 9.011501 ], [ 38.7695029, 9.0107419 ], [ 38.7692515, 9.0104413 ], [ 38.7672657, 9.0106467 ], [ 38.7672256, 9.0115334 ], [ 38.767167, 9.0123421 ], [ 38.7684856, 9.0141974 ], [ 38.7663692, 9.0156361 ], [ 38.766101, 9.0156017 ], [ 38.7654814, 9.0154268 ], [ 38.7649382, 9.0162277 ], [ 38.7631065, 9.0171496 ], [ 38.7629355, 9.0171841 ], [ 38.7623398, 9.017288 ], [ 38.7623666, 9.0174082 ], [ 38.7636571, 9.0176742 ], [ 38.7638895, 9.0199177 ] ] ] } },
{ "type": "Feature", "properties": { "threshold_s": 600, "time_label": "10 min drive" }, "geometry": { "type": "Polygon", "coordinates": [ [ [ 38.7523037, 9.0192633 ], [ 38.754346, 9.0216889 ], [ 38.7546091, 9.0217117 ], [ 38.7555976, 9.0217609 ], [ 38.7600498, 9.0221853 ], [ 38.7602254, 9.0222978 ], [ 38.7614021, 9.0232701 ], [ 38.7616201, 9.0233396 ], [ 38.7650922, 9.0223314 ], [ 38.7673037, 9.0253571 ], [ 38.7664952, 9.0274613 ], [ 38.7635072, 9.0296583 ], [ 38.7635197, 9.0297327 ], [ 38.7637138, 9.0300983 ], [ 38.7668135, 9.0296198 ], [ 38.7696665, 9.0317334 ], [ 38.7725503, 9.0352767 ], [ 38.775312, 9.0329041 ], [ 38.7766302, 9.0325063 ], [ 38.7783575, 9.0319742 ], [ 38.7792177, 9.0312554 ], [ 38.7802271, 9.0305908 ], [ 38.7840727, 9.0293788 ], [ 38.7857026, 9.0282428 ], [ 38.7863276, 9.0246843 ], [ 38.7873243, 9.0235556 ], [ 38.7876648, 9.0232365 ], [ 38.7888875, 9.0215812 ], [ 38.7883827, 9.0212326 ], [ 38.787837, 9.0208872 ], [ 38.786564, 9.019551 ], [ 38.7889022, 9.0159914 ], [ 38.7867309, 9.0126232 ], [ 38.7865018, 9.0107454 ], [ 38.7847403, 9.0066431 ], [ 38.7852859, 9.0045649 ], [ 38.7853398, 9.0043516 ], [ 38.784741, 9.0019017 ], [ 38.7839798, 8.9998376 ], [ 38.7827763, 8.9993254 ], [ 38.7792988, 8.9978577 ], [ 38.7791942, 8.9979054 ], [ 38.7783258, 8.9985267 ], [ 38.7739914, 8.9989883 ], [ 38.7722506, 8.9984578 ], [ 38.770898099999989, 8.9992638 ], [ 38.7706407, 8.9997545 ], [ 38.7675149, 9.0030812 ], [ 38.7647674, 9.0061136 ], [ 38.7632801, 9.0060954 ], [ 38.7627101, 9.0070834 ], [ 38.7588742, 9.0086394 ], [ 38.7576903, 9.0118964 ], [ 38.7585196, 9.0125992 ], [ 38.7555162, 9.0160017 ], [ 38.7526023, 9.0162803 ], [ 38.7518654, 9.0166783 ], [ 38.751575699999989, 9.0171898 ], [ 38.7523037, 9.0192633 ] ] ] } },
{ "type": "Feature", "properties": { "threshold_s": 900, "time_label": "15 min drive" }, "geometry": { "type": "Polygon", "coordinates": [ [ [ 38.7426813, 9.0210971 ], [ 38.7459093, 9.0267541 ], [ 38.7512775, 9.0305243 ], [ 38.7540847, 9.0327214 ], [ 38.7573179, 9.0358262 ], [ 38.7584061, 9.0370047 ], [ 38.760091, 9.0388978 ], [ 38.7654082, 9.0400723 ], [ 38.7678988, 9.0418997 ], [ 38.773845, 9.0443406 ], [ 38.7752145, 9.0440842 ], [ 38.7813319, 9.0400888 ], [ 38.7821976, 9.0400112 ], [ 38.7866579, 9.0379459 ], [ 38.7882839, 9.036338 ], [ 38.7933345, 9.0314512 ], [ 38.7943505, 9.0307929 ], [ 38.7964456, 9.0288702 ], [ 38.7964648, 9.0288238 ], [ 38.7974667, 9.0235442 ], [ 38.7992964, 9.0204626 ], [ 38.7994298, 9.0188571 ], [ 38.7982312, 9.0172209 ], [ 38.7963315, 9.0103532 ], [ 38.7966599, 9.0077434 ], [ 38.795201, 9.0056441 ], [ 38.7946308, 9.0046325 ], [ 38.7941482, 8.9979968 ], [ 38.7943467, 8.9950463 ], [ 38.7918435, 8.9923162 ], [ 38.7917543, 8.9922639 ], [ 38.788291, 8.9915527 ], [ 38.7829238, 8.9893312 ], [ 38.777445299999989, 8.9880264 ], [ 38.7711194, 8.9883651 ], [ 38.7662967, 8.9928308 ], [ 38.7627677, 8.9945858 ], [ 38.7575434, 8.9980193 ], [ 38.7542811, 8.9997419 ], [ 38.7513207, 9.0020037 ], [ 38.7507367, 9.0031157 ], [ 38.7504336, 9.0036879 ], [ 38.7501171, 9.0043078 ], [ 38.7500717, 9.0048308 ], [ 38.7461556, 9.0104021 ], [ 38.7445199, 9.0100214 ], [ 38.7443043, 9.0100188 ], [ 38.7441227, 9.0100953 ], [ 38.7440647, 9.0101702 ], [ 38.7410116, 9.0161342 ], [ 38.7407, 9.0169157 ], [ 38.7426813, 9.0210971 ] ] ] } },
{ "type": "Feature", "properties": { "threshold_s": 300, "time_label": "5 min drive" }, "geometry": { "type": "Polygon", "coordinates": [ [ [ 38.7717222, 9.0232818 ], [ 38.7722297, 9.0251154 ], [ 38.7734231, 9.0249135 ], [ 38.7739166, 9.0240686 ], [ 38.7745161, 9.0236071 ], [ 38.7763746, 9.0235218 ], [ 38.7765878, 9.0251981 ], [ 38.7764432, 9.0256874 ], [ 38.77690290000001, 9.0259574 ], [ 38.7770203, 9.025766 ], [ 38.777594, 9.0246542 ], [ 38.7782289, 9.0233603 ], [ 38.7796031, 9.0223489 ], [ 38.7799554, 9.0211994 ], [ 38.7800579, 9.019619 ], [ 38.7804623, 9.0179874 ], [ 38.7798819, 9.0169092 ], [ 38.7795994, 9.0155365 ], [ 38.7781044, 9.0145299 ], [ 38.777837, 9.0134105 ], [ 38.7767513, 9.0132784 ], [ 38.7756928, 9.012622 ], [ 38.7748415, 9.0108268 ], [ 38.7746584, 9.0107774 ], [ 38.7746289, 9.010785 ], [ 38.7732789, 9.0121882 ], [ 38.7742634, 9.0124589 ], [ 38.7743465, 9.0124832 ], [ 38.7761538, 9.0139141 ], [ 38.7760706, 9.0156092 ], [ 38.7741335, 9.0152535 ], [ 38.7732235, 9.0146348 ], [ 38.773148, 9.0145762 ], [ 38.7720935, 9.0161841 ], [ 38.7712012, 9.0155134 ], [ 38.7699102, 9.014068 ], [ 38.7698139, 9.0132732 ], [ 38.7696976, 9.0130606 ], [ 38.7690318, 9.0131385 ], [ 38.7684856, 9.0141974 ], [ 38.7684944, 9.0142876 ], [ 38.7686282, 9.015342 ], [ 38.7674265, 9.0166327 ], [ 38.7681297, 9.0179121 ], [ 38.7676275, 9.0197284 ], [ 38.7677259, 9.0197702 ], [ 38.7683945, 9.0192425 ], [ 38.7704765, 9.0188531 ], [ 38.7708838, 9.0203264 ], [ 38.7713573, 9.0204686 ], [ 38.7723687, 9.02177 ], [ 38.7717222, 9.0232818 ] ] ] } },
{ "type": "Feature", "properties": { "threshold_s": 600, "time_label": "10 min drive" }, "geometry": { "type": "Polygon", "coordinates": [ [ [ 38.7664952, 9.0274613 ], [ 38.7657206, 9.0293019 ], [ 38.7696665, 9.0317334 ], [ 38.7725503, 9.0352767 ], [ 38.7781019, 9.0335024 ], [ 38.7821767, 9.0308299 ], [ 38.7859405, 9.0306672 ], [ 38.7860223, 9.0306152 ], [ 38.7866551, 9.0300591 ], [ 38.7877832, 9.0281623 ], [ 38.7893949, 9.0228691 ], [ 38.7903417, 9.0214052 ], [ 38.7902824, 9.0210024 ], [ 38.7872746, 9.0165079 ], [ 38.7846189, 9.0145445 ], [ 38.7825194, 9.0091421 ], [ 38.781468, 9.0045317 ], [ 38.7816243, 9.0021541 ], [ 38.7772268, 9.0028263 ], [ 38.7727683, 9.0030296 ], [ 38.7716451, 9.0039323 ], [ 38.7709739, 9.0045761 ], [ 38.7688528, 9.0085028 ], [ 38.7636137, 9.009863 ], [ 38.76206, 9.0111118 ], [ 38.7627136, 9.0143638 ], [ 38.7576248, 9.0176281 ], [ 38.7554835, 9.0175438 ], [ 38.7565524, 9.0195638 ], [ 38.7600498, 9.0221853 ], [ 38.7602254, 9.0222978 ], [ 38.7605536, 9.0224021 ], [ 38.7645123, 9.0221623 ], [ 38.7664952, 9.0274613 ] ] ] } },
{ "type": "Feature", "properties": { "threshold_s": 900, "time_label": "15 min drive" }, "geometry": { "type": "Polygon", "coordinates": [ [ [ 38.7547358, 9.0318906 ], [ 38.7573179, 9.0358262 ], [ 38.7591688, 9.0370188 ], [ 38.7624425, 9.0386823 ], [ 38.7678988, 9.0418997 ], [ 38.773845, 9.0443406 ], [ 38.7761137, 9.0441588 ], [ 38.782942, 9.0416807 ], [ 38.788646, 9.0371199 ], [ 38.788999, 9.0366321 ], [ 38.7898711, 9.0353037 ], [ 38.7947311, 9.0312946 ], [ 38.7971356, 9.0300338 ], [ 38.7981611, 9.0287943 ], [ 38.7986196, 9.0231216 ], [ 38.8012768, 9.0197874 ], [ 38.8014734, 9.019214 ], [ 38.7992848, 9.0191203 ], [ 38.7954484, 9.0144599 ], [ 38.794637, 9.0128729 ], [ 38.7925181, 9.0080703 ], [ 38.7917389, 9.0056483 ], [ 38.7897293, 8.9996859 ], [ 38.790482, 8.9965207 ], [ 38.7891596, 8.9951631 ], [ 38.7886913, 8.9948075 ], [ 38.783090799999989, 8.9925567 ], [ 38.7816045, 8.9919559 ], [ 38.7748148, 8.9924547 ], [ 38.7737218, 8.9925375 ], [ 38.7729333, 8.9927706 ], [ 38.77012160000001, 8.9943959 ], [ 38.7643388, 8.9973094 ], [ 38.7585693, 9.0015672 ], [ 38.7573229, 9.0020386 ], [ 38.7534437, 9.0051707 ], [ 38.7526578, 9.0074973 ], [ 38.7473376, 9.0123175 ], [ 38.7472759, 9.012391 ], [ 38.7451623, 9.0154851 ], [ 38.7445388, 9.0164308 ], [ 38.7445414, 9.0165448 ], [ 38.7446581, 9.0167997 ], [ 38.747628, 9.0216931 ], [ 38.7517552, 9.0268586 ], [ 38.7547358, 9.0318906 ] ] ] } },
{ "type": "Feature", "properties": { "threshold_s": 300, "time_label": "5 min drive" }, "geometry": { "type": "Polygon", "coordinates": [ [ [ 38.7722297, 9.0251154 ], [ 38.7722787, 9.0259286 ], [ 38.7725207, 9.0260996 ], [ 38.7735065, 9.0265939 ], [ 38.77690290000001, 9.0259574 ], [ 38.7770203, 9.025766 ], [ 38.777594, 9.0246542 ], [ 38.7796031, 9.0223489 ], [ 38.7799554, 9.0211994 ], [ 38.7804623, 9.0179874 ], [ 38.7795994, 9.0155365 ], [ 38.777837, 9.0134105 ], [ 38.7761009, 9.0118694 ], [ 38.7751447, 9.0097636 ], [ 38.7742957, 9.0098175 ], [ 38.7725128, 9.0102701 ], [ 38.7692515, 9.0104413 ], [ 38.768797, 9.0113452 ], [ 38.7683696, 9.0132238 ], [ 38.7654814, 9.0154268 ], [ 38.7640158, 9.0171291 ], [ 38.766175, 9.0194163 ], [ 38.7686595, 9.0207369 ], [ 38.7708838, 9.0203264 ], [ 38.7717222, 9.0232818 ], [ 38.7722297, 9.0251154 ] ] ] } },
{ "type": "Feature", "properties": { "threshold_s": 600, "time_label": "10 min drive" }, "geometry": { "type": "Polygon", "coordinates": [ [ [ 38.7631958, 9.029803 ], [ 38.7636394, 9.0308323 ], [ 38.7684305, 9.0329237 ], [ 38.769884, 9.0342295 ], [ 38.771258, 9.0349868 ], [ 38.7722643, 9.0352881 ], [ 38.7725503, 9.0352767 ], [ 38.7736848, 9.0351991 ], [ 38.7781019, 9.0335024 ], [ 38.7821767, 9.0308299 ], [ 38.7859405, 9.0306672 ], [ 38.7860223, 9.0306152 ], [ 38.7866551, 9.0300591 ], [ 38.7877832, 9.0281623 ], [ 38.7893949, 9.0228691 ], [ 38.7903417, 9.0214052 ], [ 38.7902824, 9.0210024 ], [ 38.7872746, 9.0165079 ], [ 38.7866215, 9.0149869 ], [ 38.785812, 9.0135777 ], [ 38.7841769, 9.008861 ], [ 38.7838566, 9.0045185 ], [ 38.7836735, 9.0030581 ], [ 38.783090799999989, 9.0006189 ], [ 38.7796696, 9.0006454 ], [ 38.7735825, 8.9997115 ], [ 38.7716421, 9.0009861 ], [ 38.7682422, 9.0046012 ], [ 38.7643308, 9.0075099 ], [ 38.7591779, 9.0112723 ], [ 38.7588792, 9.0116653 ], [ 38.7585196, 9.0125992 ], [ 38.7543086, 9.017315 ], [ 38.753888, 9.0173878 ], [ 38.7536536, 9.0182268 ], [ 38.755685, 9.0209076 ], [ 38.7600498, 9.0221853 ], [ 38.7602254, 9.0222978 ], [ 38.7614021, 9.0232701 ], [ 38.7633917, 9.0291295 ], [ 38.7631958, 9.029803 ] ] ] } },
{ "type": "Feature", "properties": { "threshold_s": 900, "time_label": "15 min drive" }, "geometry": { "type": "Polygon", "coordinates": [ [ [ 38.7540847, 9.0327214 ], [ 38.7579791, 9.0380662 ], [ 38.7620077, 9.0410376 ], [ 38.7646477, 9.0427305 ], [ 38.7656056, 9.0433262 ], [ 38.7694638, 9.0449786 ], [ 38.7735437, 9.0461664 ], [ 38.7770125, 9.045045 ], [ 38.782942, 9.0416807 ], [ 38.788646, 9.0371199 ], [ 38.788999, 9.0366321 ], [ 38.7898711, 9.0353037 ], [ 38.7947311, 9.0312946 ], [ 38.7971356, 9.0300338 ], [ 38.7981611, 9.0287943 ], [ 38.7986196, 9.0231216 ], [ 38.8012768, 9.0197874 ], [ 38.8012379, 9.0196774 ], [ 38.7972575, 9.0171011 ], [ 38.7956759, 9.013702 ], [ 38.7950857, 9.0111877 ], [ 38.7948845, 9.0085895 ], [ 38.7946479, 9.0046967 ], [ 38.7946308, 9.0046325 ], [ 38.7924222, 8.9980253 ], [ 38.7926327, 8.9956682 ], [ 38.7910791, 8.9942343 ], [ 38.7847989, 8.9917454 ], [ 38.7830666, 8.9913983 ], [ 38.7771993, 8.9889938 ], [ 38.7725604, 8.990016 ], [ 38.7664925, 8.9943395 ], [ 38.762479, 8.9967163 ], [ 38.758485, 8.999819 ], [ 38.7556243, 9.0006326 ], [ 38.7527306, 9.0028713 ], [ 38.7525602, 9.0030854 ], [ 38.7522414, 9.0038919 ], [ 38.7517324, 9.0049461 ], [ 38.7502626, 9.0077974 ], [ 38.7461556, 9.0104021 ], [ 38.7451161, 9.01093 ], [ 38.7427584, 9.0162719 ], [ 38.7427155, 9.0163732 ], [ 38.7425301, 9.0168306 ], [ 38.7445602, 9.0201826 ], [ 38.7471945, 9.025634 ], [ 38.7523777, 9.0300754 ], [ 38.7540847, 9.0327214 ] ] ] } },
{ "type": "Feature", "properties": { "threshold_s": 300, "time_label": "5 min drive" }, "geometry": { "type": "Polygon", "coordinates": [ [ [ 38.766175, 9.0194163 ], [ 38.7638895, 9.0199177 ], [ 38.7650922, 9.0223314 ], [ 38.7664473, 9.0226405 ], [ 38.7666902, 9.0194705 ], [ 38.7676275, 9.0197284 ], [ 38.7677259, 9.0197702 ], [ 38.7686595, 9.0207369 ], [ 38.7708838, 9.0203264 ], [ 38.7713573, 9.0204686 ], [ 38.7723687, 9.02177 ], [ 38.7717222, 9.0232818 ], [ 38.7722297, 9.0251154 ], [ 38.7722787, 9.0259286 ], [ 38.7725207, 9.0260996 ], [ 38.7739329, 9.0250723 ], [ 38.7739588, 9.0248857 ], [ 38.7745161, 9.0236071 ], [ 38.7763746, 9.0235218 ], [ 38.7765878, 9.0251981 ], [ 38.7782289, 9.0233603 ], [ 38.7782833, 9.0227338 ], [ 38.778017, 9.0205492 ], [ 38.778081, 9.0202005 ], [ 38.7782413, 9.0194063 ], [ 38.7771591, 9.017689 ], [ 38.7766469, 9.0163656 ], [ 38.775128, 9.0168441 ], [ 38.7741335, 9.0152535 ], [ 38.773148, 9.0145762 ], [ 38.7712012, 9.0155134 ], [ 38.7699102, 9.014068 ], [ 38.7698139, 9.0132732 ], [ 38.7695735, 9.0120323 ], [ 38.7683696, 9.0132238 ], [ 38.7684856, 9.0141974 ], [ 38.7684944, 9.0142876 ], [ 38.7686282, 9.015342 ], [ 38.7674265, 9.0166327 ], [ 38.7659352, 9.0168131 ], [ 38.7657801, 9.0168339 ], [ 38.766175, 9.0194163 ] ] ] } },
{ "type": "Feature", "properties": { "threshold_s": 600, "time_label": "10 min drive" }, "geometry": { "type": "Polygon", "coordinates": [ [ [ 38.7636532, 9.0296992 ], [ 38.7635197, 9.0297327 ], [ 38.7639705, 9.0296349 ], [ 38.7668135, 9.0296198 ], [ 38.7696665, 9.0317334 ], [ 38.7709504, 9.0340645 ], [ 38.7719675, 9.0350362 ], [ 38.7722643, 9.0352881 ], [ 38.7725503, 9.0352767 ], [ 38.7731138, 9.0347368 ], [ 38.7766302, 9.0325063 ], [ 38.7790479, 9.0321575 ], [ 38.7842055, 9.0301541 ], [ 38.785542, 9.0298968 ], [ 38.7864765, 9.028295 ], [ 38.7878562, 9.0238515 ], [ 38.7894271, 9.0214538 ], [ 38.7893873, 9.0209707 ], [ 38.7871463, 9.0184091 ], [ 38.7857034, 9.0172699 ], [ 38.7842112, 9.0161675 ], [ 38.7811587, 9.0112123 ], [ 38.780713, 9.0097015 ], [ 38.7798661, 9.0040376 ], [ 38.7768754, 9.0031859 ], [ 38.7753379, 9.0044741 ], [ 38.7700586, 9.006106 ], [ 38.768828, 9.0061181 ], [ 38.7643986, 9.0090118 ], [ 38.7594056, 9.011551 ], [ 38.7627136, 9.0143638 ], [ 38.7587022, 9.0179263 ], [ 38.7576248, 9.0176281 ], [ 38.755531, 9.0174041 ], [ 38.7554835, 9.0175438 ], [ 38.7562676, 9.0198411 ], [ 38.7562849, 9.0198801 ], [ 38.7563631, 9.0199277 ], [ 38.7600498, 9.0221853 ], [ 38.7602254, 9.0222978 ], [ 38.7605536, 9.0224021 ], [ 38.7645123, 9.0221623 ], [ 38.7664952, 9.0274613 ], [ 38.7636532, 9.0296992 ] ] ] } },
{ "type": "Feature", "properties": { "threshold_s": 900, "time_label": "15 min drive" }, "geometry": { "type": "Polygon", "coordinates": [ [ [ 38.7573179, 9.0358262 ], [ 38.760091, 9.0388978 ], [ 38.7656921, 9.042178 ], [ 38.7678988, 9.0418997 ], [ 38.7733985, 9.0448605 ], [ 38.774161, 9.0451615 ], [ 38.7745291, 9.0452189 ], [ 38.7761863, 9.0444292 ], [ 38.7818965, 9.0410802 ], [ 38.7828712, 9.0413032 ], [ 38.788646, 9.0371199 ], [ 38.7913411, 9.0328014 ], [ 38.7947311, 9.0312946 ], [ 38.7973537, 9.0288307 ], [ 38.7983101, 9.0230691 ], [ 38.7992964, 9.0204626 ], [ 38.7992848, 9.0191203 ], [ 38.7945083, 9.014418 ], [ 38.7934121, 9.012522 ], [ 38.7909497, 9.0087312 ], [ 38.7898343, 9.0055715 ], [ 38.7894034, 9.0046542 ], [ 38.7873295, 8.9978484 ], [ 38.7860546, 8.996506 ], [ 38.7807734, 8.9938303 ], [ 38.7744617, 8.9938188 ], [ 38.7710027, 8.9963483 ], [ 38.7666297, 8.9961166 ], [ 38.7636837, 8.9968352 ], [ 38.7609245, 9.000468 ], [ 38.7578892, 9.0014296 ], [ 38.7530085, 9.0043225 ], [ 38.752014, 9.0072861 ], [ 38.7461139, 9.011589 ], [ 38.7436837, 9.0164679 ], [ 38.747628, 9.0216931 ], [ 38.748433, 9.0240763 ], [ 38.751818, 9.0272397 ], [ 38.7531912, 9.0297342 ], [ 38.7541779, 9.0325832 ], [ 38.7573179, 9.0358262 ] ] ] } },
{ "type": "Feature", "properties": { "threshold_s": 300, "time_label": "5 min drive" }, "geometry": { "type": "Polygon", "coordinates": [ [ [ 38.7638895, 9.0199177 ], [ 38.7650922, 9.0223314 ], [ 38.7664473, 9.0226405 ], [ 38.766175, 9.0194163 ], [ 38.7666902, 9.0194705 ], [ 38.7676275, 9.0197284 ], [ 38.7677259, 9.0197702 ], [ 38.7686595, 9.0207369 ], [ 38.7708838, 9.0203264 ], [ 38.7713573, 9.0204686 ], [ 38.7723687, 9.02177 ], [ 38.7717222, 9.0232818 ], [ 38.7722297, 9.0251154 ], [ 38.7734231, 9.0249135 ], [ 38.7739166, 9.0240686 ], [ 38.7763746, 9.0235218 ], [ 38.7766007, 9.0235376 ], [ 38.7782833, 9.0227338 ], [ 38.7791009, 9.0224574 ], [ 38.7796941, 9.0220515 ], [ 38.7799554, 9.0211994 ], [ 38.7800579, 9.019619 ], [ 38.7804623, 9.0179874 ], [ 38.7795994, 9.0155365 ], [ 38.7781044, 9.0145299 ], [ 38.777837, 9.0134105 ], [ 38.7778035, 9.0124771 ], [ 38.7770095, 9.0108942 ], [ 38.7751447, 9.0097636 ], [ 38.7763497, 9.0075451 ], [ 38.7753949, 9.008012 ], [ 38.7736581, 9.0079186 ], [ 38.7740014, 9.0088061 ], [ 38.7725128, 9.0102701 ], [ 38.7732789, 9.0121882 ], [ 38.773148, 9.0145762 ], [ 38.7712012, 9.0155134 ], [ 38.7699102, 9.014068 ], [ 38.7698139, 9.0132732 ], [ 38.7695735, 9.0120323 ], [ 38.769581, 9.011501 ], [ 38.7695029, 9.0107419 ], [ 38.7692515, 9.0104413 ], [ 38.7672657, 9.0106467 ], [ 38.7672256, 9.0115334 ], [ 38.767167, 9.0123421 ], [ 38.7684856, 9.0141974 ], [ 38.7663692, 9.0156361 ], [ 38.766101, 9.0156017 ], [ 38.7654814, 9.0154268 ], [ 38.7649382, 9.0162277 ], [ 38.7631065, 9.0171496 ], [ 38.7629355, 9.0171841 ], [ 38.7623398, 9.017288 ], [ 38.7623666, 9.0174082 ], [ 38.7636571, 9.0176742 ], [ 38.7638895, 9.0199177 ] ] ] } },
{ "type": "Feature", "properties": { "threshold_s": 600, "time_label": "10 min drive" }, "geometry": { "type": "Polygon", "coordinates": [ [ [ 38.7523037, 9.0192633 ], [ 38.754346, 9.0216889 ], [ 38.7546091, 9.0217117 ], [ 38.7555976, 9.0217609 ], [ 38.7600498, 9.0221853 ], [ 38.7602254, 9.0222978 ], [ 38.7614021, 9.0232701 ], [ 38.7616201, 9.0233396 ], [ 38.7650922, 9.0223314 ], [ 38.7673037, 9.0253571 ], [ 38.7664952, 9.0274613 ], [ 38.7635072, 9.0296583 ], [ 38.7635197, 9.0297327 ], [ 38.7637138, 9.0300983 ], [ 38.7668135, 9.0296198 ], [ 38.7696665, 9.0317334 ], [ 38.7725503, 9.0352767 ], [ 38.775312, 9.0329041 ], [ 38.7766302, 9.0325063 ], [ 38.7783575, 9.0319742 ], [ 38.7792177, 9.0312554 ], [ 38.7802271, 9.0305908 ], [ 38.7840727, 9.0293788 ], [ 38.7857026, 9.0282428 ], [ 38.7863276, 9.0246843 ], [ 38.7873243, 9.0235556 ], [ 38.7876648, 9.0232365 ], [ 38.7888875, 9.0215812 ], [ 38.7883827, 9.0212326 ], [ 38.787837, 9.0208872 ], [ 38.786564, 9.019551 ], [ 38.7889022, 9.0159914 ], [ 38.7867309, 9.0126232 ], [ 38.7865018, 9.0107454 ], [ 38.7847403, 9.0066431 ], [ 38.7852859, 9.0045649 ], [ 38.7853398, 9.0043516 ], [ 38.784741, 9.0019017 ], [ 38.7839798, 8.9998376 ], [ 38.7827763, 8.9993254 ], [ 38.7792988, 8.9978577 ], [ 38.7791942, 8.9979054 ], [ 38.7783258, 8.9985267 ], [ 38.7739914, 8.9989883 ], [ 38.7722506, 8.9984578 ], [ 38.770898099999989, 8.9992638 ], [ 38.7706407, 8.9997545 ], [ 38.7675149, 9.0030812 ], [ 38.7647674, 9.0061136 ], [ 38.7632801, 9.0060954 ], [ 38.7627101, 9.0070834 ], [ 38.7588742, 9.0086394 ], [ 38.7576903, 9.0118964 ], [ 38.7585196, 9.0125992 ], [ 38.7555162, 9.0160017 ], [ 38.7526023, 9.0162803 ], [ 38.7518654, 9.0166783 ], [ 38.751575699999989, 9.0171898 ], [ 38.7523037, 9.0192633 ] ] ] } },
{ "type": "Feature", "properties": { "threshold_s": 900, "time_label": "15 min drive" }, "geometry": { "type": "Polygon", "coordinates": [ [ [ 38.7426813, 9.0210971 ], [ 38.7459093, 9.0267541 ], [ 38.7512775, 9.0305243 ], [ 38.7540847, 9.0327214 ], [ 38.7573179, 9.0358262 ], [ 38.7584061, 9.0370047 ], [ 38.760091, 9.0388978 ], [ 38.7654082, 9.0400723 ], [ 38.7678988, 9.0418997 ], [ 38.773845, 9.0443406 ], [ 38.7752145, 9.0440842 ], [ 38.7813319, 9.0400888 ], [ 38.7821976, 9.0400112 ], [ 38.7866579, 9.0379459 ], [ 38.7882839, 9.036338 ], [ 38.7933345, 9.0314512 ], [ 38.7943505, 9.0307929 ], [ 38.7964456, 9.0288702 ], [ 38.7964648, 9.0288238 ], [ 38.7974667, 9.0235442 ], [ 38.7992964, 9.0204626 ], [ 38.7994298, 9.0188571 ], [ 38.7982312, 9.0172209 ], [ 38.7963315, 9.0103532 ], [ 38.7966599, 9.0077434 ], [ 38.795201, 9.0056441 ], [ 38.7946308, 9.0046325 ], [ 38.7941482, 8.9979968 ], [ 38.7943467, 8.9950463 ], [ 38.7918435, 8.9923162 ], [ 38.7917543, 8.9922639 ], [ 38.788291, 8.9915527 ], [ 38.7829238, 8.9893312 ], [ 38.777445299999989, 8.9880264 ], [ 38.7711194, 8.9883651 ], [ 38.7662967, 8.9928308 ], [ 38.7627677, 8.9945858 ], [ 38.7575434, 8.9980193 ], [ 38.7542811, 8.9997419 ], [ 38.7513207, 9.0020037 ], [ 38.7507367, 9.0031157 ], [ 38.7504336, 9.0036879 ], [ 38.7501171, 9.0043078 ], [ 38.7500717, 9.0048308 ], [ 38.7461556, 9.0104021 ], [ 38.7445199, 9.0100214 ], [ 38.7443043, 9.0100188 ], [ 38.7441227, 9.0100953 ], [ 38.7440647, 9.0101702 ], [ 38.7410116, 9.0161342 ], [ 38.7407, 9.0169157 ], [ 38.7426813, 9.0210971 ] ] ] } }
]
}
