{
"type": "FeatureCollection",
"name": "isochrone_shop_pastry_drive",
"crs": { "type": "name", "properties": { "name": "urn:ogc:def:crs:OGC:1.3:CRS84" } },
"features": [
{ "type": "Feature", "properties": { "threshold_s": 300, "time_label": "5 min drive" }, "geometry": { "type": "Polygon", "coordinates": [ [ [ 38.8729926, 9.0356292 ], [ 38.8735321, 9.0364239 ], [ 38.87453, 9.0373435 ], [ 38.87605, 9.0375501 ], [ 38.8777726, 9.0387014 ], [ 38.878946, 9.0374277 ], [ 38.8802102, 9.0365619 ], [ 38.8810605, 9.0357341 ], [ 38.8828616, 9.0337065 ], [ 38.8841343, 9.0324759 ], [ 38.8843207, 9.0321328 ], [ 38.8845279, 9.0307514 ], [ 38.8858214, 9.0293647 ], [ 38.8861193, 9.02921 ], [ 38.8854969, 9.0279991 ], [ 38.885016, 9.0274085 ], [ 38.8840119, 9.0254043 ], [ 38.8825482, 9.023578 ], [ 38.8808164, 9.0217134 ], [ 38.879238, 9.0205993 ], [ 38.8764778, 9.0205652 ], [ 38.8764791, 9.0199591 ], [ 38.8757868, 9.0208335 ], [ 38.8737938, 9.0211951 ], [ 38.8725624, 9.021311 ], [ 38.8713847, 9.0219847 ], [ 38.8705473, 9.0232192 ], [ 38.8701761, 9.0254044 ], [ 38.8694559, 9.0259726 ], [ 38.8684342, 9.0269428 ], [ 38.8682631, 9.0289126 ], [ 38.8684198, 9.0290747 ], [ 38.8699132, 9.0304839 ], [ 38.871983899999989, 9.0295753 ], [ 38.8725337, 9.0295832 ], [ 38.874594, 9.0312755 ], [ 38.8745846, 9.0317379 ], [ 38.8746006, 9.0322828 ], [ 38.8745945, 9.0328456 ], [ 38.8745877, 9.0334639 ], [ 38.8729926, 9.0356292 ] ] ] } },
{ "type": "Feature", "properties": { "threshold_s": 600, "time_label": "10 min drive" }, "geometry": { "type": "Polygon", "coordinates": [ [ [ 38.8710607, 9.0441727 ], [ 38.870777, 9.0456028 ], [ 38.8728059, 9.0466163 ], [ 38.877937, 9.0495294 ], [ 38.8809988, 9.0468097 ], [ 38.8837312, 9.0441548 ], [ 38.8876587, 9.0399895 ], [ 38.8888, 9.0376466 ], [ 38.8926476, 9.0338109 ], [ 38.8930339, 9.0330507 ], [ 38.8920039, 9.0280826 ], [ 38.8923896, 9.0232173 ], [ 38.8920209, 9.0220043 ], [ 38.890714, 9.0219205 ], [ 38.8862294, 9.0192266 ], [ 38.88512, 9.0154454 ], [ 38.8839477, 9.0141628 ], [ 38.8809083, 9.0114512 ], [ 38.8779021, 9.009779 ], [ 38.8732047, 9.0109346 ], [ 38.8693115, 9.0088141 ], [ 38.8693536, 9.0121893 ], [ 38.86567, 9.0153076 ], [ 38.8643358, 9.0184438 ], [ 38.8595536, 9.0206778 ], [ 38.8586709, 9.0216368 ], [ 38.8583437, 9.0224341 ], [ 38.8584412, 9.0263917 ], [ 38.8591683, 9.0276256 ], [ 38.8603472, 9.0290309 ], [ 38.8619642, 9.0306232 ], [ 38.8636881, 9.0301716 ], [ 38.8648603, 9.0291935 ], [ 38.8699011, 9.0331262 ], [ 38.8714937, 9.0387469 ], [ 38.8710607, 9.0441727 ] ] ] } },
{ "type": "Feature", "properties": { "threshold_s": 900, "time_label": "15 min drive" }, "geometry": { "type": "Polygon", "coordinates": [ [ [ 38.8523622, 9.0357592 ], [ 38.8524748, 9.0360135 ], [ 38.8580879, 9.0391813 ], [ 38.8591374, 9.0396756 ], [ 38.8644408, 9.0408266 ], [ 38.8645505, 9.0408076 ], [ 38.870777, 9.0456028 ], [ 38.8704688, 9.0472664 ], [ 38.8700261, 9.0491544 ], [ 38.870313, 9.04973 ], [ 38.8716953, 9.0526346 ], [ 38.8724747, 9.0542244 ], [ 38.8731681, 9.0556574 ], [ 38.876196299999989, 9.057787 ], [ 38.878014, 9.0587688 ], [ 38.8799251, 9.0593359 ], [ 38.8795356, 9.0552243 ], [ 38.881856, 9.0508919 ], [ 38.8847783, 9.0489287 ], [ 38.8849151, 9.0488107 ], [ 38.8850064, 9.0486798 ], [ 38.8851867, 9.0484094 ], [ 38.8853084, 9.0482034 ], [ 38.8891501, 9.0421339 ], [ 38.8924666, 9.0374161 ], [ 38.8930339, 9.0330507 ], [ 38.8953325, 9.027668 ], [ 38.9002302, 9.0222733 ], [ 38.9008565, 9.0197236 ], [ 38.8978592, 9.0154215 ], [ 38.8945224, 9.0126956 ], [ 38.8888308, 9.0075926 ], [ 38.8858697, 9.0055059 ], [ 38.8794391, 9.0011745 ], [ 38.8767032, 8.9999374 ], [ 38.8691232, 9.0004174 ], [ 38.866080599999989, 9.0013843 ], [ 38.8601571, 9.0029796 ], [ 38.859954, 9.0032962 ], [ 38.8572955, 9.0098112 ], [ 38.8573096, 9.0106456 ], [ 38.8566315, 9.0150511 ], [ 38.8520913, 9.0183636 ], [ 38.8485722, 9.0212117 ], [ 38.8497498, 9.0260442 ], [ 38.8516821, 9.030867 ], [ 38.8523622, 9.0357592 ] ] ] } },
{ "type": "Feature", "properties": { "threshold_s": 300, "time_label": "5 min drive" }, "geometry": { "type": "Polygon", "coordinates": [ [ [ 38.8071142, 9.0228651 ], [ 38.8084495, 9.0242274 ], [ 38.8093892, 9.0245806 ], [ 38.8107857, 9.0242689 ], [ 38.8129946, 9.0250146 ], [ 38.8140818, 9.0259528 ], [ 38.8143496, 9.0279621 ], [ 38.8144997, 9.0290358 ], [ 38.8149943, 9.0289912 ], [ 38.8151284, 9.0283886 ], [ 38.8151299, 9.0272556 ], [ 38.816761, 9.0265301 ], [ 38.8181182, 9.0271782 ], [ 38.8185783, 9.0276477 ], [ 38.8187664, 9.027768 ], [ 38.819542, 9.0282161 ], [ 38.8202976, 9.0275475 ], [ 38.8214323, 9.0264389 ], [ 38.8219882, 9.0245452 ], [ 38.8231243, 9.0247995 ], [ 38.8235592, 9.0249211 ], [ 38.8232507, 9.0242238 ], [ 38.822162, 9.0233834 ], [ 38.821077099999989, 9.0225039 ], [ 38.8203659, 9.020502 ], [ 38.8204775, 9.0193847 ], [ 38.8198926, 9.0192105 ], [ 38.8187501, 9.0202826 ], [ 38.8169497, 9.0197374 ], [ 38.8151325, 9.0204597 ], [ 38.8133688, 9.0197109 ], [ 38.811567599999989, 9.0200756 ], [ 38.811054, 9.0201534 ], [ 38.8096449, 9.0204194 ], [ 38.8078818, 9.0205801 ], [ 38.8064869, 9.0210836 ], [ 38.8064724, 9.0211697 ], [ 38.8071142, 9.0228651 ] ] ] } },
{ "type": "Feature", "properties": { "threshold_s": 600, "time_label": "10 min drive" }, "geometry": { "type": "Polygon", "coordinates": [ [ [ 38.7960927, 9.0209248 ], [ 38.7970364, 9.0240514 ], [ 38.799208, 9.0254482 ], [ 38.8020936, 9.0264203 ], [ 38.8055937, 9.0257918 ], [ 38.8075975, 9.0272945 ], [ 38.809383, 9.0265432 ], [ 38.8129946, 9.0250146 ], [ 38.8143496, 9.0279621 ], [ 38.8144997, 9.0290358 ], [ 38.8144722, 9.0294405 ], [ 38.8116564, 9.0325841 ], [ 38.8129082, 9.0334593 ], [ 38.8130282, 9.033534 ], [ 38.8167679, 9.0323597 ], [ 38.8201064, 9.0340822 ], [ 38.8245369, 9.0342374 ], [ 38.8279863, 9.0352506 ], [ 38.8292431, 9.0310917 ], [ 38.8305773, 9.0302009 ], [ 38.8323994, 9.0290547 ], [ 38.83358, 9.0284675 ], [ 38.8337897, 9.0245121 ], [ 38.8337666, 9.0238721 ], [ 38.8312004, 9.0234909 ], [ 38.8293744, 9.0218604 ], [ 38.8285495, 9.0210826 ], [ 38.8265759, 9.0200041 ], [ 38.8260162, 9.0169832 ], [ 38.8259322, 9.0165565 ], [ 38.8243533, 9.0146504 ], [ 38.8226905, 9.0141508 ], [ 38.8209495, 9.013644 ], [ 38.8174128, 9.0151084 ], [ 38.8149607, 9.0141972 ], [ 38.8128841, 9.0134943 ], [ 38.8125756, 9.0144427 ], [ 38.812659, 9.0157173 ], [ 38.811054, 9.0201534 ], [ 38.8096449, 9.0204194 ], [ 38.8089635, 9.0205448 ], [ 38.8055028, 9.0178143 ], [ 38.8048898, 9.0171913 ], [ 38.8030907, 9.0146854 ], [ 38.802571, 9.014448 ], [ 38.8006603, 9.0148448 ], [ 38.8007463, 9.0153373 ], [ 38.797182, 9.0184257 ], [ 38.7967567, 9.0182941 ], [ 38.7954471, 9.0178669 ], [ 38.7960927, 9.0209248 ] ] ] } },
{ "type": "Feature", "properties": { "threshold_s": 900, "time_label": "15 min drive" }, "geometry": { "type": "Polygon", "coordinates": [ [ [ 38.7866551, 9.0300591 ], [ 38.7867588, 9.0301967 ], [ 38.7916942, 9.0318211 ], [ 38.7933345, 9.0314512 ], [ 38.7947311, 9.0312946 ], [ 38.7988474, 9.0307862 ], [ 38.8042312, 9.0365115 ], [ 38.8144658, 9.0377323 ], [ 38.8174096, 9.0417458 ], [ 38.8197198, 9.0428511 ], [ 38.8212337, 9.0431521 ], [ 38.8282894, 9.0434728 ], [ 38.832886, 9.0432387 ], [ 38.8351021, 9.0406214 ], [ 38.8375676, 9.0372689 ], [ 38.8444855, 9.0330301 ], [ 38.8437174, 9.0275793 ], [ 38.8414594, 9.0241881 ], [ 38.839267, 9.0209447 ], [ 38.8353683, 9.0113968 ], [ 38.829868, 9.0058812 ], [ 38.8289659, 9.0055265 ], [ 38.8255636, 9.004735 ], [ 38.8230237, 9.0043179 ], [ 38.8194141, 9.0037802 ], [ 38.8122137, 9.0017545 ], [ 38.8086087, 9.0040038 ], [ 38.801541, 9.0052635 ], [ 38.798729, 9.0050088 ], [ 38.7967938, 9.004626 ], [ 38.7945096, 9.0076723 ], [ 38.7874703, 9.0134929 ], [ 38.784454, 9.0152374 ], [ 38.7845997, 9.0226513 ], [ 38.7866551, 9.0300591 ] ] ] } },
{ "type": "Feature", "properties": { "threshold_s": 300, "time_label": "5 min drive" }, "geometry": { "type": "Polygon", "coordinates": [ [ [ 38.8315603, 9.0210402 ], [ 38.83203240000001, 9.021741 ], [ 38.8335088, 9.021666 ], [ 38.8339238, 9.0216463 ], [ 38.8361434, 9.0230967 ], [ 38.8384925, 9.0238534 ], [ 38.8390437, 9.0250362 ], [ 38.8396163, 9.0272045 ], [ 38.8407455, 9.0271128 ], [ 38.8427642, 9.0268135 ], [ 38.8439403, 9.0253379 ], [ 38.8443763, 9.0241376 ], [ 38.844438, 9.0230602 ], [ 38.843856, 9.0212365 ], [ 38.8447501, 9.0186726 ], [ 38.8449974, 9.0186613 ], [ 38.8452638, 9.018649 ], [ 38.8455119, 9.0186309 ], [ 38.8457636, 9.0186125 ], [ 38.8460216, 9.0186058 ], [ 38.8462862, 9.018599 ], [ 38.8460124, 9.0183204 ], [ 38.8445818, 9.0169646 ], [ 38.8433111, 9.0157103 ], [ 38.8428107, 9.0152886 ], [ 38.8408953, 9.013665 ], [ 38.8388259, 9.0126283 ], [ 38.8374839, 9.0127074 ], [ 38.8368092, 9.0128559 ], [ 38.8363424, 9.0131566 ], [ 38.8337742, 9.0141108 ], [ 38.8333871, 9.0141273 ], [ 38.8331264, 9.0143985 ], [ 38.8318937, 9.0157671 ], [ 38.8309154, 9.016991 ], [ 38.8312386, 9.0193236 ], [ 38.8312764, 9.019895 ], [ 38.8313149, 9.0204614 ], [ 38.8315603, 9.0210402 ] ] ] } },
{ "type": "Feature", "properties": { "threshold_s": 600, "time_label": "10 min drive" }, "geometry": { "type": "Polygon", "coordinates": [ [ [ 38.8311271, 9.0316043 ], [ 38.8347468, 9.0370347 ], [ 38.8375676, 9.0372689 ], [ 38.8400239, 9.0358904 ], [ 38.8413773, 9.0352855 ], [ 38.8467935, 9.034135 ], [ 38.84938, 9.0319473 ], [ 38.8506613, 9.0308591 ], [ 38.8541116, 9.025734 ], [ 38.8542502, 9.0254448 ], [ 38.8546904, 9.023507 ], [ 38.8596607, 9.0204593 ], [ 38.8567371, 9.0177538 ], [ 38.853243, 9.0137351 ], [ 38.8507949, 9.0115817 ], [ 38.849253, 9.0102303 ], [ 38.8484112, 9.0095145 ], [ 38.8431904, 9.0075458 ], [ 38.8414704, 9.0058192 ], [ 38.8399261, 9.0047959 ], [ 38.8350485, 9.0029058 ], [ 38.8336857, 9.0030785 ], [ 38.8303265, 9.0044892 ], [ 38.8302422, 9.0045291 ], [ 38.8289686, 9.0063636 ], [ 38.8288667, 9.0074564 ], [ 38.8288254, 9.0078165 ], [ 38.8285318, 9.0098196 ], [ 38.828155, 9.0107397 ], [ 38.8226905, 9.0141508 ], [ 38.8217664, 9.0166323 ], [ 38.8216767, 9.0168867 ], [ 38.8212509, 9.0187748 ], [ 38.8264118, 9.0231496 ], [ 38.8265137, 9.0234793 ], [ 38.8272819, 9.0259255 ], [ 38.8297083, 9.0294934 ], [ 38.8311271, 9.0316043 ] ] ] } },
{ "type": "Feature", "properties": { "threshold_s": 900, "time_label": "15 min drive" }, "geometry": { "type": "Polygon", "coordinates": [ [ [ 38.8260278, 9.0419687 ], [ 38.8267191, 9.0428673 ], [ 38.8296578, 9.045113 ], [ 38.8342291, 9.0444675 ], [ 38.8347106, 9.0444106 ], [ 38.8396154, 9.0432269 ], [ 38.8424748, 9.0449472 ], [ 38.8434789, 9.0444928 ], [ 38.8454837, 9.0434145 ], [ 38.8516426, 9.0413437 ], [ 38.8546541, 9.0391286 ], [ 38.8578098, 9.0368942 ], [ 38.8583356, 9.0364641 ], [ 38.8585428, 9.0361938 ], [ 38.8611759, 9.0314011 ], [ 38.8636881, 9.0301716 ], [ 38.864046, 9.0289651 ], [ 38.8665855, 9.0242364 ], [ 38.869985, 9.0209563 ], [ 38.8672391, 9.0175395 ], [ 38.8667297, 9.0171029 ], [ 38.8629017, 9.0116192 ], [ 38.8616108, 9.0101591 ], [ 38.8573935, 9.0067183 ], [ 38.8566263, 9.0067585 ], [ 38.8520229, 9.0038196 ], [ 38.8517258, 9.0017786 ], [ 38.8515895, 9.0016543 ], [ 38.8455139, 8.9988985 ], [ 38.844815, 8.9980926 ], [ 38.8434961, 8.9966146 ], [ 38.8427344, 8.9959913 ], [ 38.838026, 8.9945437 ], [ 38.8312705, 8.9949229 ], [ 38.8279827, 8.995279 ], [ 38.8254945, 8.9955529 ], [ 38.824146, 8.9964252 ], [ 38.8228203, 8.9975902 ], [ 38.8225146, 8.9978975 ], [ 38.8221946, 8.9995035 ], [ 38.8216182, 9.0018175 ], [ 38.8174928, 9.0047767 ], [ 38.815654, 9.0083153 ], [ 38.8152062, 9.0100285 ], [ 38.8152041, 9.0109634 ], [ 38.815215, 9.0114295 ], [ 38.8152355, 9.0119172 ], [ 38.8168859, 9.0171779 ], [ 38.8133688, 9.0197109 ], [ 38.813209, 9.0199514 ], [ 38.8143108, 9.0220924 ], [ 38.8147871, 9.0225069 ], [ 38.8182977, 9.0240359 ], [ 38.8193351, 9.0247139 ], [ 38.8228669, 9.0278268 ], [ 38.8245369, 9.0342374 ], [ 38.825009, 9.0372604 ], [ 38.8257152, 9.0408449 ], [ 38.8260278, 9.0419687 ] ] ] } },
{ "type": "Feature", "properties": { "threshold_s": 300, "time_label": "5 min drive" }, "geometry": { "type": "Polygon", "coordinates": [ [ [ 38.7138415, 8.9507643 ], [ 38.714506, 8.9529219 ], [ 38.7152351, 8.9533386 ], [ 38.7161207, 8.9537604 ], [ 38.7168677, 8.9536929 ], [ 38.7191717, 8.9537152 ], [ 38.7195767, 8.9541353 ], [ 38.7198537, 8.9546209 ], [ 38.7212727, 8.9543369 ], [ 38.7233466, 8.954489 ], [ 38.7249555, 8.9541127 ], [ 38.7259094, 8.9535975 ], [ 38.7261683, 8.9534385 ], [ 38.727503, 8.9529559 ], [ 38.7285447, 8.9530967 ], [ 38.7295264, 8.9522595 ], [ 38.7307498, 8.9512319 ], [ 38.7311565, 8.9508058 ], [ 38.7323561, 8.9494602 ], [ 38.7332077, 8.9481805 ], [ 38.7328986, 8.9482931 ], [ 38.7308692, 8.9474182 ], [ 38.7298992, 8.9464768 ], [ 38.7287719, 8.9457979 ], [ 38.728182, 8.9450135 ], [ 38.7277816, 8.9432165 ], [ 38.7284877, 8.9421948 ], [ 38.727795, 8.9425475 ], [ 38.7258961, 8.9415389 ], [ 38.7252917, 8.9411583 ], [ 38.7239407, 8.940808 ], [ 38.7237791, 8.9409082 ], [ 38.7231369, 8.9413597 ], [ 38.7212531, 8.9405444 ], [ 38.7206742, 8.9426557 ], [ 38.7202932, 8.9428596 ], [ 38.7193868, 8.9430442 ], [ 38.7178098, 8.9440724 ], [ 38.7169259, 8.9451545 ], [ 38.7157618, 8.9461813 ], [ 38.7147032, 8.9481447 ], [ 38.714158, 8.9488541 ], [ 38.7139677, 8.9494417 ], [ 38.7137612, 8.9506522 ], [ 38.7138415, 8.9507643 ] ] ] } },
{ "type": "Feature", "properties": { "threshold_s": 600, "time_label": "10 min drive" }, "geometry": { "type": "Polygon", "coordinates": [ [ [ 38.7051292, 8.9522721 ], [ 38.7052918, 8.9583318 ], [ 38.7082998, 8.9591877 ], [ 38.7114208, 8.963849 ], [ 38.7174451, 8.9623531 ], [ 38.7225438, 8.9621765 ], [ 38.7231498, 8.9614414 ], [ 38.7244507, 8.9580179 ], [ 38.730846, 8.957169 ], [ 38.7313537, 8.9572644 ], [ 38.733176899999989, 8.9569398 ], [ 38.7335671, 8.9563225 ], [ 38.7381752, 8.9526622 ], [ 38.7397643, 8.9527963 ], [ 38.7415064, 8.9531372 ], [ 38.741538, 8.9531417 ], [ 38.7421294, 8.9527569 ], [ 38.7431185, 8.9484161 ], [ 38.743023, 8.9470266 ], [ 38.742462, 8.9458879 ], [ 38.7409481, 8.9433638 ], [ 38.7402286, 8.9424754 ], [ 38.737807, 8.9407308 ], [ 38.7340113, 8.9367007 ], [ 38.7290061, 8.9343217 ], [ 38.7258811, 8.9326871 ], [ 38.7221487, 8.9303299 ], [ 38.7215307, 8.9300636 ], [ 38.717384, 8.9306505 ], [ 38.7155239, 8.9336434 ], [ 38.7156875, 8.9360638 ], [ 38.7159936, 8.9364447 ], [ 38.7158471, 8.9413677 ], [ 38.713008, 8.9426952 ], [ 38.7128283, 8.942823 ], [ 38.7124716, 8.9435172 ], [ 38.7120129, 8.9455097 ], [ 38.7097463, 8.9487392 ], [ 38.7056469, 8.9493476 ], [ 38.7053463, 8.9498908 ], [ 38.7051292, 8.9522721 ] ] ] } },
{ "type": "Feature", "properties": { "threshold_s": 900, "time_label": "15 min drive" }, "geometry": { "type": "Polygon", "coordinates": [ [ [ 38.7040937, 8.9675541 ], [ 38.7054683, 8.9708256 ], [ 38.7067926, 8.971707 ], [ 38.7090947, 8.9722854 ], [ 38.7120216, 8.9728206 ], [ 38.7160519, 8.9718082 ], [ 38.7203671, 8.9713797 ], [ 38.7237888, 8.9707442 ], [ 38.7238546, 8.9706921 ], [ 38.7247438, 8.967833 ], [ 38.7293485, 8.9660135 ], [ 38.7313134, 8.9690899 ], [ 38.731406, 8.9690896 ], [ 38.7327157, 8.9682691 ], [ 38.736566, 8.9669333 ], [ 38.7366423, 8.9668581 ], [ 38.7372129, 8.9662997 ], [ 38.7355458, 8.9629714 ], [ 38.7352973, 8.9619756 ], [ 38.7352396, 8.9611247 ], [ 38.7351846, 8.9609923 ], [ 38.7348681, 8.9596248 ], [ 38.7364709, 8.9560006 ], [ 38.741532, 8.9558019 ], [ 38.7429693, 8.9567245 ], [ 38.7436067, 8.9570909 ], [ 38.7479981, 8.9578798 ], [ 38.7507454, 8.9535127 ], [ 38.7510028, 8.9531669 ], [ 38.751347, 8.9518325 ], [ 38.7533661, 8.9473794 ], [ 38.7537108, 8.9465658 ], [ 38.7527011, 8.9445671 ], [ 38.750896, 8.9428976 ], [ 38.7494405, 8.9400866 ], [ 38.7472455, 8.9384746 ], [ 38.7460213, 8.9345921 ], [ 38.745957, 8.9344593 ], [ 38.7455287, 8.934299 ], [ 38.7419662, 8.9324499 ], [ 38.7410836, 8.9309603 ], [ 38.739835, 8.931749 ], [ 38.7389504, 8.9325593 ], [ 38.7339035, 8.9321621 ], [ 38.7337568, 8.9308869 ], [ 38.7338218, 8.9279367 ], [ 38.7339398, 8.9269285 ], [ 38.7341818, 8.9250996 ], [ 38.730282, 8.9257507 ], [ 38.7285219, 8.9239388 ], [ 38.7260315, 8.9217925 ], [ 38.7235862, 8.9205953 ], [ 38.720505, 8.9210864 ], [ 38.7202896, 8.9240603 ], [ 38.7221785, 8.9270125 ], [ 38.7215307, 8.9300636 ], [ 38.7185669, 8.9308585 ], [ 38.717384, 8.9306505 ], [ 38.716904, 8.93066 ], [ 38.7163543, 8.9307024 ], [ 38.7156326, 8.9307128 ], [ 38.7151672, 8.9307128 ], [ 38.7118706, 8.9287413 ], [ 38.7123176, 8.9260697 ], [ 38.7116689, 8.9264898 ], [ 38.7095736, 8.9293885 ], [ 38.7070619, 8.9321997 ], [ 38.7067501, 8.9344693 ], [ 38.7038193, 8.9383534 ], [ 38.7018879, 8.9400721 ], [ 38.7003214, 8.9437718 ], [ 38.698225, 8.9455879 ], [ 38.6978834, 8.9461417 ], [ 38.6962616, 8.9490019 ], [ 38.6957145, 8.9536041 ], [ 38.6952031, 8.9546876 ], [ 38.6953, 8.9566272 ], [ 38.6992048, 8.9594998 ], [ 38.6997608, 8.96103 ], [ 38.7020083, 8.9655109 ], [ 38.7040937, 8.9675541 ] ] ] } },
{ "type": "Feature", "properties": { "threshold_s": 300, "time_label": "5 min drive" }, "geometry": { "type": "Polygon", "coordinates": [ [ [ 38.6763999, 9.007812 ], [ 38.677703, 9.0104528 ], [ 38.678885, 9.0116638 ], [ 38.6794321, 9.0121658 ], [ 38.6796896, 9.0120731 ], [ 38.6800851, 9.0119121 ], [ 38.6810731, 9.0112918 ], [ 38.6832798, 9.0113804 ], [ 38.6852123, 9.0110916 ], [ 38.6878939, 9.0095187 ], [ 38.6883806, 9.0099695 ], [ 38.6914139, 9.009415 ], [ 38.6923666, 9.0089908 ], [ 38.6933347, 9.0078285 ], [ 38.6939538, 9.0068815 ], [ 38.6942768, 9.0048158 ], [ 38.6948454, 9.0036595 ], [ 38.6938436, 9.0022355 ], [ 38.6924715, 9.0011803 ], [ 38.6911987, 8.999768 ], [ 38.6903593, 9.0000015 ], [ 38.6884551, 9.0011586 ], [ 38.6859753, 9.0016023 ], [ 38.682927, 9.0009162 ], [ 38.6828085, 8.9996335 ], [ 38.6825636, 8.9992836 ], [ 38.6806462, 8.9988589 ], [ 38.6799018, 8.9990056 ], [ 38.6791743, 8.9995971 ], [ 38.6765368, 8.9997864 ], [ 38.6761196, 8.9999731 ], [ 38.6755771, 9.0005058 ], [ 38.675196, 9.0008938 ], [ 38.6750011, 9.0031694 ], [ 38.6759666, 9.0036669 ], [ 38.6752499, 9.0066769 ], [ 38.6757521, 9.0071431 ], [ 38.6763999, 9.007812 ] ] ] } },
{ "type": "Feature", "properties": { "threshold_s": 600, "time_label": "10 min drive" }, "geometry": { "type": "Polygon", "coordinates": [ [ [ 38.6688339, 9.0129433 ], [ 38.6725212, 9.018061 ], [ 38.673648, 9.0189493 ], [ 38.67532, 9.020087 ], [ 38.6780122, 9.0212638 ], [ 38.6787159, 9.0210077 ], [ 38.6797822, 9.020011 ], [ 38.6808536, 9.0191275 ], [ 38.681619, 9.0184816 ], [ 38.6822447, 9.0179944 ], [ 38.688608, 9.0170348 ], [ 38.6904861, 9.0172168 ], [ 38.6936581, 9.0168994 ], [ 38.6997398, 9.0155845 ], [ 38.700685, 9.0162201 ], [ 38.7011211, 9.0149513 ], [ 38.7016711, 9.0123241 ], [ 38.7034379, 9.0081763 ], [ 38.7048085, 9.0054691 ], [ 38.7050479, 9.0038899 ], [ 38.7049773, 9.0034573 ], [ 38.703571599999989, 8.9990169 ], [ 38.701132, 8.9966866 ], [ 38.69908, 8.992327 ], [ 38.6981352, 8.9929925 ], [ 38.697529, 8.9943118 ], [ 38.6954675, 8.9963489 ], [ 38.6953475, 8.9964028 ], [ 38.6951727, 8.9964815 ], [ 38.6894549, 8.9937426 ], [ 38.6893504, 8.9926156 ], [ 38.6890973, 8.992021 ], [ 38.6887749, 8.9918051 ], [ 38.6829237, 8.9906438 ], [ 38.6821121, 8.9905694 ], [ 38.6752038, 8.990748 ], [ 38.6739001, 8.9908453 ], [ 38.6700234, 8.9920211 ], [ 38.6673179, 8.9930501 ], [ 38.6662209, 8.9952576 ], [ 38.6656496, 8.9981478 ], [ 38.6657193, 9.0003546 ], [ 38.6659129, 9.001489 ], [ 38.6655396, 9.0069947 ], [ 38.6650166, 9.0084504 ], [ 38.6651185, 9.0087617 ], [ 38.6652766, 9.0092311 ], [ 38.6688339, 9.0129433 ] ] ] } },
{ "type": "Feature", "properties": { "threshold_s": 900, "time_label": "15 min drive" }, "geometry": { "type": "Polygon", "coordinates": [ [ [ 38.6683244, 9.0228418 ], [ 38.6722922, 9.028514 ], [ 38.6726743, 9.0286422 ], [ 38.6785665, 9.0266437 ], [ 38.6800209, 9.026276 ], [ 38.6854255, 9.0239263 ], [ 38.6918318, 9.0250956 ], [ 38.6923355, 9.0248601 ], [ 38.6987548, 9.0227104 ], [ 38.7031035, 9.0199503 ], [ 38.7093361, 9.019713 ], [ 38.710531, 9.0201136 ], [ 38.71221, 9.0139367 ], [ 38.7153992, 9.0091604 ], [ 38.7155219, 9.0089928 ], [ 38.7161945, 9.0080137 ], [ 38.7158002, 9.0057718 ], [ 38.714215, 9.0056337 ], [ 38.7103482, 9.0016301 ], [ 38.7119771, 8.9987607 ], [ 38.7126667, 8.9941755 ], [ 38.7114795, 8.9928316 ], [ 38.7065338, 8.9882529 ], [ 38.7037356, 8.9846857 ], [ 38.7021218, 8.9840129 ], [ 38.700637, 8.9836709 ], [ 38.6961552, 8.9838323 ], [ 38.6896554, 8.9814752 ], [ 38.6855707, 8.9820518 ], [ 38.6838657, 8.9822073 ], [ 38.6793549, 8.9823967 ], [ 38.6767739, 8.9819282 ], [ 38.6752758, 8.9819983 ], [ 38.6713446, 8.9829259 ], [ 38.6667979, 8.9847263 ], [ 38.6610058, 8.9860718 ], [ 38.6608989, 8.9861279 ], [ 38.6602985, 8.9869955 ], [ 38.6597476, 8.9909745 ], [ 38.6592607, 8.9944693 ], [ 38.6571979, 8.9981492 ], [ 38.6564447, 8.9994631 ], [ 38.6563329, 8.9997596 ], [ 38.6566052, 9.0007335 ], [ 38.6571336, 9.0025919 ], [ 38.6611086, 9.0062185 ], [ 38.6628655, 9.0098147 ], [ 38.6639424, 9.0100505 ], [ 38.6642481, 9.0100611 ], [ 38.6686255, 9.0143765 ], [ 38.6679003, 9.0164846 ], [ 38.6677543, 9.0181673 ], [ 38.6677046, 9.0206026 ], [ 38.6683244, 9.0228418 ] ] ] } },
{ "type": "Feature", "properties": { "threshold_s": 300, "time_label": "5 min drive" }, "geometry": { "type": "Polygon", "coordinates": [ [ [ 38.740618, 9.0305262 ], [ 38.7406436, 9.0310006 ], [ 38.7413431, 9.0313382 ], [ 38.7414246, 9.0313298 ], [ 38.7419312, 9.0300338 ], [ 38.745241, 9.0302293 ], [ 38.7459818, 9.0310786 ], [ 38.7462922, 9.0314434 ], [ 38.7463586, 9.0313885 ], [ 38.7472081, 9.0293312 ], [ 38.7496045, 9.028671 ], [ 38.7517552, 9.0268586 ], [ 38.751883, 9.0249976 ], [ 38.752181899999989, 9.0217133 ], [ 38.7536067, 9.0215262 ], [ 38.754346, 9.0216889 ], [ 38.7546091, 9.0217117 ], [ 38.7555976, 9.0217609 ], [ 38.755685, 9.0209076 ], [ 38.7547988, 9.0187984 ], [ 38.7540046, 9.0176558 ], [ 38.7516063, 9.015912 ], [ 38.7503028, 9.0158043 ], [ 38.748495, 9.0131042 ], [ 38.7484279, 9.0131606 ], [ 38.7450376, 9.0132941 ], [ 38.7449046, 9.0130052 ], [ 38.7446729, 9.0128419 ], [ 38.7445776, 9.0128214 ], [ 38.7444428, 9.0128526 ], [ 38.7432928, 9.0147559 ], [ 38.7414515, 9.0162607 ], [ 38.7416375, 9.0192288 ], [ 38.7415028, 9.0197133 ], [ 38.7411997, 9.0220112 ], [ 38.7422622, 9.0223448 ], [ 38.7429535, 9.0229276 ], [ 38.7439453, 9.0231991 ], [ 38.7440472, 9.0232515 ], [ 38.7449778, 9.0260597 ], [ 38.7422454, 9.0269872 ], [ 38.7415548, 9.0262879 ], [ 38.7414669, 9.0261991 ], [ 38.7408818, 9.026716 ], [ 38.7408274, 9.0267846 ], [ 38.7404256, 9.0274322 ], [ 38.740618, 9.0305262 ] ] ] } },
{ "type": "Feature", "properties": { "threshold_s": 600, "time_label": "10 min drive" }, "geometry": { "type": "Polygon", "coordinates": [ [ [ 38.7341184, 9.0347785 ], [ 38.7365762, 9.0379959 ], [ 38.7373638, 9.0386148 ], [ 38.7407971, 9.0398028 ], [ 38.7427859, 9.0405703 ], [ 38.7433966, 9.0401234 ], [ 38.7468527, 9.0386384 ], [ 38.7487256, 9.039186 ], [ 38.7522558, 9.037847 ], [ 38.7523917, 9.0377453 ], [ 38.7535757, 9.0366681 ], [ 38.7550527, 9.0350946 ], [ 38.7558521, 9.0318884 ], [ 38.7575971, 9.0292881 ], [ 38.76061210000001, 9.0274013 ], [ 38.7624111, 9.0266163 ], [ 38.7616201, 9.0233396 ], [ 38.7605536, 9.0224021 ], [ 38.76068, 9.0184747 ], [ 38.7636571, 9.0176742 ], [ 38.7645019, 9.0170063 ], [ 38.7636993, 9.017064 ], [ 38.7631065, 9.0171496 ], [ 38.7629355, 9.0171841 ], [ 38.7623398, 9.017288 ], [ 38.7587022, 9.0179263 ], [ 38.7586435, 9.0127141 ], [ 38.7593389, 9.0118938 ], [ 38.7601319, 9.011234 ], [ 38.7588742, 9.0086394 ], [ 38.7543417, 9.0064809 ], [ 38.7495799, 9.006002 ], [ 38.7485673, 9.004685 ], [ 38.7469735, 9.0027395 ], [ 38.7468904, 9.0027304 ], [ 38.7454619, 9.0025839 ], [ 38.7453268, 9.0025716 ], [ 38.7411363, 9.0026067 ], [ 38.7410113, 9.0026659 ], [ 38.7400744, 9.0044562 ], [ 38.7377773, 9.008472 ], [ 38.7359332, 9.0101339 ], [ 38.734345, 9.011761 ], [ 38.7310311, 9.0154679 ], [ 38.730106, 9.0164989 ], [ 38.7311444, 9.017462 ], [ 38.732933, 9.0204298 ], [ 38.7335879, 9.0225953 ], [ 38.7336241, 9.0231117 ], [ 38.7318434, 9.0277109 ], [ 38.7304595, 9.0287023 ], [ 38.7318257, 9.0314097 ], [ 38.7341184, 9.0347785 ] ] ] } },
{ "type": "Feature", "properties": { "threshold_s": 900, "time_label": "15 min drive" }, "geometry": { "type": "Polygon", "coordinates": [ [ [ 38.72888, 9.0438039 ], [ 38.7317687, 9.047415 ], [ 38.7339416, 9.0490828 ], [ 38.735841, 9.0491314 ], [ 38.7387001, 9.0486656 ], [ 38.7429826, 9.0486602 ], [ 38.7469649, 9.0488796 ], [ 38.7480819, 9.0487188 ], [ 38.7519653, 9.0479608 ], [ 38.7562666, 9.0472151 ], [ 38.7582949, 9.043552 ], [ 38.7581195, 9.0426789 ], [ 38.7580892, 9.041159 ], [ 38.760522, 9.0371828 ], [ 38.7629161, 9.0365657 ], [ 38.7663647, 9.032801 ], [ 38.7664081, 9.0326913 ], [ 38.7654192, 9.0307943 ], [ 38.7673037, 9.0253571 ], [ 38.7707329, 9.0240985 ], [ 38.7713573, 9.0204686 ], [ 38.7743481, 9.0183679 ], [ 38.7741335, 9.0152535 ], [ 38.7732789, 9.0121882 ], [ 38.772598, 9.0100844 ], [ 38.7703865, 9.0079723 ], [ 38.7699232, 9.0043125 ], [ 38.7673511, 9.0023432 ], [ 38.7663704, 9.0019672 ], [ 38.7648436, 9.0018977 ], [ 38.7632006, 9.0023557 ], [ 38.7587333, 8.9982551 ], [ 38.758229, 8.9975481 ], [ 38.7537851, 8.9956625 ], [ 38.7485685, 8.9923582 ], [ 38.7481521, 8.9921783 ], [ 38.7480194, 8.9921369 ], [ 38.7475225, 8.9920818 ], [ 38.7445799, 8.9920487 ], [ 38.7392676, 8.9926514 ], [ 38.7381707, 8.9924364 ], [ 38.7376045, 8.9950873 ], [ 38.7371778, 8.998569 ], [ 38.7325948, 9.0017547 ], [ 38.732501, 9.001813 ], [ 38.7292146, 9.0052443 ], [ 38.7285474, 9.0064755 ], [ 38.7284978, 9.0065722 ], [ 38.7264951, 9.0122563 ], [ 38.7253784, 9.0132798 ], [ 38.7221315, 9.0179276 ], [ 38.7213899, 9.018958 ], [ 38.7206503, 9.0215885 ], [ 38.720889, 9.025629 ], [ 38.7206855, 9.0296494 ], [ 38.721244, 9.0314259 ], [ 38.7232152, 9.0356268 ], [ 38.7235867, 9.0361775 ], [ 38.7250616, 9.0383272 ], [ 38.7263865, 9.0401466 ], [ 38.72888, 9.0438039 ] ] ] } },
{ "type": "Feature", "properties": { "threshold_s": 300, "time_label": "5 min drive" }, "geometry": { "type": "Polygon", "coordinates": [ [ [ 38.716975, 9.0684375 ], [ 38.7184985, 9.070863 ], [ 38.7215999, 9.0727251 ], [ 38.7215124, 9.0716122 ], [ 38.7217079, 9.0706514 ], [ 38.7233111, 9.0688621 ], [ 38.7243865, 9.0677995 ], [ 38.7248123, 9.0674636 ], [ 38.7253127, 9.0670643 ], [ 38.7256729, 9.0667716 ], [ 38.7259472, 9.0665559 ], [ 38.726472, 9.0661305 ], [ 38.7273741, 9.0653952 ], [ 38.7283075, 9.0645247 ], [ 38.7293613, 9.0625564 ], [ 38.7288126, 9.0605001 ], [ 38.7292165, 9.0588289 ], [ 38.7289427, 9.0577047 ], [ 38.7268496, 9.0566972 ], [ 38.7249244, 9.0551343 ], [ 38.7237543, 9.0551894 ], [ 38.7227345, 9.0551698 ], [ 38.7214829, 9.0551065 ], [ 38.7202049, 9.0529697 ], [ 38.7202063, 9.0529188 ], [ 38.7202065, 9.0528853 ], [ 38.7202046, 9.0528396 ], [ 38.719617, 9.0531285 ], [ 38.7181807, 9.0545065 ], [ 38.7163179, 9.0556455 ], [ 38.7172968, 9.0576841 ], [ 38.7176294, 9.0593392 ], [ 38.7175503, 9.0612463 ], [ 38.7172703, 9.0624235 ], [ 38.7161169, 9.0649894 ], [ 38.7159044, 9.0653812 ], [ 38.7154944, 9.0661054 ], [ 38.7157479, 9.0667755 ], [ 38.716975, 9.0684375 ] ] ] } },
{ "type": "Feature", "properties": { "threshold_s": 600, "time_label": "10 min drive" }, "geometry": { "type": "Polygon", "coordinates": [ [ [ 38.7182799, 9.0763662 ], [ 38.7212082, 9.0809212 ], [ 38.7235789, 9.0781644 ], [ 38.7261845, 9.0750759 ], [ 38.7291224, 9.0709316 ], [ 38.732525099999989, 9.0719682 ], [ 38.7341311, 9.0707154 ], [ 38.7349307, 9.0690447 ], [ 38.7351005, 9.0682393 ], [ 38.738448, 9.0638539 ], [ 38.7397194, 9.0634177 ], [ 38.7389565, 9.0600866 ], [ 38.7381506, 9.0557988 ], [ 38.7373631, 9.0509343 ], [ 38.7336697, 9.0480785 ], [ 38.7288047, 9.0464712 ], [ 38.7249024, 9.0447279 ], [ 38.7229382, 9.0433447 ], [ 38.7214851, 9.0427656 ], [ 38.719755, 9.0431141 ], [ 38.7183244, 9.0449502 ], [ 38.7188249, 9.0478735 ], [ 38.7188915, 9.0484049 ], [ 38.7159088, 9.0528119 ], [ 38.7116659, 9.0510319 ], [ 38.7113763, 9.0510713 ], [ 38.7113176, 9.0510788 ], [ 38.7104662, 9.0512672 ], [ 38.7082739, 9.0547237 ], [ 38.7079286, 9.0570843 ], [ 38.7081281, 9.0588542 ], [ 38.7085404, 9.0593889 ], [ 38.7110449, 9.061498 ], [ 38.7146339, 9.062817 ], [ 38.7154944, 9.0661054 ], [ 38.714509, 9.0682505 ], [ 38.7146036, 9.0688953 ], [ 38.7157707, 9.0714928 ], [ 38.7182799, 9.0763662 ] ] ] } },
{ "type": "Feature", "properties": { "threshold_s": 900, "time_label": "15 min drive" }, "geometry": { "type": "Polygon", "coordinates": [ [ [ 38.6982181, 9.0594512 ], [ 38.7004523, 9.0646666 ], [ 38.7047361, 9.0671463 ], [ 38.7051867, 9.0669423 ], [ 38.7064393, 9.0656273 ], [ 38.7146036, 9.0688953 ], [ 38.7151902, 9.0700342 ], [ 38.7157707, 9.0714928 ], [ 38.7160362, 9.0719192 ], [ 38.7182799, 9.0763662 ], [ 38.7190591, 9.077488 ], [ 38.7222228, 9.0847868 ], [ 38.7265894, 9.0880836 ], [ 38.730374, 9.0869792 ], [ 38.7309526, 9.086197 ], [ 38.7287586, 9.0812933 ], [ 38.7324589, 9.0764417 ], [ 38.7377219, 9.0759888 ], [ 38.7382369, 9.0758127 ], [ 38.7389919, 9.0740699 ], [ 38.7422269, 9.0690505 ], [ 38.7463078, 9.0671246 ], [ 38.7474583, 9.0668662 ], [ 38.7492077, 9.0651717 ], [ 38.7480296, 9.0628726 ], [ 38.7483955, 9.0542761 ], [ 38.7461858, 9.0483835 ], [ 38.744017, 9.0442946 ], [ 38.7373638, 9.0386148 ], [ 38.7299434, 9.0346503 ], [ 38.7287282, 9.0338594 ], [ 38.7247052, 9.0333687 ], [ 38.7202721, 9.0340603 ], [ 38.719316, 9.0342986 ], [ 38.7154829, 9.0366346 ], [ 38.7095735, 9.0410236 ], [ 38.7022202, 9.0457932 ], [ 38.701138, 9.0470314 ], [ 38.7004472, 9.0486732 ], [ 38.6986498, 9.0569521 ], [ 38.6983467, 9.0577484 ], [ 38.6982181, 9.0594512 ] ] ] } },
{ "type": "Feature", "properties": { "threshold_s": 300, "time_label": "5 min drive" }, "geometry": { "type": "Polygon", "coordinates": [ [ [ 38.7114208, 8.963849 ], [ 38.7113571, 8.9645981 ], [ 38.7129534, 8.9636095 ], [ 38.7136356, 8.9631317 ], [ 38.7143151, 8.9626967 ], [ 38.7161542, 8.9625726 ], [ 38.7174451, 8.9623531 ], [ 38.7185303, 8.963298 ], [ 38.7190501, 8.9639151 ], [ 38.7191646, 8.9638658 ], [ 38.719092, 8.9615537 ], [ 38.7193582, 8.9614162 ], [ 38.7204948, 8.9603505 ], [ 38.7213666, 8.9588316 ], [ 38.721756, 8.956553 ], [ 38.7212727, 8.9543369 ], [ 38.7212276, 8.9537459 ], [ 38.7210976, 8.9532207 ], [ 38.7202218, 8.953008 ], [ 38.7195469, 8.9528554 ], [ 38.7188874, 8.953364 ], [ 38.7173479, 8.9532857 ], [ 38.7174137, 8.9514514 ], [ 38.7183944, 8.9507422 ], [ 38.7179827, 8.950222 ], [ 38.7173858, 8.9501376 ], [ 38.7156324, 8.9497974 ], [ 38.7140557, 8.9495558 ], [ 38.7129641, 8.9496449 ], [ 38.7120081, 8.9502646 ], [ 38.7131958, 8.9522065 ], [ 38.714506, 8.9529219 ], [ 38.7139443, 8.9548284 ], [ 38.7127281, 8.9547367 ], [ 38.7120212, 8.9546961 ], [ 38.7112694, 8.9546488 ], [ 38.7093868, 8.9554634 ], [ 38.70881760000001, 8.9545068 ], [ 38.7068067, 8.9555528 ], [ 38.7074345, 8.9567802 ], [ 38.706734, 8.958179 ], [ 38.7066794, 8.9589522 ], [ 38.7082998, 8.9591877 ], [ 38.7097852, 8.9596157 ], [ 38.7103525, 8.9597938 ], [ 38.7116251, 8.9603827 ], [ 38.7117541, 8.9617023 ], [ 38.7114597, 8.962623 ], [ 38.7114208, 8.963849 ] ] ] } },
{ "type": "Feature", "properties": { "threshold_s": 600, "time_label": "10 min drive" }, "geometry": { "type": "Polygon", "coordinates": [ [ [ 38.7047663, 8.9713588 ], [ 38.7052419, 8.973599 ], [ 38.709632, 8.973171 ], [ 38.7120216, 8.9728206 ], [ 38.713758, 8.9722018 ], [ 38.7191264, 8.972191 ], [ 38.7211726, 8.9728065 ], [ 38.7247432, 8.9730688 ], [ 38.7249227, 8.9730334 ], [ 38.7256696, 8.9721836 ], [ 38.7261173, 8.9689048 ], [ 38.7270441, 8.9655836 ], [ 38.7276622, 8.9634168 ], [ 38.7276637, 8.9629179 ], [ 38.727665, 8.9627193 ], [ 38.7276671, 8.9616568 ], [ 38.7276238, 8.9613825 ], [ 38.7271286, 8.9595814 ], [ 38.7261994, 8.9576376 ], [ 38.7285447, 8.9530967 ], [ 38.731062, 8.9531298 ], [ 38.7313974, 8.9515806 ], [ 38.7314631, 8.9511842 ], [ 38.7292342, 8.9479402 ], [ 38.7268938, 8.9447904 ], [ 38.7262831, 8.9441282 ], [ 38.7235168, 8.9427649 ], [ 38.7231504, 8.9426609 ], [ 38.72147, 8.9422049 ], [ 38.7193868, 8.9430442 ], [ 38.7178098, 8.9440724 ], [ 38.7157618, 8.9461813 ], [ 38.7111602, 8.9483774 ], [ 38.7097463, 8.9487392 ], [ 38.7051688, 8.9476046 ], [ 38.7028572, 8.950524 ], [ 38.7026042, 8.9508445 ], [ 38.701669, 8.95218 ], [ 38.6968465, 8.9551229 ], [ 38.6968257, 8.9572693 ], [ 38.6984839, 8.9604146 ], [ 38.7015584, 8.9642617 ], [ 38.7018271, 8.9669357 ], [ 38.7047663, 8.9713588 ] ] ] } },
{ "type": "Feature", "properties": { "threshold_s": 900, "time_label": "15 min drive" }, "geometry": { "type": "Polygon", "coordinates": [ [ [ 38.6935018, 8.9712466 ], [ 38.6953367, 8.976696 ], [ 38.6985552, 8.9792752 ], [ 38.6991935, 8.9797737 ], [ 38.6993848, 8.9798635 ], [ 38.7039784, 8.9764145 ], [ 38.7057853, 8.9756135 ], [ 38.7078998, 8.9749441 ], [ 38.7092046, 8.9740936 ], [ 38.7097858, 8.9738359 ], [ 38.7140299, 8.9732737 ], [ 38.7195794, 8.9737333 ], [ 38.7189332, 8.9793883 ], [ 38.7191693, 8.9798759 ], [ 38.7194397, 8.9803829 ], [ 38.7204511, 8.9811992 ], [ 38.7223984, 8.9810641 ], [ 38.7230837, 8.980366 ], [ 38.727001, 8.9760068 ], [ 38.7282267, 8.9758101 ], [ 38.7296868, 8.9752961 ], [ 38.7322075, 8.9738249 ], [ 38.7329476, 8.9698573 ], [ 38.736566, 8.9669333 ], [ 38.7366423, 8.9668581 ], [ 38.7372129, 8.9662997 ], [ 38.7355458, 8.9629714 ], [ 38.7352973, 8.9619756 ], [ 38.7364709, 8.9560006 ], [ 38.738691, 8.951954 ], [ 38.7397756, 8.9506931 ], [ 38.7399756, 8.9492734 ], [ 38.7398929, 8.9477127 ], [ 38.7394385, 8.946182 ], [ 38.7391743, 8.9456263 ], [ 38.7388219, 8.9451907 ], [ 38.7365034, 8.9424817 ], [ 38.7347215, 8.9398383 ], [ 38.7338466, 8.9384729 ], [ 38.7288904, 8.9359815 ], [ 38.7281496, 8.9355909 ], [ 38.7254394, 8.9341175 ], [ 38.7215052, 8.9314097 ], [ 38.7190572, 8.9322785 ], [ 38.7176484, 8.9331058 ], [ 38.7171614, 8.9340249 ], [ 38.7172328, 8.9361997 ], [ 38.717258, 8.9364732 ], [ 38.7158471, 8.9413677 ], [ 38.713008, 8.9426952 ], [ 38.7074304, 8.9399363 ], [ 38.7067162, 8.9393885 ], [ 38.7058224, 8.9385359 ], [ 38.7053634, 8.9383246 ], [ 38.7038193, 8.9383534 ], [ 38.7018252, 8.9384361 ], [ 38.7013158, 8.9396026 ], [ 38.6994347, 8.9423144 ], [ 38.6949904, 8.944641 ], [ 38.6943761, 8.944895 ], [ 38.6906961, 8.9485183 ], [ 38.6893567, 8.9488507 ], [ 38.6882216, 8.9497424 ], [ 38.6870953, 8.9511107 ], [ 38.6868055, 8.9517413 ], [ 38.6886353, 8.9539812 ], [ 38.688405, 8.9582039 ], [ 38.6883032, 8.9589866 ], [ 38.6886241, 8.9619805 ], [ 38.690007799999989, 8.9628172 ], [ 38.6924046, 8.9653254 ], [ 38.6935018, 8.9712466 ] ] ] } },
{ "type": "Feature", "properties": { "threshold_s": 300, "time_label": "5 min drive" }, "geometry": { "type": "Polygon", "coordinates": [ [ [ 38.8622698, 9.0670293 ], [ 38.8612173, 9.0679129 ], [ 38.8637897, 9.0684627 ], [ 38.8658872, 9.0691937 ], [ 38.8656995, 9.0709021 ], [ 38.8652556, 9.0713391 ], [ 38.8667214, 9.0711021 ], [ 38.8687035, 9.0713511 ], [ 38.8691187, 9.0714858 ], [ 38.8704517, 9.0714178 ], [ 38.8718176, 9.0731005 ], [ 38.8718685, 9.0730542 ], [ 38.8722623, 9.0727251 ], [ 38.8757163, 9.0731485 ], [ 38.8750874, 9.0724585 ], [ 38.875456, 9.0696837 ], [ 38.8759374, 9.069195 ], [ 38.8759933, 9.0691454 ], [ 38.8763745, 9.0687824 ], [ 38.8764396, 9.068725 ], [ 38.8772609, 9.0661795 ], [ 38.8788369, 9.0643983 ], [ 38.8778957, 9.0631126 ], [ 38.8766498, 9.0631739 ], [ 38.8743908, 9.0630486 ], [ 38.8729197, 9.0615186 ], [ 38.8726969, 9.0610463 ], [ 38.8726491, 9.0585366 ], [ 38.8719852, 9.0582777 ], [ 38.8720867, 9.0586542 ], [ 38.8706964, 9.0610005 ], [ 38.8689503, 9.0610024 ], [ 38.8683253, 9.0610092 ], [ 38.8673839, 9.0610092 ], [ 38.866303, 9.0610648 ], [ 38.8661857, 9.0611458 ], [ 38.8634759, 9.0618383 ], [ 38.8618827, 9.0633957 ], [ 38.8605483, 9.0640102 ], [ 38.8609332, 9.064985 ], [ 38.8622698, 9.0670293 ] ] ] } },
{ "type": "Feature", "properties": { "threshold_s": 600, "time_label": "10 min drive" }, "geometry": { "type": "Polygon", "coordinates": [ [ [ 38.8613194, 9.0743877 ], [ 38.863089, 9.0812146 ], [ 38.8629375, 9.0771013 ], [ 38.8674778, 9.0751387 ], [ 38.8684273, 9.0755187 ], [ 38.8705891, 9.0805352 ], [ 38.8735825, 9.0824846 ], [ 38.870738, 9.0802068 ], [ 38.8729669, 9.0765583 ], [ 38.8746352, 9.0764206 ], [ 38.8754292, 9.0759994 ], [ 38.8766274, 9.0742054 ], [ 38.8784769, 9.0711545 ], [ 38.879289, 9.0678581 ], [ 38.8811155, 9.0658656 ], [ 38.8808204, 9.0636752 ], [ 38.8810392, 9.0599895 ], [ 38.879104, 9.0568719 ], [ 38.8776465, 9.0534334 ], [ 38.8724546, 9.0544403 ], [ 38.8715816, 9.0526484 ], [ 38.8702163, 9.0497678 ], [ 38.8694711, 9.0482548 ], [ 38.8690706, 9.047307 ], [ 38.8667759, 9.0500706 ], [ 38.8662091, 9.0530629 ], [ 38.863311, 9.0560812 ], [ 38.8608728, 9.0584558 ], [ 38.8590181, 9.0612714 ], [ 38.8549022, 9.0577208 ], [ 38.8537543, 9.056705 ], [ 38.85267, 9.0580173 ], [ 38.8528946, 9.0591061 ], [ 38.8534793, 9.0604848 ], [ 38.8549948, 9.0655465 ], [ 38.855002, 9.0691076 ], [ 38.8586265, 9.0719033 ], [ 38.8592863, 9.0725469 ], [ 38.8613194, 9.0743877 ] ] ] } },
{ "type": "Feature", "properties": { "threshold_s": 900, "time_label": "15 min drive" }, "geometry": { "type": "Polygon", "coordinates": [ [ [ 38.863089, 9.0812146 ], [ 38.8601499, 9.0875904 ], [ 38.8662304, 9.0863132 ], [ 38.8690026, 9.0852907 ], [ 38.8735825, 9.0824846 ], [ 38.8754292, 9.0759994 ], [ 38.8766274, 9.0742054 ], [ 38.8813277, 9.0693285 ], [ 38.8847653, 9.0665697 ], [ 38.8851718, 9.0638571 ], [ 38.8852997, 9.0623257 ], [ 38.885576, 9.0574365 ], [ 38.8855746, 9.0542708 ], [ 38.884189, 9.0475815 ], [ 38.8839143, 9.0463164 ], [ 38.8838345, 9.0462575 ], [ 38.8834589, 9.0459975 ], [ 38.8828401, 9.0456507 ], [ 38.8819824, 9.0451493 ], [ 38.8774289, 9.0406527 ], [ 38.876976, 9.0406624 ], [ 38.8754878, 9.0426029 ], [ 38.8731175, 9.0441428 ], [ 38.8679901, 9.0413286 ], [ 38.867463, 9.0408272 ], [ 38.8659916, 9.0396976 ], [ 38.8634149, 9.0395267 ], [ 38.8630634, 9.0399775 ], [ 38.8621308, 9.0416981 ], [ 38.8627419, 9.0445929 ], [ 38.8630781, 9.0456048 ], [ 38.8574594, 9.0498635 ], [ 38.8560385, 9.049173 ], [ 38.8546703, 9.0485943 ], [ 38.8539487, 9.0486394 ], [ 38.8523152, 9.0511796 ], [ 38.8484814, 9.0533788 ], [ 38.8481572, 9.0576546 ], [ 38.8440452, 9.0602778 ], [ 38.8434865, 9.0603961 ], [ 38.8436732, 9.0614979 ], [ 38.8446374, 9.0675065 ], [ 38.8450371, 9.0690732 ], [ 38.8502835, 9.0694646 ], [ 38.855002, 9.0691076 ], [ 38.8586265, 9.0719033 ], [ 38.8592863, 9.0725469 ], [ 38.8613194, 9.0743877 ], [ 38.863089, 9.0812146 ] ] ] } },
{ "type": "Feature", "properties": { "threshold_s": 300, "time_label": "5 min drive" }, "geometry": { "type": "Polygon", "coordinates": [ [ [ 38.7751776, 9.0098829 ], [ 38.7748415, 9.0108268 ], [ 38.774881, 9.0108722 ], [ 38.7770095, 9.0108942 ], [ 38.7778035, 9.0124771 ], [ 38.7793668, 9.0132882 ], [ 38.782059, 9.014438 ], [ 38.7835138, 9.0134781 ], [ 38.7836253, 9.0118787 ], [ 38.7855563, 9.0108907 ], [ 38.7866333, 9.0102849 ], [ 38.7883565, 9.0096317 ], [ 38.7895234, 9.0088889 ], [ 38.7901014, 9.0077425 ], [ 38.7901946, 9.0062781 ], [ 38.7892042, 9.0040436 ], [ 38.7882698, 9.0017096 ], [ 38.7883566, 9.0003414 ], [ 38.7880436, 8.9997064 ], [ 38.7863321, 8.9980775 ], [ 38.7837318, 8.9974862 ], [ 38.7809383, 8.9959589 ], [ 38.7794371, 8.9957638 ], [ 38.7785756, 8.9959215 ], [ 38.7781307, 8.9965431 ], [ 38.777362, 8.9984848 ], [ 38.7779966, 8.9994625 ], [ 38.7788891, 8.9997858 ], [ 38.7795597, 9.0006527 ], [ 38.7772268, 9.0028263 ], [ 38.7768754, 9.0031859 ], [ 38.7753379, 9.0044741 ], [ 38.7728032, 9.0057086 ], [ 38.7734878, 9.0068822 ], [ 38.7754892, 9.0093199 ], [ 38.7751776, 9.0098829 ] ] ] } },
{ "type": "Feature", "properties": { "threshold_s": 600, "time_label": "10 min drive" }, "geometry": { "type": "Polygon", "coordinates": [ [ [ 38.7674265, 9.0166327 ], [ 38.7683061, 9.0191895 ], [ 38.7683945, 9.0192425 ], [ 38.7713573, 9.0204686 ], [ 38.774444, 9.0200616 ], [ 38.775059, 9.0189164 ], [ 38.7800908, 9.0202484 ], [ 38.7788296, 9.023438 ], [ 38.7787771, 9.0234759 ], [ 38.7812063, 9.0252209 ], [ 38.7812609, 9.0251757 ], [ 38.7828895, 9.0215465 ], [ 38.7863129, 9.0211792 ], [ 38.7866543, 9.0211264 ], [ 38.7874637, 9.0209639 ], [ 38.787837, 9.0208872 ], [ 38.7904462, 9.020033 ], [ 38.7934182, 9.0170489 ], [ 38.7949421, 9.0145161 ], [ 38.7975274, 9.0125425 ], [ 38.7990177, 9.0090624 ], [ 38.799906900000011, 9.0060768 ], [ 38.8009754, 9.0029979 ], [ 38.8012889, 9.0015944 ], [ 38.8002281, 9.0010613 ], [ 38.7993438, 9.0015425 ], [ 38.7977966, 9.0017538 ], [ 38.7965052, 8.9969379 ], [ 38.7956395, 8.9945489 ], [ 38.7952264, 8.9934812 ], [ 38.7949535, 8.9927309 ], [ 38.7935246, 8.9897445 ], [ 38.792569, 8.9896677 ], [ 38.7876549, 8.9893973 ], [ 38.7840738, 8.987376 ], [ 38.7793551, 8.9859527 ], [ 38.7780281, 8.986051 ], [ 38.7760235, 8.9862013 ], [ 38.775627, 8.9865062 ], [ 38.7729816, 8.9907565 ], [ 38.7719314, 8.9937078 ], [ 38.7698496, 8.9967179 ], [ 38.7663914, 9.0000105 ], [ 38.7653333, 9.0005965 ], [ 38.7654833, 9.001129 ], [ 38.7657918, 9.0013837 ], [ 38.7663704, 9.0019672 ], [ 38.7663964, 9.0070441 ], [ 38.7661556, 9.0073141 ], [ 38.764761, 9.0088177 ], [ 38.7658891, 9.0123181 ], [ 38.7674265, 9.0166327 ] ] ] } },
{ "type": "Feature", "properties": { "threshold_s": 900, "time_label": "15 min drive" }, "geometry": { "type": "Polygon", "coordinates": [ [ [ 38.7570594, 9.0187168 ], [ 38.7600498, 9.0221853 ], [ 38.7602254, 9.0222978 ], [ 38.7605536, 9.0224021 ], [ 38.7664952, 9.0274613 ], [ 38.7720568, 9.0301421 ], [ 38.7734187, 9.0325067 ], [ 38.7735107, 9.0325106 ], [ 38.7808223, 9.0319061 ], [ 38.7820987, 9.0327323 ], [ 38.7834835, 9.0321406 ], [ 38.7905778, 9.0297413 ], [ 38.7973991, 9.0272539 ], [ 38.7986196, 9.0231216 ], [ 38.8035447, 9.0196294 ], [ 38.8037421, 9.0189254 ], [ 38.8037945, 9.0186417 ], [ 38.8056166, 9.0117535 ], [ 38.8075481, 9.0093358 ], [ 38.8089761, 9.0046984 ], [ 38.8097799, 9.001739 ], [ 38.810144, 8.9947923 ], [ 38.8086132, 8.9937786 ], [ 38.8066818, 8.9934673 ], [ 38.8052905, 8.993525 ], [ 38.8038621, 8.9932965 ], [ 38.7992705, 8.9883311 ], [ 38.8021714, 8.9855567 ], [ 38.8021619, 8.9853275 ], [ 38.7996331, 8.9854045 ], [ 38.7971379, 8.9861223 ], [ 38.789819799999989, 8.986366 ], [ 38.788826, 8.985809 ], [ 38.7855757, 8.9849273 ], [ 38.7842988, 8.9845215 ], [ 38.7787516, 8.9794447 ], [ 38.7771428, 8.9770548 ], [ 38.7739959, 8.977532 ], [ 38.7697098, 8.9786677 ], [ 38.7652811, 8.9832833 ], [ 38.7638103, 8.9869976 ], [ 38.7601219, 8.9929975 ], [ 38.7597052, 8.9938001 ], [ 38.7586621, 8.999279 ], [ 38.7586856, 8.9999436 ], [ 38.7587616, 9.0011842 ], [ 38.7563425, 9.0078847 ], [ 38.7530028, 9.0117021 ], [ 38.7528261, 9.0118685 ], [ 38.7539955, 9.0138275 ], [ 38.7570594, 9.0187168 ] ] ] } }
]
}
