{
"type": "FeatureCollection",
"name": "isochrone_shop_deli_drive",
"crs": { "type": "name", "properties": { "name": "urn:ogc:def:crs:OGC:1.3:CRS84" } },
"features": [
{ "type": "Feature", "properties": { "threshold_s": 300, "time_label": "5 min drive" }, "geometry": { "type": "Polygon", "coordinates": [ [ [ 38.7437521, 9.0338112 ], [ 38.7439918, 9.0343989 ], [ 38.7461888, 9.0344437 ], [ 38.7466615, 9.0344848 ], [ 38.7494822, 9.0357729 ], [ 38.7520458, 9.0377947 ], [ 38.7521449, 9.0379001 ], [ 38.7525465, 9.0380504 ], [ 38.7555497, 9.0379841 ], [ 38.7550527, 9.0350946 ], [ 38.7558521, 9.0318884 ], [ 38.7568262, 9.030107 ], [ 38.7575971, 9.0292881 ], [ 38.7604158, 9.030475 ], [ 38.7617219, 9.031628 ], [ 38.7636532, 9.0296992 ], [ 38.7624111, 9.0266163 ], [ 38.76061330000001, 9.0273217 ], [ 38.7577313, 9.0264413 ], [ 38.7576048, 9.024946 ], [ 38.7575279, 9.0235574 ], [ 38.7568448, 9.0227596 ], [ 38.7562857, 9.0230635 ], [ 38.7536041, 9.0241676 ], [ 38.752741, 9.02144 ], [ 38.7522197, 9.0213585 ], [ 38.752127, 9.0213476 ], [ 38.7512899, 9.0212942 ], [ 38.751298, 9.0213571 ], [ 38.7508048, 9.0245939 ], [ 38.7490247, 9.0251276 ], [ 38.7471945, 9.025634 ], [ 38.7466013, 9.0257342 ], [ 38.7463807, 9.0263647 ], [ 38.744532, 9.0293143 ], [ 38.744473, 9.0293587 ], [ 38.7441603, 9.0327651 ], [ 38.7437521, 9.0338112 ] ] ] } },
{ "type": "Feature", "properties": { "threshold_s": 600, "time_label": "10 min drive" }, "geometry": { "type": "Polygon", "coordinates": [ [ [ 38.7365276, 9.0382717 ], [ 38.7381363, 9.0410531 ], [ 38.7398261, 9.0423338 ], [ 38.742112, 9.0437179 ], [ 38.7451544, 9.0450472 ], [ 38.7466643, 9.047819 ], [ 38.7506824, 9.0473136 ], [ 38.7516554, 9.0472512 ], [ 38.7564323, 9.0477457 ], [ 38.7563261, 9.047414 ], [ 38.7562666, 9.0472151 ], [ 38.7562092, 9.047044 ], [ 38.7573255, 9.0439475 ], [ 38.7600057, 9.0440359 ], [ 38.7600234, 9.0439033 ], [ 38.7595116, 9.0405678 ], [ 38.7625107, 9.0387169 ], [ 38.7653098, 9.039445 ], [ 38.7659895, 9.0381559 ], [ 38.7659922, 9.0380847 ], [ 38.7690897, 9.034443 ], [ 38.7694288, 9.034481 ], [ 38.769884, 9.0342295 ], [ 38.7696665, 9.0317334 ], [ 38.7696348, 9.0316607 ], [ 38.7654192, 9.0307943 ], [ 38.7633917, 9.0291295 ], [ 38.7625209, 9.0267749 ], [ 38.7624111, 9.0266163 ], [ 38.7616201, 9.0233396 ], [ 38.7638895, 9.0199177 ], [ 38.7638225, 9.0193203 ], [ 38.7638073, 9.0191651 ], [ 38.7631065, 9.0171496 ], [ 38.7629355, 9.0171841 ], [ 38.7623398, 9.017288 ], [ 38.7587022, 9.0179263 ], [ 38.7566767, 9.0148583 ], [ 38.7586435, 9.0127141 ], [ 38.7585196, 9.0125992 ], [ 38.755338, 9.0119598 ], [ 38.7533592, 9.010613 ], [ 38.7498135, 9.0113847 ], [ 38.7473376, 9.0123175 ], [ 38.7454169, 9.0141312 ], [ 38.7431896, 9.016309 ], [ 38.7410156, 9.0203514 ], [ 38.7383985, 9.0217793 ], [ 38.7352817, 9.0225768 ], [ 38.7344785, 9.0251051 ], [ 38.7343523, 9.0258096 ], [ 38.7338878, 9.0292468 ], [ 38.7339365, 9.0331668 ], [ 38.7341184, 9.0347785 ], [ 38.7365276, 9.0382717 ] ] ] } },
{ "type": "Feature", "properties": { "threshold_s": 900, "time_label": "15 min drive" }, "geometry": { "type": "Polygon", "coordinates": [ [ [ 38.7276385, 9.0441208 ], [ 38.7280317, 9.044982 ], [ 38.7317687, 9.047415 ], [ 38.7321786, 9.0493237 ], [ 38.732333, 9.0494236 ], [ 38.7323986, 9.049466 ], [ 38.7343115, 9.0504904 ], [ 38.737162, 9.0524706 ], [ 38.739381, 9.0548087 ], [ 38.7403907, 9.0568583 ], [ 38.7404587, 9.0569122 ], [ 38.7433161, 9.0573015 ], [ 38.7482597, 9.0577033 ], [ 38.7487938, 9.0578297 ], [ 38.7526869, 9.0561186 ], [ 38.7539978, 9.0561037 ], [ 38.7578184, 9.056997 ], [ 38.7592655, 9.0571849 ], [ 38.7599888, 9.0569565 ], [ 38.7615513, 9.0556329 ], [ 38.7620187, 9.0550853 ], [ 38.7650576, 9.0511274 ], [ 38.7683108, 9.0478181 ], [ 38.7705053, 9.0470891 ], [ 38.7694638, 9.0449786 ], [ 38.7685836, 9.041233 ], [ 38.7733433, 9.041089 ], [ 38.7740028, 9.0422343 ], [ 38.7745828, 9.0428996 ], [ 38.7753607, 9.0423724 ], [ 38.7773078, 9.0393449 ], [ 38.7791536, 9.0381632 ], [ 38.7804737, 9.033912 ], [ 38.7799938, 9.0303326 ], [ 38.7795637, 9.0295252 ], [ 38.7778281, 9.0263133 ], [ 38.7764797, 9.0254299 ], [ 38.7759009, 9.0255727 ], [ 38.7750999, 9.025719 ], [ 38.7749916, 9.0257399 ], [ 38.7746655, 9.0258189 ], [ 38.7707329, 9.0240985 ], [ 38.7713573, 9.0204686 ], [ 38.7742102, 9.0174735 ], [ 38.7732235, 9.0146348 ], [ 38.773148, 9.0145762 ], [ 38.7695735, 9.0120323 ], [ 38.7674965, 9.0079313 ], [ 38.7663164, 9.0057167 ], [ 38.7649415, 9.0055052 ], [ 38.7637538, 9.0054358 ], [ 38.7587141, 9.0041929 ], [ 38.7586541, 9.0031765 ], [ 38.7585693, 9.0015672 ], [ 38.7553215, 8.9994472 ], [ 38.7550145, 8.9994427 ], [ 38.7549296, 8.9994433 ], [ 38.7544388, 8.9995559 ], [ 38.7535583, 8.9997625 ], [ 38.7519483, 9.0002155 ], [ 38.7503682, 9.0010764 ], [ 38.7469659, 9.0019247 ], [ 38.7453268, 9.0025716 ], [ 38.7416845, 9.0037973 ], [ 38.7415638, 9.0038567 ], [ 38.7401543, 9.0057577 ], [ 38.7377773, 9.008472 ], [ 38.7360857, 9.0112532 ], [ 38.7359091, 9.0114509 ], [ 38.73533, 9.0123391 ], [ 38.7308068, 9.0146302 ], [ 38.7290074, 9.0145368 ], [ 38.7285581, 9.0146123 ], [ 38.7269885, 9.0179453 ], [ 38.7263976, 9.019419 ], [ 38.7260657, 9.0213044 ], [ 38.7249787, 9.024868 ], [ 38.722997, 9.0279126 ], [ 38.7244528, 9.0303933 ], [ 38.7227264, 9.0352192 ], [ 38.7223555, 9.0361142 ], [ 38.7252774, 9.0386562 ], [ 38.726096, 9.0398349 ], [ 38.7276385, 9.0441208 ] ] ] } }
]
}
