{
"type": "FeatureCollection",
"name": "isochrone_shop_butcher_drive",
"crs": { "type": "name", "properties": { "name": "urn:ogc:def:crs:OGC:1.3:CRS84" } },
"features": [
{ "type": "Feature", "properties": { "threshold_s": 300, "time_label": "5 min drive" }, "geometry": { "type": "Polygon", "coordinates": [ [ [ 38.7849841, 8.9979637 ], [ 38.7847196, 8.9994549 ], [ 38.7848621, 8.9993589 ], [ 38.7870403, 8.9997513 ], [ 38.787212, 9.0002294 ], [ 38.7880436, 8.9997064 ], [ 38.7897293, 8.9996859 ], [ 38.7906855, 8.9993148 ], [ 38.792624, 8.9985777 ], [ 38.7931544, 8.9983837 ], [ 38.7936291, 8.9982041 ], [ 38.7946719, 8.9978068 ], [ 38.7965052, 8.9969379 ], [ 38.7948523, 8.9966292 ], [ 38.7956395, 8.9945489 ], [ 38.7952264, 8.9934812 ], [ 38.7966451, 8.9921571 ], [ 38.7971191, 8.9921093 ], [ 38.797957, 8.9920335 ], [ 38.7976136, 8.9913002 ], [ 38.7967419, 8.9891166 ], [ 38.7962584, 8.9887523 ], [ 38.7942992, 8.9887271 ], [ 38.7933953, 8.9891541 ], [ 38.7920318, 8.9875297 ], [ 38.791375, 8.9871117 ], [ 38.789819799999989, 8.986366 ], [ 38.788826, 8.985809 ], [ 38.7879749, 8.9856538 ], [ 38.7873733, 8.9867546 ], [ 38.7865421, 8.9882794 ], [ 38.7860818, 8.9902517 ], [ 38.7847861, 8.9907155 ], [ 38.7838371, 8.9909241 ], [ 38.7830666, 8.9913983 ], [ 38.7836621, 8.9932839 ], [ 38.7831277, 8.9950529 ], [ 38.7845103, 8.9958517 ], [ 38.7849841, 8.9979637 ] ] ] } },
{ "type": "Feature", "properties": { "threshold_s": 600, "time_label": "10 min drive" }, "geometry": { "type": "Polygon", "coordinates": [ [ [ 38.7768298, 9.0066669 ], [ 38.7767099, 9.0071045 ], [ 38.7808102, 9.0082564 ], [ 38.78388, 9.0099154 ], [ 38.7857111, 9.0102443 ], [ 38.7881269, 9.0106485 ], [ 38.7891144, 9.0103446 ], [ 38.7920814, 9.0086222 ], [ 38.7925181, 9.0080703 ], [ 38.7990787, 9.0048374 ], [ 38.8019364, 9.0054341 ], [ 38.8034099, 9.0004249 ], [ 38.8046069, 8.9946341 ], [ 38.8060224, 8.9922504 ], [ 38.8097735, 8.9869675 ], [ 38.8035562, 8.9852867 ], [ 38.8021619, 8.9853275 ], [ 38.7996331, 8.9854045 ], [ 38.7971379, 8.9861223 ], [ 38.789819799999989, 8.986366 ], [ 38.788826, 8.985809 ], [ 38.7855757, 8.9849273 ], [ 38.7842988, 8.9845215 ], [ 38.7784405, 8.9816191 ], [ 38.7782983, 8.982017 ], [ 38.7782876, 8.982047 ], [ 38.7782627, 8.9821212 ], [ 38.7764753, 8.9868029 ], [ 38.7734938, 8.9926488 ], [ 38.7730194, 8.9957645 ], [ 38.777362, 8.9984848 ], [ 38.7779966, 8.9994625 ], [ 38.7768298, 9.0066669 ] ] ] } },
{ "type": "Feature", "properties": { "threshold_s": 900, "time_label": "15 min drive" }, "geometry": { "type": "Polygon", "coordinates": [ [ [ 38.7712012, 9.0155134 ], [ 38.7720021, 9.0165267 ], [ 38.782435, 9.0193034 ], [ 38.7863129, 9.0211792 ], [ 38.7866543, 9.0211264 ], [ 38.7910475, 9.0204121 ], [ 38.802971, 9.0155489 ], [ 38.8066212, 9.0124266 ], [ 38.8085412, 9.0106981 ], [ 38.8088576, 9.0102851 ], [ 38.811864, 9.0014674 ], [ 38.8163295, 8.9942518 ], [ 38.8186799, 8.9912316 ], [ 38.8187141, 8.9911841 ], [ 38.818675399999989, 8.9875942 ], [ 38.8186485, 8.9871878 ], [ 38.8172293, 8.987135 ], [ 38.8035562, 8.9852867 ], [ 38.8021619, 8.9853275 ], [ 38.7996331, 8.9854045 ], [ 38.7899075, 8.9859732 ], [ 38.7880106, 8.9854871 ], [ 38.7777914, 8.9763594 ], [ 38.7752672, 8.9716781 ], [ 38.767071, 8.9778048 ], [ 38.7648658, 8.9881086 ], [ 38.7645362, 8.9962639 ], [ 38.7657356, 9.0008423 ], [ 38.769581, 9.011501 ], [ 38.7712012, 9.0155134 ] ] ] } },
{ "type": "Feature", "properties": { "threshold_s": 300, "time_label": "5 min drive" }, "geometry": { "type": "Polygon", "coordinates": [ [ [ 38.7255694, 8.9736391 ], [ 38.7266952, 8.975401 ], [ 38.727043, 8.975157 ], [ 38.7296868, 8.9752961 ], [ 38.7305717, 8.9746057 ], [ 38.7322075, 8.9738249 ], [ 38.7319924, 8.9736661 ], [ 38.7319405, 8.9736278 ], [ 38.7310847, 8.9722338 ], [ 38.7313365, 8.970098 ], [ 38.7329476, 8.9698573 ], [ 38.7327157, 8.9682691 ], [ 38.7326726, 8.9658718 ], [ 38.7335819, 8.9654407 ], [ 38.7338065, 8.9651427 ], [ 38.7338521, 8.9650684 ], [ 38.7329381, 8.9628062 ], [ 38.7328098, 8.9616034 ], [ 38.7319559, 8.9629638 ], [ 38.7313496, 8.9646863 ], [ 38.729296, 8.9648433 ], [ 38.7274935, 8.9655921 ], [ 38.7267258, 8.9660696 ], [ 38.7264039, 8.966268 ], [ 38.7260745, 8.9664712 ], [ 38.7259297, 8.9677269 ], [ 38.7259041, 8.9701262 ], [ 38.725397, 8.9725041 ], [ 38.7255694, 8.9736391 ] ] ] } },
{ "type": "Feature", "properties": { "threshold_s": 600, "time_label": "10 min drive" }, "geometry": { "type": "Polygon", "coordinates": [ [ [ 38.7189332, 8.9793883 ], [ 38.7197882, 8.9819198 ], [ 38.7223984, 8.9810641 ], [ 38.7230837, 8.980366 ], [ 38.7284709, 8.9799734 ], [ 38.7297273, 8.9815464 ], [ 38.7308031, 8.9825199 ], [ 38.731513, 8.9831718 ], [ 38.7324125, 8.9841916 ], [ 38.737172, 8.9846817 ], [ 38.7377916, 8.9841214 ], [ 38.7400372, 8.9805206 ], [ 38.741234, 8.9774999 ], [ 38.7429767, 8.9727105 ], [ 38.7437968, 8.9708306 ], [ 38.7434813, 8.9705768 ], [ 38.7407647, 8.9696851 ], [ 38.7372129, 8.9662997 ], [ 38.7355458, 8.9629714 ], [ 38.7352396, 8.9611247 ], [ 38.7364709, 8.9560006 ], [ 38.7324205, 8.9523999 ], [ 38.732519, 8.9518222 ], [ 38.7318567, 8.9516713 ], [ 38.7313974, 8.9515806 ], [ 38.731351, 8.9515779 ], [ 38.728762, 8.9552402 ], [ 38.7272777, 8.9556214 ], [ 38.7266015, 8.9562245 ], [ 38.7252751, 8.9582063 ], [ 38.7223414, 8.961928 ], [ 38.7197271, 8.9634522 ], [ 38.7177271, 8.9646476 ], [ 38.7167915, 8.9671129 ], [ 38.7161401, 8.9698102 ], [ 38.7161663, 8.9698765 ], [ 38.7172198, 8.9707216 ], [ 38.7187499, 8.972423 ], [ 38.7190926, 8.9729571 ], [ 38.7195794, 8.9737333 ], [ 38.7206829, 8.9750566 ], [ 38.7189332, 8.9793883 ] ] ] } },
{ "type": "Feature", "properties": { "threshold_s": 900, "time_label": "15 min drive" }, "geometry": { "type": "Polygon", "coordinates": [ [ [ 38.7083882, 8.9834566 ], [ 38.7084384, 8.9835185 ], [ 38.7129021, 8.9832206 ], [ 38.7163385, 8.9880063 ], [ 38.716908, 8.9901293 ], [ 38.7173929, 8.9902075 ], [ 38.7206103, 8.9904456 ], [ 38.7256426, 8.9913092 ], [ 38.7310003, 8.9932659 ], [ 38.7324044, 8.9933938 ], [ 38.7383237, 8.9951094 ], [ 38.7387317, 8.9950244 ], [ 38.7434942, 8.9914052 ], [ 38.7436414, 8.9905094 ], [ 38.7480312, 8.9858545 ], [ 38.7481404, 8.9858067 ], [ 38.7498189, 8.9837713 ], [ 38.751993, 8.9781171 ], [ 38.7523198, 8.9776614 ], [ 38.7513281, 8.9722301 ], [ 38.7518933, 8.9676702 ], [ 38.7502526, 8.965364 ], [ 38.7495841, 8.9609017 ], [ 38.751267, 8.9588528 ], [ 38.750004, 8.9580909 ], [ 38.7499699, 8.9581265 ], [ 38.7490115, 8.9593292 ], [ 38.7457092, 8.9611077 ], [ 38.7404933, 8.9609058 ], [ 38.7364709, 8.9560006 ], [ 38.7401446, 8.9523628 ], [ 38.7408688, 8.9509573 ], [ 38.7413382, 8.9495559 ], [ 38.7411029, 8.9483573 ], [ 38.7407176, 8.9461967 ], [ 38.7404949, 8.9454376 ], [ 38.7402048, 8.9450402 ], [ 38.7381773, 8.9434351 ], [ 38.7347215, 8.9398383 ], [ 38.7339869, 8.9411538 ], [ 38.7335564, 8.9435252 ], [ 38.7277224, 8.9443807 ], [ 38.7268793, 8.943171 ], [ 38.7268514, 8.9431378 ], [ 38.7259931, 8.9444006 ], [ 38.7248986, 8.9464576 ], [ 38.7245779, 8.9472544 ], [ 38.7219747, 8.9512374 ], [ 38.7210804, 8.9522224 ], [ 38.7166151, 8.9555162 ], [ 38.7152314, 8.9554302 ], [ 38.714923, 8.9554041 ], [ 38.7141587, 8.955684 ], [ 38.7133864, 8.9560024 ], [ 38.7116066, 8.9567775 ], [ 38.7097281, 8.9588112 ], [ 38.7103525, 8.9597938 ], [ 38.7097062, 8.9659719 ], [ 38.7076819, 8.9669462 ], [ 38.707656, 8.9670481 ], [ 38.7075467, 8.9675465 ], [ 38.70758270000001, 8.9681555 ], [ 38.7076083, 8.9683257 ], [ 38.7077267, 8.9729875 ], [ 38.705359, 8.9760753 ], [ 38.70553, 8.9764627 ], [ 38.7085328, 8.9816447 ], [ 38.7083544, 8.9828391 ], [ 38.7083882, 8.9834566 ] ] ] } },
{ "type": "Feature", "properties": { "threshold_s": 300, "time_label": "5 min drive" }, "geometry": { "type": "Polygon", "coordinates": [ [ [ 38.6953634, 9.0594192 ], [ 38.6959863, 9.0603192 ], [ 38.6984112, 9.0610208 ], [ 38.6996338, 9.0615015 ], [ 38.7003902, 9.0629348 ], [ 38.7010752, 9.0628874 ], [ 38.7012493, 9.0622758 ], [ 38.7013987, 9.0606987 ], [ 38.7032803, 9.059461 ], [ 38.7052025, 9.060031 ], [ 38.7055649, 9.0599669 ], [ 38.7055629, 9.059865 ], [ 38.7054858, 9.0595392 ], [ 38.7035425, 9.0579234 ], [ 38.7042338, 9.0564871 ], [ 38.7046905, 9.0562136 ], [ 38.7046403, 9.0559903 ], [ 38.7043163, 9.0554984 ], [ 38.7019271, 9.0549932 ], [ 38.7013686, 9.0529159 ], [ 38.7011238, 9.0523895 ], [ 38.7005753, 9.0501161 ], [ 38.698911699999989, 9.049344 ], [ 38.6974378, 9.0491639 ], [ 38.6962332, 9.0505908 ], [ 38.6963144, 9.0517702 ], [ 38.6984234, 9.0526575 ], [ 38.6989615, 9.0537428 ], [ 38.6978128, 9.0557983 ], [ 38.6975437, 9.0580471 ], [ 38.6956846, 9.0590059 ], [ 38.6953634, 9.0594192 ] ] ] } },
{ "type": "Feature", "properties": { "threshold_s": 600, "time_label": "10 min drive" }, "geometry": { "type": "Polygon", "coordinates": [ [ [ 38.6855907, 9.058977 ], [ 38.6847578, 9.0622835 ], [ 38.6864199, 9.0636065 ], [ 38.6902092, 9.0656054 ], [ 38.6904144, 9.0668404 ], [ 38.6921754, 9.0685942 ], [ 38.6932795, 9.0694721 ], [ 38.6952025, 9.0702369 ], [ 38.698357799999989, 9.0683166 ], [ 38.6992261, 9.0679087 ], [ 38.7001384, 9.0673675 ], [ 38.7047361, 9.0671463 ], [ 38.7051867, 9.0669423 ], [ 38.7064393, 9.0656273 ], [ 38.707658, 9.0628554 ], [ 38.7110449, 9.061498 ], [ 38.71266, 9.0578926 ], [ 38.7135377, 9.0568903 ], [ 38.7134988, 9.0563123 ], [ 38.7119027, 9.0522056 ], [ 38.712318, 9.0481149 ], [ 38.7108133, 9.04617 ], [ 38.7091868, 9.0461864 ], [ 38.7060577, 9.0477547 ], [ 38.7044853, 9.0480302 ], [ 38.7039743, 9.0488434 ], [ 38.7005753, 9.0501161 ], [ 38.698911699999989, 9.049344 ], [ 38.6974378, 9.0491639 ], [ 38.6929451, 9.0483917 ], [ 38.692473, 9.0480434 ], [ 38.6908506, 9.0498208 ], [ 38.6877688, 9.053663 ], [ 38.6864918, 9.0539032 ], [ 38.6854314, 9.0547345 ], [ 38.6855907, 9.058977 ] ] ] } },
{ "type": "Feature", "properties": { "threshold_s": 900, "time_label": "15 min drive" }, "geometry": { "type": "Polygon", "coordinates": [ [ [ 38.6852767, 9.0690918 ], [ 38.6848046, 9.0744871 ], [ 38.689663, 9.0762027 ], [ 38.6938391, 9.0730859 ], [ 38.6945052, 9.0723955 ], [ 38.6946523, 9.0720662 ], [ 38.6947811, 9.0717378 ], [ 38.698357799999989, 9.0683166 ], [ 38.6992261, 9.0679087 ], [ 38.7001384, 9.0673675 ], [ 38.7047361, 9.0671463 ], [ 38.7049681, 9.0734342 ], [ 38.7040883, 9.075675 ], [ 38.7066767, 9.0720331 ], [ 38.7051867, 9.0669423 ], [ 38.7064393, 9.0656273 ], [ 38.707658, 9.0628554 ], [ 38.7110449, 9.061498 ], [ 38.7147419, 9.0627772 ], [ 38.7154944, 9.0661054 ], [ 38.7157479, 9.0667755 ], [ 38.7171385, 9.0670496 ], [ 38.7167753, 9.0657007 ], [ 38.7161169, 9.0649894 ], [ 38.7148011, 9.0620899 ], [ 38.7142127, 9.0594514 ], [ 38.7135961, 9.057536 ], [ 38.7157332, 9.0546701 ], [ 38.718746, 9.0552771 ], [ 38.7198054, 9.0549528 ], [ 38.7216362, 9.0517234 ], [ 38.7215817, 9.0516824 ], [ 38.7191489, 9.0506074 ], [ 38.7186648, 9.0507677 ], [ 38.7137617, 9.048899 ], [ 38.7121869, 9.0453989 ], [ 38.7138514, 9.0420144 ], [ 38.7153013, 9.0410981 ], [ 38.7155957, 9.0402207 ], [ 38.7158425, 9.0395671 ], [ 38.7148164, 9.0374572 ], [ 38.711851, 9.036037 ], [ 38.7099631, 9.0366873 ], [ 38.7086769, 9.0371504 ], [ 38.7070977, 9.0380291 ], [ 38.7061254, 9.0390185 ], [ 38.7060584, 9.0391024 ], [ 38.7060329, 9.0391369 ], [ 38.7058464, 9.0394712 ], [ 38.7038563, 9.0414067 ], [ 38.7003195, 9.0417988 ], [ 38.6981112, 9.040223 ], [ 38.6945085, 9.0407461 ], [ 38.6940874, 9.040914 ], [ 38.6938153, 9.0413982 ], [ 38.6918912, 9.0441741 ], [ 38.688636099999989, 9.0444118 ], [ 38.6877134, 9.0447218 ], [ 38.6871448, 9.0450145 ], [ 38.6865038, 9.0455767 ], [ 38.685805, 9.0462952 ], [ 38.685388, 9.0473163 ], [ 38.6850035, 9.0482596 ], [ 38.684895, 9.0518267 ], [ 38.6846724, 9.0563468 ], [ 38.6847206, 9.0589202 ], [ 38.6847507, 9.0616361 ], [ 38.6847362, 9.0650724 ], [ 38.6847681, 9.0654203 ], [ 38.6848503, 9.0662366 ], [ 38.6851587, 9.0687948 ], [ 38.6852767, 9.0690918 ] ] ] } },
{ "type": "Feature", "properties": { "threshold_s": 300, "time_label": "5 min drive" }, "geometry": { "type": "Polygon", "coordinates": [ [ [ 38.708571, 8.9661905 ], [ 38.7093741, 8.9674281 ], [ 38.7095952, 8.9664675 ], [ 38.7129436, 8.9680093 ], [ 38.7129878, 8.9680759 ], [ 38.7130442, 8.9680264 ], [ 38.713413, 8.9677028 ], [ 38.7113571, 8.9645981 ], [ 38.7129534, 8.9636095 ], [ 38.7136356, 8.9631317 ], [ 38.7157965, 8.9643437 ], [ 38.7156802, 8.9658749 ], [ 38.715807, 8.9657946 ], [ 38.7159779, 8.9656863 ], [ 38.7162717, 8.9655001 ], [ 38.7165685, 8.9653121 ], [ 38.7166624, 8.9652527 ], [ 38.7168659, 8.9651244 ], [ 38.7169833, 8.9650594 ], [ 38.7173702, 8.9648452 ], [ 38.7197162, 8.9653009 ], [ 38.7207948, 8.9668155 ], [ 38.7210893, 8.9673608 ], [ 38.7212064, 8.9665525 ], [ 38.721406, 8.9648525 ], [ 38.7222308, 8.9626084 ], [ 38.722286, 8.9618665 ], [ 38.7221953, 8.9596211 ], [ 38.7226097, 8.9586005 ], [ 38.7228305, 8.957818 ], [ 38.7227826, 8.9570454 ], [ 38.7227502, 8.9565485 ], [ 38.7227253, 8.9562607 ], [ 38.721756, 8.956553 ], [ 38.719532, 8.9559976 ], [ 38.7198537, 8.9546209 ], [ 38.7206413, 8.9540548 ], [ 38.7212276, 8.9537459 ], [ 38.7205383, 8.9535008 ], [ 38.7188874, 8.953364 ], [ 38.7169911, 8.9552216 ], [ 38.7152351, 8.9533386 ], [ 38.7151694, 8.9532834 ], [ 38.7139443, 8.9548284 ], [ 38.7127281, 8.9547367 ], [ 38.7120212, 8.9546961 ], [ 38.7112694, 8.9546488 ], [ 38.7093868, 8.9554634 ], [ 38.7085889, 8.9560004 ], [ 38.7080373, 8.9563716 ], [ 38.7047407, 8.9583863 ], [ 38.7048435, 8.9584197 ], [ 38.7066028, 8.9589294 ], [ 38.7066794, 8.9589522 ], [ 38.7082998, 8.9591877 ], [ 38.7097852, 8.9596157 ], [ 38.7103525, 8.9597938 ], [ 38.7117541, 8.9617023 ], [ 38.7114597, 8.962623 ], [ 38.7114208, 8.963849 ], [ 38.7097062, 8.9659719 ], [ 38.7084818, 8.9659732 ], [ 38.708571, 8.9661905 ] ] ] } },
{ "type": "Feature", "properties": { "threshold_s": 600, "time_label": "10 min drive" }, "geometry": { "type": "Polygon", "coordinates": [ [ [ 38.7022307, 8.9728978 ], [ 38.7022631, 8.9749428 ], [ 38.7037504, 8.9758767 ], [ 38.7057853, 8.9756135 ], [ 38.7065117, 8.9752925 ], [ 38.7076208, 8.974797 ], [ 38.7079365, 8.9746578 ], [ 38.7085293, 8.9743943 ], [ 38.7089684, 8.9741971 ], [ 38.7092046, 8.9740936 ], [ 38.7097858, 8.9738359 ], [ 38.7107423, 8.973403 ], [ 38.7110888, 8.9732445 ], [ 38.7137725, 8.9724536 ], [ 38.7195794, 8.9737333 ], [ 38.7206829, 8.9750566 ], [ 38.7214657, 8.9760442 ], [ 38.7258704, 8.9763704 ], [ 38.7274114, 8.9748038 ], [ 38.7285955, 8.973365 ], [ 38.7286668, 8.9711442 ], [ 38.7293429, 8.9673172 ], [ 38.7306995, 8.9644604 ], [ 38.7314061, 8.9629648 ], [ 38.730925, 8.9610334 ], [ 38.7302853, 8.9602487 ], [ 38.7288851, 8.9580275 ], [ 38.731237900000011, 8.9520817 ], [ 38.7300556, 8.9508681 ], [ 38.7250246, 8.9466459 ], [ 38.7225441, 8.9457321 ], [ 38.720742, 8.9453749 ], [ 38.7178261, 8.9449165 ], [ 38.7169259, 8.9451545 ], [ 38.7111602, 8.9483774 ], [ 38.7097463, 8.9487392 ], [ 38.7056761, 8.9494527 ], [ 38.7026042, 8.9508445 ], [ 38.6967489, 8.9534902 ], [ 38.6957145, 8.9536041 ], [ 38.6949377, 8.9543928 ], [ 38.6953, 8.9566272 ], [ 38.69564, 8.9586806 ], [ 38.6965704, 8.959076 ], [ 38.6984839, 8.9604146 ], [ 38.6997608, 8.96103 ], [ 38.6991355, 8.967266 ], [ 38.7022307, 8.9728978 ] ] ] } },
{ "type": "Feature", "properties": { "threshold_s": 900, "time_label": "15 min drive" }, "geometry": { "type": "Polygon", "coordinates": [ [ [ 38.694891, 8.9800238 ], [ 38.6957721, 8.9810813 ], [ 38.6978172, 8.9818372 ], [ 38.6985553, 8.9808574 ], [ 38.6993848, 8.9798635 ], [ 38.7054002, 8.9781259 ], [ 38.7059487, 8.9782543 ], [ 38.7087983, 8.9789035 ], [ 38.7146088, 8.9811619 ], [ 38.719303, 8.9836928 ], [ 38.7223984, 8.9810641 ], [ 38.7230837, 8.980366 ], [ 38.727001, 8.9760068 ], [ 38.7282267, 8.9758101 ], [ 38.7340154, 8.9782922 ], [ 38.7342095, 8.9793641 ], [ 38.7343044, 8.9793256 ], [ 38.7352525, 8.9782991 ], [ 38.7348683, 8.9754504 ], [ 38.7382892, 8.9703595 ], [ 38.7388259, 8.969511 ], [ 38.7372129, 8.9662997 ], [ 38.7355458, 8.9629714 ], [ 38.7352396, 8.9611247 ], [ 38.7364709, 8.9560006 ], [ 38.7379298, 8.9509612 ], [ 38.7382146, 8.9501484 ], [ 38.7383114, 8.9497793 ], [ 38.7384074, 8.9493618 ], [ 38.7385983, 8.9477718 ], [ 38.738367, 8.9466013 ], [ 38.737102299999989, 8.9450315 ], [ 38.7349289, 8.9437681 ], [ 38.7317438, 8.9403529 ], [ 38.7259437, 8.9383968 ], [ 38.725493899999989, 8.9381716 ], [ 38.7232054, 8.9371447 ], [ 38.7203398, 8.9360585 ], [ 38.7182757, 8.9384784 ], [ 38.7176965, 8.9409372 ], [ 38.7126721, 8.9439332 ], [ 38.7070924, 8.9421567 ], [ 38.7047534, 8.9399916 ], [ 38.7038671, 8.9400165 ], [ 38.7019385, 8.9415868 ], [ 38.6966829, 8.9423853 ], [ 38.6935446, 8.9429701 ], [ 38.6898465, 8.9466566 ], [ 38.6883714, 8.9475344 ], [ 38.6876347, 8.948052 ], [ 38.6861764, 8.9493039 ], [ 38.6848025, 8.9510048 ], [ 38.6846478, 8.9518315 ], [ 38.6853801, 8.9529762 ], [ 38.6869499, 8.9589574 ], [ 38.6868141, 8.963078 ], [ 38.6873272, 8.9636669 ], [ 38.6894201, 8.9656003 ], [ 38.691251, 8.9697153 ], [ 38.6913687, 8.972751 ], [ 38.6922048, 8.9759264 ], [ 38.6932083, 8.9775169 ], [ 38.694891, 8.9800238 ] ] ] } },
{ "type": "Feature", "properties": { "threshold_s": 300, "time_label": "5 min drive" }, "geometry": { "type": "Polygon", "coordinates": [ [ [ 38.8015064, 9.0021336 ], [ 38.801759, 9.0025316 ], [ 38.8030595, 9.0026741 ], [ 38.8057265, 9.0030926 ], [ 38.8082091, 9.0032886 ], [ 38.8105244, 9.0035981 ], [ 38.8118525, 9.0027129 ], [ 38.8122015, 9.0023696 ], [ 38.8134272, 9.0011955 ], [ 38.8143629, 9.0001177 ], [ 38.8158544, 8.9990245 ], [ 38.8172889, 8.9977233 ], [ 38.8191622, 8.9962648 ], [ 38.8193455, 8.9939846 ], [ 38.8178312, 8.991968 ], [ 38.8158322, 8.9903051 ], [ 38.8156034, 8.9899318 ], [ 38.8141627, 8.9895817 ], [ 38.8127899, 8.9893411 ], [ 38.8103143, 8.9883096 ], [ 38.8097735, 8.9869675 ], [ 38.8094608, 8.9871787 ], [ 38.8076053, 8.9881615 ], [ 38.8062832, 8.9878092 ], [ 38.8048106, 8.9875098 ], [ 38.8042841, 8.9879258 ], [ 38.8036376, 8.9884913 ], [ 38.80187, 8.9896704 ], [ 38.8018267, 8.9898213 ], [ 38.8024711, 8.9914824 ], [ 38.8022096, 8.9940263 ], [ 38.8040898, 8.9947794 ], [ 38.8026126, 8.9969332 ], [ 38.8012956, 8.9984883 ], [ 38.8021955, 9.0011235 ], [ 38.8012598, 9.0016915 ], [ 38.8015064, 9.0021336 ] ] ] } },
{ "type": "Feature", "properties": { "threshold_s": 600, "time_label": "10 min drive" }, "geometry": { "type": "Polygon", "coordinates": [ [ [ 38.7913004, 9.006308 ], [ 38.7912769, 9.0068298 ], [ 38.7938008, 9.0089054 ], [ 38.7981024, 9.0094849 ], [ 38.7993051, 9.0096285 ], [ 38.8006988, 9.0098154 ], [ 38.8067184, 9.011178 ], [ 38.8077441, 9.0117239 ], [ 38.8082298, 9.011953 ], [ 38.8117229, 9.0129526 ], [ 38.8152041, 9.0109634 ], [ 38.8204183, 9.0073773 ], [ 38.8254516, 9.0040688 ], [ 38.8267461, 9.0001214 ], [ 38.8274438, 8.9940992 ], [ 38.827427, 8.9931362 ], [ 38.8251136, 8.9894951 ], [ 38.8243435, 8.9870493 ], [ 38.8239984, 8.9864212 ], [ 38.823195, 8.9853167 ], [ 38.8211882, 8.9830776 ], [ 38.8200144, 8.9840292 ], [ 38.8192918, 8.9852444 ], [ 38.8172293, 8.987135 ], [ 38.8158998, 8.9886047 ], [ 38.8097735, 8.9869675 ], [ 38.8079529, 8.9863615 ], [ 38.8066972, 8.9860036 ], [ 38.8035562, 8.9852867 ], [ 38.8021619, 8.9853275 ], [ 38.7996331, 8.9854045 ], [ 38.7948121, 8.988467 ], [ 38.7933953, 8.9891541 ], [ 38.792569, 8.9896677 ], [ 38.7924159, 8.9898914 ], [ 38.7928077, 8.9908644 ], [ 38.793274, 8.9971722 ], [ 38.7931544, 8.9983837 ], [ 38.7943165, 9.0036151 ], [ 38.7917389, 9.0056483 ], [ 38.7913004, 9.006308 ] ] ] } },
{ "type": "Feature", "properties": { "threshold_s": 900, "time_label": "15 min drive" }, "geometry": { "type": "Polygon", "coordinates": [ [ [ 38.7835543, 9.0118734 ], [ 38.7843937, 9.0128478 ], [ 38.7857073, 9.0141619 ], [ 38.7874588, 9.0155706 ], [ 38.7993138, 9.0205268 ], [ 38.8012944, 9.0218089 ], [ 38.8027586, 9.0219534 ], [ 38.8134627, 9.0213571 ], [ 38.8253001, 9.01728 ], [ 38.830729, 9.0110399 ], [ 38.8321745, 9.0088399 ], [ 38.8326237, 9.0077481 ], [ 38.8349131, 9.0008394 ], [ 38.8369945, 8.9887869 ], [ 38.8364377, 8.986366 ], [ 38.8304619, 8.9779273 ], [ 38.8267913, 8.9748659 ], [ 38.8247582, 8.9743625 ], [ 38.8211327, 8.9767138 ], [ 38.8208006, 8.9803978 ], [ 38.8097735, 8.9869675 ], [ 38.8079529, 8.9863615 ], [ 38.8066972, 8.9860036 ], [ 38.8035562, 8.9852867 ], [ 38.8021619, 8.9853275 ], [ 38.7996331, 8.9854045 ], [ 38.788826, 8.985809 ], [ 38.7855757, 8.9849273 ], [ 38.7842988, 8.9845215 ], [ 38.7829895, 8.9840922 ], [ 38.7824454, 8.9839019 ], [ 38.7821462, 8.9917529 ], [ 38.7806269, 9.0032448 ], [ 38.7801361, 9.0051451 ], [ 38.783239, 9.0112642 ], [ 38.7835543, 9.0118734 ] ] ] } },
{ "type": "Feature", "properties": { "threshold_s": 300, "time_label": "5 min drive" }, "geometry": { "type": "Polygon", "coordinates": [ [ [ 38.8194273, 9.0176486 ], [ 38.8199606, 9.0189684 ], [ 38.82083, 9.0188161 ], [ 38.8222246, 9.0198772 ], [ 38.8232996, 9.0204045 ], [ 38.8251564, 9.01968 ], [ 38.8261327, 9.0204954 ], [ 38.8262008, 9.021763 ], [ 38.8257156, 9.022524 ], [ 38.8265137, 9.0234793 ], [ 38.8264976, 9.0231439 ], [ 38.8268289, 9.0218945 ], [ 38.8285495, 9.0210826 ], [ 38.8265759, 9.0200041 ], [ 38.8259667, 9.0193676 ], [ 38.8257765, 9.0184475 ], [ 38.827891, 9.0176995 ], [ 38.8284089, 9.0176488 ], [ 38.8288702, 9.0160176 ], [ 38.8303554, 9.0157136 ], [ 38.8290323, 9.0139256 ], [ 38.8273423, 9.0129731 ], [ 38.8265255, 9.0123148 ], [ 38.8249502, 9.0115923 ], [ 38.8246822, 9.0117334 ], [ 38.8245314, 9.0118524 ], [ 38.82398, 9.012162 ], [ 38.8220379, 9.012678 ], [ 38.8215799, 9.01153 ], [ 38.8213333, 9.0110947 ], [ 38.8212563, 9.0111273 ], [ 38.8208147, 9.013098 ], [ 38.8209495, 9.013644 ], [ 38.8196501, 9.0156462 ], [ 38.8193771, 9.0158641 ], [ 38.819362, 9.0164901 ], [ 38.8194273, 9.0176486 ] ] ] } },
{ "type": "Feature", "properties": { "threshold_s": 600, "time_label": "10 min drive" }, "geometry": { "type": "Polygon", "coordinates": [ [ [ 38.8116801, 9.0213311 ], [ 38.8132756, 9.0242962 ], [ 38.8163343, 9.0250546 ], [ 38.8191069, 9.0273668 ], [ 38.8191392, 9.0273882 ], [ 38.8202976, 9.0275475 ], [ 38.8249282, 9.0291742 ], [ 38.8272859, 9.032712 ], [ 38.8297431, 9.0321474 ], [ 38.8323241, 9.0311502 ], [ 38.8344168, 9.0302342 ], [ 38.8357285, 9.0294508 ], [ 38.835766, 9.029362 ], [ 38.8346891, 9.0272203 ], [ 38.8361434, 9.0230967 ], [ 38.8392593, 9.0214433 ], [ 38.8408486, 9.021363 ], [ 38.8418171, 9.0213402 ], [ 38.8403292, 9.0199054 ], [ 38.8392847, 9.0189446 ], [ 38.8387464, 9.0183235 ], [ 38.838038, 9.0135597 ], [ 38.8397905, 9.0108774 ], [ 38.8393205, 9.0104231 ], [ 38.8384936, 9.0097235 ], [ 38.8380406, 9.0093957 ], [ 38.8367389, 9.0085532 ], [ 38.8363087, 9.0083377 ], [ 38.835086, 9.0077408 ], [ 38.8321938, 9.0047921 ], [ 38.8283839, 9.0019322 ], [ 38.8277234, 9.001664 ], [ 38.825101, 9.001087 ], [ 38.8239442, 9.0011858 ], [ 38.8202126, 9.0015063 ], [ 38.8189781, 9.0014169 ], [ 38.8178006, 9.0024879 ], [ 38.8143526, 9.0036469 ], [ 38.8122604, 9.0080583 ], [ 38.8102475, 9.0114704 ], [ 38.8106196, 9.0133539 ], [ 38.811043, 9.0138626 ], [ 38.8129994, 9.0138904 ], [ 38.8158358, 9.015769 ], [ 38.8133688, 9.0197109 ], [ 38.811567599999989, 9.0200756 ], [ 38.811054, 9.0201534 ], [ 38.8116801, 9.0213311 ] ] ] } },
{ "type": "Feature", "properties": { "threshold_s": 900, "time_label": "15 min drive" }, "geometry": { "type": "Polygon", "coordinates": [ [ [ 38.8012944, 9.0218089 ], [ 38.8023851, 9.0230082 ], [ 38.8055937, 9.0257918 ], [ 38.806314, 9.0257329 ], [ 38.8071703, 9.0253631 ], [ 38.8092436, 9.0249536 ], [ 38.8143496, 9.0279621 ], [ 38.8116564, 9.0325841 ], [ 38.8174166, 9.0347778 ], [ 38.8180387, 9.0354566 ], [ 38.8213196, 9.0368001 ], [ 38.8214511, 9.0364996 ], [ 38.827771, 9.0378714 ], [ 38.828069, 9.0396587 ], [ 38.8288784, 9.0413308 ], [ 38.8299423, 9.0414102 ], [ 38.8319382, 9.0415328 ], [ 38.8328337, 9.0408615 ], [ 38.8375676, 9.0372689 ], [ 38.8393451, 9.0366722 ], [ 38.840695, 9.0359762 ], [ 38.8461326, 9.0339369 ], [ 38.8461685, 9.0338386 ], [ 38.8459702, 9.0280977 ], [ 38.8472868, 9.0262548 ], [ 38.8478432, 9.0241995 ], [ 38.8526753, 9.0203494 ], [ 38.850019, 9.0178559 ], [ 38.8495917, 9.0114717 ], [ 38.8501641, 9.0106506 ], [ 38.8507134, 9.0100298 ], [ 38.8473128, 9.0059978 ], [ 38.8459218, 9.0046198 ], [ 38.843529, 9.0039668 ], [ 38.8396599, 9.0013672 ], [ 38.8382562, 9.0007181 ], [ 38.8334573, 8.9975828 ], [ 38.8309022, 8.9950803 ], [ 38.8279869, 8.9925461 ], [ 38.8265017, 8.9924918 ], [ 38.8239341, 8.9927891 ], [ 38.8218871, 8.9936843 ], [ 38.8174165, 8.9942634 ], [ 38.8139561, 8.9935155 ], [ 38.8135087, 8.9934521 ], [ 38.8118547, 8.9947661 ], [ 38.8105658, 8.9963646 ], [ 38.806023, 8.9999586 ], [ 38.804171599999989, 9.0040571 ], [ 38.8038324, 9.0088005 ], [ 38.8040681, 9.0123412 ], [ 38.802971, 9.0155489 ], [ 38.801438, 9.0192316 ], [ 38.8012379, 9.0196774 ], [ 38.8010437, 9.0214108 ], [ 38.8012944, 9.0218089 ] ] ] } },
{ "type": "Feature", "properties": { "threshold_s": 300, "time_label": "5 min drive" }, "geometry": { "type": "Polygon", "coordinates": [ [ [ 38.6752017, 9.0009985 ], [ 38.6756006, 9.0031151 ], [ 38.6769319, 9.0043748 ], [ 38.6792685, 9.0037939 ], [ 38.6802857, 9.0040767 ], [ 38.6806304, 9.0037449 ], [ 38.6827558, 9.0018986 ], [ 38.683953, 9.0016938 ], [ 38.6864233, 9.0008937 ], [ 38.6868927, 9.0007255 ], [ 38.6883786, 8.9984734 ], [ 38.6891028, 8.997977 ], [ 38.6892435, 8.9957267 ], [ 38.6895916, 8.9941912 ], [ 38.6894549, 8.9937426 ], [ 38.6893504, 8.9926156 ], [ 38.6907094, 8.9902955 ], [ 38.6912374, 8.9896405 ], [ 38.6911204, 8.9888835 ], [ 38.6900986, 8.9889219 ], [ 38.6884366, 8.9889081 ], [ 38.6857622, 8.988466 ], [ 38.6832509, 8.9878363 ], [ 38.6818042, 8.9870798 ], [ 38.6795862, 8.9886155 ], [ 38.6779697, 8.9901814 ], [ 38.6766884, 8.9903938 ], [ 38.6757357, 8.9912427 ], [ 38.6753456, 8.9927498 ], [ 38.6744033, 8.99468 ], [ 38.6742204, 8.9966721 ], [ 38.6743746, 8.9987577 ], [ 38.6752017, 9.0009985 ] ] ] } },
{ "type": "Feature", "properties": { "threshold_s": 600, "time_label": "10 min drive" }, "geometry": { "type": "Polygon", "coordinates": [ [ [ 38.6671905, 9.0070034 ], [ 38.6671691, 9.0077046 ], [ 38.6696997, 9.0084836 ], [ 38.671073, 9.0104254 ], [ 38.6711597, 9.0107059 ], [ 38.6712961, 9.0111145 ], [ 38.6719602, 9.0117335 ], [ 38.674743, 9.013411 ], [ 38.6767494, 9.0139728 ], [ 38.6786784, 9.013297 ], [ 38.6800851, 9.0119121 ], [ 38.6832798, 9.0113804 ], [ 38.6852123, 9.0110916 ], [ 38.6875373, 9.0079658 ], [ 38.6893233, 9.006919 ], [ 38.6939538, 9.0068815 ], [ 38.6940091, 9.0069179 ], [ 38.6961047, 9.0061279 ], [ 38.6982274, 9.0041267 ], [ 38.6995661, 9.0010156 ], [ 38.6995424, 8.9983635 ], [ 38.699263, 8.9946262 ], [ 38.6985746, 8.9932079 ], [ 38.6963744, 8.9910169 ], [ 38.6978363, 8.9881056 ], [ 38.6981846, 8.9875973 ], [ 38.6984945, 8.9856619 ], [ 38.6991773, 8.9831655 ], [ 38.6989623, 8.9822825 ], [ 38.6985553, 8.9808574 ], [ 38.6971305, 8.9809448 ], [ 38.6933706, 8.9804171 ], [ 38.692505, 8.9795206 ], [ 38.6894073, 8.9789459 ], [ 38.6859513, 8.9797952 ], [ 38.6847362, 8.9798017 ], [ 38.681965, 8.9797933 ], [ 38.6805144, 8.979697 ], [ 38.6763068, 8.9798212 ], [ 38.6722867, 8.9820311 ], [ 38.671657, 8.982182 ], [ 38.6712299, 8.982304 ], [ 38.66874, 8.9856598 ], [ 38.6667577, 8.9896758 ], [ 38.6659679, 8.9914574 ], [ 38.6650817, 8.9938911 ], [ 38.6656496, 8.9981478 ], [ 38.6654444, 9.0024464 ], [ 38.6668807, 9.004833 ], [ 38.6671905, 9.0070034 ] ] ] } },
{ "type": "Feature", "properties": { "threshold_s": 900, "time_label": "15 min drive" }, "geometry": { "type": "Polygon", "coordinates": [ [ [ 38.6679003, 9.0164846 ], [ 38.6677543, 9.0181673 ], [ 38.6717224, 9.0220721 ], [ 38.677785, 9.0248726 ], [ 38.6787924, 9.0245554 ], [ 38.6796463, 9.0239578 ], [ 38.6823705, 9.0218124 ], [ 38.6844423, 9.0202877 ], [ 38.6852301, 9.019413 ], [ 38.686601, 9.017423 ], [ 38.6895534, 9.0148149 ], [ 38.6952014, 9.0125375 ], [ 38.6988273, 9.0143871 ], [ 38.6996707, 9.0155123 ], [ 38.6997398, 9.0155845 ], [ 38.700685, 9.0162201 ], [ 38.7011211, 9.0149513 ], [ 38.7049651, 9.0102282 ], [ 38.7052274, 9.009949 ], [ 38.7087232, 9.005902 ], [ 38.7092635, 9.0035529 ], [ 38.7092677, 9.0025429 ], [ 38.7089643, 8.9957541 ], [ 38.7075173, 8.9932211 ], [ 38.7080204, 8.9885063 ], [ 38.7086718, 8.9871707 ], [ 38.7096144, 8.9826318 ], [ 38.7084684, 8.9791115 ], [ 38.7076208, 8.974797 ], [ 38.7073432, 8.974348 ], [ 38.7065747, 8.9739175 ], [ 38.7052993, 8.973581 ], [ 38.6986743, 8.9714317 ], [ 38.6919154, 8.9705047 ], [ 38.6865856, 8.9693115 ], [ 38.6815953, 8.9697844 ], [ 38.6795671, 8.9719973 ], [ 38.6736129, 8.9733742 ], [ 38.6676423, 8.9759802 ], [ 38.662215, 8.9798818 ], [ 38.6597843, 8.9816913 ], [ 38.6591364, 8.9831608 ], [ 38.6599191, 8.9867243 ], [ 38.6597476, 8.9909745 ], [ 38.6592607, 8.9944693 ], [ 38.6571979, 8.9981492 ], [ 38.6564447, 8.9994631 ], [ 38.6563329, 8.9997596 ], [ 38.6566052, 9.0007335 ], [ 38.6571336, 9.0025919 ], [ 38.6611086, 9.0062185 ], [ 38.6628655, 9.0098147 ], [ 38.6639424, 9.0100505 ], [ 38.6642481, 9.0100611 ], [ 38.6686255, 9.0143765 ], [ 38.6679003, 9.0164846 ] ] ] } },
{ "type": "Feature", "properties": { "threshold_s": 300, "time_label": "5 min drive" }, "geometry": { "type": "Polygon", "coordinates": [ [ [ 38.7933801, 9.0211435 ], [ 38.7933946, 9.0212397 ], [ 38.7947738, 9.021815 ], [ 38.7948623, 9.021823 ], [ 38.7966949, 9.0208488 ], [ 38.7966862, 9.0207786 ], [ 38.7958199, 9.0202041 ], [ 38.796247, 9.0179322 ], [ 38.7982742, 9.0186008 ], [ 38.7986357, 9.0187146 ], [ 38.7994298, 9.0188571 ], [ 38.8007335, 9.0190982 ], [ 38.801438, 9.0192316 ], [ 38.8019712, 9.0193152 ], [ 38.802462, 9.0194301 ], [ 38.8021061, 9.0173173 ], [ 38.80231, 9.0167802 ], [ 38.8024877, 9.0163197 ], [ 38.8025814, 9.0160673 ], [ 38.8027788, 9.0155716 ], [ 38.8030901, 9.0149569 ], [ 38.8034284, 9.0138029 ], [ 38.8041047, 9.011598 ], [ 38.8030966, 9.0136281 ], [ 38.8009101, 9.0132402 ], [ 38.8009248, 9.011785 ], [ 38.8010811, 9.011184 ], [ 38.8017033, 9.0092955 ], [ 38.8028004, 9.0086231 ], [ 38.8033146, 9.0081789 ], [ 38.8017743, 9.0076652 ], [ 38.8004418, 9.0071237 ], [ 38.7990016, 9.0065682 ], [ 38.797621, 9.0063149 ], [ 38.7961183, 9.0056384 ], [ 38.7936953, 9.0050935 ], [ 38.7917664, 9.0063258 ], [ 38.7913004, 9.006308 ], [ 38.7905339, 9.008216 ], [ 38.7895234, 9.0088889 ], [ 38.7898291, 9.0104565 ], [ 38.7898082, 9.0123775 ], [ 38.7894273, 9.0132141 ], [ 38.7883817, 9.014635 ], [ 38.7893044, 9.014997 ], [ 38.79037610000001, 9.0163806 ], [ 38.791997, 9.0167392 ], [ 38.7942433, 9.0173075 ], [ 38.7948892, 9.0195714 ], [ 38.794404299999989, 9.0203074 ], [ 38.7933801, 9.0211435 ] ] ] } },
{ "type": "Feature", "properties": { "threshold_s": 600, "time_label": "10 min drive" }, "geometry": { "type": "Polygon", "coordinates": [ [ [ 38.7855547, 9.0261301 ], [ 38.7873289, 9.0285497 ], [ 38.7884042, 9.0291921 ], [ 38.7925582, 9.0307516 ], [ 38.7943505, 9.0307929 ], [ 38.7988474, 9.0307862 ], [ 38.8005564, 9.0303732 ], [ 38.8022468, 9.0290022 ], [ 38.8022679, 9.0289403 ], [ 38.8020936, 9.0264203 ], [ 38.8055473, 9.0248504 ], [ 38.8060612, 9.0246606 ], [ 38.8073051, 9.0235674 ], [ 38.8075376, 9.0232629 ], [ 38.8110194, 9.0199451 ], [ 38.8116207, 9.0198412 ], [ 38.8116947, 9.0198284 ], [ 38.8133688, 9.0197109 ], [ 38.8110989, 9.0165559 ], [ 38.8108201, 9.0148705 ], [ 38.8118426, 9.0114005 ], [ 38.8123268, 9.0080855 ], [ 38.8140931, 9.0035621 ], [ 38.813782, 9.0032919 ], [ 38.8134083, 9.0029714 ], [ 38.8122103, 9.0020663 ], [ 38.8105522, 9.0008879 ], [ 38.8059748, 9.000749 ], [ 38.8054122, 9.0003753 ], [ 38.804299, 8.9997678 ], [ 38.8002204, 8.9990832 ], [ 38.7984775, 8.9990207 ], [ 38.7955181, 9.0020965 ], [ 38.7943165, 9.0036151 ], [ 38.7917389, 9.0056483 ], [ 38.7892042, 9.0040436 ], [ 38.7897293, 8.9996859 ], [ 38.7906855, 8.9993148 ], [ 38.7869011, 8.9980859 ], [ 38.7866955, 8.9981628 ], [ 38.7862813, 8.9984227 ], [ 38.7852584, 9.0000068 ], [ 38.782213, 9.0034965 ], [ 38.7801361, 9.0051451 ], [ 38.7796166, 9.0095556 ], [ 38.7798955, 9.009995 ], [ 38.7794376, 9.0144829 ], [ 38.7797847, 9.0147089 ], [ 38.7821732, 9.018387 ], [ 38.7821863, 9.0204951 ], [ 38.7828895, 9.0215465 ], [ 38.7846348, 9.0227478 ], [ 38.7855547, 9.0261301 ] ] ] } },
{ "type": "Feature", "properties": { "threshold_s": 900, "time_label": "15 min drive" }, "geometry": { "type": "Polygon", "coordinates": [ [ [ 38.7726157, 9.0232898 ], [ 38.7743299, 9.0293061 ], [ 38.7798841, 9.0348649 ], [ 38.7864758, 9.0378832 ], [ 38.7866579, 9.0379459 ], [ 38.7884075, 9.037232 ], [ 38.788646, 9.0371199 ], [ 38.788999, 9.0366321 ], [ 38.7898711, 9.0353037 ], [ 38.7947311, 9.0312946 ], [ 38.7997189, 9.0335465 ], [ 38.8048161, 9.0292985 ], [ 38.8095639, 9.0337342 ], [ 38.8096006, 9.0338482 ], [ 38.8097002, 9.0338592 ], [ 38.8129809, 9.0333193 ], [ 38.8143496, 9.0279621 ], [ 38.8201207, 9.0263461 ], [ 38.8219863, 9.0244566 ], [ 38.8243115, 9.0177309 ], [ 38.8224531, 9.0105581 ], [ 38.8236431, 9.0045589 ], [ 38.8237967, 9.0028303 ], [ 38.8231934, 9.0005071 ], [ 38.8224402, 8.9986618 ], [ 38.8210722, 8.9960126 ], [ 38.8147899, 8.9922479 ], [ 38.8123918, 8.9915201 ], [ 38.8076424, 8.9907366 ], [ 38.8020439, 8.9901737 ], [ 38.7942992, 8.9887271 ], [ 38.7920807, 8.9883178 ], [ 38.7850578, 8.9900299 ], [ 38.7845344, 8.9902803 ], [ 38.7808029, 8.9921666 ], [ 38.7772892, 8.9944502 ], [ 38.7770092, 8.9949946 ], [ 38.777362, 8.9984848 ], [ 38.7734655, 9.0030482 ], [ 38.7717075, 9.0049966 ], [ 38.7692515, 9.0104413 ], [ 38.769581, 9.011501 ], [ 38.7720021, 9.0165267 ], [ 38.7726157, 9.0232898 ] ] ] } },
{ "type": "Feature", "properties": { "threshold_s": 300, "time_label": "5 min drive" }, "geometry": { "type": "Polygon", "coordinates": [ [ [ 38.7894273, 9.0132141 ], [ 38.7883817, 9.014635 ], [ 38.79037610000001, 9.0163806 ], [ 38.791997, 9.0167392 ], [ 38.7942433, 9.0173075 ], [ 38.7949772, 9.0201918 ], [ 38.796247, 9.0179322 ], [ 38.7982742, 9.0186008 ], [ 38.7986357, 9.0187146 ], [ 38.7994298, 9.0188571 ], [ 38.8007335, 9.0190982 ], [ 38.8021061, 9.0173173 ], [ 38.80231, 9.0167802 ], [ 38.8024877, 9.0163197 ], [ 38.8027788, 9.0155716 ], [ 38.8028165, 9.0154671 ], [ 38.8034284, 9.0138029 ], [ 38.8041047, 9.011598 ], [ 38.8033146, 9.0081789 ], [ 38.8049162, 9.0076893 ], [ 38.8049791, 9.0076544 ], [ 38.805683, 9.007259 ], [ 38.8071023, 9.0065099 ], [ 38.8070616, 9.0064311 ], [ 38.8059445, 9.0070212 ], [ 38.8056402, 9.0071786 ], [ 38.805089, 9.0074997 ], [ 38.8021486, 9.0062351 ], [ 38.801541, 9.0052635 ], [ 38.8004732, 9.0033982 ], [ 38.7978869, 9.0019288 ], [ 38.7955181, 9.0020965 ], [ 38.7943165, 9.0036151 ], [ 38.7917389, 9.0056483 ], [ 38.7901645, 9.0068358 ], [ 38.7890337, 9.0094553 ], [ 38.7898082, 9.0123775 ], [ 38.7894273, 9.0132141 ] ] ] } },
{ "type": "Feature", "properties": { "threshold_s": 600, "time_label": "10 min drive" }, "geometry": { "type": "Polygon", "coordinates": [ [ [ 38.7821863, 9.0204951 ], [ 38.7828895, 9.0215465 ], [ 38.7860295, 9.0246382 ], [ 38.790334799999989, 9.0270686 ], [ 38.7917023, 9.0282278 ], [ 38.7936054, 9.0294434 ], [ 38.7978435, 9.0299512 ], [ 38.7979837, 9.0299544 ], [ 38.7991979, 9.0286409 ], [ 38.8020936, 9.0264203 ], [ 38.8044852, 9.0237991 ], [ 38.8063406, 9.0227305 ], [ 38.810139, 9.0201299 ], [ 38.8110194, 9.0199451 ], [ 38.8116207, 9.0198412 ], [ 38.8116947, 9.0198284 ], [ 38.8115648, 9.0158465 ], [ 38.8129994, 9.0138904 ], [ 38.8152355, 9.0119172 ], [ 38.8156858, 9.0085423 ], [ 38.8168907, 9.0039882 ], [ 38.8172058, 9.0030786 ], [ 38.816213, 9.001466 ], [ 38.8137829, 8.999426 ], [ 38.8105717, 8.9973198 ], [ 38.8072592, 8.9956986 ], [ 38.8050545, 8.995391 ], [ 38.8044103, 8.9953973 ], [ 38.8026126, 8.9969332 ], [ 38.8004776, 8.9984045 ], [ 38.7965052, 8.9969379 ], [ 38.7956395, 8.9945489 ], [ 38.7952264, 8.9934812 ], [ 38.7947483, 8.9936625 ], [ 38.7939765, 8.9951854 ], [ 38.7937435, 8.9959087 ], [ 38.7911622, 8.9984227 ], [ 38.7873295, 8.9978484 ], [ 38.7860546, 8.996506 ], [ 38.7849841, 8.9979637 ], [ 38.7834549, 9.0004129 ], [ 38.7815539, 9.0023892 ], [ 38.7806269, 9.0032448 ], [ 38.7800478, 9.0038396 ], [ 38.7798634, 9.0041761 ], [ 38.7793355, 9.0069961 ], [ 38.7791667, 9.0096975 ], [ 38.7794376, 9.0144829 ], [ 38.7806777, 9.0158792 ], [ 38.7821863, 9.0204951 ] ] ] } },
{ "type": "Feature", "properties": { "threshold_s": 900, "time_label": "15 min drive" }, "geometry": { "type": "Polygon", "coordinates": [ [ [ 38.772721, 9.023269 ], [ 38.774781, 9.0284029 ], [ 38.7796725, 9.0297337 ], [ 38.7809631, 9.0314094 ], [ 38.7820705, 9.0326994 ], [ 38.7820987, 9.0327323 ], [ 38.7853003, 9.0340705 ], [ 38.7894697, 9.0358202 ], [ 38.7898711, 9.0353037 ], [ 38.7947311, 9.0312946 ], [ 38.7997189, 9.0335465 ], [ 38.8011234, 9.0303124 ], [ 38.8048161, 9.0292985 ], [ 38.808201, 9.0306966 ], [ 38.8101278, 9.0326481 ], [ 38.8103267, 9.0327174 ], [ 38.8105209, 9.0319502 ], [ 38.810141, 9.0310664 ], [ 38.809383, 9.0265432 ], [ 38.8140818, 9.0259528 ], [ 38.8147241, 9.0258773 ], [ 38.8193351, 9.0247139 ], [ 38.8198519, 9.0239225 ], [ 38.8215588, 9.0187509 ], [ 38.8222674, 9.0177774 ], [ 38.823589, 9.0151629 ], [ 38.8255699, 9.0094602 ], [ 38.8257714, 9.009022 ], [ 38.8264608, 9.0058175 ], [ 38.8258553, 9.0002553 ], [ 38.8259665, 8.9992417 ], [ 38.8250345, 8.995349 ], [ 38.8237363, 8.994525 ], [ 38.8218871, 8.9936843 ], [ 38.8172823, 8.9910278 ], [ 38.8163915, 8.9896939 ], [ 38.8153585, 8.9895143 ], [ 38.8095916, 8.9871104 ], [ 38.8048106, 8.9875098 ], [ 38.8019554, 8.9871694 ], [ 38.7978148, 8.9876741 ], [ 38.791375, 8.9871117 ], [ 38.789819799999989, 8.986366 ], [ 38.788826, 8.985809 ], [ 38.7879749, 8.9856538 ], [ 38.784031, 8.9884669 ], [ 38.7817463, 8.9897697 ], [ 38.7792204, 8.9924686 ], [ 38.7772892, 8.9944502 ], [ 38.7770092, 8.9949946 ], [ 38.777362, 8.9984848 ], [ 38.7727683, 9.0030296 ], [ 38.7716451, 9.0039323 ], [ 38.7709739, 9.0045761 ], [ 38.7692515, 9.0104413 ], [ 38.7694997, 9.0115212 ], [ 38.7712012, 9.0155134 ], [ 38.7729915, 9.021206 ], [ 38.772721, 9.023269 ] ] ] } },
{ "type": "Feature", "properties": { "threshold_s": 300, "time_label": "5 min drive" }, "geometry": { "type": "Polygon", "coordinates": [ [ [ 38.8434183, 9.0086094 ], [ 38.8413445, 9.010851 ], [ 38.8423516, 9.0115905 ], [ 38.8447742, 9.0133606 ], [ 38.8450835, 9.0142155 ], [ 38.8460335, 9.015133 ], [ 38.8480681, 9.0169136 ], [ 38.849203, 9.0178917 ], [ 38.8500344, 9.0184398 ], [ 38.8528677, 9.0205382 ], [ 38.8532959, 9.0196744 ], [ 38.8536722, 9.0188654 ], [ 38.8540127, 9.0182575 ], [ 38.857039, 9.0163862 ], [ 38.8583501, 9.0149345 ], [ 38.8603945, 9.0127165 ], [ 38.8626433, 9.0104215 ], [ 38.8627434, 9.0099876 ], [ 38.8622546, 9.0089558 ], [ 38.8610121, 9.0076803 ], [ 38.8591442, 9.0064317 ], [ 38.8562293, 9.0055649 ], [ 38.8541231, 9.0079006 ], [ 38.8520834, 9.0059043 ], [ 38.8520747, 9.0057922 ], [ 38.8520682, 9.0056456 ], [ 38.8519758, 9.0039611 ], [ 38.8520229, 9.0038196 ], [ 38.8521116, 9.0016345 ], [ 38.8520668, 9.0013272 ], [ 38.8516412, 8.9998021 ], [ 38.8492016, 9.001935 ], [ 38.8483708, 9.0026681 ], [ 38.8480093, 9.0030939 ], [ 38.8458136, 9.0056167 ], [ 38.8453415, 9.006303 ], [ 38.8434183, 9.0086094 ] ] ] } },
{ "type": "Feature", "properties": { "threshold_s": 600, "time_label": "10 min drive" }, "geometry": { "type": "Polygon", "coordinates": [ [ [ 38.8321745, 9.0088399 ], [ 38.8314384, 9.0144364 ], [ 38.8338059, 9.0157309 ], [ 38.8397176, 9.0203338 ], [ 38.8408486, 9.021363 ], [ 38.8454717, 9.024876 ], [ 38.8472273, 9.0262842 ], [ 38.852012, 9.0308668 ], [ 38.852766, 9.0308544 ], [ 38.8583985, 9.0283726 ], [ 38.8584092, 9.0275515 ], [ 38.8599781, 9.0231504 ], [ 38.8640811, 9.0207354 ], [ 38.8657515, 9.0197025 ], [ 38.8688968, 9.0172295 ], [ 38.8700703, 9.0153873 ], [ 38.8741303, 9.010825 ], [ 38.8702878, 9.0045169 ], [ 38.8678579, 9.004212 ], [ 38.8621925, 8.9992314 ], [ 38.8622376, 8.9962273 ], [ 38.8599958, 8.995394 ], [ 38.8582134, 8.9946178 ], [ 38.8534766, 8.9890994 ], [ 38.8531815, 8.9890156 ], [ 38.8506094, 8.9899498 ], [ 38.8489683, 8.9909968 ], [ 38.8462446, 8.9929141 ], [ 38.8427344, 8.9959913 ], [ 38.8390889, 8.9998081 ], [ 38.8382562, 9.0007181 ], [ 38.8334531, 9.0067732 ], [ 38.8321745, 9.0088399 ] ] ] } },
{ "type": "Feature", "properties": { "threshold_s": 900, "time_label": "15 min drive" }, "geometry": { "type": "Polygon", "coordinates": [ [ [ 38.8216767, 9.0168867 ], [ 38.8214114, 9.0184694 ], [ 38.826303, 9.0218102 ], [ 38.8337884, 9.0249687 ], [ 38.8344511, 9.0256608 ], [ 38.8371716, 9.0308107 ], [ 38.8374802, 9.0316603 ], [ 38.8416445, 9.0337284 ], [ 38.8493648, 9.0379174 ], [ 38.8505922, 9.0391271 ], [ 38.8572517, 9.0405701 ], [ 38.8601572, 9.0377571 ], [ 38.8620956, 9.0352 ], [ 38.8648603, 9.0291935 ], [ 38.8698443, 9.0273614 ], [ 38.8757849, 9.0219119 ], [ 38.8779101, 9.0212599 ], [ 38.8813086, 9.0158149 ], [ 38.8846399, 9.0113327 ], [ 38.8850489, 9.0106787 ], [ 38.8850409, 9.0106075 ], [ 38.8845398, 9.0097782 ], [ 38.8829159, 9.0084696 ], [ 38.8794391, 9.0011745 ], [ 38.879364, 9.0010116 ], [ 38.8777077, 8.9988472 ], [ 38.87197780000001, 8.9972456 ], [ 38.8710961, 8.9968484 ], [ 38.8659556, 8.990281 ], [ 38.8613784, 8.9850606 ], [ 38.855432, 8.9797845 ], [ 38.8543832, 8.9793539 ], [ 38.8471452, 8.9819318 ], [ 38.8458762, 8.9829513 ], [ 38.8395069, 8.9877675 ], [ 38.837714, 8.9885367 ], [ 38.8374832, 8.9886914 ], [ 38.8303977, 8.9938916 ], [ 38.8301281, 8.9940081 ], [ 38.8298776, 8.994334 ], [ 38.8254665, 9.0002202 ], [ 38.8243225, 9.0083844 ], [ 38.8226905, 9.0141508 ], [ 38.8216767, 9.0168867 ] ] ] } },
{ "type": "Feature", "properties": { "threshold_s": 300, "time_label": "5 min drive" }, "geometry": { "type": "Polygon", "coordinates": [ [ [ 38.827183, 9.0164702 ], [ 38.8272261, 9.0165398 ], [ 38.8280493, 9.0172388 ], [ 38.8295151, 9.0173461 ], [ 38.8319827, 9.0193047 ], [ 38.8331042, 9.0198414 ], [ 38.833899, 9.0198191 ], [ 38.8344424, 9.0197942 ], [ 38.8353449, 9.0190101 ], [ 38.8388775, 9.0203366 ], [ 38.8390236, 9.0214427 ], [ 38.8403292, 9.0199054 ], [ 38.8418154, 9.0187105 ], [ 38.8431681, 9.0171258 ], [ 38.843645, 9.0157103 ], [ 38.8433051, 9.0152585 ], [ 38.8445194, 9.0118618 ], [ 38.8451155, 9.0116817 ], [ 38.8466544, 9.0103372 ], [ 38.8434183, 9.0086094 ], [ 38.8432065, 9.0076345 ], [ 38.8431904, 9.0075458 ], [ 38.8414704, 9.0058192 ], [ 38.8401092, 9.0045006 ], [ 38.8398108, 9.0042449 ], [ 38.8386052, 9.0043614 ], [ 38.835301, 9.0032933 ], [ 38.8350485, 9.0029058 ], [ 38.8347494, 9.0025864 ], [ 38.8333416, 9.0027636 ], [ 38.8320313, 9.0036904 ], [ 38.8292794, 9.004143 ], [ 38.8296097, 9.0071875 ], [ 38.8288761, 9.0093054 ], [ 38.8288613, 9.0101055 ], [ 38.8291171, 9.010904 ], [ 38.8292925, 9.0135155 ], [ 38.827183, 9.0164702 ] ] ] } },
{ "type": "Feature", "properties": { "threshold_s": 600, "time_label": "10 min drive" }, "geometry": { "type": "Polygon", "coordinates": [ [ [ 38.8198926, 9.0192105 ], [ 38.8203659, 9.020502 ], [ 38.823494, 9.0231354 ], [ 38.8264761, 9.0258005 ], [ 38.8266728, 9.0258537 ], [ 38.8272819, 9.0259255 ], [ 38.8285495, 9.0210826 ], [ 38.83203240000001, 9.021741 ], [ 38.8353941, 9.0233442 ], [ 38.8374518, 9.0253806 ], [ 38.8370425, 9.0297537 ], [ 38.836793299999989, 9.0307971 ], [ 38.8374802, 9.0316603 ], [ 38.838132, 9.031404 ], [ 38.8426419, 9.0296958 ], [ 38.8433419, 9.0287607 ], [ 38.8442584, 9.0275216 ], [ 38.8450343, 9.0264826 ], [ 38.8451051, 9.0259229 ], [ 38.8450715, 9.0237922 ], [ 38.8451017, 9.0230863 ], [ 38.845158, 9.0224739 ], [ 38.8481101, 9.0185153 ], [ 38.8486883, 9.0184892 ], [ 38.8500344, 9.0184398 ], [ 38.850984, 9.0183972 ], [ 38.851561, 9.0183884 ], [ 38.8520913, 9.0183636 ], [ 38.8531054, 9.017195 ], [ 38.8536138, 9.0165917 ], [ 38.8557391, 9.0124164 ], [ 38.8582554, 9.0097047 ], [ 38.856694, 9.0081418 ], [ 38.8563196, 9.0078274 ], [ 38.8557418, 9.0078428 ], [ 38.8552158, 9.0078569 ], [ 38.8520682, 9.0056456 ], [ 38.8520229, 9.0038196 ], [ 38.8508003, 9.0025363 ], [ 38.8492016, 9.001935 ], [ 38.8455181, 8.9993229 ], [ 38.8448009, 8.9984494 ], [ 38.8432762, 8.9968461 ], [ 38.8426835, 8.9963874 ], [ 38.8392135, 8.9947855 ], [ 38.8375408, 8.9944347 ], [ 38.8363755, 8.994472 ], [ 38.8312644, 8.9941028 ], [ 38.8307364, 8.9939003 ], [ 38.8268229, 8.9932554 ], [ 38.824895, 8.9955635 ], [ 38.8228203, 8.9975902 ], [ 38.8225146, 8.9978975 ], [ 38.8220881, 8.9983273 ], [ 38.8218916, 8.9997821 ], [ 38.8216182, 9.0018175 ], [ 38.8212444, 9.0047426 ], [ 38.8210522, 9.00619 ], [ 38.82086, 9.0073535 ], [ 38.8198282, 9.0115553 ], [ 38.8186794, 9.0137801 ], [ 38.8194273, 9.0176486 ], [ 38.8198926, 9.0192105 ] ] ] } },
{ "type": "Feature", "properties": { "threshold_s": 900, "time_label": "15 min drive" }, "geometry": { "type": "Polygon", "coordinates": [ [ [ 38.8094161, 9.0215701 ], [ 38.8104263, 9.0226882 ], [ 38.8129946, 9.0250146 ], [ 38.8171417, 9.0286732 ], [ 38.8228783, 9.0335362 ], [ 38.8263568, 9.0345103 ], [ 38.8306589, 9.0391044 ], [ 38.8325299, 9.0404763 ], [ 38.8351021, 9.0406214 ], [ 38.8427802, 9.0384214 ], [ 38.847028, 9.0366212 ], [ 38.8501981, 9.0349503 ], [ 38.8550154, 9.0278033 ], [ 38.8559032, 9.0265052 ], [ 38.8613409, 9.0205415 ], [ 38.8643463, 9.0155554 ], [ 38.8682366, 9.0116838 ], [ 38.8676548, 9.0097339 ], [ 38.8669745, 9.0081191 ], [ 38.8661315, 9.0068727 ], [ 38.8599305, 9.0005785 ], [ 38.8595914, 8.9994288 ], [ 38.8580862, 8.9971206 ], [ 38.8522949, 8.9930413 ], [ 38.8473916, 8.9889473 ], [ 38.8413437, 8.9870753 ], [ 38.8358854, 8.9856527 ], [ 38.8289297, 8.9840815 ], [ 38.8285222, 8.9841658 ], [ 38.823195, 8.9853167 ], [ 38.8224884, 8.9872874 ], [ 38.8167976, 8.9923828 ], [ 38.8154153, 8.9934574 ], [ 38.8147618, 8.9943531 ], [ 38.8145144, 8.9950723 ], [ 38.8145296, 8.9954933 ], [ 38.8145645, 8.9965671 ], [ 38.8115832, 9.0041456 ], [ 38.8094223, 9.0111091 ], [ 38.8097058, 9.0137634 ], [ 38.8089635, 9.0205448 ], [ 38.8089624, 9.0209787 ], [ 38.8094161, 9.0215701 ] ] ] } },
{ "type": "Feature", "properties": { "threshold_s": 300, "time_label": "5 min drive" }, "geometry": { "type": "Polygon", "coordinates": [ [ [ 38.7788296, 9.023438 ], [ 38.7778352, 9.0234959 ], [ 38.7804016, 9.0252991 ], [ 38.7806417, 9.0258586 ], [ 38.7818747, 9.0258742 ], [ 38.7812609, 9.0251757 ], [ 38.7811059, 9.0234327 ], [ 38.7828895, 9.0215465 ], [ 38.7846348, 9.0227478 ], [ 38.7862759, 9.0237897 ], [ 38.7868615, 9.0228586 ], [ 38.7888875, 9.0215812 ], [ 38.7894271, 9.0214538 ], [ 38.7904462, 9.020033 ], [ 38.7911232, 9.0175922 ], [ 38.791997, 9.0167392 ], [ 38.7906608, 9.0150595 ], [ 38.7890701, 9.0126731 ], [ 38.7879346, 9.0113072 ], [ 38.7873502, 9.0111617 ], [ 38.7861708, 9.0118995 ], [ 38.7849573, 9.0126377 ], [ 38.7834306, 9.0142537 ], [ 38.7814606, 9.0122943 ], [ 38.781424, 9.0121573 ], [ 38.7811587, 9.0112123 ], [ 38.7809817, 9.0108855 ], [ 38.7801715, 9.0109604 ], [ 38.7793668, 9.0132882 ], [ 38.7766959, 9.0121141 ], [ 38.7761009, 9.0118694 ], [ 38.7756928, 9.012622 ], [ 38.7790322, 9.0148252 ], [ 38.7807383, 9.0166185 ], [ 38.7813904, 9.0177361 ], [ 38.7800908, 9.0202484 ], [ 38.7803991, 9.020821 ], [ 38.7788296, 9.023438 ] ] ] } },
{ "type": "Feature", "properties": { "threshold_s": 600, "time_label": "10 min drive" }, "geometry": { "type": "Polygon", "coordinates": [ [ [ 38.7722297, 9.0251154 ], [ 38.7686882, 9.0283996 ], [ 38.7701755, 9.0299115 ], [ 38.7724072, 9.0321943 ], [ 38.7734187, 9.0325067 ], [ 38.7735107, 9.0325106 ], [ 38.7762109, 9.0324478 ], [ 38.7809407, 9.0329393 ], [ 38.7847393, 9.0337449 ], [ 38.7849919, 9.0335688 ], [ 38.7867588, 9.0301967 ], [ 38.7895501, 9.0295027 ], [ 38.7905778, 9.0297413 ], [ 38.7918447, 9.0297488 ], [ 38.7924578, 9.0298325 ], [ 38.7926088, 9.0298108 ], [ 38.7932757, 9.0283352 ], [ 38.796868, 9.0270656 ], [ 38.7972835, 9.027134 ], [ 38.797314, 9.0271214 ], [ 38.7985591, 9.0230077 ], [ 38.8019774, 9.0198821 ], [ 38.802462, 9.0194301 ], [ 38.8018595, 9.0192341 ], [ 38.7990841, 9.0152732 ], [ 38.798827, 9.0118663 ], [ 38.7993051, 9.0096285 ], [ 38.7994633, 9.0088444 ], [ 38.7968254, 9.0071466 ], [ 38.7946308, 9.0046325 ], [ 38.7936953, 9.0050935 ], [ 38.7892042, 9.0040436 ], [ 38.7882698, 9.0017096 ], [ 38.7880442, 9.0011082 ], [ 38.78788440000001, 9.0005935 ], [ 38.783090799999989, 9.0006189 ], [ 38.7801477, 9.0005493 ], [ 38.7795597, 9.0006527 ], [ 38.7772268, 9.0028263 ], [ 38.7734655, 9.0030482 ], [ 38.7718892, 9.0054106 ], [ 38.7719838, 9.0062934 ], [ 38.7697679, 9.0102067 ], [ 38.7672577, 9.0104737 ], [ 38.7658891, 9.0123181 ], [ 38.7674265, 9.0166327 ], [ 38.7676275, 9.0197284 ], [ 38.7686595, 9.0207369 ], [ 38.7717222, 9.0232818 ], [ 38.7722297, 9.0251154 ] ] ] } },
{ "type": "Feature", "properties": { "threshold_s": 900, "time_label": "15 min drive" }, "geometry": { "type": "Polygon", "coordinates": [ [ [ 38.7576302, 9.0286031 ], [ 38.7601733, 9.0333871 ], [ 38.7619077, 9.0346996 ], [ 38.7659895, 9.0381559 ], [ 38.7682527, 9.0403707 ], [ 38.7733433, 9.041089 ], [ 38.7743349, 9.0416088 ], [ 38.7777758, 9.0401384 ], [ 38.7818965, 9.0410802 ], [ 38.7828712, 9.0413032 ], [ 38.7832034, 9.0412485 ], [ 38.7838693, 9.0407577 ], [ 38.7866579, 9.0379459 ], [ 38.7884075, 9.037232 ], [ 38.788646, 9.0371199 ], [ 38.788999, 9.0366321 ], [ 38.7898711, 9.0353037 ], [ 38.7913411, 9.0328014 ], [ 38.7947311, 9.0312946 ], [ 38.7968678, 9.0306899 ], [ 38.7997189, 9.0335465 ], [ 38.8011234, 9.0303124 ], [ 38.8048161, 9.0292985 ], [ 38.807424, 9.0245836 ], [ 38.8087057, 9.0226739 ], [ 38.8133654, 9.0199396 ], [ 38.8133688, 9.0197109 ], [ 38.8110989, 9.0165559 ], [ 38.8108201, 9.0148705 ], [ 38.8103469, 9.0141447 ], [ 38.8084584, 9.0098803 ], [ 38.809306, 9.005337 ], [ 38.8092765, 9.0052556 ], [ 38.804171599999989, 9.0040571 ], [ 38.8038473, 9.0011438 ], [ 38.8044385, 8.9996268 ], [ 38.8043088, 8.9993655 ], [ 38.8004776, 8.9984045 ], [ 38.7965052, 8.9969379 ], [ 38.7949314, 8.9948251 ], [ 38.7945392, 8.9945138 ], [ 38.7918435, 8.9923162 ], [ 38.7917543, 8.9922639 ], [ 38.788291, 8.9915527 ], [ 38.7847861, 8.9907155 ], [ 38.7830666, 8.9913983 ], [ 38.778172499999989, 8.9898978 ], [ 38.7771993, 8.9889938 ], [ 38.7741154, 8.9932832 ], [ 38.7714715, 8.9955867 ], [ 38.769518, 8.9962843 ], [ 38.7656343, 8.9994049 ], [ 38.7644974, 9.0004437 ], [ 38.7643906, 9.0014444 ], [ 38.7629613, 9.0049758 ], [ 38.7590704, 9.0068685 ], [ 38.7587103, 9.0068983 ], [ 38.7563425, 9.0078847 ], [ 38.7531539, 9.0118897 ], [ 38.7543462, 9.0138732 ], [ 38.7555162, 9.0160017 ], [ 38.7555926, 9.0160591 ], [ 38.7575894, 9.0177418 ], [ 38.760309, 9.0221661 ], [ 38.76061330000001, 9.0273217 ], [ 38.7578226, 9.0286039 ], [ 38.7576302, 9.0286031 ] ] ] } },
{ "type": "Feature", "properties": { "threshold_s": 300, "time_label": "5 min drive" }, "geometry": { "type": "Polygon", "coordinates": [ [ [ 38.8405487, 9.0480595 ], [ 38.837956, 9.0495638 ], [ 38.8405245, 9.0490252 ], [ 38.8419441, 9.0503506 ], [ 38.8423777, 9.0510737 ], [ 38.8438708, 9.050832 ], [ 38.8457277, 9.0501837 ], [ 38.8462717, 9.0497834 ], [ 38.8467606, 9.0494644 ], [ 38.8495097, 9.0495413 ], [ 38.8491305, 9.0489273 ], [ 38.8489383, 9.0480514 ], [ 38.849285, 9.0467733 ], [ 38.849297, 9.0466383 ], [ 38.8493473, 9.046376 ], [ 38.851137799999989, 9.0456661 ], [ 38.8499786, 9.0441545 ], [ 38.8500354, 9.0439483 ], [ 38.8494022, 9.0438269 ], [ 38.8484878, 9.0440257 ], [ 38.84684, 9.0431431 ], [ 38.844924, 9.0425383 ], [ 38.844988, 9.042019 ], [ 38.8446761, 9.0419592 ], [ 38.8427658, 9.0422269 ], [ 38.8414853, 9.0425805 ], [ 38.8396154, 9.0432269 ], [ 38.8404123, 9.0440393 ], [ 38.8407137, 9.0449231 ], [ 38.8401769, 9.0463548 ], [ 38.8394097, 9.0464862 ], [ 38.8405487, 9.0480595 ] ] ] } },
{ "type": "Feature", "properties": { "threshold_s": 600, "time_label": "10 min drive" }, "geometry": { "type": "Polygon", "coordinates": [ [ [ 38.8327324, 9.052157 ], [ 38.8328679, 9.0538721 ], [ 38.8332729, 9.0541741 ], [ 38.8340896, 9.0540959 ], [ 38.8341376, 9.0540813 ], [ 38.8379064, 9.0536854 ], [ 38.8397585, 9.0570348 ], [ 38.8406691, 9.0567526 ], [ 38.8385418, 9.0535897 ], [ 38.8395104, 9.0509108 ], [ 38.8423777, 9.0510737 ], [ 38.8438708, 9.050832 ], [ 38.8457277, 9.0501837 ], [ 38.8484814, 9.0533788 ], [ 38.8481572, 9.0576546 ], [ 38.8434865, 9.0603961 ], [ 38.84366510000001, 9.0608013 ], [ 38.8436423, 9.0606204 ], [ 38.8436339, 9.0605114 ], [ 38.8479806, 9.0587243 ], [ 38.8480478, 9.0588075 ], [ 38.8495587, 9.0574223 ], [ 38.8528946, 9.0591061 ], [ 38.8534793, 9.0604848 ], [ 38.853946, 9.0604914 ], [ 38.8543698, 9.0598689 ], [ 38.8553005, 9.0583366 ], [ 38.8554799, 9.056709 ], [ 38.8542894, 9.0539052 ], [ 38.8549321, 9.0509168 ], [ 38.8574594, 9.0498635 ], [ 38.8597342, 9.0493996 ], [ 38.8603042, 9.0492034 ], [ 38.8603347, 9.0470407 ], [ 38.8606361, 9.0445979 ], [ 38.8605482, 9.0443542 ], [ 38.8592708, 9.0427279 ], [ 38.8565156, 9.0395088 ], [ 38.8563543, 9.0384501 ], [ 38.8538512, 9.0357937 ], [ 38.8534831, 9.0354707 ], [ 38.8492918, 9.0348539 ], [ 38.8485711, 9.0346985 ], [ 38.8483241, 9.0346494 ], [ 38.8480345, 9.0351645 ], [ 38.845956, 9.0378662 ], [ 38.8427961, 9.0383697 ], [ 38.8413983, 9.0380145 ], [ 38.8373177, 9.0373167 ], [ 38.8349875, 9.0364101 ], [ 38.8322014, 9.0374386 ], [ 38.8325405, 9.0395695 ], [ 38.8346153, 9.0433417 ], [ 38.8347642, 9.0435629 ], [ 38.837142, 9.0464329 ], [ 38.8338876, 9.0485897 ], [ 38.8334654, 9.0492351 ], [ 38.8327324, 9.052157 ] ] ] } },
{ "type": "Feature", "properties": { "threshold_s": 900, "time_label": "15 min drive" }, "geometry": { "type": "Polygon", "coordinates": [ [ [ 38.8268343, 9.0602318 ], [ 38.8277715, 9.0616619 ], [ 38.8304083, 9.062813 ], [ 38.832145, 9.0587657 ], [ 38.8371769, 9.0588359 ], [ 38.8375631, 9.0587207 ], [ 38.8426727, 9.0603444 ], [ 38.843521, 9.0630858 ], [ 38.8446374, 9.0675065 ], [ 38.8448721, 9.0682839 ], [ 38.8450371, 9.0690732 ], [ 38.8486406, 9.0681064 ], [ 38.8488768, 9.0677 ], [ 38.8489987, 9.0674429 ], [ 38.8445181, 9.0621641 ], [ 38.8480774, 9.0596809 ], [ 38.8492039, 9.0592425 ], [ 38.8534793, 9.0604848 ], [ 38.853946, 9.0604914 ], [ 38.8597329, 9.0644142 ], [ 38.8627798, 9.0661636 ], [ 38.8633472, 9.0656047 ], [ 38.8669695, 9.0594517 ], [ 38.8669654, 9.0591379 ], [ 38.8659337, 9.0545293 ], [ 38.8659955, 9.0479541 ], [ 38.866767, 9.0462568 ], [ 38.8674603, 9.044392 ], [ 38.8679901, 9.0413286 ], [ 38.8675797, 9.0383181 ], [ 38.8620956, 9.0352 ], [ 38.8619642, 9.0306232 ], [ 38.8615823, 9.0294216 ], [ 38.8613248, 9.0292706 ], [ 38.8577773, 9.0275421 ], [ 38.8533028, 9.0255136 ], [ 38.8485778, 9.026479 ], [ 38.846519, 9.0269978 ], [ 38.839914899999989, 9.0267033 ], [ 38.839807, 9.0266814 ], [ 38.8331903, 9.0271257 ], [ 38.8274017, 9.0301952 ], [ 38.822639, 9.033331 ], [ 38.82228520000001, 9.033648 ], [ 38.8226616, 9.0363421 ], [ 38.8242682, 9.0433587 ], [ 38.8253349, 9.0451058 ], [ 38.8269813, 9.0471785 ], [ 38.8280971, 9.0479616 ], [ 38.8288798, 9.0487037 ], [ 38.8328679, 9.0538721 ], [ 38.8294991, 9.058428 ], [ 38.8272232, 9.0595312 ], [ 38.8269415, 9.0600186 ], [ 38.8268343, 9.0602318 ] ] ] } },
{ "type": "Feature", "properties": { "threshold_s": 300, "time_label": "5 min drive" }, "geometry": { "type": "Polygon", "coordinates": [ [ [ 38.8500308, 8.993895 ], [ 38.8515964, 8.9960086 ], [ 38.8522509, 8.9948575 ], [ 38.8549742, 8.9957103 ], [ 38.8565029, 8.9972534 ], [ 38.8586364, 8.9982815 ], [ 38.8603692, 8.9981434 ], [ 38.8620264, 8.9982205 ], [ 38.8641715, 8.9962063 ], [ 38.8648751, 8.9953168 ], [ 38.8638084, 8.9931033 ], [ 38.8638173, 8.9912566 ], [ 38.8659556, 8.990281 ], [ 38.8637757, 8.988145 ], [ 38.8636013, 8.9870832 ], [ 38.8634779, 8.9846274 ], [ 38.8627614, 8.983308 ], [ 38.8616093, 8.9828706 ], [ 38.8598227, 8.9823993 ], [ 38.8580051, 8.9836492 ], [ 38.8551102, 8.9833849 ], [ 38.853838, 8.9823195 ], [ 38.8531952, 8.9824888 ], [ 38.8525846, 8.9831407 ], [ 38.8545683, 8.9841937 ], [ 38.8549442, 8.986173 ], [ 38.8546241, 8.9872988 ], [ 38.8544359, 8.9879859 ], [ 38.8542296, 8.9887146 ], [ 38.8520765, 8.9906188 ], [ 38.8520014, 8.9906585 ], [ 38.8503555, 8.9917868 ], [ 38.8495869, 8.9928933 ], [ 38.8500308, 8.993895 ] ] ] } },
{ "type": "Feature", "properties": { "threshold_s": 600, "time_label": "10 min drive" }, "geometry": { "type": "Polygon", "coordinates": [ [ [ 38.8427809, 8.9968256 ], [ 38.8432261, 8.9984282 ], [ 38.8444024, 8.9988808 ], [ 38.8467644, 9.0021269 ], [ 38.8490934, 9.0044361 ], [ 38.8506133, 9.0058006 ], [ 38.8511537, 9.0058402 ], [ 38.8520834, 9.0059043 ], [ 38.8520747, 9.0057922 ], [ 38.8520682, 9.0056456 ], [ 38.8520229, 9.0038196 ], [ 38.8550829, 9.0014486 ], [ 38.8573183, 9.0035376 ], [ 38.8583678, 9.005259 ], [ 38.8588436, 9.0055906 ], [ 38.8590772, 9.005161 ], [ 38.8629958, 9.0045807 ], [ 38.8641295, 9.0052312 ], [ 38.8644562, 9.0047469 ], [ 38.863939, 9.0029579 ], [ 38.8621925, 8.9992314 ], [ 38.863330499999989, 8.9968197 ], [ 38.8673329, 8.996602 ], [ 38.8685319, 8.9965702 ], [ 38.8683298, 8.9954969 ], [ 38.8658631, 8.9953807 ], [ 38.8647621, 8.9947766 ], [ 38.8638084, 8.9931033 ], [ 38.8659556, 8.990281 ], [ 38.8637757, 8.988145 ], [ 38.8644268, 8.9854301 ], [ 38.8656975, 8.9832292 ], [ 38.8694492, 8.9826364 ], [ 38.8692842, 8.9776795 ], [ 38.8683736, 8.9810879 ], [ 38.8653253, 8.9813012 ], [ 38.8639602, 8.9815304 ], [ 38.8630052, 8.9775974 ], [ 38.8632211, 8.9748911 ], [ 38.8611719, 8.9752872 ], [ 38.8585998, 8.9765871 ], [ 38.8551297, 8.9748164 ], [ 38.8549588, 8.9743086 ], [ 38.8542589, 8.9723237 ], [ 38.8539979, 8.9723627 ], [ 38.8540339, 8.9724259 ], [ 38.8546712, 8.974416 ], [ 38.8548589, 8.9749055 ], [ 38.8555617, 8.9771388 ], [ 38.8518164, 8.9790824 ], [ 38.8512316, 8.9791592 ], [ 38.8494104, 8.9788651 ], [ 38.8456259, 8.9797438 ], [ 38.8437442, 8.9818019 ], [ 38.8435753, 8.9824046 ], [ 38.8439348, 8.9838831 ], [ 38.8440632, 8.9842888 ], [ 38.8420799, 8.9878397 ], [ 38.8410903, 8.9883045 ], [ 38.8408998, 8.9896213 ], [ 38.8392475, 8.9932561 ], [ 38.8403149, 8.9944541 ], [ 38.8427809, 8.9968256 ] ] ] } },
{ "type": "Feature", "properties": { "threshold_s": 900, "time_label": "15 min drive" }, "geometry": { "type": "Polygon", "coordinates": [ [ [ 38.8365258, 9.0017563 ], [ 38.8407746, 9.0088047 ], [ 38.8411753, 9.0091908 ], [ 38.8422715, 9.0102378 ], [ 38.8486714, 9.0151265 ], [ 38.8509709, 9.0167744 ], [ 38.8523752, 9.0177314 ], [ 38.8528389, 9.0176812 ], [ 38.8533641, 9.0171755 ], [ 38.8539399, 9.0165809 ], [ 38.8552464, 9.0151289 ], [ 38.8562282, 9.0142195 ], [ 38.8641832, 9.0131222 ], [ 38.8646585, 9.0131287 ], [ 38.8651119, 9.013136 ], [ 38.8655774, 9.013136 ], [ 38.8656485, 9.013136 ], [ 38.8712248, 9.0129433 ], [ 38.8734628, 9.0099537 ], [ 38.8736321, 9.0096147 ], [ 38.8734525, 9.0090916 ], [ 38.8733718, 9.0088617 ], [ 38.8732891, 9.0086325 ], [ 38.8716996, 9.0003215 ], [ 38.8715145, 8.9997254 ], [ 38.8711417, 8.9985943 ], [ 38.8708896, 8.9978869 ], [ 38.8683298, 8.9954969 ], [ 38.8659556, 8.990281 ], [ 38.8694492, 8.9826364 ], [ 38.8775994, 8.9815828 ], [ 38.8781248, 8.9776941 ], [ 38.8769406, 8.9731478 ], [ 38.8757913, 8.9712919 ], [ 38.8683575, 8.973622 ], [ 38.8619397, 8.9685915 ], [ 38.8627933, 8.9648805 ], [ 38.8631319, 8.9641831 ], [ 38.8617231, 8.9654777 ], [ 38.8542589, 8.9723237 ], [ 38.8539979, 8.9723627 ], [ 38.8470313, 8.9708627 ], [ 38.8475228, 8.9742559 ], [ 38.8436849, 8.9799373 ], [ 38.8395883, 8.9799969 ], [ 38.8388284, 8.9798434 ], [ 38.8332714, 8.9855099 ], [ 38.8308997, 8.9901971 ], [ 38.8317895, 8.9913486 ], [ 38.8353897, 8.9985344 ], [ 38.8358065, 9.0000725 ], [ 38.8361344, 9.0010665 ], [ 38.8365258, 9.0017563 ] ] ] } },
{ "type": "Feature", "properties": { "threshold_s": 300, "time_label": "5 min drive" }, "geometry": { "type": "Polygon", "coordinates": [ [ [ 38.7446144, 8.9851407 ], [ 38.7452303, 8.9877313 ], [ 38.7458333, 8.9871828 ], [ 38.7484661, 8.9879114 ], [ 38.7483404, 8.9891444 ], [ 38.7484336, 8.9894281 ], [ 38.7501145, 8.9873647 ], [ 38.7512463, 8.9870877 ], [ 38.751491, 8.9864276 ], [ 38.7520243, 8.9850979 ], [ 38.7532425, 8.9839796 ], [ 38.7531757, 8.9836321 ], [ 38.7531529, 8.9835029 ], [ 38.7529195, 8.9815501 ], [ 38.7542657, 8.9801767 ], [ 38.7545104, 8.9790531 ], [ 38.753462399999989, 8.977608 ], [ 38.7531719, 8.9751756 ], [ 38.7527936, 8.9738075 ], [ 38.7506072, 8.9722513 ], [ 38.7478308, 8.9722231 ], [ 38.7453481, 8.9734379 ], [ 38.7439171, 8.9739495 ], [ 38.7427163, 8.9755959 ], [ 38.741234, 8.9774999 ], [ 38.7402713, 8.9784505 ], [ 38.7390094, 8.9805037 ], [ 38.7400372, 8.9805206 ], [ 38.7412755, 8.9806774 ], [ 38.7429655, 8.9814508 ], [ 38.743529, 8.9827014 ], [ 38.7434792, 8.9838322 ], [ 38.743505, 8.9842753 ], [ 38.7435155, 8.9846347 ], [ 38.7446144, 8.9851407 ] ] ] } },
{ "type": "Feature", "properties": { "threshold_s": 600, "time_label": "10 min drive" }, "geometry": { "type": "Polygon", "coordinates": [ [ [ 38.7383214, 8.9925488 ], [ 38.7376045, 8.9950873 ], [ 38.7383237, 8.9951094 ], [ 38.7407357, 8.9957392 ], [ 38.7429171, 8.9977021 ], [ 38.7429701, 8.9977686 ], [ 38.7458811, 8.998566 ], [ 38.7471426, 9.0000833 ], [ 38.7472277, 9.0000967 ], [ 38.7491146, 8.9994314 ], [ 38.7529351, 8.9991555 ], [ 38.754885, 8.997454 ], [ 38.7561535, 8.995514 ], [ 38.7584402, 8.9918452 ], [ 38.7591078, 8.9902103 ], [ 38.761126, 8.9874859 ], [ 38.7619202, 8.9856735 ], [ 38.7610893, 8.9856023 ], [ 38.7592917, 8.9842459 ], [ 38.7599712, 8.9807353 ], [ 38.7623005, 8.980802 ], [ 38.7627956, 8.9811445 ], [ 38.763176, 8.9813554 ], [ 38.7634208, 8.9814204 ], [ 38.7639286, 8.9812394 ], [ 38.7637274, 8.9810227 ], [ 38.7623526, 8.9769294 ], [ 38.7620297, 8.9769472 ], [ 38.7598425, 8.9769483 ], [ 38.7582441, 8.9731991 ], [ 38.7584311, 8.9727864 ], [ 38.756673, 8.9690124 ], [ 38.7566851, 8.9669946 ], [ 38.7560391, 8.966296 ], [ 38.7547301, 8.9651931 ], [ 38.7517772, 8.9621726 ], [ 38.7495841, 8.9609017 ], [ 38.7475643, 8.9601159 ], [ 38.7468403, 8.9614726 ], [ 38.7436026, 8.9638351 ], [ 38.742887, 8.9641089 ], [ 38.7417376, 8.9644179 ], [ 38.7415858, 8.9646898 ], [ 38.7428784, 8.9669177 ], [ 38.7428134, 8.968824 ], [ 38.7388259, 8.969511 ], [ 38.7385016, 8.9691304 ], [ 38.737573, 8.9679618 ], [ 38.7366423, 8.9668581 ], [ 38.7358058, 8.9664959 ], [ 38.7345127, 8.9701307 ], [ 38.7340753, 8.9706794 ], [ 38.73397, 8.9732129 ], [ 38.7339346, 8.9746786 ], [ 38.7341784, 8.9766996 ], [ 38.7340875, 8.9777387 ], [ 38.7313543, 8.9810866 ], [ 38.7304638, 8.9817171 ], [ 38.7301366, 8.9824338 ], [ 38.7301493, 8.9825139 ], [ 38.730893, 8.9833279 ], [ 38.732616299999989, 8.9851679 ], [ 38.7369521, 8.9844949 ], [ 38.737172, 8.9846817 ], [ 38.7382566, 8.9884032 ], [ 38.7375073, 8.9892226 ], [ 38.7371454, 8.9903463 ], [ 38.7383214, 8.9925488 ] ] ] } },
{ "type": "Feature", "properties": { "threshold_s": 900, "time_label": "15 min drive" }, "geometry": { "type": "Polygon", "coordinates": [ [ [ 38.7335599, 9.0037188 ], [ 38.7336018, 9.003818 ], [ 38.7337395, 9.0038939 ], [ 38.7385931, 9.005334 ], [ 38.7401543, 9.0057577 ], [ 38.7447023, 9.0088719 ], [ 38.7461279, 9.0114923 ], [ 38.7476673, 9.0105487 ], [ 38.7526401, 9.0079989 ], [ 38.7549917, 9.0080034 ], [ 38.7560328, 9.0070649 ], [ 38.7587141, 9.0041929 ], [ 38.7586541, 9.0031765 ], [ 38.7636747, 8.9996135 ], [ 38.7649101, 8.9987426 ], [ 38.7662316, 8.9977834 ], [ 38.7667234, 8.9974203 ], [ 38.7700673, 8.992499 ], [ 38.7712555, 8.9905916 ], [ 38.7720365, 8.9891226 ], [ 38.7733239, 8.9833077 ], [ 38.773654, 8.9825925 ], [ 38.7736506, 8.9816522 ], [ 38.7733831, 8.9814796 ], [ 38.7733461, 8.9814558 ], [ 38.7725521, 8.9809154 ], [ 38.7725092, 8.9808906 ], [ 38.7712984, 8.9803752 ], [ 38.7708268, 8.9803929 ], [ 38.7650426, 8.9787808 ], [ 38.7650392, 8.976104 ], [ 38.7652743, 8.9732919 ], [ 38.7660779, 8.9717093 ], [ 38.7664998, 8.9707517 ], [ 38.7629064, 8.9653976 ], [ 38.7630229, 8.9646366 ], [ 38.7632151, 8.9633794 ], [ 38.7633621, 8.962338 ], [ 38.7603619, 8.9570516 ], [ 38.7597543, 8.9559709 ], [ 38.7581701, 8.9553346 ], [ 38.7576358, 8.9551189 ], [ 38.7535724, 8.9529484 ], [ 38.7517645, 8.9508566 ], [ 38.7501237, 8.9504218 ], [ 38.7494933, 8.9515279 ], [ 38.7490782, 8.9529902 ], [ 38.7441306, 8.9554994 ], [ 38.7439359, 8.9554931 ], [ 38.7437709, 8.9554911 ], [ 38.7426449, 8.9557813 ], [ 38.7422287, 8.9561532 ], [ 38.7404933, 8.9609058 ], [ 38.7348681, 8.9596248 ], [ 38.7334362, 8.9591808 ], [ 38.7326381, 8.9587993 ], [ 38.7318209, 8.9587663 ], [ 38.7314187, 8.9587581 ], [ 38.730382, 8.959274 ], [ 38.7286762, 8.9608924 ], [ 38.7271163, 8.9636827 ], [ 38.7260745, 8.9664712 ], [ 38.7263055, 8.9668598 ], [ 38.7279082, 8.9712317 ], [ 38.727952, 8.9738983 ], [ 38.7270547, 8.9798003 ], [ 38.7239528, 8.9834432 ], [ 38.722532, 8.9843766 ], [ 38.7220165, 8.9877903 ], [ 38.7228801, 8.9889467 ], [ 38.7255622, 8.9913882 ], [ 38.7286778, 8.9951034 ], [ 38.728349, 8.997969 ], [ 38.7289264, 8.9982376 ], [ 38.7302594, 8.9977804 ], [ 38.7307139, 8.9976947 ], [ 38.7308209, 8.9976433 ], [ 38.7316547, 8.9970266 ], [ 38.7344089, 8.9966973 ], [ 38.7372074, 9.0004715 ], [ 38.7338642, 9.0036846 ], [ 38.7335599, 9.0037188 ] ] ] } },
{ "type": "Feature", "properties": { "threshold_s": 300, "time_label": "5 min drive" }, "geometry": { "type": "Polygon", "coordinates": [ [ [ 38.780888, 8.8712184 ], [ 38.7808344, 8.8723937 ], [ 38.7822479, 8.8708858 ], [ 38.7837177, 8.8714079 ], [ 38.7849167, 8.8720943 ], [ 38.7865558, 8.8712502 ], [ 38.7876252, 8.8719989 ], [ 38.7888719, 8.8733133 ], [ 38.7886957, 8.8740127 ], [ 38.7885051, 8.8745339 ], [ 38.787232, 8.8762251 ], [ 38.7891117, 8.8755951 ], [ 38.7899096, 8.875391 ], [ 38.7901014, 8.8750384 ], [ 38.7914184, 8.8734101 ], [ 38.7932409, 8.8738553 ], [ 38.794414, 8.8723742 ], [ 38.7945242, 8.8720429 ], [ 38.794619, 8.8717568 ], [ 38.7944867, 8.8710786 ], [ 38.7949891, 8.8690055 ], [ 38.7952184, 8.8685293 ], [ 38.7952005, 8.8666481 ], [ 38.7950449, 8.8660804 ], [ 38.794685800000011, 8.8650745 ], [ 38.7942379, 8.865075 ], [ 38.7937301, 8.8653709 ], [ 38.7917762, 8.864454 ], [ 38.7929183, 8.8632167 ], [ 38.7932211, 8.8629091 ], [ 38.7948964, 8.8620543 ], [ 38.794821, 8.8612175 ], [ 38.7941262, 8.8613157 ], [ 38.7928687, 8.8612573 ], [ 38.792013, 8.8604527 ], [ 38.7909974, 8.8595955 ], [ 38.7904895, 8.8590109 ], [ 38.7901631, 8.8588641 ], [ 38.7889509, 8.8600568 ], [ 38.7877702, 8.8597095 ], [ 38.7868586, 8.8614592 ], [ 38.7856821, 8.8617568 ], [ 38.7852439, 8.8617282 ], [ 38.7835496, 8.8611377 ], [ 38.7825554, 8.8616446 ], [ 38.7818782, 8.8624079 ], [ 38.78088790000001, 8.863661 ], [ 38.7825041, 8.8649203 ], [ 38.7821674, 8.8657512 ], [ 38.7806171, 8.8660652 ], [ 38.7814291, 8.867629 ], [ 38.77991440000001, 8.8683443 ], [ 38.7788193, 8.8699389 ], [ 38.7808894, 8.8703558 ], [ 38.780888, 8.8712184 ] ] ] } },
{ "type": "Feature", "properties": { "threshold_s": 600, "time_label": "10 min drive" }, "geometry": { "type": "Polygon", "coordinates": [ [ [ 38.7780548, 8.8802088 ], [ 38.7786681, 8.8810635 ], [ 38.7794059, 8.8815554 ], [ 38.7843939, 8.8836614 ], [ 38.7842911, 8.8855262 ], [ 38.7855839, 8.8858713 ], [ 38.7860608, 8.8858918 ], [ 38.7865004, 8.8858379 ], [ 38.7868808, 8.8849666 ], [ 38.7923162, 8.8846006 ], [ 38.792441, 8.8844337 ], [ 38.7963174, 8.8804884 ], [ 38.8011561, 8.8787089 ], [ 38.8021982, 8.8784711 ], [ 38.8027601, 8.8783434 ], [ 38.805058699999989, 8.8764153 ], [ 38.8051084, 8.8728526 ], [ 38.8043889, 8.8685799 ], [ 38.8042917, 8.8679057 ], [ 38.8038681, 8.8663585 ], [ 38.8035346, 8.8657084 ], [ 38.8023495, 8.8631638 ], [ 38.8021157, 8.8583197 ], [ 38.8032721, 8.8546094 ], [ 38.8030921, 8.854625 ], [ 38.802383, 8.8549078 ], [ 38.797271, 8.8559494 ], [ 38.7943795, 8.8552338 ], [ 38.7902337, 8.8528086 ], [ 38.7858394, 8.8535129 ], [ 38.782649, 8.8554641 ], [ 38.7800407, 8.8580502 ], [ 38.7768864, 8.8606748 ], [ 38.7771423, 8.8609212 ], [ 38.7802722, 8.862418 ], [ 38.7806171, 8.8660652 ], [ 38.77991440000001, 8.8683443 ], [ 38.7788193, 8.8699389 ], [ 38.7808344, 8.8723937 ], [ 38.779733, 8.8775777 ], [ 38.7786087, 8.8779224 ], [ 38.7774463, 8.8782305 ], [ 38.7780548, 8.8802088 ] ] ] } },
{ "type": "Feature", "properties": { "threshold_s": 900, "time_label": "15 min drive" }, "geometry": { "type": "Polygon", "coordinates": [ [ [ 38.7706809, 8.8855235 ], [ 38.7750549, 8.8911342 ], [ 38.7767275, 8.8925609 ], [ 38.7832882, 8.8941488 ], [ 38.7849261, 8.8945215 ], [ 38.7863436, 8.8944844 ], [ 38.786703, 8.893923 ], [ 38.7870089, 8.8932018 ], [ 38.7873803, 8.8924811 ], [ 38.7875721, 8.8918364 ], [ 38.7963925, 8.8898808 ], [ 38.7990632, 8.8925801 ], [ 38.801, 8.8919615 ], [ 38.8014109, 8.8892375 ], [ 38.7967285, 8.88545 ], [ 38.8021687, 8.8792217 ], [ 38.8048308, 8.8792495 ], [ 38.8057253, 8.8793277 ], [ 38.8092007, 8.8809197 ], [ 38.8135318, 8.8794589 ], [ 38.81435, 8.8785464 ], [ 38.8164662, 8.8761728 ], [ 38.8158874, 8.8748688 ], [ 38.8147019, 8.8718578 ], [ 38.8137472, 8.8653394 ], [ 38.8131121, 8.8639239 ], [ 38.8098102, 8.8582804 ], [ 38.8121545, 8.8521185 ], [ 38.8123952, 8.8511677 ], [ 38.8122176, 8.8507205 ], [ 38.8113366, 8.8485996 ], [ 38.8082787, 8.8497028 ], [ 38.8067847, 8.8519833 ], [ 38.7988347, 8.849957 ], [ 38.7967586, 8.8483962 ], [ 38.7915721, 8.8521695 ], [ 38.7866011, 8.8466523 ], [ 38.7853516, 8.8460614 ], [ 38.781221, 8.8453 ], [ 38.7803194, 8.8475878 ], [ 38.7825108, 8.8509325 ], [ 38.7808323, 8.8568008 ], [ 38.7768864, 8.8606748 ], [ 38.7771423, 8.8609212 ], [ 38.77991440000001, 8.8683443 ], [ 38.7728602, 8.8704088 ], [ 38.7701659, 8.8697372 ], [ 38.7690203, 8.8696547 ], [ 38.7689914, 8.8696862 ], [ 38.7677211, 8.8753776 ], [ 38.7675665, 8.8785866 ], [ 38.7691569, 8.8821876 ], [ 38.7706809, 8.8855235 ] ] ] } },
{ "type": "Feature", "properties": { "threshold_s": 300, "time_label": "5 min drive" }, "geometry": { "type": "Polygon", "coordinates": [ [ [ 38.7637032, 9.0172024 ], [ 38.7636571, 9.0176742 ], [ 38.7650242, 9.0169385 ], [ 38.7657801, 9.0168339 ], [ 38.7659352, 9.0168131 ], [ 38.7674265, 9.0166327 ], [ 38.7681297, 9.0179121 ], [ 38.7676275, 9.0197284 ], [ 38.7677259, 9.0197702 ], [ 38.7683945, 9.0192425 ], [ 38.7704765, 9.0188531 ], [ 38.7713573, 9.0204686 ], [ 38.7714391, 9.0195628 ], [ 38.771192, 9.0184455 ], [ 38.7743481, 9.0183679 ], [ 38.7742102, 9.0174735 ], [ 38.7741335, 9.0152535 ], [ 38.7732235, 9.0146348 ], [ 38.773148, 9.0145762 ], [ 38.7712012, 9.0155134 ], [ 38.7699102, 9.014068 ], [ 38.7698139, 9.0132732 ], [ 38.7695735, 9.0120323 ], [ 38.7706225, 9.010122 ], [ 38.7732789, 9.0121882 ], [ 38.7742127, 9.0105641 ], [ 38.7740014, 9.0088061 ], [ 38.7732598, 9.0083504 ], [ 38.7724962, 9.0100703 ], [ 38.7706413, 9.0092666 ], [ 38.7705427, 9.0083326 ], [ 38.7706685, 9.0078058 ], [ 38.7704877, 9.0061312 ], [ 38.7699708, 9.0073954 ], [ 38.7688528, 9.0085028 ], [ 38.7692515, 9.0104413 ], [ 38.7672577, 9.0104737 ], [ 38.7636057, 9.0109899 ], [ 38.7643986, 9.0090118 ], [ 38.7636137, 9.009863 ], [ 38.76206, 9.0111118 ], [ 38.7598898, 9.0114568 ], [ 38.762877, 9.0129834 ], [ 38.7632751, 9.0121755 ], [ 38.7658891, 9.0123181 ], [ 38.767167, 9.0123421 ], [ 38.7684856, 9.0141974 ], [ 38.7684944, 9.0142876 ], [ 38.7686282, 9.015342 ], [ 38.7663692, 9.0156361 ], [ 38.766101, 9.0156017 ], [ 38.7654814, 9.0154268 ], [ 38.7649382, 9.0162277 ], [ 38.7637032, 9.0172024 ] ] ] } },
{ "type": "Feature", "properties": { "threshold_s": 600, "time_label": "10 min drive" }, "geometry": { "type": "Polygon", "coordinates": [ [ [ 38.751575699999989, 9.0171898 ], [ 38.7523491, 9.0197223 ], [ 38.7555976, 9.0217609 ], [ 38.7586628, 9.0213376 ], [ 38.7600498, 9.0221853 ], [ 38.7602254, 9.0222978 ], [ 38.7614021, 9.0232701 ], [ 38.7616201, 9.0233396 ], [ 38.7650922, 9.0223314 ], [ 38.7673037, 9.0253571 ], [ 38.7664952, 9.0274613 ], [ 38.7673563, 9.028805 ], [ 38.7712506, 9.0282421 ], [ 38.7719643, 9.0289784 ], [ 38.7728095, 9.0289395 ], [ 38.774781, 9.0284029 ], [ 38.7761492, 9.027044 ], [ 38.7786913, 9.0267849 ], [ 38.7792906, 9.0265435 ], [ 38.7811059, 9.0234327 ], [ 38.7814649, 9.022194 ], [ 38.781137, 9.0217766 ], [ 38.7804623, 9.0179874 ], [ 38.782059, 9.014438 ], [ 38.7832979, 9.0148016 ], [ 38.7834846, 9.01484 ], [ 38.7835138, 9.0134781 ], [ 38.7820902, 9.0117878 ], [ 38.7823498, 9.0091425 ], [ 38.7818469, 9.0080756 ], [ 38.7824927, 9.004531 ], [ 38.7822103, 9.0030031 ], [ 38.7819455, 9.0018084 ], [ 38.7795597, 9.0006527 ], [ 38.7772268, 9.0028263 ], [ 38.7752118, 9.0003829 ], [ 38.7749536, 8.9996857 ], [ 38.7739914, 8.9989883 ], [ 38.7713511, 8.9969567 ], [ 38.7696973, 8.997182 ], [ 38.7666719, 8.9967811 ], [ 38.7650591, 8.996884 ], [ 38.7643388, 8.9973094 ], [ 38.764286, 8.9977654 ], [ 38.7616126, 9.0004111 ], [ 38.7585693, 9.0015672 ], [ 38.7573229, 9.0020386 ], [ 38.7544702, 9.0039159 ], [ 38.7534437, 9.0051707 ], [ 38.7520489, 9.0075772 ], [ 38.7526401, 9.0079989 ], [ 38.7519181, 9.0117755 ], [ 38.7503444, 9.0116155 ], [ 38.7499394, 9.0114004 ], [ 38.7498135, 9.0113847 ], [ 38.7495149, 9.011528 ], [ 38.7506243, 9.0142582 ], [ 38.751575699999989, 9.0171898 ] ] ] } },
{ "type": "Feature", "properties": { "threshold_s": 900, "time_label": "15 min drive" }, "geometry": { "type": "Polygon", "coordinates": [ [ [ 38.7428476, 9.0213885 ], [ 38.7455761, 9.0270197 ], [ 38.7480859, 9.027872 ], [ 38.7512775, 9.0305243 ], [ 38.7513957, 9.030474 ], [ 38.7518743, 9.0302856 ], [ 38.7523777, 9.0300754 ], [ 38.7531912, 9.0297342 ], [ 38.7542995, 9.0292944 ], [ 38.7590509, 9.0331043 ], [ 38.7628135, 9.0365588 ], [ 38.7629161, 9.0365657 ], [ 38.7694764, 9.0373855 ], [ 38.7730517, 9.0384456 ], [ 38.7735888, 9.0383887 ], [ 38.7752885, 9.0378956 ], [ 38.7779067, 9.0359559 ], [ 38.7804737, 9.033912 ], [ 38.7834835, 9.0321406 ], [ 38.7859405, 9.0306672 ], [ 38.7898626, 9.0285236 ], [ 38.7906702, 9.0267488 ], [ 38.7935093, 9.021133 ], [ 38.7953428, 9.0176745 ], [ 38.7946421, 9.0156836 ], [ 38.7933255, 9.0131401 ], [ 38.7922908, 9.0081306 ], [ 38.7917389, 9.0056483 ], [ 38.7906855, 8.9993148 ], [ 38.7911622, 8.9984227 ], [ 38.7911253, 8.9962245 ], [ 38.7909826, 8.9959325 ], [ 38.7900146, 8.9944088 ], [ 38.7899619, 8.994329 ], [ 38.7873682, 8.9940098 ], [ 38.7830666, 8.9913983 ], [ 38.7796594, 8.9901999 ], [ 38.7779312, 8.9897209 ], [ 38.7730466, 8.9897253 ], [ 38.7715766, 8.987731 ], [ 38.7652114, 8.9860036 ], [ 38.7634392, 8.9867237 ], [ 38.7621897, 8.9874769 ], [ 38.7592571, 8.9906178 ], [ 38.7568836, 8.9918736 ], [ 38.7529947, 8.9928879 ], [ 38.75289990000001, 8.992923 ], [ 38.7514989, 8.9935134 ], [ 38.7474963, 8.9973345 ], [ 38.7453268, 9.0025716 ], [ 38.7420561, 9.0049155 ], [ 38.7387193, 9.0103826 ], [ 38.7402083, 9.0163209 ], [ 38.7425378, 9.0208561 ], [ 38.7428476, 9.0213885 ] ] ] } },
{ "type": "Feature", "properties": { "threshold_s": 300, "time_label": "5 min drive" }, "geometry": { "type": "Polygon", "coordinates": [ [ [ 38.7616126, 9.0004111 ], [ 38.7618234, 9.000837 ], [ 38.7628341, 9.0016946 ], [ 38.7642637, 9.0025648 ], [ 38.7654423, 9.0029203 ], [ 38.7681509, 9.0044184 ], [ 38.768731, 9.0043466 ], [ 38.769688, 9.0011882 ], [ 38.7704085, 9.0001463 ], [ 38.7714849, 8.997922 ], [ 38.7717256, 8.9974435 ], [ 38.7724357, 8.9962689 ], [ 38.774816199999989, 8.9941075 ], [ 38.7748685, 8.9939269 ], [ 38.7749201, 8.9927977 ], [ 38.7745701, 8.9912135 ], [ 38.7734872, 8.9905748 ], [ 38.7718676, 8.9877508 ], [ 38.7715766, 8.987731 ], [ 38.7714964, 8.9878394 ], [ 38.7711981, 8.9882736 ], [ 38.7711194, 8.9883651 ], [ 38.76804, 8.9900825 ], [ 38.7671041, 8.9879364 ], [ 38.7666345, 8.9868082 ], [ 38.7653051, 8.9847209 ], [ 38.7619202, 8.9856735 ], [ 38.7608696, 8.9875656 ], [ 38.7593683, 8.989876 ], [ 38.7592571, 8.9906178 ], [ 38.7591453, 8.9913732 ], [ 38.7591509, 8.9921947 ], [ 38.7594068, 8.9930156 ], [ 38.7597039, 8.9959808 ], [ 38.759554, 8.9967245 ], [ 38.7611096, 8.9987565 ], [ 38.7616126, 9.0004111 ] ] ] } },
{ "type": "Feature", "properties": { "threshold_s": 600, "time_label": "10 min drive" }, "geometry": { "type": "Polygon", "coordinates": [ [ [ 38.7591165, 9.0088639 ], [ 38.762877, 9.0129834 ], [ 38.7672256, 9.0115334 ], [ 38.7706225, 9.010122 ], [ 38.7746289, 9.010785 ], [ 38.7746584, 9.0107774 ], [ 38.7747095, 9.005959 ], [ 38.7757771, 9.0033548 ], [ 38.7766984, 8.9999864 ], [ 38.7798823, 8.9953285 ], [ 38.7821775, 8.9951933 ], [ 38.782616, 8.9950866 ], [ 38.7858171, 8.9901332 ], [ 38.7835729, 8.9882331 ], [ 38.7809604, 8.9863534 ], [ 38.7802336, 8.9860819 ], [ 38.7747851, 8.9823095 ], [ 38.7745827, 8.9810718 ], [ 38.7743091, 8.9808367 ], [ 38.7718879, 8.979752 ], [ 38.7708268, 8.9803929 ], [ 38.7646558, 8.9779692 ], [ 38.764073, 8.9772204 ], [ 38.7638058, 8.9768236 ], [ 38.7596897, 8.9769291 ], [ 38.759463599999989, 8.9769388 ], [ 38.7553965, 8.9820855 ], [ 38.7531757, 8.9836321 ], [ 38.7524498, 8.9849586 ], [ 38.7528229, 8.989431 ], [ 38.7511804, 8.9924779 ], [ 38.7508098, 8.9934276 ], [ 38.7499626, 8.9956028 ], [ 38.750528, 8.9968207 ], [ 38.7534426, 8.9998648 ], [ 38.7544636, 9.0003718 ], [ 38.7568183, 9.0016315 ], [ 38.7587103, 9.0068983 ], [ 38.7587462, 9.0073761 ], [ 38.7591165, 9.0088639 ] ] ] } },
{ "type": "Feature", "properties": { "threshold_s": 900, "time_label": "15 min drive" }, "geometry": { "type": "Polygon", "coordinates": [ [ [ 38.7503028, 9.0158043 ], [ 38.7524033, 9.0192765 ], [ 38.7527006, 9.0192325 ], [ 38.7547264, 9.0189117 ], [ 38.7603636, 9.0186068 ], [ 38.7645123, 9.0221623 ], [ 38.7650922, 9.0223314 ], [ 38.7664473, 9.0226405 ], [ 38.7713573, 9.0204686 ], [ 38.7745247, 9.0195546 ], [ 38.7747315, 9.0192594 ], [ 38.7760797, 9.0175791 ], [ 38.782059, 9.014438 ], [ 38.7832979, 9.0148016 ], [ 38.7834846, 9.01484 ], [ 38.7848288, 9.0151578 ], [ 38.7825194, 9.0091421 ], [ 38.7831612, 9.0062702 ], [ 38.7841033, 9.0045257 ], [ 38.7880442, 9.0011082 ], [ 38.7916964, 8.997649 ], [ 38.7923594, 8.995765 ], [ 38.7941338, 8.9900363 ], [ 38.7942992, 8.9887271 ], [ 38.791375, 8.9871117 ], [ 38.788826, 8.985809 ], [ 38.7879749, 8.9856538 ], [ 38.7855757, 8.9849273 ], [ 38.7842988, 8.9845215 ], [ 38.7787516, 8.9794447 ], [ 38.7777914, 8.9763594 ], [ 38.7756114, 8.9726492 ], [ 38.774991, 8.9719637 ], [ 38.7727569, 8.9732909 ], [ 38.7664998, 8.9707517 ], [ 38.7629064, 8.9653976 ], [ 38.7560391, 8.966296 ], [ 38.7537597, 8.9682181 ], [ 38.7533533, 8.9687004 ], [ 38.7499566, 8.9733372 ], [ 38.749449, 8.9752866 ], [ 38.7449466, 8.9801176 ], [ 38.7434792, 8.9838322 ], [ 38.7417482, 8.9901297 ], [ 38.7409514, 8.9922664 ], [ 38.7409119, 8.9932721 ], [ 38.739811, 9.0001027 ], [ 38.7400909, 9.0003675 ], [ 38.7453268, 9.0025716 ], [ 38.7466215, 9.0053198 ], [ 38.7472317, 9.0081935 ], [ 38.7472759, 9.012391 ], [ 38.7503028, 9.0158043 ] ] ] } },
{ "type": "Feature", "properties": { "threshold_s": 300, "time_label": "5 min drive" }, "geometry": { "type": "Polygon", "coordinates": [ [ [ 38.6927118, 8.9862837 ], [ 38.692866, 8.9869257 ], [ 38.694849499999989, 8.987429 ], [ 38.6969119, 8.9877447 ], [ 38.6975153, 8.9877243 ], [ 38.6981846, 8.9875973 ], [ 38.7002181, 8.9854493 ], [ 38.7007732, 8.9851538 ], [ 38.7008104, 8.9835302 ], [ 38.7016462, 8.9825158 ], [ 38.7043217, 8.9845778 ], [ 38.7056176, 8.9852563 ], [ 38.7071906, 8.9860857 ], [ 38.7083752, 8.9874839 ], [ 38.708532, 8.9873345 ], [ 38.7086718, 8.9871707 ], [ 38.7079333, 8.9848878 ], [ 38.7084384, 8.9835185 ], [ 38.7085032, 8.9833689 ], [ 38.7084134, 8.9828232 ], [ 38.7077742, 8.9798921 ], [ 38.7079883, 8.9792135 ], [ 38.706071799999989, 8.9767311 ], [ 38.705359, 8.9760753 ], [ 38.7040856, 8.976641 ], [ 38.7029967, 8.9771245 ], [ 38.7022738, 8.9774597 ], [ 38.699339, 8.977336 ], [ 38.6972304, 8.9779161 ], [ 38.6946158, 8.9787356 ], [ 38.6924254, 8.9801494 ], [ 38.6909841, 8.9819416 ], [ 38.6915857, 8.9831226 ], [ 38.6927118, 8.9862837 ] ] ] } },
{ "type": "Feature", "properties": { "threshold_s": 600, "time_label": "10 min drive" }, "geometry": { "type": "Polygon", "coordinates": [ [ [ 38.6851714, 8.9946456 ], [ 38.6857571, 8.9953136 ], [ 38.6885989, 8.9966658 ], [ 38.6888088, 8.996652 ], [ 38.6937337, 8.9950761 ], [ 38.6973627, 8.9942562 ], [ 38.6980989, 8.9940998 ], [ 38.703397699999989, 8.995898 ], [ 38.7036552, 8.9959927 ], [ 38.7084322, 8.9973378 ], [ 38.7100275, 8.9970837 ], [ 38.7101307, 8.99704 ], [ 38.7107611, 8.9965727 ], [ 38.7124069, 8.994555 ], [ 38.7174222, 8.9933596 ], [ 38.7176198, 8.992324 ], [ 38.717421, 8.9901426 ], [ 38.7162468, 8.9847824 ], [ 38.7168194, 8.9822457 ], [ 38.7175114, 8.9806295 ], [ 38.7176258, 8.979304 ], [ 38.7175921, 8.9788318 ], [ 38.7174562, 8.9781784 ], [ 38.7168061, 8.9769062 ], [ 38.7158324, 8.9755627 ], [ 38.7110888, 8.9732445 ], [ 38.708927, 8.9719794 ], [ 38.7056432, 8.97 ], [ 38.7050157, 8.9700427 ], [ 38.6995806, 8.9693043 ], [ 38.6990498, 8.9683497 ], [ 38.6971313, 8.9687966 ], [ 38.693298, 8.9718771 ], [ 38.6880975, 8.9715131 ], [ 38.6850221, 8.9739013 ], [ 38.6817193, 8.9755981 ], [ 38.6812049, 8.9804038 ], [ 38.6815021, 8.9827716 ], [ 38.6818968, 8.9843906 ], [ 38.6830907, 8.9856169 ], [ 38.6844909, 8.9899553 ], [ 38.6847643, 8.9941224 ], [ 38.6849978, 8.9944267 ], [ 38.6851714, 8.9946456 ] ] ] } },
{ "type": "Feature", "properties": { "threshold_s": 900, "time_label": "15 min drive" }, "geometry": { "type": "Polygon", "coordinates": [ [ [ 38.6767647, 9.0025998 ], [ 38.6769229, 9.0028475 ], [ 38.6769859, 9.0028859 ], [ 38.6799713, 9.0027562 ], [ 38.6827558, 9.0018986 ], [ 38.6890868, 9.003371 ], [ 38.6894532, 9.0035663 ], [ 38.6907014, 9.0043403 ], [ 38.6936827, 9.0051019 ], [ 38.695102, 9.0047754 ], [ 38.7027767, 9.0061576 ], [ 38.7044799, 9.0074318 ], [ 38.7046087, 9.0075405 ], [ 38.7047267, 9.0076213 ], [ 38.7062167, 9.0076667 ], [ 38.7104613, 9.0066437 ], [ 38.7179795, 9.0031352 ], [ 38.7193601, 9.0036258 ], [ 38.7243548, 8.9985074 ], [ 38.725241, 8.9974296 ], [ 38.7258931, 8.995587 ], [ 38.7266468, 8.9882505 ], [ 38.726567, 8.9872729 ], [ 38.7262524, 8.9869032 ], [ 38.7254062, 8.9857278 ], [ 38.7230837, 8.980366 ], [ 38.7282267, 8.9758101 ], [ 38.7276338, 8.9743338 ], [ 38.7262196, 8.9727065 ], [ 38.7201841, 8.9687735 ], [ 38.7166624, 8.9652527 ], [ 38.7123412, 8.9626778 ], [ 38.7064034, 8.959663 ], [ 38.7027645, 8.9600065 ], [ 38.7018661, 8.9610346 ], [ 38.6939415, 8.9628906 ], [ 38.6876692, 8.9633753 ], [ 38.6852364, 8.9636934 ], [ 38.6843382, 8.9641996 ], [ 38.6830531, 8.9652274 ], [ 38.676766, 8.9679733 ], [ 38.673031, 8.973781 ], [ 38.6721422, 8.9762441 ], [ 38.671875, 8.9837743 ], [ 38.6719914, 8.9863006 ], [ 38.6734468, 8.9912108 ], [ 38.6738524, 8.9921642 ], [ 38.6761196, 8.9999731 ], [ 38.6767647, 9.0025998 ] ] ] } },
{ "type": "Feature", "properties": { "threshold_s": 300, "time_label": "5 min drive" }, "geometry": { "type": "Polygon", "coordinates": [ [ [ 38.8531103, 9.0461421 ], [ 38.853138, 9.0471918 ], [ 38.8546703, 9.0485943 ], [ 38.8570453, 9.0487996 ], [ 38.8573752, 9.0488562 ], [ 38.8578781, 9.0489559 ], [ 38.8601862, 9.0500287 ], [ 38.8611813, 9.0496817 ], [ 38.8615139, 9.0491519 ], [ 38.8620771, 9.0479971 ], [ 38.8644568, 9.0471352 ], [ 38.864908, 9.0474997 ], [ 38.8651161, 9.047613 ], [ 38.8659955, 9.0479541 ], [ 38.866767, 9.0462568 ], [ 38.8666471, 9.0446423 ], [ 38.8674416, 9.0431642 ], [ 38.8679901, 9.0413286 ], [ 38.8673427, 9.0401281 ], [ 38.8675797, 9.0383181 ], [ 38.8668743, 9.0391631 ], [ 38.8646204, 9.0383765 ], [ 38.8639924, 9.0378354 ], [ 38.8624756, 9.0366788 ], [ 38.8620956, 9.0352 ], [ 38.8598327, 9.0363672 ], [ 38.8583172, 9.0371603 ], [ 38.8580072, 9.0381341 ], [ 38.8557371, 9.0384416 ], [ 38.8544491, 9.0374327 ], [ 38.8536206, 9.036021 ], [ 38.8535656, 9.0358154 ], [ 38.853540099999989, 9.0357091 ], [ 38.851442, 9.0368622 ], [ 38.8505866, 9.0390492 ], [ 38.8505922, 9.0391271 ], [ 38.8506618, 9.0391287 ], [ 38.8527283, 9.038722 ], [ 38.8535732, 9.04111 ], [ 38.8528343, 9.0416318 ], [ 38.8531675, 9.0423468 ], [ 38.8535316, 9.0429515 ], [ 38.8539653, 9.0446349 ], [ 38.8531571, 9.045512 ], [ 38.8531103, 9.0461421 ] ] ] } },
{ "type": "Feature", "properties": { "threshold_s": 600, "time_label": "10 min drive" }, "geometry": { "type": "Polygon", "coordinates": [ [ [ 38.8431395, 9.0441488 ], [ 38.8444564, 9.0491097 ], [ 38.8457277, 9.0501837 ], [ 38.8511002, 9.0542178 ], [ 38.8517761, 9.0552534 ], [ 38.8537543, 9.056705 ], [ 38.854115, 9.0548694 ], [ 38.8542894, 9.0539052 ], [ 38.8601862, 9.0500287 ], [ 38.8611813, 9.0496817 ], [ 38.8659955, 9.0479541 ], [ 38.8716953, 9.0526346 ], [ 38.8724747, 9.0542244 ], [ 38.8755371, 9.0495277 ], [ 38.8734818, 9.0473127 ], [ 38.8733882, 9.04726 ], [ 38.871941, 9.0470693 ], [ 38.8679901, 9.0413286 ], [ 38.8683777, 9.0387989 ], [ 38.8681483, 9.0364148 ], [ 38.8642685, 9.0370267 ], [ 38.8636881, 9.0301716 ], [ 38.8648603, 9.0291935 ], [ 38.864453, 9.0273341 ], [ 38.8634493, 9.0257236 ], [ 38.8609372, 9.0241635 ], [ 38.8597233, 9.0254334 ], [ 38.8528088, 9.0259356 ], [ 38.8525147, 9.0259371 ], [ 38.8511109, 9.0261157 ], [ 38.8482584, 9.028858 ], [ 38.8426997, 9.031717 ], [ 38.8420173, 9.0319792 ], [ 38.8398001, 9.0376201 ], [ 38.8431395, 9.0441488 ] ] ] } },
{ "type": "Feature", "properties": { "threshold_s": 900, "time_label": "15 min drive" }, "geometry": { "type": "Polygon", "coordinates": [ [ [ 38.842434, 9.0583393 ], [ 38.843521, 9.0630858 ], [ 38.8492039, 9.0592425 ], [ 38.8534793, 9.0604848 ], [ 38.8605483, 9.0640102 ], [ 38.8606649, 9.0640526 ], [ 38.8682529, 9.0602358 ], [ 38.871349, 9.0626494 ], [ 38.8735183, 9.0640267 ], [ 38.8736118, 9.0640332 ], [ 38.8743908, 9.0630486 ], [ 38.879104, 9.0568719 ], [ 38.881856, 9.0508919 ], [ 38.884281799999989, 9.0483931 ], [ 38.884189, 9.0475815 ], [ 38.8839143, 9.0463164 ], [ 38.8838345, 9.0462575 ], [ 38.8834589, 9.0459975 ], [ 38.8828401, 9.0456507 ], [ 38.8819824, 9.0451493 ], [ 38.8777726, 9.0387014 ], [ 38.8750247, 9.0371262 ], [ 38.8745373, 9.0368206 ], [ 38.8736915, 9.0364258 ], [ 38.8728559, 9.0284044 ], [ 38.8728382, 9.0279554 ], [ 38.8716971, 9.0247819 ], [ 38.8703433, 9.0212843 ], [ 38.8686226, 9.0208837 ], [ 38.8656563, 9.0209936 ], [ 38.8629043, 9.0208853 ], [ 38.8624596, 9.0208579 ], [ 38.861459, 9.0207778 ], [ 38.8567812, 9.0191047 ], [ 38.8539318, 9.0162771 ], [ 38.853612, 9.0160112 ], [ 38.853145499999989, 9.015706 ], [ 38.8526754, 9.0154835 ], [ 38.8520756, 9.0152653 ], [ 38.8515265, 9.0152912 ], [ 38.8506181, 9.0153391 ], [ 38.8491505, 9.0168544 ], [ 38.8429166, 9.0215052 ], [ 38.8409354, 9.0230954 ], [ 38.833261, 9.0268926 ], [ 38.8313178, 9.0277853 ], [ 38.8287561, 9.0357619 ], [ 38.8288055, 9.0378799 ], [ 38.8288562, 9.0386671 ], [ 38.8299177, 9.0400249 ], [ 38.8312454, 9.0410254 ], [ 38.8319382, 9.0415328 ], [ 38.8347642, 9.0435629 ], [ 38.8348553, 9.0502223 ], [ 38.8346241, 9.0505553 ], [ 38.8348219, 9.0515663 ], [ 38.8352088, 9.0519684 ], [ 38.837249, 9.052063 ], [ 38.842434, 9.0583393 ] ] ] } },
{ "type": "Feature", "properties": { "threshold_s": 300, "time_label": "5 min drive" }, "geometry": { "type": "Polygon", "coordinates": [ [ [ 38.7813556, 9.0188907 ], [ 38.7821863, 9.0204951 ], [ 38.7822623, 9.0205134 ], [ 38.7823931, 9.0205435 ], [ 38.7831854, 9.0201498 ], [ 38.7829991, 9.0181545 ], [ 38.7838972, 9.0171203 ], [ 38.7857034, 9.0172699 ], [ 38.7875045, 9.0160762 ], [ 38.7875552, 9.0160411 ], [ 38.787648, 9.0157163 ], [ 38.7882279, 9.0132665 ], [ 38.7904584, 9.0126092 ], [ 38.79091, 9.0119756 ], [ 38.7916999, 9.0107534 ], [ 38.7914546, 9.0085485 ], [ 38.7894939, 9.0070331 ], [ 38.7880187, 9.0050821 ], [ 38.787499, 9.0042476 ], [ 38.7859564, 9.0022885 ], [ 38.7856501, 9.0019812 ], [ 38.7855146, 9.0018629 ], [ 38.784636399999989, 9.0018117 ], [ 38.7819455, 9.0018084 ], [ 38.7811529, 9.0017307 ], [ 38.7805632, 9.0019087 ], [ 38.7792411, 9.0026554 ], [ 38.7787355, 9.0030202 ], [ 38.7780823, 9.0053305 ], [ 38.7768298, 9.0066669 ], [ 38.7767099, 9.0071045 ], [ 38.7778545, 9.009386 ], [ 38.7776996, 9.0101831 ], [ 38.7778035, 9.0124771 ], [ 38.7792254, 9.0132141 ], [ 38.7793668, 9.0132882 ], [ 38.7812692, 9.0141888 ], [ 38.7814865, 9.0162395 ], [ 38.7813904, 9.0177361 ], [ 38.7813556, 9.0188907 ] ] ] } },
{ "type": "Feature", "properties": { "threshold_s": 600, "time_label": "10 min drive" }, "geometry": { "type": "Polygon", "coordinates": [ [ [ 38.7738381, 9.0235314 ], [ 38.7752165, 9.0276289 ], [ 38.7786913, 9.0267849 ], [ 38.7811591, 9.0269391 ], [ 38.7840727, 9.0293788 ], [ 38.7857026, 9.0282428 ], [ 38.7871475, 9.0271371 ], [ 38.7874018, 9.0264369 ], [ 38.7890079, 9.0242943 ], [ 38.7928829, 9.0236637 ], [ 38.7931306, 9.0235175 ], [ 38.7966862, 9.0207786 ], [ 38.7986357, 9.0187146 ], [ 38.798727, 9.0145106 ], [ 38.79932, 9.0129423 ], [ 38.7997214, 9.0114246 ], [ 38.8012885, 9.0067028 ], [ 38.801541, 9.0052635 ], [ 38.797986, 9.0026206 ], [ 38.7955181, 9.0020965 ], [ 38.7951352, 8.9973643 ], [ 38.794295, 8.996814 ], [ 38.7899619, 8.994329 ], [ 38.7873682, 8.9940098 ], [ 38.7848228, 8.9926656 ], [ 38.7830666, 8.9913983 ], [ 38.7785505, 8.9925918 ], [ 38.7779248, 8.992709 ], [ 38.7770981, 8.992864 ], [ 38.7766295, 8.9930188 ], [ 38.7765583, 8.9936071 ], [ 38.7770092, 8.9949946 ], [ 38.7739914, 8.9989883 ], [ 38.7722506, 8.9984578 ], [ 38.770898099999989, 8.9992638 ], [ 38.7704085, 9.0001463 ], [ 38.7679328, 9.0040963 ], [ 38.7679271, 9.0042908 ], [ 38.7680585, 9.0045594 ], [ 38.768828, 9.0061181 ], [ 38.7692515, 9.0104413 ], [ 38.7694997, 9.0115212 ], [ 38.7712012, 9.0155134 ], [ 38.7720021, 9.0165267 ], [ 38.7727337, 9.0165182 ], [ 38.7744373, 9.0211581 ], [ 38.7743121, 9.0213249 ], [ 38.7739802, 9.0217136 ], [ 38.7739203, 9.0217859 ], [ 38.77381, 9.0232764 ], [ 38.7738381, 9.0235314 ] ] ] } },
{ "type": "Feature", "properties": { "threshold_s": 900, "time_label": "15 min drive" }, "geometry": { "type": "Polygon", "coordinates": [ [ [ 38.7664952, 9.0274613 ], [ 38.7636532, 9.0296992 ], [ 38.7639705, 9.0296349 ], [ 38.7683848, 9.0328415 ], [ 38.7684305, 9.0329237 ], [ 38.769884, 9.0342295 ], [ 38.771258, 9.0349868 ], [ 38.7722643, 9.0352881 ], [ 38.7725503, 9.0352767 ], [ 38.7749371, 9.0353666 ], [ 38.7795494, 9.0368103 ], [ 38.7797197, 9.0361348 ], [ 38.7847393, 9.0337449 ], [ 38.7855725, 9.0348864 ], [ 38.7859775, 9.0355527 ], [ 38.7864758, 9.0378832 ], [ 38.7866579, 9.0379459 ], [ 38.7882839, 9.036338 ], [ 38.7913411, 9.0328014 ], [ 38.7947311, 9.0312946 ], [ 38.7988474, 9.0307862 ], [ 38.8003777, 9.0302355 ], [ 38.8022468, 9.0290022 ], [ 38.8022679, 9.0289403 ], [ 38.8018037, 9.024702 ], [ 38.8033248, 9.0230951 ], [ 38.804852, 9.022493 ], [ 38.8088993, 9.0203582 ], [ 38.809637, 9.0202318 ], [ 38.810139, 9.0201299 ], [ 38.8090574, 9.016016 ], [ 38.808492, 9.015833 ], [ 38.8080794, 9.0104469 ], [ 38.8081708, 9.0103281 ], [ 38.8084044, 9.0099647 ], [ 38.8084584, 9.0098803 ], [ 38.8095595, 9.005847 ], [ 38.8092765, 9.0052556 ], [ 38.8089761, 9.0046984 ], [ 38.807631, 9.0004119 ], [ 38.8076692, 8.9973537 ], [ 38.8075995, 8.9959874 ], [ 38.8052438, 8.9957766 ], [ 38.804645, 8.9958576 ], [ 38.8026126, 8.9969332 ], [ 38.8004776, 8.9984045 ], [ 38.7965052, 8.9969379 ], [ 38.7966451, 8.9921571 ], [ 38.7976136, 8.9913002 ], [ 38.7962973, 8.9896849 ], [ 38.791375, 8.9871117 ], [ 38.789819799999989, 8.986366 ], [ 38.7888132, 8.9859297 ], [ 38.7879749, 8.9856538 ], [ 38.7855757, 8.9849273 ], [ 38.7842988, 8.9845215 ], [ 38.7829895, 8.9840922 ], [ 38.7782983, 8.982017 ], [ 38.7767255, 8.9817067 ], [ 38.7744192, 8.9813541 ], [ 38.7733461, 8.9814558 ], [ 38.7713633, 8.9819561 ], [ 38.7689877, 8.9865387 ], [ 38.76804, 8.9900825 ], [ 38.7648233, 8.9943716 ], [ 38.7632901, 8.995034 ], [ 38.7619851, 8.9958804 ], [ 38.7592063, 9.0006528 ], [ 38.7603074, 9.0040662 ], [ 38.7609067, 9.0058947 ], [ 38.7601319, 9.011234 ], [ 38.7591779, 9.0112723 ], [ 38.7576903, 9.0118964 ], [ 38.7585196, 9.0125992 ], [ 38.7586435, 9.0127141 ], [ 38.7632994, 9.0143168 ], [ 38.7623398, 9.017288 ], [ 38.76068, 9.0184747 ], [ 38.7605842, 9.0185252 ], [ 38.7638895, 9.0199177 ], [ 38.7650922, 9.0223314 ], [ 38.7664952, 9.0274613 ] ] ] } },
{ "type": "Feature", "properties": { "threshold_s": 300, "time_label": "5 min drive" }, "geometry": { "type": "Polygon", "coordinates": [ [ [ 38.7620759, 9.0032468 ], [ 38.7627134, 9.0043138 ], [ 38.763349, 9.0045134 ], [ 38.7643041, 9.0046681 ], [ 38.7645144, 9.0045259 ], [ 38.7653659, 9.0042173 ], [ 38.766098, 9.0042608 ], [ 38.7674794, 9.0056217 ], [ 38.7663964, 9.0070441 ], [ 38.7661556, 9.0073141 ], [ 38.7687166, 9.0066328 ], [ 38.7699708, 9.0073954 ], [ 38.7703865, 9.0079723 ], [ 38.7715262, 9.0057579 ], [ 38.7718892, 9.0054106 ], [ 38.7725712, 9.0035157 ], [ 38.7734655, 9.0030482 ], [ 38.7734899, 9.0014308 ], [ 38.7728595, 9.0004235 ], [ 38.7705998, 8.9995274 ], [ 38.7714849, 8.997922 ], [ 38.7717256, 8.9974435 ], [ 38.7724357, 8.9962689 ], [ 38.7741375, 8.9945623 ], [ 38.774816199999989, 8.9941075 ], [ 38.7748685, 8.9939269 ], [ 38.7749201, 8.9927977 ], [ 38.7737218, 8.9925375 ], [ 38.7717135, 8.9915076 ], [ 38.7694276, 8.9913349 ], [ 38.767995, 8.992182 ], [ 38.7674103, 8.9927141 ], [ 38.7665689, 8.9939808 ], [ 38.7656003, 8.9952358 ], [ 38.7637441, 8.9960754 ], [ 38.762479, 8.9967163 ], [ 38.7627134, 8.9985823 ], [ 38.7616126, 9.0004111 ], [ 38.7620078, 9.0019117 ], [ 38.7620759, 9.0032468 ] ] ] } },
{ "type": "Feature", "properties": { "threshold_s": 600, "time_label": "10 min drive" }, "geometry": { "type": "Polygon", "coordinates": [ [ [ 38.7543659, 9.0086832 ], [ 38.7535663, 9.009591 ], [ 38.7543717, 9.010126 ], [ 38.7586435, 9.0127141 ], [ 38.7631341, 9.0172933 ], [ 38.7636571, 9.0176742 ], [ 38.7691702, 9.0142051 ], [ 38.7743465, 9.0124832 ], [ 38.776373, 9.0129175 ], [ 38.7778035, 9.0124771 ], [ 38.7782262, 9.0118166 ], [ 38.778296, 9.0051979 ], [ 38.7782481, 9.0051158 ], [ 38.7772268, 9.0028263 ], [ 38.7766984, 8.9999864 ], [ 38.7822043, 8.9962199 ], [ 38.782616, 8.9950866 ], [ 38.7866521, 8.9898008 ], [ 38.7843984, 8.9874992 ], [ 38.7814712, 8.9855099 ], [ 38.7803636, 8.9851876 ], [ 38.7755186, 8.9855138 ], [ 38.7693325, 8.985905 ], [ 38.7661423, 8.9840979 ], [ 38.7656124, 8.9836021 ], [ 38.7612221, 8.9851544 ], [ 38.7597824, 8.9875102 ], [ 38.757013, 8.9912123 ], [ 38.7541343, 8.992905 ], [ 38.7530056, 8.9932938 ], [ 38.751323, 8.9950961 ], [ 38.7522604, 8.9960417 ], [ 38.7553013, 9.0003735 ], [ 38.7576883, 9.0047943 ], [ 38.7543659, 9.0086832 ] ] ] } },
{ "type": "Feature", "properties": { "threshold_s": 900, "time_label": "15 min drive" }, "geometry": { "type": "Polygon", "coordinates": [ [ [ 38.7487686, 9.0189104 ], [ 38.7502035, 9.0212671 ], [ 38.752181899999989, 9.0217133 ], [ 38.7546091, 9.0217117 ], [ 38.7555976, 9.0217609 ], [ 38.7614021, 9.0232701 ], [ 38.7616201, 9.0233396 ], [ 38.7673037, 9.0253571 ], [ 38.7681837, 9.0238363 ], [ 38.7732625, 9.0224856 ], [ 38.7753358, 9.0224459 ], [ 38.7789904, 9.020294 ], [ 38.7793942, 9.0198778 ], [ 38.7828065, 9.0165446 ], [ 38.7872844, 9.0160666 ], [ 38.7874547, 9.016091 ], [ 38.7889022, 9.0159914 ], [ 38.7874703, 9.0134929 ], [ 38.7880361, 9.0076636 ], [ 38.7888099, 9.0053423 ], [ 38.7882698, 9.0017096 ], [ 38.7918951, 8.9981743 ], [ 38.7927747, 8.996845 ], [ 38.7931524, 8.9954781 ], [ 38.7941338, 8.9900363 ], [ 38.7942992, 8.9887271 ], [ 38.791375, 8.9871117 ], [ 38.788826, 8.985809 ], [ 38.7879749, 8.9856538 ], [ 38.7855757, 8.9849273 ], [ 38.7842988, 8.9845215 ], [ 38.7829895, 8.9840922 ], [ 38.7787516, 8.9794447 ], [ 38.7777914, 8.9763594 ], [ 38.774204, 8.9770305 ], [ 38.7734922, 8.9773172 ], [ 38.7727762, 8.9776034 ], [ 38.772052, 8.9778816 ], [ 38.7697098, 8.9786677 ], [ 38.7638058, 8.9768236 ], [ 38.7632147, 8.9764116 ], [ 38.762356, 8.9764219 ], [ 38.759463599999989, 8.9769388 ], [ 38.7550824, 8.9815164 ], [ 38.7498189, 8.9837713 ], [ 38.749083, 8.9838288 ], [ 38.7478922, 8.9855711 ], [ 38.7440312, 8.9887843 ], [ 38.7427999, 8.9909033 ], [ 38.7426042, 8.9938157 ], [ 38.7424788, 8.9961176 ], [ 38.7429171, 8.9977021 ], [ 38.7429701, 8.9977686 ], [ 38.7456058, 8.9999417 ], [ 38.7467176, 9.0045045 ], [ 38.7466215, 9.0053198 ], [ 38.7441169, 9.0104975 ], [ 38.7458578, 9.0156628 ], [ 38.7487686, 9.0189104 ] ] ] } },
{ "type": "Feature", "properties": { "threshold_s": 300, "time_label": "5 min drive" }, "geometry": { "type": "Polygon", "coordinates": [ [ [ 38.7856127, 8.9987552 ], [ 38.785657, 8.9988254 ], [ 38.785766, 8.9987532 ], [ 38.7862813, 8.9984227 ], [ 38.7868335, 8.9981402 ], [ 38.7873295, 8.9978484 ], [ 38.788114299999989, 8.9962622 ], [ 38.788491, 8.9960225 ], [ 38.790482, 8.9965207 ], [ 38.7907287, 8.9971431 ], [ 38.79043, 8.9986976 ], [ 38.7906855, 8.9993148 ], [ 38.792624, 8.9985777 ], [ 38.7931544, 8.9983837 ], [ 38.7936291, 8.9982041 ], [ 38.7946719, 8.9978068 ], [ 38.7965052, 8.9969379 ], [ 38.7948523, 8.9966292 ], [ 38.7956395, 8.9945489 ], [ 38.7952264, 8.9934812 ], [ 38.7966451, 8.9921571 ], [ 38.797957, 8.9920335 ], [ 38.7976136, 8.9913002 ], [ 38.79654, 8.9900417 ], [ 38.7963452, 8.9891736 ], [ 38.7942992, 8.9887271 ], [ 38.7933953, 8.9891541 ], [ 38.7920318, 8.9875297 ], [ 38.791375, 8.9871117 ], [ 38.789819799999989, 8.986366 ], [ 38.788826, 8.985809 ], [ 38.7868774, 8.9866064 ], [ 38.7863919, 8.9875443 ], [ 38.7860875, 8.9884662 ], [ 38.7852007, 8.9903643 ], [ 38.7838371, 8.9909241 ], [ 38.7821462, 8.9917529 ], [ 38.7831055, 8.9938415 ], [ 38.7831277, 8.9950529 ], [ 38.7831292, 8.9955145 ], [ 38.7831297, 8.9956881 ], [ 38.7849529, 8.9969014 ], [ 38.7856127, 8.9987552 ] ] ] } },
{ "type": "Feature", "properties": { "threshold_s": 600, "time_label": "10 min drive" }, "geometry": { "type": "Polygon", "coordinates": [ [ [ 38.7780823, 9.0053305 ], [ 38.7785178, 9.006465 ], [ 38.7793355, 9.0069961 ], [ 38.784106, 9.0088471 ], [ 38.788185, 9.0101975 ], [ 38.7882279, 9.0102038 ], [ 38.7914546, 9.0085485 ], [ 38.7922908, 9.0081306 ], [ 38.7980586, 9.0036796 ], [ 38.799074, 9.0038833 ], [ 38.8012192, 9.004282 ], [ 38.8016061, 9.0039712 ], [ 38.8021788, 9.0022232 ], [ 38.8024677, 9.0009613 ], [ 38.8039235, 8.9944224 ], [ 38.8052058, 8.9922609 ], [ 38.8062731, 8.9893109 ], [ 38.8035562, 8.9852867 ], [ 38.8021619, 8.9853275 ], [ 38.7996331, 8.9854045 ], [ 38.7971379, 8.9861223 ], [ 38.789819799999989, 8.986366 ], [ 38.788826, 8.985809 ], [ 38.7855757, 8.9849273 ], [ 38.7842988, 8.9845215 ], [ 38.7784405, 8.9816191 ], [ 38.7760235, 8.9862013 ], [ 38.7729333, 8.9927706 ], [ 38.7728371, 8.993451 ], [ 38.7725108, 8.9964014 ], [ 38.7779966, 8.9994625 ], [ 38.7787355, 9.0030202 ], [ 38.7780823, 9.0053305 ] ] ] } },
{ "type": "Feature", "properties": { "threshold_s": 900, "time_label": "15 min drive" }, "geometry": { "type": "Polygon", "coordinates": [ [ [ 38.7695029, 9.0107419 ], [ 38.773148, 9.0145762 ], [ 38.7732235, 9.0146348 ], [ 38.7741335, 9.0152535 ], [ 38.7863688, 9.0207494 ], [ 38.7904462, 9.020033 ], [ 38.794452, 9.0163865 ], [ 38.8032581, 9.015064 ], [ 38.8061391, 9.0126899 ], [ 38.8080794, 9.0104469 ], [ 38.8081708, 9.0103281 ], [ 38.8084044, 9.0099647 ], [ 38.8084584, 9.0098803 ], [ 38.8105237, 9.0032667 ], [ 38.8153417, 8.9945278 ], [ 38.8179626, 8.9911075 ], [ 38.8178219, 8.987936 ], [ 38.8175372, 8.9873423 ], [ 38.8172293, 8.987135 ], [ 38.8066972, 8.9860036 ], [ 38.8035562, 8.9852867 ], [ 38.8021619, 8.9853275 ], [ 38.7996331, 8.9854045 ], [ 38.7899075, 8.9859732 ], [ 38.7880106, 8.9854871 ], [ 38.7855757, 8.9849273 ], [ 38.7777914, 8.9763594 ], [ 38.7756114, 8.9726492 ], [ 38.774991, 8.9719637 ], [ 38.7676058, 8.9774758 ], [ 38.76561, 8.9836625 ], [ 38.764379, 8.9877536 ], [ 38.7640184, 8.9969784 ], [ 38.7654833, 9.001129 ], [ 38.7692515, 9.0104413 ], [ 38.7695029, 9.0107419 ] ] ] } }
]
}
