{
"type": "FeatureCollection",
"name": "isochrone_amenity_food_court_drive",
"crs": { "type": "name", "properties": { "name": "urn:ogc:def:crs:OGC:1.3:CRS84" } },
"features": [
{ "type": "Feature", "properties": { "threshold_s": 300, "time_label": "5 min drive" }, "geometry": { "type": "Polygon", "coordinates": [ [ [ 38.7111095, 8.9555165 ], [ 38.7122696, 8.9580717 ], [ 38.7141168, 8.9576912 ], [ 38.7168521, 8.9578128 ], [ 38.7192077, 8.9581358 ], [ 38.72027, 8.9584448 ], [ 38.721219, 8.958567 ], [ 38.721756, 8.956553 ], [ 38.7233466, 8.954489 ], [ 38.7240869, 8.9542307 ], [ 38.7249555, 8.9541127 ], [ 38.7259094, 8.9535975 ], [ 38.7285414, 8.9528981 ], [ 38.7290916, 8.9523734 ], [ 38.7293728, 8.9494554 ], [ 38.7292342, 8.9479402 ], [ 38.7267036, 8.9470373 ], [ 38.72692820000001, 8.945737 ], [ 38.7268938, 8.9447904 ], [ 38.7262831, 8.9441282 ], [ 38.7242223, 8.9429329 ], [ 38.7234257, 8.9425925 ], [ 38.7230512, 8.9424723 ], [ 38.7222447, 8.9423215 ], [ 38.72147, 8.9422049 ], [ 38.7193868, 8.9430442 ], [ 38.7182753, 8.9445271 ], [ 38.7169259, 8.9451545 ], [ 38.7157618, 8.9461813 ], [ 38.7135835, 8.9481014 ], [ 38.7116111, 8.9484977 ], [ 38.7112892, 8.9485606 ], [ 38.7115609, 8.9511337 ], [ 38.7116421, 8.9511718 ], [ 38.7131958, 8.9522065 ], [ 38.7120212, 8.9546961 ], [ 38.7112694, 8.9546488 ], [ 38.7111095, 8.9555165 ] ] ] } },
{ "type": "Feature", "properties": { "threshold_s": 600, "time_label": "10 min drive" }, "geometry": { "type": "Polygon", "coordinates": [ [ [ 38.7059028, 8.9616931 ], [ 38.7078328, 8.9660976 ], [ 38.7093741, 8.9674281 ], [ 38.7129878, 8.9680759 ], [ 38.7130442, 8.9680264 ], [ 38.713413, 8.9677028 ], [ 38.7135435, 8.9675865 ], [ 38.7197162, 8.9653009 ], [ 38.7227297, 8.9653917 ], [ 38.7256871, 8.9656867 ], [ 38.7263616, 8.9623218 ], [ 38.7258145, 8.9585262 ], [ 38.7255286, 8.9576791 ], [ 38.7285447, 8.9530967 ], [ 38.7326854, 8.9552548 ], [ 38.7380125, 8.9520649 ], [ 38.7390684, 8.9520992 ], [ 38.7397443, 8.9508499 ], [ 38.7403698, 8.9493268 ], [ 38.7399991, 8.946957 ], [ 38.7398155, 8.9462499 ], [ 38.7393909, 8.9452527 ], [ 38.7365034, 8.9424817 ], [ 38.7347215, 8.9398383 ], [ 38.7337281, 8.9379649 ], [ 38.7281496, 8.9355909 ], [ 38.7254394, 8.9341175 ], [ 38.7229763, 8.9326774 ], [ 38.721579, 8.9319634 ], [ 38.7193925, 8.932224 ], [ 38.7190572, 8.9322785 ], [ 38.7171614, 8.9340249 ], [ 38.7172328, 8.9361997 ], [ 38.7158471, 8.9413677 ], [ 38.7136567, 8.9435823 ], [ 38.7111602, 8.9483774 ], [ 38.7068989, 8.9474827 ], [ 38.7051688, 8.9476046 ], [ 38.7020458, 8.9504067 ], [ 38.7011325, 8.9540559 ], [ 38.7013204, 8.955225 ], [ 38.7014061, 8.9557012 ], [ 38.7030939, 8.9579139 ], [ 38.7059028, 8.9616931 ] ] ] } },
{ "type": "Feature", "properties": { "threshold_s": 900, "time_label": "15 min drive" }, "geometry": { "type": "Polygon", "coordinates": [ [ [ 38.7020954, 8.9742923 ], [ 38.7022631, 8.9749428 ], [ 38.7037504, 8.9758767 ], [ 38.7057853, 8.9756135 ], [ 38.7065117, 8.9752925 ], [ 38.7076208, 8.974797 ], [ 38.7079365, 8.9746578 ], [ 38.7085293, 8.9743943 ], [ 38.7089684, 8.9741971 ], [ 38.7092046, 8.9740936 ], [ 38.7097858, 8.9738359 ], [ 38.7107423, 8.973403 ], [ 38.7110888, 8.9732445 ], [ 38.7120216, 8.9728206 ], [ 38.7131167, 8.9723742 ], [ 38.713758, 8.9722018 ], [ 38.7206829, 8.9750566 ], [ 38.7233107, 8.975741 ], [ 38.7256413, 8.9758612 ], [ 38.7267113, 8.9749511 ], [ 38.7278244, 8.9733004 ], [ 38.7280208, 8.9705749 ], [ 38.7335819, 8.9654407 ], [ 38.7338065, 8.9651427 ], [ 38.7355458, 8.9629714 ], [ 38.7352973, 8.9619756 ], [ 38.7352396, 8.9611247 ], [ 38.7351846, 8.9609923 ], [ 38.7348681, 8.9596248 ], [ 38.741532, 8.9558019 ], [ 38.7429693, 8.9567245 ], [ 38.7436067, 8.9570909 ], [ 38.745216, 8.9570471 ], [ 38.7459107, 8.9567583 ], [ 38.7473767, 8.9545751 ], [ 38.7489388, 8.9514326 ], [ 38.7507918, 8.9464212 ], [ 38.7495462, 8.9451586 ], [ 38.747048, 8.941687 ], [ 38.7455661, 8.9363773 ], [ 38.7399185, 8.9330791 ], [ 38.7337568, 8.9308869 ], [ 38.7338218, 8.9279367 ], [ 38.7283047, 8.9264388 ], [ 38.7252697, 8.9234049 ], [ 38.7247964, 8.923032 ], [ 38.7230057, 8.9219258 ], [ 38.7202896, 8.9240603 ], [ 38.7163543, 8.9307024 ], [ 38.7156326, 8.9307128 ], [ 38.7118706, 8.9287413 ], [ 38.71039, 8.9284051 ], [ 38.7082048, 8.9329563 ], [ 38.7018118, 8.936607 ], [ 38.6974579, 8.9421832 ], [ 38.6962013, 8.9441624 ], [ 38.6953464, 8.9456204 ], [ 38.6926549, 8.9525872 ], [ 38.6925951, 8.9564523 ], [ 38.6934453, 8.9582368 ], [ 38.6956407, 8.9599749 ], [ 38.6986901, 8.9671433 ], [ 38.6994021, 8.9681829 ], [ 38.7020954, 8.9742923 ] ] ] } }
]
}
