{
"type": "FeatureCollection",
"name": "isochrone_amenity_ice_cream_drive",
"crs": { "type": "name", "properties": { "name": "urn:ogc:def:crs:OGC:1.3:CRS84" } },
"features": [
{ "type": "Feature", "properties": { "threshold_s": 300, "time_label": "5 min drive" }, "geometry": { "type": "Polygon", "coordinates": [ [ [ 38.7765583, 8.9936071 ], [ 38.7788648, 8.9968111 ], [ 38.7822046, 8.997274 ], [ 38.7845103, 8.9958517 ], [ 38.7858836, 8.9938217 ], [ 38.7880334, 8.9933872 ], [ 38.7887993, 8.9927548 ], [ 38.7897353, 8.991741 ], [ 38.7908943, 8.9878711 ], [ 38.791375, 8.9871117 ], [ 38.7888132, 8.9859297 ], [ 38.7879749, 8.9856538 ], [ 38.7855757, 8.9849273 ], [ 38.7842988, 8.9845215 ], [ 38.7829895, 8.9840922 ], [ 38.7824454, 8.9839019 ], [ 38.781234, 8.9834683 ], [ 38.7786772, 8.9809764 ], [ 38.7785874, 8.9809511 ], [ 38.7767255, 8.9817067 ], [ 38.7762706, 8.9827382 ], [ 38.776095, 8.9835302 ], [ 38.775627, 8.9865062 ], [ 38.7756274, 8.9883794 ], [ 38.7760802, 8.9916884 ], [ 38.7765583, 8.9936071 ] ] ] } },
{ "type": "Feature", "properties": { "threshold_s": 600, "time_label": "10 min drive" }, "geometry": { "type": "Polygon", "coordinates": [ [ [ 38.7677011, 8.9984807 ], [ 38.76939, 9.0019851 ], [ 38.7740211, 9.0034718 ], [ 38.7768298, 9.0066669 ], [ 38.776921, 9.0067186 ], [ 38.7810148, 9.0078206 ], [ 38.7822264, 9.0073517 ], [ 38.7892042, 9.0040436 ], [ 38.7946719, 8.9978068 ], [ 38.7965052, 8.9969379 ], [ 38.797957, 8.9920335 ], [ 38.7997874, 8.9861208 ], [ 38.7996331, 8.9854045 ], [ 38.7965669, 8.9878238 ], [ 38.791375, 8.9871117 ], [ 38.7899075, 8.9859732 ], [ 38.7880106, 8.9854871 ], [ 38.7855757, 8.9849273 ], [ 38.7842988, 8.9845215 ], [ 38.7787516, 8.9794447 ], [ 38.7777914, 8.9763594 ], [ 38.7755072, 8.9716351 ], [ 38.7752672, 8.9716781 ], [ 38.774991, 8.9719637 ], [ 38.7710859, 8.9752898 ], [ 38.766807300000011, 8.9766861 ], [ 38.7665647, 8.9780956 ], [ 38.7660167, 8.9836272 ], [ 38.76804, 8.9900825 ], [ 38.767995, 8.992182 ], [ 38.7677946, 8.9951778 ], [ 38.767748, 8.9969339 ], [ 38.7677011, 8.9984807 ] ] ] } },
{ "type": "Feature", "properties": { "threshold_s": 900, "time_label": "15 min drive" }, "geometry": { "type": "Polygon", "coordinates": [ [ [ 38.7587616, 9.0011842 ], [ 38.7625799, 9.011047 ], [ 38.7720021, 9.0165267 ], [ 38.7823501, 9.0188421 ], [ 38.7865155, 9.0155037 ], [ 38.7945046, 9.0111732 ], [ 38.8030658, 9.0047334 ], [ 38.804299, 8.9997678 ], [ 38.807634299999989, 8.9913228 ], [ 38.8097735, 8.9869675 ], [ 38.8035562, 8.9852867 ], [ 38.8021619, 8.9853275 ], [ 38.7996331, 8.9854045 ], [ 38.7971379, 8.9861223 ], [ 38.7899075, 8.9859732 ], [ 38.7880106, 8.9854871 ], [ 38.7855757, 8.9849273 ], [ 38.7842988, 8.9845215 ], [ 38.7787516, 8.9794447 ], [ 38.7777914, 8.9763594 ], [ 38.7828796, 8.9680649 ], [ 38.7828581, 8.9679775 ], [ 38.7775834, 8.9635925 ], [ 38.7726275, 8.964449 ], [ 38.7652253, 8.9676387 ], [ 38.7609422, 8.9727954 ], [ 38.7565841, 8.9820643 ], [ 38.7566253, 8.9821654 ], [ 38.7581079, 8.9865699 ], [ 38.7591509, 8.9921947 ], [ 38.7586856, 8.9999436 ], [ 38.7587616, 9.0011842 ] ] ] } },
{ "type": "Feature", "properties": { "threshold_s": 300, "time_label": "5 min drive" }, "geometry": { "type": "Polygon", "coordinates": [ [ [ 38.7382583, 8.9913632 ], [ 38.7392676, 8.9926514 ], [ 38.7397219, 8.9928068 ], [ 38.7403448, 8.992732 ], [ 38.7419007, 8.9927539 ], [ 38.7423327, 8.9934272 ], [ 38.7434026, 8.9939302 ], [ 38.7452549, 8.9933223 ], [ 38.7456994, 8.9915732 ], [ 38.746548, 8.9912452 ], [ 38.7481062, 8.9924875 ], [ 38.7492152, 8.990987 ], [ 38.7507585, 8.9909195 ], [ 38.7505294, 8.9903366 ], [ 38.7504602, 8.9901643 ], [ 38.7503111, 8.9898229 ], [ 38.7504087, 8.9881536 ], [ 38.7513983, 8.9875137 ], [ 38.7529867, 8.9864926 ], [ 38.7538783, 8.9855538 ], [ 38.7539353, 8.9851217 ], [ 38.753886799999989, 8.9841577 ], [ 38.7546939, 8.9829714 ], [ 38.7546444, 8.9828867 ], [ 38.7527904, 8.9823227 ], [ 38.7521887, 8.9813524 ], [ 38.751215, 8.9809463 ], [ 38.7494497, 8.9805597 ], [ 38.7493453, 8.9797206 ], [ 38.7477986, 8.9798018 ], [ 38.746618, 8.97861 ], [ 38.7465289, 8.9778681 ], [ 38.7450331, 8.9784779 ], [ 38.7445218, 8.978609 ], [ 38.7432719, 8.9790354 ], [ 38.7422588, 8.9800577 ], [ 38.7410338, 8.9804994 ], [ 38.7414242, 8.982242 ], [ 38.7415929, 8.9840381 ], [ 38.7399909, 8.9851374 ], [ 38.7396638, 8.983312 ], [ 38.7390308, 8.982704 ], [ 38.7381422, 8.9843072 ], [ 38.738839, 8.9858925 ], [ 38.7389203, 8.986896 ], [ 38.7382566, 8.9884032 ], [ 38.7378312, 8.9901859 ], [ 38.7382583, 8.9913632 ] ] ] } },
{ "type": "Feature", "properties": { "threshold_s": 600, "time_label": "10 min drive" }, "geometry": { "type": "Polygon", "coordinates": [ [ [ 38.7306458, 8.9975836 ], [ 38.7307139, 8.9976947 ], [ 38.7308209, 8.9976433 ], [ 38.7344089, 8.9966973 ], [ 38.7371778, 8.998569 ], [ 38.7368938, 9.0019137 ], [ 38.7375899, 9.0023508 ], [ 38.7414856, 9.0033531 ], [ 38.7453515, 9.0035301 ], [ 38.7469735, 9.0027395 ], [ 38.750249599999989, 9.0023687 ], [ 38.7508607, 9.0022828 ], [ 38.7530485, 9.0017179 ], [ 38.756643, 8.9997752 ], [ 38.7568953, 8.999106 ], [ 38.7580262, 8.9952112 ], [ 38.7586913, 8.9945654 ], [ 38.7591808, 8.9929533 ], [ 38.7593683, 8.989876 ], [ 38.7622024, 8.9876198 ], [ 38.7634392, 8.9867237 ], [ 38.764763, 8.9826604 ], [ 38.7643836, 8.9807645 ], [ 38.7640365, 8.9799769 ], [ 38.7623526, 8.9769294 ], [ 38.7620297, 8.9769472 ], [ 38.7598425, 8.9769483 ], [ 38.7596897, 8.9769291 ], [ 38.759463599999989, 8.9769388 ], [ 38.7553018, 8.9781789 ], [ 38.755698, 8.9743462 ], [ 38.7556491, 8.9741679 ], [ 38.7555309, 8.9737591 ], [ 38.7519374, 8.9714592 ], [ 38.7493646, 8.9693139 ], [ 38.7463116, 8.9676211 ], [ 38.7433183, 8.9689843 ], [ 38.739233, 8.9709154 ], [ 38.7383361, 8.971329 ], [ 38.7346587, 8.9739573 ], [ 38.7339346, 8.9746786 ], [ 38.7341784, 8.9766996 ], [ 38.7328719, 8.9802039 ], [ 38.7311625, 8.9804746 ], [ 38.73054470000001, 8.9810628 ], [ 38.7294422, 8.9825095 ], [ 38.7292729, 8.9868235 ], [ 38.7292344, 8.9903232 ], [ 38.7291461, 8.9928174 ], [ 38.7300958, 8.9939767 ], [ 38.7306458, 8.9975836 ] ] ] } },
{ "type": "Feature", "properties": { "threshold_s": 900, "time_label": "15 min drive" }, "geometry": { "type": "Polygon", "coordinates": [ [ [ 38.7205976, 8.9985226 ], [ 38.719909, 8.9998875 ], [ 38.7205095, 8.9996903 ], [ 38.7209133, 8.9995602 ], [ 38.7220337, 8.9992215 ], [ 38.7224929, 8.9990797 ], [ 38.7236724, 8.9987142 ], [ 38.7268985, 8.9991841 ], [ 38.7274674, 8.99912 ], [ 38.732501, 9.001813 ], [ 38.730182, 9.0046135 ], [ 38.7292146, 9.0052443 ], [ 38.7285474, 9.0064755 ], [ 38.7284978, 9.0065722 ], [ 38.7316869, 9.0097061 ], [ 38.7343531, 9.0114249 ], [ 38.7389403, 9.0110598 ], [ 38.7435514, 9.0143736 ], [ 38.7445575, 9.0147705 ], [ 38.7446487, 9.0147699 ], [ 38.7484963, 9.0132162 ], [ 38.7532079, 9.0115041 ], [ 38.7552017, 9.0100104 ], [ 38.7588742, 9.0086394 ], [ 38.7587141, 9.0041929 ], [ 38.7628341, 9.0016946 ], [ 38.7657918, 9.0013837 ], [ 38.7672926, 9.0015638 ], [ 38.7682828, 8.9978144 ], [ 38.7708546, 8.9939276 ], [ 38.7722285, 8.9911314 ], [ 38.7725604, 8.990016 ], [ 38.7726688, 8.9892939 ], [ 38.7748626, 8.9837732 ], [ 38.7747851, 8.9823095 ], [ 38.7745827, 8.9810718 ], [ 38.7743091, 8.9808367 ], [ 38.7738427, 8.980634 ], [ 38.7718879, 8.979752 ], [ 38.7708268, 8.9803929 ], [ 38.7650426, 8.9787808 ], [ 38.7650392, 8.976104 ], [ 38.7652743, 8.9732919 ], [ 38.7656622, 8.9723626 ], [ 38.7660779, 8.9717093 ], [ 38.7664998, 8.9707517 ], [ 38.7627127, 8.9666965 ], [ 38.7628423, 8.9658809 ], [ 38.7629064, 8.9653976 ], [ 38.7630229, 8.9646366 ], [ 38.7623257, 8.9643852 ], [ 38.7568627, 8.9636039 ], [ 38.7521419, 8.9606771 ], [ 38.7500138, 8.9582778 ], [ 38.7475643, 8.9601159 ], [ 38.7457092, 8.9611077 ], [ 38.7404933, 8.9609058 ], [ 38.7355458, 8.9629714 ], [ 38.7328483, 8.9624614 ], [ 38.7313496, 8.9646863 ], [ 38.7294074, 8.9700954 ], [ 38.7276923, 8.9702858 ], [ 38.7276987, 8.9714324 ], [ 38.7275709, 8.9736276 ], [ 38.7274114, 8.9748038 ], [ 38.7270547, 8.9798003 ], [ 38.7239528, 8.9834432 ], [ 38.722532, 8.9843766 ], [ 38.7213006, 8.9865915 ], [ 38.7206103, 8.9904456 ], [ 38.7210667, 8.9937515 ], [ 38.7205976, 8.9985226 ] ] ] } },
{ "type": "Feature", "properties": { "threshold_s": 300, "time_label": "5 min drive" }, "geometry": { "type": "Polygon", "coordinates": [ [ [ 38.7694764, 9.0373855 ], [ 38.7690862, 9.0396591 ], [ 38.7719861, 9.0388152 ], [ 38.7728901, 9.0400549 ], [ 38.7734143, 9.0388789 ], [ 38.7747213, 9.0379721 ], [ 38.7773078, 9.0393449 ], [ 38.7791536, 9.0381632 ], [ 38.7801888, 9.0380316 ], [ 38.7802756, 9.0377758 ], [ 38.7803837, 9.0374574 ], [ 38.7799358, 9.0345924 ], [ 38.7804737, 9.033912 ], [ 38.7817318, 9.0329631 ], [ 38.7820987, 9.0327323 ], [ 38.7821375, 9.0323922 ], [ 38.7819364, 9.0322232 ], [ 38.7809914, 9.0313419 ], [ 38.7802271, 9.0305908 ], [ 38.7801866, 9.0281985 ], [ 38.7797408, 9.0260601 ], [ 38.777594, 9.0246542 ], [ 38.7764838, 9.0227621 ], [ 38.7754273, 9.0227795 ], [ 38.77381, 9.0232764 ], [ 38.7722297, 9.0251154 ], [ 38.7696171, 9.026581 ], [ 38.767701, 9.0287114 ], [ 38.7673563, 9.028805 ], [ 38.7660695, 9.0292297 ], [ 38.7657206, 9.0293019 ], [ 38.7664014, 9.0314507 ], [ 38.7664081, 9.0326913 ], [ 38.7636485, 9.0328556 ], [ 38.7663647, 9.032801 ], [ 38.7668058, 9.0346378 ], [ 38.7668753, 9.0362687 ], [ 38.767127, 9.0371605 ], [ 38.7694764, 9.0373855 ] ] ] } },
{ "type": "Feature", "properties": { "threshold_s": 600, "time_label": "10 min drive" }, "geometry": { "type": "Polygon", "coordinates": [ [ [ 38.75772, 9.0409807 ], [ 38.7600057, 9.0440359 ], [ 38.7612864, 9.0448542 ], [ 38.763052, 9.0454363 ], [ 38.7657775, 9.0471413 ], [ 38.767836, 9.0485087 ], [ 38.7703055, 9.0488674 ], [ 38.7711241, 9.0483539 ], [ 38.772725, 9.0469788 ], [ 38.7770637, 9.0488362 ], [ 38.7801772, 9.0488867 ], [ 38.781437, 9.0475166 ], [ 38.7863618, 9.0469064 ], [ 38.7878533, 9.0457387 ], [ 38.7877241, 9.0438592 ], [ 38.7869235, 9.0434758 ], [ 38.7853727, 9.0402983 ], [ 38.7878993, 9.0373684 ], [ 38.7884075, 9.037232 ], [ 38.788646, 9.0371199 ], [ 38.788999, 9.0366321 ], [ 38.7887482, 9.0361844 ], [ 38.7880696, 9.0351791 ], [ 38.7869981, 9.033897 ], [ 38.7863892, 9.0328944 ], [ 38.7895501, 9.0295027 ], [ 38.7905778, 9.0297413 ], [ 38.7918447, 9.0297488 ], [ 38.7915674, 9.0270575 ], [ 38.790843099999989, 9.0265755 ], [ 38.7906046, 9.026414 ], [ 38.7897938, 9.0259138 ], [ 38.7876736, 9.021887 ], [ 38.7875611, 9.0213976 ], [ 38.7855651, 9.0185913 ], [ 38.7846333, 9.0173506 ], [ 38.7828065, 9.0165446 ], [ 38.7818197, 9.0163062 ], [ 38.777837, 9.0134105 ], [ 38.7767513, 9.0132784 ], [ 38.773148, 9.0145762 ], [ 38.7700074, 9.0148215 ], [ 38.7699191, 9.014831 ], [ 38.7687544, 9.0164593 ], [ 38.766175, 9.0194163 ], [ 38.7664473, 9.0226405 ], [ 38.7616201, 9.0233396 ], [ 38.7605536, 9.0224021 ], [ 38.7600956, 9.0220791 ], [ 38.7573693, 9.0258112 ], [ 38.7549855, 9.028112 ], [ 38.7542995, 9.0292944 ], [ 38.7552732, 9.0313196 ], [ 38.7570673, 9.0349685 ], [ 38.7565413, 9.0397014 ], [ 38.75772, 9.0409807 ] ] ] } },
{ "type": "Feature", "properties": { "threshold_s": 900, "time_label": "15 min drive" }, "geometry": { "type": "Polygon", "coordinates": [ [ [ 38.7541108, 9.0502794 ], [ 38.7567921, 9.0545851 ], [ 38.759146, 9.0555105 ], [ 38.761095, 9.0559983 ], [ 38.7615513, 9.0556329 ], [ 38.766554, 9.0571415 ], [ 38.7680711, 9.0582347 ], [ 38.7727665, 9.0582167 ], [ 38.7734663, 9.0584863 ], [ 38.7750567, 9.0592265 ], [ 38.7764786, 9.0583824 ], [ 38.7804636, 9.0589097 ], [ 38.7811896, 9.0585373 ], [ 38.7816886, 9.058182 ], [ 38.7819834, 9.0579019 ], [ 38.7824511, 9.056754 ], [ 38.7870759, 9.0554455 ], [ 38.7875402, 9.0553401 ], [ 38.7876136, 9.0553217 ], [ 38.7873548, 9.0536933 ], [ 38.7866829, 9.0534973 ], [ 38.7850186, 9.049336 ], [ 38.7881461, 9.0481785 ], [ 38.7892183, 9.0480524 ], [ 38.792129, 9.0494167 ], [ 38.7906995, 9.0454025 ], [ 38.7967241, 9.0428703 ], [ 38.7918929, 9.0415089 ], [ 38.788016399999989, 9.0400262 ], [ 38.788646, 9.0371199 ], [ 38.788999, 9.0366321 ], [ 38.7894697, 9.0358202 ], [ 38.7898711, 9.0353037 ], [ 38.7913411, 9.0328014 ], [ 38.7947311, 9.0312946 ], [ 38.7968678, 9.0306899 ], [ 38.7997189, 9.0335465 ], [ 38.8011234, 9.0303124 ], [ 38.8026381, 9.0286812 ], [ 38.8018846, 9.028053 ], [ 38.8002681, 9.023194 ], [ 38.8016071, 9.0216033 ], [ 38.8018883, 9.0211049 ], [ 38.7985283, 9.0198997 ], [ 38.7967567, 9.0182941 ], [ 38.7930271, 9.0146946 ], [ 38.7923363, 9.0136784 ], [ 38.7901039, 9.0104895 ], [ 38.7890337, 9.0094553 ], [ 38.7884709, 9.0091113 ], [ 38.7884384, 9.0091028 ], [ 38.7876204, 9.009073 ], [ 38.7830203, 9.0068467 ], [ 38.7823277, 9.0060781 ], [ 38.7782481, 9.0051158 ], [ 38.7747095, 9.005959 ], [ 38.7705427, 9.0083326 ], [ 38.7672577, 9.0104737 ], [ 38.7629096, 9.0108249 ], [ 38.7626954, 9.0108388 ], [ 38.76206, 9.0111118 ], [ 38.7627136, 9.0143638 ], [ 38.7623398, 9.017288 ], [ 38.7587022, 9.0179263 ], [ 38.7576248, 9.0176281 ], [ 38.755531, 9.0174041 ], [ 38.7548211, 9.0173518 ], [ 38.7544893, 9.0173204 ], [ 38.7543086, 9.017315 ], [ 38.753888, 9.0173878 ], [ 38.7523804, 9.0177735 ], [ 38.750576, 9.0190124 ], [ 38.7494138, 9.0211226 ], [ 38.7494123, 9.0211759 ], [ 38.7484098, 9.0257303 ], [ 38.7467348, 9.0260581 ], [ 38.7456176, 9.0283852 ], [ 38.7441603, 9.0327651 ], [ 38.7459972, 9.0372572 ], [ 38.7463573, 9.0387571 ], [ 38.7468408, 9.0409882 ], [ 38.7472209, 9.0428928 ], [ 38.7472735, 9.0431496 ], [ 38.7474576, 9.0438086 ], [ 38.7483059, 9.0449257 ], [ 38.7485637, 9.0452148 ], [ 38.7496739, 9.0462356 ], [ 38.752185, 9.0486421 ], [ 38.752947399999989, 9.0493172 ], [ 38.7537116, 9.0500137 ], [ 38.7541108, 9.0502794 ] ] ] } },
{ "type": "Feature", "properties": { "threshold_s": 300, "time_label": "5 min drive" }, "geometry": { "type": "Polygon", "coordinates": [ [ [ 38.7625799, 9.011047 ], [ 38.7627294, 9.0115076 ], [ 38.7654659, 9.0106243 ], [ 38.7662712, 9.0095248 ], [ 38.7688528, 9.0085028 ], [ 38.7702843, 9.0101555 ], [ 38.7706225, 9.010122 ], [ 38.7724962, 9.0100703 ], [ 38.7742127, 9.0105641 ], [ 38.773689, 9.0090041 ], [ 38.7743817, 9.0065093 ], [ 38.7747095, 9.005959 ], [ 38.7734664, 9.0036753 ], [ 38.774843, 9.0010288 ], [ 38.7752118, 9.0003829 ], [ 38.7749536, 8.9996857 ], [ 38.7731964, 8.9969276 ], [ 38.7716165, 8.9966689 ], [ 38.7711701, 8.9966563 ], [ 38.7699596, 8.9968619 ], [ 38.7666297, 8.9961166 ], [ 38.7650591, 8.996884 ], [ 38.7643388, 8.9973094 ], [ 38.7629789, 9.000368 ], [ 38.7628341, 9.0016946 ], [ 38.7627804, 9.0027459 ], [ 38.7632552, 9.0036992 ], [ 38.7643041, 9.0046681 ], [ 38.7661556, 9.0073141 ], [ 38.7647812, 9.0085945 ], [ 38.7643986, 9.0090118 ], [ 38.7636137, 9.009863 ], [ 38.7626954, 9.0108388 ], [ 38.7625799, 9.011047 ] ] ] } },
{ "type": "Feature", "properties": { "threshold_s": 600, "time_label": "10 min drive" }, "geometry": { "type": "Polygon", "coordinates": [ [ [ 38.7527724, 9.0143482 ], [ 38.753888, 9.0173878 ], [ 38.7543747, 9.0174346 ], [ 38.7554835, 9.0175438 ], [ 38.7603636, 9.0186068 ], [ 38.7645123, 9.0221623 ], [ 38.7666902, 9.0194705 ], [ 38.7714391, 9.0195628 ], [ 38.7740742, 9.0190452 ], [ 38.774797, 9.0185944 ], [ 38.7760797, 9.0175791 ], [ 38.782059, 9.014438 ], [ 38.7832979, 9.0148016 ], [ 38.7834846, 9.01484 ], [ 38.7834729, 9.0142678 ], [ 38.7817363, 9.009675 ], [ 38.7824927, 9.004531 ], [ 38.7819455, 9.0018084 ], [ 38.7811529, 9.0017307 ], [ 38.7763283, 8.9988565 ], [ 38.7763041, 8.9957546 ], [ 38.7797226, 8.9922354 ], [ 38.7816045, 8.9919559 ], [ 38.7816924, 8.991925 ], [ 38.7816987, 8.9917573 ], [ 38.7811683, 8.9898306 ], [ 38.7779312, 8.9897209 ], [ 38.7718676, 8.9877508 ], [ 38.7708995, 8.987194 ], [ 38.7652114, 8.9860036 ], [ 38.7634392, 8.9867237 ], [ 38.7621897, 8.9874769 ], [ 38.7592571, 8.9906178 ], [ 38.7556065, 8.9931137 ], [ 38.7534142, 8.9955503 ], [ 38.7533887, 8.9956298 ], [ 38.7555253, 8.9985161 ], [ 38.7576883, 9.0047943 ], [ 38.7545018, 9.0072532 ], [ 38.7519181, 9.0117755 ], [ 38.7527724, 9.0143482 ] ] ] } },
{ "type": "Feature", "properties": { "threshold_s": 900, "time_label": "15 min drive" }, "geometry": { "type": "Polygon", "coordinates": [ [ [ 38.7445602, 9.0201826 ], [ 38.747689, 9.0250316 ], [ 38.7515863, 9.0272817 ], [ 38.7519917, 9.0274854 ], [ 38.7572955, 9.0263761 ], [ 38.7657206, 9.0293019 ], [ 38.7661201, 9.0294042 ], [ 38.7727188, 9.0282905 ], [ 38.7752165, 9.0276289 ], [ 38.7783603, 9.0264075 ], [ 38.7862275, 9.0229698 ], [ 38.7921291, 9.0212226 ], [ 38.7953428, 9.0176745 ], [ 38.7945459, 9.0160394 ], [ 38.7919018, 9.0073888 ], [ 38.7917389, 9.0056483 ], [ 38.7906855, 8.9993148 ], [ 38.7911253, 8.9962245 ], [ 38.7920318, 8.9875297 ], [ 38.791375, 8.9871117 ], [ 38.7888132, 8.9859297 ], [ 38.7879749, 8.9856538 ], [ 38.7855757, 8.9849273 ], [ 38.7786772, 8.9809764 ], [ 38.7785874, 8.9809511 ], [ 38.7751313, 8.9805236 ], [ 38.7733878, 8.9804854 ], [ 38.7712984, 8.9803752 ], [ 38.7643249, 8.9775938 ], [ 38.7596571, 8.9770686 ], [ 38.7531529, 8.9835029 ], [ 38.7500797, 8.9845346 ], [ 38.7454378, 8.9894532 ], [ 38.7446282, 8.9907519 ], [ 38.7433207, 8.995185 ], [ 38.743202, 8.9960376 ], [ 38.7438853, 8.9969221 ], [ 38.7439552, 8.9970066 ], [ 38.7451953, 9.0051276 ], [ 38.7432431, 9.0074962 ], [ 38.7407623, 9.0108375 ], [ 38.7427155, 9.0163732 ], [ 38.7445602, 9.0201826 ] ] ] } },
{ "type": "Feature", "properties": { "threshold_s": 300, "time_label": "5 min drive" }, "geometry": { "type": "Polygon", "coordinates": [ [ [ 38.8694559, 9.0259726 ], [ 38.8684342, 9.0269428 ], [ 38.8686174, 9.0269972 ], [ 38.8698443, 9.0273614 ], [ 38.8705179, 9.0270392 ], [ 38.871983899999989, 9.0295753 ], [ 38.8725337, 9.0295832 ], [ 38.874594, 9.0312755 ], [ 38.8745846, 9.0317379 ], [ 38.8746006, 9.0322828 ], [ 38.8757952, 9.0334642 ], [ 38.8769541, 9.0340369 ], [ 38.8784839, 9.0328811 ], [ 38.8795155, 9.0319775 ], [ 38.8811432, 9.0307539 ], [ 38.8828403, 9.0291106 ], [ 38.8832273, 9.0285562 ], [ 38.8851435, 9.0268618 ], [ 38.8860216, 9.0258678 ], [ 38.8860816, 9.0255144 ], [ 38.8855332, 9.0244312 ], [ 38.8846351, 9.0232365 ], [ 38.8827652, 9.0218139 ], [ 38.8819166, 9.020721 ], [ 38.8807936, 9.019455 ], [ 38.879262, 9.0177419 ], [ 38.8779482, 9.0166177 ], [ 38.8768106, 9.0180733 ], [ 38.8765792, 9.0188719 ], [ 38.876574, 9.0194041 ], [ 38.8764855, 9.0197393 ], [ 38.8757868, 9.0208335 ], [ 38.8734134, 9.0200097 ], [ 38.8733147, 9.018458 ], [ 38.8723236, 9.0167624 ], [ 38.8726388, 9.0152897 ], [ 38.87104, 9.014919 ], [ 38.8712033, 9.0154141 ], [ 38.8713304, 9.0158969 ], [ 38.8714703, 9.0163517 ], [ 38.869444, 9.0182316 ], [ 38.8696028, 9.0186949 ], [ 38.8686226, 9.0208837 ], [ 38.8670985, 9.0210156 ], [ 38.8671019, 9.0214556 ], [ 38.8674602, 9.021465 ], [ 38.8682184, 9.0214591 ], [ 38.8699062, 9.022363 ], [ 38.8701941, 9.0227452 ], [ 38.8701761, 9.0254044 ], [ 38.8694559, 9.0259726 ] ] ] } },
{ "type": "Feature", "properties": { "threshold_s": 600, "time_label": "10 min drive" }, "geometry": { "type": "Polygon", "coordinates": [ [ [ 38.8714937, 9.0387469 ], [ 38.8730906, 9.0419826 ], [ 38.8764706, 9.0435772 ], [ 38.8778334, 9.0429907 ], [ 38.8777715, 9.0398857 ], [ 38.8821253, 9.0386812 ], [ 38.8830292, 9.0398019 ], [ 38.8844918, 9.0386993 ], [ 38.8858561, 9.0369962 ], [ 38.8898581, 9.033852 ], [ 38.8906735, 9.0305845 ], [ 38.8919623, 9.0286336 ], [ 38.8920039, 9.0280826 ], [ 38.8919114, 9.0271872 ], [ 38.8955471, 9.0237263 ], [ 38.8925918, 9.0201278 ], [ 38.8907245, 9.020097 ], [ 38.8906498, 9.0200987 ], [ 38.8862294, 9.0192266 ], [ 38.8855438, 9.0154758 ], [ 38.8850949, 9.0125743 ], [ 38.8846294, 9.0117755 ], [ 38.8833021, 9.0107194 ], [ 38.8799232, 9.0097578 ], [ 38.8773858, 9.0068994 ], [ 38.876848, 9.0069762 ], [ 38.8763089, 9.0072795 ], [ 38.8732047, 9.0109346 ], [ 38.8696938, 9.0094141 ], [ 38.8693115, 9.0088141 ], [ 38.8690925, 9.0057589 ], [ 38.8689972, 9.0056675 ], [ 38.8679317, 9.0055634 ], [ 38.8650387, 9.0062298 ], [ 38.863127, 9.0107071 ], [ 38.8627257, 9.0145074 ], [ 38.8605341, 9.0170752 ], [ 38.8574142, 9.0207619 ], [ 38.8564735, 9.0208085 ], [ 38.8573797, 9.022475 ], [ 38.859069, 9.0265796 ], [ 38.8613248, 9.0292706 ], [ 38.8615823, 9.0294216 ], [ 38.8627145, 9.030028 ], [ 38.8636881, 9.0301716 ], [ 38.8648603, 9.0291935 ], [ 38.8684198, 9.0290747 ], [ 38.8699011, 9.0331262 ], [ 38.8719335, 9.0373811 ], [ 38.8714937, 9.0387469 ] ] ] } },
{ "type": "Feature", "properties": { "threshold_s": 900, "time_label": "15 min drive" }, "geometry": { "type": "Polygon", "coordinates": [ [ [ 38.8524668, 9.0308236 ], [ 38.8527705, 9.0356068 ], [ 38.8539516, 9.0363108 ], [ 38.8582686, 9.0386175 ], [ 38.8594839, 9.0392653 ], [ 38.8640315, 9.0399878 ], [ 38.8644869, 9.0397378 ], [ 38.8650485, 9.0390673 ], [ 38.8714937, 9.0387469 ], [ 38.8717572, 9.0428048 ], [ 38.8710607, 9.0441727 ], [ 38.870777, 9.0456028 ], [ 38.8704688, 9.0472664 ], [ 38.8700261, 9.0491544 ], [ 38.870313, 9.04973 ], [ 38.8754922, 9.051752 ], [ 38.8783999, 9.055943 ], [ 38.881856, 9.0508919 ], [ 38.8847783, 9.0489287 ], [ 38.8849151, 9.0488107 ], [ 38.8850064, 9.0486798 ], [ 38.8851867, 9.0484094 ], [ 38.8853084, 9.0482034 ], [ 38.8879287, 9.0436653 ], [ 38.8891501, 9.0421339 ], [ 38.8924666, 9.0374161 ], [ 38.8930339, 9.0330507 ], [ 38.8953325, 9.027668 ], [ 38.8956209, 9.0252058 ], [ 38.9002302, 9.0222733 ], [ 38.9008565, 9.0197236 ], [ 38.8991091, 9.0134851 ], [ 38.894913099999989, 9.0106398 ], [ 38.8927851, 9.008319 ], [ 38.8908961, 9.0056134 ], [ 38.8894, 9.0041251 ], [ 38.8868375, 9.0025722 ], [ 38.8805562, 9.0000566 ], [ 38.8781288, 8.9979531 ], [ 38.8776031, 8.9979266 ], [ 38.8710961, 8.9968484 ], [ 38.8658068, 8.9993625 ], [ 38.8636212, 9.0018483 ], [ 38.8573102, 9.0018501 ], [ 38.8566844, 9.0016493 ], [ 38.8550829, 9.0014486 ], [ 38.8536102, 9.0079195 ], [ 38.8530196, 9.0082564 ], [ 38.8522054, 9.0093324 ], [ 38.8519373, 9.0099202 ], [ 38.8519377, 9.0100389 ], [ 38.8506436, 9.0160794 ], [ 38.8496105, 9.0173407 ], [ 38.8486883, 9.0184892 ], [ 38.8461209, 9.021348 ], [ 38.8468365, 9.0232616 ], [ 38.8497262, 9.0269231 ], [ 38.8524668, 9.0308236 ] ] ] } },
{ "type": "Feature", "properties": { "threshold_s": 300, "time_label": "5 min drive" }, "geometry": { "type": "Polygon", "coordinates": [ [ [ 38.7329313, 8.9947462 ], [ 38.7317139, 8.9959519 ], [ 38.7324621, 8.9965338 ], [ 38.7344089, 8.9966973 ], [ 38.7351872, 8.9964457 ], [ 38.7363319, 8.9957165 ], [ 38.7379668, 8.9983301 ], [ 38.7374857, 8.9988067 ], [ 38.7375811, 8.9992208 ], [ 38.7377315, 9.0001406 ], [ 38.73762, 9.0013467 ], [ 38.7376749, 9.0014169 ], [ 38.7378668, 9.0015854 ], [ 38.739574, 9.0020448 ], [ 38.7410113, 9.0026659 ], [ 38.7411363, 9.0026067 ], [ 38.7406738, 9.0016086 ], [ 38.7403566, 8.9997024 ], [ 38.7428525, 8.9977526 ], [ 38.7453967, 8.9958182 ], [ 38.7479202, 8.9943853 ], [ 38.7479952, 8.9924244 ], [ 38.7481907, 8.9903755 ], [ 38.7466872, 8.9882466 ], [ 38.7472685, 8.9858837 ], [ 38.7472062, 8.9855176 ], [ 38.7456711, 8.9851227 ], [ 38.7425393, 8.9852723 ], [ 38.7415929, 8.9840381 ], [ 38.7393057, 8.9838339 ], [ 38.737164, 8.9860752 ], [ 38.7350048, 8.9882145 ], [ 38.7345985, 8.9883599 ], [ 38.7341961, 8.9893524 ], [ 38.7338755, 8.9910757 ], [ 38.7343597, 8.9926891 ], [ 38.7329313, 8.9947462 ] ] ] } },
{ "type": "Feature", "properties": { "threshold_s": 600, "time_label": "10 min drive" }, "geometry": { "type": "Polygon", "coordinates": [ [ [ 38.7215664, 8.9977019 ], [ 38.7205095, 8.9996903 ], [ 38.7209133, 8.9995602 ], [ 38.7220337, 8.9992215 ], [ 38.7224929, 8.9990797 ], [ 38.7236724, 8.9987142 ], [ 38.7268985, 8.9991841 ], [ 38.7274674, 8.99912 ], [ 38.7289264, 8.9982376 ], [ 38.7302594, 8.9977804 ], [ 38.7307139, 8.9976947 ], [ 38.7325948, 9.0017547 ], [ 38.732501, 9.001813 ], [ 38.730182, 9.0046135 ], [ 38.7292146, 9.0052443 ], [ 38.730935700000011, 9.0078495 ], [ 38.7313527, 9.0086805 ], [ 38.731964499999989, 9.0093869 ], [ 38.7341748, 9.0107132 ], [ 38.7359776, 9.0102827 ], [ 38.7387193, 9.0103826 ], [ 38.7424871, 9.0102645 ], [ 38.7445775, 9.0129089 ], [ 38.7446699, 9.0129369 ], [ 38.7449046, 9.0130052 ], [ 38.7476673, 9.0105487 ], [ 38.7489751, 9.0069735 ], [ 38.7517324, 9.0049461 ], [ 38.7519015, 9.0048619 ], [ 38.7530085, 9.0043225 ], [ 38.7531698, 9.0041116 ], [ 38.7536939, 9.0025951 ], [ 38.7561745, 8.9996726 ], [ 38.7568953, 8.999106 ], [ 38.758028, 8.9950297 ], [ 38.7580315, 8.994674 ], [ 38.757013, 8.9912123 ], [ 38.7566308, 8.9868222 ], [ 38.7566121, 8.9854758 ], [ 38.7573107, 8.9817491 ], [ 38.7545104, 8.9790531 ], [ 38.75253, 8.978179 ], [ 38.7487619, 8.9763426 ], [ 38.7466576, 8.9749068 ], [ 38.7461902, 8.9749715 ], [ 38.7459779, 8.9750163 ], [ 38.7450813, 8.9751633 ], [ 38.7438314, 8.975388 ], [ 38.7400277, 8.9744338 ], [ 38.7377431, 8.9730167 ], [ 38.734549, 8.9753057 ], [ 38.7328836, 8.9778363 ], [ 38.7301135, 8.9791555 ], [ 38.7296599, 8.9798651 ], [ 38.7276381, 8.9829479 ], [ 38.7269208, 8.9842288 ], [ 38.7265869, 8.9850391 ], [ 38.7262524, 8.9869032 ], [ 38.7241702, 8.9895817 ], [ 38.7241057, 8.989642 ], [ 38.7223572, 8.9928201 ], [ 38.721388, 8.994096 ], [ 38.7215664, 8.9977019 ] ] ] } },
{ "type": "Feature", "properties": { "threshold_s": 900, "time_label": "15 min drive" }, "geometry": { "type": "Polygon", "coordinates": [ [ [ 38.7190919, 9.0068716 ], [ 38.7197143, 9.0079515 ], [ 38.7264124, 9.0111896 ], [ 38.7253784, 9.0132798 ], [ 38.7254822, 9.0134398 ], [ 38.7272909, 9.0152947 ], [ 38.7296718, 9.0166974 ], [ 38.7332006, 9.0206959 ], [ 38.7355141, 9.0216851 ], [ 38.7422622, 9.0223448 ], [ 38.7439453, 9.0231991 ], [ 38.7440472, 9.0232515 ], [ 38.7467381, 9.0231753 ], [ 38.7488745, 9.0229183 ], [ 38.7523491, 9.0197223 ], [ 38.7554835, 9.0175438 ], [ 38.755531, 9.0174041 ], [ 38.7555926, 9.0160591 ], [ 38.7554942, 9.0142652 ], [ 38.7588742, 9.0086394 ], [ 38.7590828, 9.0075554 ], [ 38.7591364, 9.0073247 ], [ 38.7633803, 9.0013968 ], [ 38.7654833, 9.001129 ], [ 38.7660829, 9.0011193 ], [ 38.7665433, 9.0010165 ], [ 38.7669806, 9.0004762 ], [ 38.7673828, 8.9998628 ], [ 38.7681495, 8.9979743 ], [ 38.7682505, 8.9968962 ], [ 38.7682519, 8.9964896 ], [ 38.7662967, 8.9928308 ], [ 38.766451, 8.9878303 ], [ 38.7676154, 8.9842259 ], [ 38.7662418, 8.9812714 ], [ 38.7650426, 8.9787808 ], [ 38.7631592, 8.9740794 ], [ 38.7570116, 8.9719198 ], [ 38.7547878, 8.9702414 ], [ 38.7518933, 8.9676702 ], [ 38.7487124, 8.9653973 ], [ 38.7486493, 8.9654003 ], [ 38.7447925, 8.9655323 ], [ 38.7425539, 8.9656328 ], [ 38.7358058, 8.9664959 ], [ 38.7338521, 8.9650684 ], [ 38.733741, 8.9650956 ], [ 38.7313752, 8.967334 ], [ 38.7264578, 8.9692085 ], [ 38.7264641, 8.9702238 ], [ 38.7264738, 8.9713381 ], [ 38.7256413, 8.9758612 ], [ 38.7204445, 8.9808492 ], [ 38.7197225, 8.9812826 ], [ 38.7184726, 8.9834798 ], [ 38.7180908, 8.9841611 ], [ 38.7165458, 8.9869257 ], [ 38.7127356, 8.9895603 ], [ 38.7125692, 8.98971 ], [ 38.7129574, 8.9908508 ], [ 38.7136137, 8.9922004 ], [ 38.715329, 8.9947232 ], [ 38.7189357, 9.0001877 ], [ 38.7189773, 9.0029713 ], [ 38.7188894, 9.0059185 ], [ 38.7190919, 9.0068716 ] ] ] } },
{ "type": "Feature", "properties": { "threshold_s": 300, "time_label": "5 min drive" }, "geometry": { "type": "Polygon", "coordinates": [ [ [ 38.7846699, 8.999389 ], [ 38.7847196, 8.9994549 ], [ 38.7852584, 9.0000068 ], [ 38.7856932, 9.0002523 ], [ 38.7880442, 9.0011082 ], [ 38.7906855, 8.9993148 ], [ 38.7920983, 8.9987684 ], [ 38.792624, 8.9985777 ], [ 38.7931544, 8.9983837 ], [ 38.7936291, 8.9982041 ], [ 38.7946719, 8.9978068 ], [ 38.7965052, 8.9969379 ], [ 38.7956395, 8.9945489 ], [ 38.7970592, 8.9929145 ], [ 38.797341, 8.9927148 ], [ 38.797957, 8.9920335 ], [ 38.7976136, 8.9913002 ], [ 38.7967419, 8.9891166 ], [ 38.7996331, 8.9854045 ], [ 38.7962514, 8.988003 ], [ 38.7942992, 8.9887271 ], [ 38.7920318, 8.9875297 ], [ 38.791375, 8.9871117 ], [ 38.789819799999989, 8.986366 ], [ 38.788826, 8.985809 ], [ 38.7879749, 8.9856538 ], [ 38.7884371, 8.9870932 ], [ 38.7867721, 8.989924 ], [ 38.7860818, 8.9902517 ], [ 38.7847989, 8.9917454 ], [ 38.7842643, 8.9950205 ], [ 38.7845103, 8.9958517 ], [ 38.7845898, 8.998985 ], [ 38.7846699, 8.999389 ] ] ] } },
{ "type": "Feature", "properties": { "threshold_s": 600, "time_label": "10 min drive" }, "geometry": { "type": "Polygon", "coordinates": [ [ [ 38.7768298, 9.0066669 ], [ 38.7765026, 9.0069991 ], [ 38.7767099, 9.0071045 ], [ 38.780677, 9.0087119 ], [ 38.7855563, 9.0108907 ], [ 38.7879783, 9.0113846 ], [ 38.7887927, 9.0111924 ], [ 38.7914267, 9.009869 ], [ 38.7925181, 9.0080703 ], [ 38.795201, 9.0056441 ], [ 38.8000339, 9.0054869 ], [ 38.8019364, 9.0054341 ], [ 38.8026295, 9.003978 ], [ 38.8032226, 9.0026245 ], [ 38.8036877, 9.0002622 ], [ 38.8049051, 8.9948892 ], [ 38.8062954, 8.9926287 ], [ 38.8065638, 8.9922518 ], [ 38.8076424, 8.9907366 ], [ 38.8097735, 8.9869675 ], [ 38.8035562, 8.9852867 ], [ 38.8021619, 8.9853275 ], [ 38.7996331, 8.9854045 ], [ 38.7971379, 8.9861223 ], [ 38.789819799999989, 8.986366 ], [ 38.788826, 8.985809 ], [ 38.7855757, 8.9849273 ], [ 38.7842988, 8.9845215 ], [ 38.7786772, 8.9809764 ], [ 38.7785874, 8.9809511 ], [ 38.777491, 8.9812854 ], [ 38.7767255, 8.9817067 ], [ 38.7773605, 8.9852209 ], [ 38.7784041, 8.9888346 ], [ 38.7748685, 8.9939269 ], [ 38.7745337, 8.9941602 ], [ 38.777362, 8.9984848 ], [ 38.7779966, 8.9994625 ], [ 38.7768298, 9.0066669 ] ] ] } },
{ "type": "Feature", "properties": { "threshold_s": 900, "time_label": "15 min drive" }, "geometry": { "type": "Polygon", "coordinates": [ [ [ 38.7712012, 9.0155134 ], [ 38.7720021, 9.0165267 ], [ 38.7822697, 9.0199832 ], [ 38.7862048, 9.0223421 ], [ 38.7909671, 9.0208857 ], [ 38.802971, 9.0155489 ], [ 38.8072896, 9.0135327 ], [ 38.8094223, 9.0111091 ], [ 38.8096578, 9.0100511 ], [ 38.8125484, 9.0014711 ], [ 38.8165225, 8.9950231 ], [ 38.8189406, 8.9915358 ], [ 38.8193944, 8.9905492 ], [ 38.8195898, 8.9872852 ], [ 38.8190351, 8.9862093 ], [ 38.8066972, 8.9860036 ], [ 38.8035562, 8.9852867 ], [ 38.8021619, 8.9853275 ], [ 38.7996331, 8.9854045 ], [ 38.7899075, 8.9859732 ], [ 38.7880106, 8.9854871 ], [ 38.7777914, 8.9763594 ], [ 38.7755072, 8.9716351 ], [ 38.7752672, 8.9716781 ], [ 38.766807300000011, 8.9766861 ], [ 38.7665647, 8.9780956 ], [ 38.7665965, 8.9911067 ], [ 38.7665689, 8.9939808 ], [ 38.7666719, 8.9967811 ], [ 38.766689, 8.9969817 ], [ 38.7669118, 8.9994525 ], [ 38.7674794, 9.0056217 ], [ 38.7694997, 9.0115212 ], [ 38.7712012, 9.0155134 ] ] ] } },
{ "type": "Feature", "properties": { "threshold_s": 300, "time_label": "5 min drive" }, "geometry": { "type": "Polygon", "coordinates": [ [ [ 38.7821732, 9.018387 ], [ 38.782435, 9.0193034 ], [ 38.7827905, 9.0187878 ], [ 38.7838972, 9.0171203 ], [ 38.7841292, 9.0165435 ], [ 38.7857985, 9.0153244 ], [ 38.7865155, 9.0155037 ], [ 38.7872721, 9.0151271 ], [ 38.7874703, 9.0134929 ], [ 38.7890943, 9.0121969 ], [ 38.789912, 9.0117734 ], [ 38.7904845, 9.0105537 ], [ 38.7902464, 9.0096937 ], [ 38.7896106, 9.0081431 ], [ 38.7884815, 9.0061521 ], [ 38.7880187, 9.0050821 ], [ 38.786986, 9.0029521 ], [ 38.7868164, 9.0023031 ], [ 38.7864858, 9.0016719 ], [ 38.7856291, 9.0010559 ], [ 38.7835287, 9.0002109 ], [ 38.7820454, 9.000199 ], [ 38.7806299, 8.9998062 ], [ 38.7794474, 8.9988227 ], [ 38.7793303, 8.9988134 ], [ 38.7795597, 9.0006527 ], [ 38.7787355, 9.0030202 ], [ 38.7767098, 9.0045986 ], [ 38.7747095, 9.005959 ], [ 38.7747833, 9.0070232 ], [ 38.7763593, 9.0077319 ], [ 38.7772235, 9.0087889 ], [ 38.7776996, 9.0101831 ], [ 38.7778365, 9.0113481 ], [ 38.7778035, 9.0124771 ], [ 38.7792254, 9.0132141 ], [ 38.7793668, 9.0132882 ], [ 38.7812692, 9.0141888 ], [ 38.7819098, 9.0159584 ], [ 38.7819011, 9.0162539 ], [ 38.7819307, 9.0165447 ], [ 38.7820039, 9.0176052 ], [ 38.7821732, 9.018387 ] ] ] } },
{ "type": "Feature", "properties": { "threshold_s": 600, "time_label": "10 min drive" }, "geometry": { "type": "Polygon", "coordinates": [ [ [ 38.7754273, 9.0227795 ], [ 38.7764432, 9.0256874 ], [ 38.77690290000001, 9.0259574 ], [ 38.7778281, 9.0263133 ], [ 38.7783603, 9.0264075 ], [ 38.7818751, 9.0269915 ], [ 38.7841265, 9.0281899 ], [ 38.7844465, 9.0283163 ], [ 38.784561, 9.0283085 ], [ 38.7866034, 9.0262502 ], [ 38.7876445, 9.0248495 ], [ 38.7884448, 9.0237016 ], [ 38.7888143, 9.0228996 ], [ 38.7923591, 9.0212951 ], [ 38.7929892, 9.0212511 ], [ 38.7933946, 9.0212397 ], [ 38.7947935, 9.0210845 ], [ 38.7949134, 9.0210762 ], [ 38.7949194, 9.0209783 ], [ 38.7972575, 9.0171011 ], [ 38.7984096, 9.0131613 ], [ 38.7993051, 9.0096285 ], [ 38.8006423, 9.0056999 ], [ 38.797986, 9.0026206 ], [ 38.7955181, 9.0020965 ], [ 38.7946719, 8.9978068 ], [ 38.7951352, 8.9973643 ], [ 38.7948523, 8.9966292 ], [ 38.7935455, 8.9953446 ], [ 38.7917543, 8.9922639 ], [ 38.7885437, 8.9923131 ], [ 38.7847861, 8.9907155 ], [ 38.7823858, 8.9901732 ], [ 38.7779312, 8.9897209 ], [ 38.7769009, 8.9885584 ], [ 38.776855, 8.9886044 ], [ 38.7768315, 8.9896015 ], [ 38.7769319, 8.990373 ], [ 38.7744098, 8.993727 ], [ 38.7741375, 8.9945623 ], [ 38.7717799, 8.9976465 ], [ 38.768846, 8.999063 ], [ 38.7672202, 9.0015599 ], [ 38.7671183, 9.0031016 ], [ 38.7663964, 9.0070441 ], [ 38.7672577, 9.0104737 ], [ 38.7672256, 9.0115334 ], [ 38.769726, 9.0132853 ], [ 38.7693626, 9.0163824 ], [ 38.7703065, 9.0178326 ], [ 38.771192, 9.0184455 ], [ 38.7742102, 9.0174735 ], [ 38.7741335, 9.0152535 ], [ 38.776373, 9.0129175 ], [ 38.7790322, 9.0148252 ], [ 38.7807383, 9.0166185 ], [ 38.7800908, 9.0202484 ], [ 38.7774773, 9.0226485 ], [ 38.7764838, 9.0227621 ], [ 38.7754273, 9.0227795 ] ] ] } },
{ "type": "Feature", "properties": { "threshold_s": 900, "time_label": "15 min drive" }, "geometry": { "type": "Polygon", "coordinates": [ [ [ 38.7645123, 9.0221623 ], [ 38.7657206, 9.0293019 ], [ 38.7709504, 9.0340645 ], [ 38.7722643, 9.0352881 ], [ 38.7725503, 9.0352767 ], [ 38.7798841, 9.0348649 ], [ 38.7858233, 9.0346864 ], [ 38.7873533, 9.0350137 ], [ 38.7913411, 9.0328014 ], [ 38.7970595, 9.0306542 ], [ 38.7988474, 9.0307862 ], [ 38.799007, 9.0305119 ], [ 38.8000767, 9.0287239 ], [ 38.8000908, 9.0286678 ], [ 38.802986, 9.0226131 ], [ 38.8083148, 9.0203995 ], [ 38.8088993, 9.0203582 ], [ 38.8072567, 9.0169339 ], [ 38.8070841, 9.0165256 ], [ 38.8075481, 9.0093358 ], [ 38.8074059, 9.008172 ], [ 38.807424, 9.0019457 ], [ 38.807631, 9.0004119 ], [ 38.8074506, 8.996151 ], [ 38.8060994, 8.9961232 ], [ 38.804645, 8.9958576 ], [ 38.8026126, 8.9969332 ], [ 38.797957, 8.9920335 ], [ 38.7996331, 8.9854045 ], [ 38.7965669, 8.9878238 ], [ 38.791375, 8.9871117 ], [ 38.789819799999989, 8.986366 ], [ 38.788826, 8.985809 ], [ 38.7855757, 8.9849273 ], [ 38.7842988, 8.9845215 ], [ 38.7787651, 8.9799759 ], [ 38.7755609, 8.9797565 ], [ 38.7724596, 8.9800968 ], [ 38.7708268, 8.9803929 ], [ 38.7695651, 8.9811775 ], [ 38.7691776, 8.9814885 ], [ 38.767618, 8.9854072 ], [ 38.7647559, 8.9917076 ], [ 38.7609419, 8.9943649 ], [ 38.7597039, 8.9959808 ], [ 38.759032, 8.998066 ], [ 38.7586856, 8.9999436 ], [ 38.7587616, 9.0011842 ], [ 38.7587711, 9.0014635 ], [ 38.7587985, 9.0020734 ], [ 38.7579128, 9.0080385 ], [ 38.755338, 9.0119598 ], [ 38.7553236, 9.0121104 ], [ 38.7565754, 9.0147817 ], [ 38.7586505, 9.0180415 ], [ 38.7645123, 9.0221623 ] ] ] } },
{ "type": "Feature", "properties": { "threshold_s": 300, "time_label": "5 min drive" }, "geometry": { "type": "Polygon", "coordinates": [ [ [ 38.7768298, 9.0066669 ], [ 38.776632, 9.0070636 ], [ 38.7767099, 9.0071045 ], [ 38.7790846, 9.007266 ], [ 38.7807083, 9.0082001 ], [ 38.7808102, 9.0082564 ], [ 38.7813303, 9.0080928 ], [ 38.7820528, 9.0077623 ], [ 38.7836044, 9.0063722 ], [ 38.7846418, 9.004535 ], [ 38.7845137, 9.003219 ], [ 38.7859947, 9.0008023 ], [ 38.7873295, 8.9978484 ], [ 38.786585, 8.9945701 ], [ 38.7855384, 8.9920264 ], [ 38.7826636, 8.9897776 ], [ 38.7817463, 8.9897697 ], [ 38.778172499999989, 8.9898978 ], [ 38.777445299999989, 8.9880264 ], [ 38.7769009, 8.9885584 ], [ 38.776855, 8.9886044 ], [ 38.776481, 8.989139 ], [ 38.7765834, 8.9901797 ], [ 38.7766295, 8.9930188 ], [ 38.7742053, 8.9932382 ], [ 38.7741154, 8.9932832 ], [ 38.7741375, 8.9945623 ], [ 38.7742583, 8.9950284 ], [ 38.7751773, 8.9954422 ], [ 38.777362, 8.9984848 ], [ 38.7779966, 8.9994625 ], [ 38.7787355, 9.0030202 ], [ 38.7780823, 9.0053305 ], [ 38.7768298, 9.0066669 ] ] ] } },
{ "type": "Feature", "properties": { "threshold_s": 600, "time_label": "10 min drive" }, "geometry": { "type": "Polygon", "coordinates": [ [ [ 38.7712012, 9.0155134 ], [ 38.7720021, 9.0165267 ], [ 38.7727337, 9.0165182 ], [ 38.7741335, 9.0152535 ], [ 38.776373, 9.0129175 ], [ 38.7792254, 9.0132141 ], [ 38.7793668, 9.0132882 ], [ 38.7819307, 9.0165447 ], [ 38.7820039, 9.0176052 ], [ 38.7821732, 9.018387 ], [ 38.782435, 9.0193034 ], [ 38.7827905, 9.0187878 ], [ 38.7865155, 9.0155037 ], [ 38.7898082, 9.0123775 ], [ 38.7916999, 9.0107534 ], [ 38.7936352, 9.0089193 ], [ 38.7947168, 9.0050565 ], [ 38.7946479, 9.0046967 ], [ 38.7946308, 9.0046325 ], [ 38.7917389, 9.0056483 ], [ 38.7892042, 9.0040436 ], [ 38.7906855, 8.9993148 ], [ 38.7913789, 8.9990156 ], [ 38.7920983, 8.9987684 ], [ 38.792624, 8.9985777 ], [ 38.7931544, 8.9983837 ], [ 38.7936291, 8.9982041 ], [ 38.7941482, 8.9979968 ], [ 38.7946719, 8.9978068 ], [ 38.7965052, 8.9969379 ], [ 38.7956395, 8.9945489 ], [ 38.7952264, 8.9934812 ], [ 38.7942992, 8.9887271 ], [ 38.791375, 8.9871117 ], [ 38.788826, 8.985809 ], [ 38.7855757, 8.9849273 ], [ 38.7842988, 8.9845215 ], [ 38.7829895, 8.9840922 ], [ 38.7824454, 8.9839019 ], [ 38.781234, 8.9834683 ], [ 38.7787516, 8.9794447 ], [ 38.7749609, 8.9795702 ], [ 38.7718879, 8.979752 ], [ 38.7708268, 8.9803929 ], [ 38.7695651, 8.9811775 ], [ 38.7691776, 8.9814885 ], [ 38.7686049, 8.9823656 ], [ 38.7673754, 8.985989 ], [ 38.7657081, 8.9898585 ], [ 38.7660945, 8.991706 ], [ 38.7654197, 8.9966008 ], [ 38.7653393, 8.9971114 ], [ 38.7665433, 9.0010165 ], [ 38.7679271, 9.0042908 ], [ 38.7680585, 9.0045594 ], [ 38.768828, 9.0061181 ], [ 38.7692515, 9.0104413 ], [ 38.7694997, 9.0115212 ], [ 38.7712012, 9.0155134 ] ] ] } },
{ "type": "Feature", "properties": { "threshold_s": 900, "time_label": "15 min drive" }, "geometry": { "type": "Polygon", "coordinates": [ [ [ 38.760523, 9.0184217 ], [ 38.7605842, 9.0185252 ], [ 38.7645123, 9.0221623 ], [ 38.7722787, 9.0259286 ], [ 38.7778281, 9.0263133 ], [ 38.7841265, 9.0281899 ], [ 38.784561, 9.0283085 ], [ 38.7865193, 9.0257525 ], [ 38.7933946, 9.0212397 ], [ 38.7949134, 9.0210762 ], [ 38.7990841, 9.0152732 ], [ 38.8009101, 9.0132402 ], [ 38.8027111, 9.0071769 ], [ 38.804171599999989, 9.0040571 ], [ 38.8048868, 9.0006878 ], [ 38.8049696, 8.9990194 ], [ 38.8004776, 8.9984045 ], [ 38.8020439, 8.9901737 ], [ 38.8035396, 8.9855276 ], [ 38.8035562, 8.9852867 ], [ 38.8021619, 8.9853275 ], [ 38.7996331, 8.9854045 ], [ 38.7971379, 8.9861223 ], [ 38.7899075, 8.9859732 ], [ 38.7880106, 8.9854871 ], [ 38.7855757, 8.9849273 ], [ 38.7787516, 8.9794447 ], [ 38.7777914, 8.9763594 ], [ 38.7759295, 8.9724099 ], [ 38.7755072, 8.9716351 ], [ 38.7752672, 8.9716781 ], [ 38.7727569, 8.9732909 ], [ 38.7656622, 8.9723626 ], [ 38.7643596, 8.9731872 ], [ 38.7639759, 8.9738601 ], [ 38.7615802, 8.9776522 ], [ 38.7579608, 8.9816198 ], [ 38.7564533, 8.9867181 ], [ 38.7556778, 8.9958187 ], [ 38.7588747, 9.0040341 ], [ 38.7576903, 9.0118964 ], [ 38.760523, 9.0184217 ] ] ] } }
]
}
