{
"type": "FeatureCollection",
"name": "isochrone_shop_alcohol_drive",
"crs": { "type": "name", "properties": { "name": "urn:ogc:def:crs:OGC:1.3:CRS84" } },
"features": [
{ "type": "Feature", "properties": { "threshold_s": 300, "time_label": "5 min drive" }, "geometry": { "type": "Polygon", "coordinates": [ [ [ 38.7099631, 9.0366873 ], [ 38.7111534, 9.038058 ], [ 38.7147868, 9.0364174 ], [ 38.7166433, 9.0354155 ], [ 38.716601, 9.0346615 ], [ 38.7161901, 9.0323642 ], [ 38.7147665, 9.0283196 ], [ 38.714852, 9.0268221 ], [ 38.7148898, 9.0260835 ], [ 38.7149263, 9.0253368 ], [ 38.7155662, 9.021604 ], [ 38.7158288, 9.0208711 ], [ 38.7146139, 9.0205086 ], [ 38.714144, 9.0204375 ], [ 38.710531, 9.0201136 ], [ 38.7085474, 9.0208282 ], [ 38.7113392, 9.0229746 ], [ 38.7114282, 9.0244084 ], [ 38.7083363, 9.0267296 ], [ 38.7081519, 9.0267832 ], [ 38.707272, 9.0282036 ], [ 38.7063427, 9.0296269 ], [ 38.707201, 9.0325792 ], [ 38.7089674, 9.0354666 ], [ 38.7099631, 9.0366873 ] ] ] } },
{ "type": "Feature", "properties": { "threshold_s": 600, "time_label": "10 min drive" }, "geometry": { "type": "Polygon", "coordinates": [ [ [ 38.70414, 9.0449443 ], [ 38.7048997, 9.0457773 ], [ 38.7094447, 9.047556 ], [ 38.7106583, 9.048211 ], [ 38.7148292, 9.046613 ], [ 38.7166471, 9.0453283 ], [ 38.7219438, 9.0430709 ], [ 38.7233384, 9.0417695 ], [ 38.7245113, 9.039173 ], [ 38.7248237, 9.0379848 ], [ 38.7251353, 9.0367656 ], [ 38.7240786, 9.0347561 ], [ 38.7247843, 9.0293647 ], [ 38.722301, 9.0264528 ], [ 38.7209415, 9.0249966 ], [ 38.7203815, 9.0244886 ], [ 38.719249499999989, 9.0239831 ], [ 38.7158288, 9.0208711 ], [ 38.7178761, 9.0167999 ], [ 38.7181324, 9.016575 ], [ 38.7197277, 9.0153199 ], [ 38.7199187, 9.0151687 ], [ 38.7221159, 9.0135872 ], [ 38.7225071, 9.0114307 ], [ 38.7197471, 9.0087074 ], [ 38.7157746, 9.0132195 ], [ 38.7131209, 9.017169 ], [ 38.7072292, 9.0183925 ], [ 38.7066431, 9.0181488 ], [ 38.7043753, 9.0177554 ], [ 38.700878, 9.0168425 ], [ 38.6998216, 9.018001 ], [ 38.6998484, 9.0184646 ], [ 38.7005485, 9.0237859 ], [ 38.7004533, 9.024713 ], [ 38.7003976, 9.02517 ], [ 38.7002915, 9.0306907 ], [ 38.6997702, 9.0314941 ], [ 38.6980292, 9.0353288 ], [ 38.6980842, 9.035742 ], [ 38.6985512, 9.0387335 ], [ 38.7024897, 9.0420543 ], [ 38.70414, 9.0449443 ] ] ] } },
{ "type": "Feature", "properties": { "threshold_s": 900, "time_label": "15 min drive" }, "geometry": { "type": "Polygon", "coordinates": [ [ [ 38.6892557, 9.0393869 ], [ 38.6919808, 9.0453363 ], [ 38.6936334, 9.0470007 ], [ 38.699713, 9.0483354 ], [ 38.7021819, 9.0503737 ], [ 38.7059672, 9.055068 ], [ 38.706584, 9.0559032 ], [ 38.7132052, 9.0575036 ], [ 38.7157332, 9.0546701 ], [ 38.7209953, 9.0524848 ], [ 38.7216615, 9.052406 ], [ 38.726288, 9.0517264 ], [ 38.7263346, 9.0516908 ], [ 38.7298006, 9.0461839 ], [ 38.7327001, 9.0427742 ], [ 38.7342561, 9.0359874 ], [ 38.734811, 9.0342586 ], [ 38.7354366, 9.0319289 ], [ 38.7348322, 9.0292864 ], [ 38.7340259, 9.0280041 ], [ 38.7321618, 9.0255022 ], [ 38.7311787, 9.0234865 ], [ 38.7311444, 9.017462 ], [ 38.7319513, 9.0154044 ], [ 38.7343774, 9.0117304 ], [ 38.7343531, 9.0114249 ], [ 38.733826, 9.007918 ], [ 38.7322253, 9.0057251 ], [ 38.7310302, 9.0047443 ], [ 38.730182, 9.0046135 ], [ 38.7285474, 9.0064755 ], [ 38.7284978, 9.0065722 ], [ 38.726517, 9.0109459 ], [ 38.7201735, 9.0095651 ], [ 38.7197471, 9.0087074 ], [ 38.7190564, 9.0070821 ], [ 38.7186309, 9.0047421 ], [ 38.7186681, 9.0042571 ], [ 38.7186832, 9.004024 ], [ 38.7209133, 8.9995602 ], [ 38.7203275, 8.9991502 ], [ 38.7185878, 8.9978946 ], [ 38.7156639, 8.999671 ], [ 38.7142619, 9.0021177 ], [ 38.7094662, 9.0074715 ], [ 38.7049219, 9.0129477 ], [ 38.6977408, 9.0106784 ], [ 38.6968021, 9.0098588 ], [ 38.6948428, 9.0079074 ], [ 38.692862, 9.0093184 ], [ 38.6925958, 9.0097312 ], [ 38.6904077, 9.0168004 ], [ 38.6899194, 9.0213338 ], [ 38.6903661, 9.0232071 ], [ 38.6892202, 9.0304504 ], [ 38.6880185, 9.0313414 ], [ 38.687796, 9.0316884 ], [ 38.6868531, 9.0333776 ], [ 38.6863509, 9.0347169 ], [ 38.6892557, 9.0393869 ] ] ] } },
{ "type": "Feature", "properties": { "threshold_s": 300, "time_label": "5 min drive" }, "geometry": { "type": "Polygon", "coordinates": [ [ [ 38.7792411, 9.0026554 ], [ 38.7791347, 9.0046913 ], [ 38.780947, 9.005392 ], [ 38.7822558, 9.006623 ], [ 38.7828239, 9.0074981 ], [ 38.7843038, 9.0083295 ], [ 38.7848943, 9.008467 ], [ 38.7861091, 9.0087839 ], [ 38.7883151, 9.009628 ], [ 38.7883565, 9.0096317 ], [ 38.7895234, 9.0088889 ], [ 38.7919719, 9.0077005 ], [ 38.7917436, 9.0057285 ], [ 38.7917389, 9.0056483 ], [ 38.7892042, 9.0040436 ], [ 38.7882698, 9.0017096 ], [ 38.7897293, 8.9996859 ], [ 38.7906855, 8.9993148 ], [ 38.7913789, 8.9990156 ], [ 38.7920983, 8.9987684 ], [ 38.792624, 8.9985777 ], [ 38.7931544, 8.9983837 ], [ 38.7936291, 8.9982041 ], [ 38.7941482, 8.9979968 ], [ 38.7946719, 8.9978068 ], [ 38.7965052, 8.9969379 ], [ 38.7943467, 8.9950463 ], [ 38.79196, 8.9931645 ], [ 38.7918435, 8.9923162 ], [ 38.7917543, 8.9922639 ], [ 38.7907049, 8.9923927 ], [ 38.7885437, 8.9923131 ], [ 38.7862157, 8.9911515 ], [ 38.7847861, 8.9907155 ], [ 38.783081, 8.9918757 ], [ 38.7805353, 8.9943244 ], [ 38.780196, 8.997061 ], [ 38.7792988, 8.9978577 ], [ 38.7794906, 8.9991652 ], [ 38.7792411, 9.0026554 ] ] ] } },
{ "type": "Feature", "properties": { "threshold_s": 600, "time_label": "10 min drive" }, "geometry": { "type": "Polygon", "coordinates": [ [ [ 38.7714755, 9.0087054 ], [ 38.7732789, 9.0121882 ], [ 38.7742634, 9.0124589 ], [ 38.7743465, 9.0124832 ], [ 38.776373, 9.0129175 ], [ 38.7793668, 9.0132882 ], [ 38.7819307, 9.0165447 ], [ 38.7861715, 9.0197125 ], [ 38.7870651, 9.0196171 ], [ 38.7890406, 9.0193886 ], [ 38.7896598, 9.0192439 ], [ 38.791997, 9.0167392 ], [ 38.7945459, 9.0160394 ], [ 38.7990194, 9.0130044 ], [ 38.8001053, 9.0112127 ], [ 38.8005325, 9.0104479 ], [ 38.8013695, 9.0078641 ], [ 38.8032226, 9.0026245 ], [ 38.8036877, 9.0002622 ], [ 38.8013238, 8.9997042 ], [ 38.79983, 8.9993158 ], [ 38.7991837, 8.9991818 ], [ 38.7965052, 8.9969379 ], [ 38.797341, 8.9927148 ], [ 38.797957, 8.9920335 ], [ 38.7980917, 8.9885152 ], [ 38.7996398, 8.9856334 ], [ 38.7996331, 8.9854045 ], [ 38.7965669, 8.9878238 ], [ 38.791375, 8.9871117 ], [ 38.789819799999989, 8.986366 ], [ 38.788826, 8.985809 ], [ 38.7855757, 8.9849273 ], [ 38.7842988, 8.9845215 ], [ 38.7829895, 8.9840922 ], [ 38.7807425, 8.9839147 ], [ 38.7787086, 8.9850559 ], [ 38.7777241, 8.9856661 ], [ 38.776481, 8.989139 ], [ 38.7741154, 8.9932832 ], [ 38.7741375, 8.9945623 ], [ 38.7743488, 8.9956238 ], [ 38.777362, 8.9984848 ], [ 38.7734899, 9.0014308 ], [ 38.7731666, 9.0015044 ], [ 38.7726315, 9.0016759 ], [ 38.7719972, 9.0020342 ], [ 38.7699232, 9.0043125 ], [ 38.7697441, 9.0055966 ], [ 38.7714755, 9.0087054 ] ] ] } },
{ "type": "Feature", "properties": { "threshold_s": 900, "time_label": "15 min drive" }, "geometry": { "type": "Polygon", "coordinates": [ [ [ 38.76206, 9.0111118 ], [ 38.7631341, 9.0172933 ], [ 38.7636571, 9.0176742 ], [ 38.766175, 9.0194163 ], [ 38.7686595, 9.0207369 ], [ 38.7764432, 9.0256874 ], [ 38.7847756, 9.0284891 ], [ 38.7874505, 9.0295787 ], [ 38.7884042, 9.0291921 ], [ 38.7898626, 9.0285236 ], [ 38.7959445, 9.0257353 ], [ 38.8014603, 9.0212545 ], [ 38.8045576, 9.0198433 ], [ 38.8094223, 9.0111091 ], [ 38.8108174, 9.0069524 ], [ 38.8125484, 9.0014711 ], [ 38.8122705, 8.9947536 ], [ 38.8097735, 8.9869675 ], [ 38.8035562, 8.9852867 ], [ 38.8021619, 8.9853275 ], [ 38.7996331, 8.9854045 ], [ 38.7971379, 8.9861223 ], [ 38.788826, 8.985809 ], [ 38.7879749, 8.9856538 ], [ 38.7855757, 8.9849273 ], [ 38.7787516, 8.9794447 ], [ 38.7777914, 8.9763594 ], [ 38.7774548, 8.9759568 ], [ 38.7773636, 8.975878 ], [ 38.7697098, 8.9786677 ], [ 38.7690595, 8.9795189 ], [ 38.7673754, 8.985989 ], [ 38.7657081, 8.9898585 ], [ 38.7643388, 8.9973094 ], [ 38.7629789, 9.000368 ], [ 38.762364, 9.0030482 ], [ 38.76206, 9.0111118 ] ] ] } },
{ "type": "Feature", "properties": { "threshold_s": 300, "time_label": "5 min drive" }, "geometry": { "type": "Polygon", "coordinates": [ [ [ 38.8027118, 9.0169641 ], [ 38.8025355, 9.0170072 ], [ 38.8023704, 9.017401 ], [ 38.8037945, 9.0186417 ], [ 38.8051492, 9.0192078 ], [ 38.8065409, 9.0194685 ], [ 38.8088993, 9.0203582 ], [ 38.809637, 9.0202318 ], [ 38.810139, 9.0201299 ], [ 38.8110194, 9.0199451 ], [ 38.8130429, 9.0212578 ], [ 38.8133654, 9.0199396 ], [ 38.8133688, 9.0197109 ], [ 38.8171751, 9.0194641 ], [ 38.8171611, 9.0191599 ], [ 38.8158358, 9.015769 ], [ 38.8149607, 9.0141972 ], [ 38.8161268, 9.0119246 ], [ 38.8172691, 9.0119811 ], [ 38.8186794, 9.0137801 ], [ 38.8208147, 9.013098 ], [ 38.8215799, 9.01153 ], [ 38.8206102, 9.0095273 ], [ 38.8186656, 9.0079074 ], [ 38.8172615, 9.0068139 ], [ 38.8156354, 9.0051258 ], [ 38.8138041, 9.0035608 ], [ 38.8134083, 9.0029714 ], [ 38.8125334, 9.0023748 ], [ 38.8122015, 9.0023696 ], [ 38.8115832, 9.0041456 ], [ 38.8103972, 9.0047468 ], [ 38.8089761, 9.0046984 ], [ 38.807956, 9.0060618 ], [ 38.8063154, 9.0069259 ], [ 38.8059445, 9.0070212 ], [ 38.8056402, 9.0071786 ], [ 38.8049791, 9.0076544 ], [ 38.8042796, 9.0101637 ], [ 38.8040681, 9.0123412 ], [ 38.804167, 9.0123654 ], [ 38.8042417, 9.0123665 ], [ 38.8067256, 9.0137114 ], [ 38.8057726, 9.0157653 ], [ 38.8054571, 9.0159235 ], [ 38.8050866, 9.0161148 ], [ 38.8027118, 9.0169641 ] ] ] } },
{ "type": "Feature", "properties": { "threshold_s": 600, "time_label": "10 min drive" }, "geometry": { "type": "Polygon", "coordinates": [ [ [ 38.7933946, 9.0212397 ], [ 38.7953645, 9.0235105 ], [ 38.7970364, 9.0240514 ], [ 38.7995709, 9.0246374 ], [ 38.8008549, 9.0254157 ], [ 38.8013827, 9.0258346 ], [ 38.8020936, 9.0264203 ], [ 38.8055473, 9.0248504 ], [ 38.8069633, 9.0250958 ], [ 38.8092436, 9.0249536 ], [ 38.8129946, 9.0250146 ], [ 38.8143496, 9.0279621 ], [ 38.8144722, 9.0294405 ], [ 38.815206, 9.0292424 ], [ 38.8185783, 9.0276477 ], [ 38.8187664, 9.027768 ], [ 38.819542, 9.0282161 ], [ 38.8202976, 9.0275475 ], [ 38.8214323, 9.0264389 ], [ 38.8231243, 9.0247995 ], [ 38.822162, 9.0233834 ], [ 38.821077099999989, 9.0225039 ], [ 38.8203659, 9.020502 ], [ 38.8235368, 9.0189136 ], [ 38.8251564, 9.01968 ], [ 38.826303, 9.0218102 ], [ 38.8265759, 9.0200041 ], [ 38.827891, 9.0176995 ], [ 38.8288702, 9.0160176 ], [ 38.8287742, 9.0122387 ], [ 38.8283048, 9.0092346 ], [ 38.8302182, 9.0082471 ], [ 38.8302971, 9.0065708 ], [ 38.8302422, 9.0045291 ], [ 38.8286189, 9.0029518 ], [ 38.8282853, 9.0027117 ], [ 38.825101, 9.001087 ], [ 38.8224402, 8.9986618 ], [ 38.8202085, 8.9960205 ], [ 38.8183712, 8.9958642 ], [ 38.8163645, 8.9946122 ], [ 38.8154153, 8.9934574 ], [ 38.8119545, 8.9918937 ], [ 38.8116711, 8.9918933 ], [ 38.8102292, 8.9931253 ], [ 38.8097118, 8.993479 ], [ 38.8094328, 8.9937658 ], [ 38.8081144, 8.9947263 ], [ 38.8052265, 8.9951921 ], [ 38.8044103, 8.9953973 ], [ 38.8026126, 8.9969332 ], [ 38.8034011, 8.9988843 ], [ 38.8021955, 9.0011235 ], [ 38.8004373, 9.0013812 ], [ 38.7993438, 9.0015425 ], [ 38.7982943, 9.0031359 ], [ 38.79709230000001, 9.0065462 ], [ 38.7966599, 9.0077434 ], [ 38.7960673, 9.0097425 ], [ 38.7957932, 9.0106801 ], [ 38.7956285, 9.0113796 ], [ 38.7955817, 9.0122013 ], [ 38.7958668, 9.0132147 ], [ 38.7959622, 9.0132559 ], [ 38.7965579, 9.0132523 ], [ 38.7973233, 9.0133333 ], [ 38.7979855, 9.0132711 ], [ 38.8007463, 9.0153373 ], [ 38.8012821, 9.0163717 ], [ 38.7986449, 9.01891 ], [ 38.797182, 9.0184257 ], [ 38.7967567, 9.0182941 ], [ 38.7954471, 9.0178669 ], [ 38.7947434, 9.0176284 ], [ 38.7937514, 9.0173155 ], [ 38.794404299999989, 9.0203074 ], [ 38.7933801, 9.0211435 ], [ 38.7933946, 9.0212397 ] ] ] } },
{ "type": "Feature", "properties": { "threshold_s": 900, "time_label": "15 min drive" }, "geometry": { "type": "Polygon", "coordinates": [ [ [ 38.7855547, 9.0261301 ], [ 38.7873289, 9.0285497 ], [ 38.7916942, 9.0318211 ], [ 38.7947311, 9.0312946 ], [ 38.7988474, 9.0307862 ], [ 38.8011234, 9.0303124 ], [ 38.8048161, 9.0292985 ], [ 38.808201, 9.0306966 ], [ 38.8101278, 9.0326481 ], [ 38.8103267, 9.0327174 ], [ 38.8130282, 9.033534 ], [ 38.8167679, 9.0323597 ], [ 38.8201972, 9.0337224 ], [ 38.8208636, 9.0339018 ], [ 38.8266465, 9.0345977 ], [ 38.8270742, 9.033568 ], [ 38.8293725, 9.0306218 ], [ 38.8323994, 9.0290547 ], [ 38.83358, 9.0284675 ], [ 38.8331903, 9.0271257 ], [ 38.8337666, 9.0238721 ], [ 38.8375525, 9.0214989 ], [ 38.8387001, 9.0214504 ], [ 38.8390236, 9.0214427 ], [ 38.8374696, 9.0199352 ], [ 38.8357387, 9.0162104 ], [ 38.8378245, 9.0118913 ], [ 38.8385341, 9.0104767 ], [ 38.8391718, 9.008167 ], [ 38.8375933, 9.0058645 ], [ 38.8349131, 9.0008394 ], [ 38.8334573, 8.9975828 ], [ 38.8302769, 8.9924475 ], [ 38.83028, 8.9915786 ], [ 38.8300302, 8.9907991 ], [ 38.8295617, 8.990165 ], [ 38.8243435, 8.9870493 ], [ 38.8207751, 8.9853454 ], [ 38.8196728, 8.9858488 ], [ 38.8190351, 8.9862093 ], [ 38.8172293, 8.987135 ], [ 38.8158998, 8.9886047 ], [ 38.8097735, 8.9869675 ], [ 38.8079529, 8.9863615 ], [ 38.8066972, 8.9860036 ], [ 38.8019554, 8.9871694 ], [ 38.7978148, 8.9876741 ], [ 38.7936797, 8.9917278 ], [ 38.7913339, 8.9967822 ], [ 38.7906855, 8.9993148 ], [ 38.7879737, 9.0050655 ], [ 38.7864858, 9.0087789 ], [ 38.7845609, 9.0137358 ], [ 38.783456, 9.0150193 ], [ 38.7830595, 9.0154163 ], [ 38.7833758, 9.016551 ], [ 38.7845997, 9.0226513 ], [ 38.7855547, 9.0261301 ] ] ] } },
{ "type": "Feature", "properties": { "threshold_s": 300, "time_label": "5 min drive" }, "geometry": { "type": "Polygon", "coordinates": [ [ [ 38.8194273, 9.0176486 ], [ 38.8199606, 9.0189684 ], [ 38.82083, 9.0188161 ], [ 38.8222246, 9.0198772 ], [ 38.8232996, 9.0204045 ], [ 38.8251564, 9.01968 ], [ 38.8261327, 9.0204954 ], [ 38.8262008, 9.021763 ], [ 38.8257156, 9.022524 ], [ 38.8265137, 9.0234793 ], [ 38.8264976, 9.0231439 ], [ 38.8268289, 9.0218945 ], [ 38.8285495, 9.0210826 ], [ 38.8265759, 9.0200041 ], [ 38.8259667, 9.0193676 ], [ 38.8257765, 9.0184475 ], [ 38.827891, 9.0176995 ], [ 38.8284089, 9.0176488 ], [ 38.8288702, 9.0160176 ], [ 38.8303554, 9.0157136 ], [ 38.8290323, 9.0139256 ], [ 38.8273423, 9.0129731 ], [ 38.8265255, 9.0123148 ], [ 38.8249502, 9.0115923 ], [ 38.8246822, 9.0117334 ], [ 38.8245314, 9.0118524 ], [ 38.82398, 9.012162 ], [ 38.8220379, 9.012678 ], [ 38.8215799, 9.01153 ], [ 38.8213333, 9.0110947 ], [ 38.8212563, 9.0111273 ], [ 38.8208147, 9.013098 ], [ 38.8209495, 9.013644 ], [ 38.8196501, 9.0156462 ], [ 38.8193771, 9.0158641 ], [ 38.819362, 9.0164901 ], [ 38.8194273, 9.0176486 ] ] ] } },
{ "type": "Feature", "properties": { "threshold_s": 600, "time_label": "10 min drive" }, "geometry": { "type": "Polygon", "coordinates": [ [ [ 38.8116801, 9.0213311 ], [ 38.8132756, 9.0242962 ], [ 38.8163343, 9.0250546 ], [ 38.8191069, 9.0273668 ], [ 38.8191392, 9.0273882 ], [ 38.8202976, 9.0275475 ], [ 38.8249282, 9.0291742 ], [ 38.8272859, 9.032712 ], [ 38.8297431, 9.0321474 ], [ 38.8323241, 9.0311502 ], [ 38.8344168, 9.0302342 ], [ 38.8357285, 9.0294508 ], [ 38.835766, 9.029362 ], [ 38.8346891, 9.0272203 ], [ 38.8361434, 9.0230967 ], [ 38.8392593, 9.0214433 ], [ 38.8408486, 9.021363 ], [ 38.8418171, 9.0213402 ], [ 38.8403292, 9.0199054 ], [ 38.8392847, 9.0189446 ], [ 38.8387464, 9.0183235 ], [ 38.838038, 9.0135597 ], [ 38.8397905, 9.0108774 ], [ 38.8393205, 9.0104231 ], [ 38.8384936, 9.0097235 ], [ 38.8380406, 9.0093957 ], [ 38.8367389, 9.0085532 ], [ 38.8363087, 9.0083377 ], [ 38.835086, 9.0077408 ], [ 38.8321938, 9.0047921 ], [ 38.8283839, 9.0019322 ], [ 38.8277234, 9.001664 ], [ 38.825101, 9.001087 ], [ 38.8239442, 9.0011858 ], [ 38.8202126, 9.0015063 ], [ 38.8189781, 9.0014169 ], [ 38.8178006, 9.0024879 ], [ 38.8143526, 9.0036469 ], [ 38.8122604, 9.0080583 ], [ 38.8102475, 9.0114704 ], [ 38.8106196, 9.0133539 ], [ 38.811043, 9.0138626 ], [ 38.8129994, 9.0138904 ], [ 38.8158358, 9.015769 ], [ 38.8133688, 9.0197109 ], [ 38.811567599999989, 9.0200756 ], [ 38.811054, 9.0201534 ], [ 38.8116801, 9.0213311 ] ] ] } },
{ "type": "Feature", "properties": { "threshold_s": 900, "time_label": "15 min drive" }, "geometry": { "type": "Polygon", "coordinates": [ [ [ 38.8012944, 9.0218089 ], [ 38.8023851, 9.0230082 ], [ 38.8055937, 9.0257918 ], [ 38.806314, 9.0257329 ], [ 38.8071703, 9.0253631 ], [ 38.8092436, 9.0249536 ], [ 38.8143496, 9.0279621 ], [ 38.8116564, 9.0325841 ], [ 38.8174166, 9.0347778 ], [ 38.8180387, 9.0354566 ], [ 38.8213196, 9.0368001 ], [ 38.8214511, 9.0364996 ], [ 38.827771, 9.0378714 ], [ 38.828069, 9.0396587 ], [ 38.8288784, 9.0413308 ], [ 38.8299423, 9.0414102 ], [ 38.8319382, 9.0415328 ], [ 38.8328337, 9.0408615 ], [ 38.8375676, 9.0372689 ], [ 38.8393451, 9.0366722 ], [ 38.840695, 9.0359762 ], [ 38.8461326, 9.0339369 ], [ 38.8461685, 9.0338386 ], [ 38.8459702, 9.0280977 ], [ 38.8472868, 9.0262548 ], [ 38.8478432, 9.0241995 ], [ 38.8526753, 9.0203494 ], [ 38.850019, 9.0178559 ], [ 38.8495917, 9.0114717 ], [ 38.8501641, 9.0106506 ], [ 38.8507134, 9.0100298 ], [ 38.8473128, 9.0059978 ], [ 38.8459218, 9.0046198 ], [ 38.843529, 9.0039668 ], [ 38.8396599, 9.0013672 ], [ 38.8382562, 9.0007181 ], [ 38.8334573, 8.9975828 ], [ 38.8309022, 8.9950803 ], [ 38.8279869, 8.9925461 ], [ 38.8265017, 8.9924918 ], [ 38.8239341, 8.9927891 ], [ 38.8218871, 8.9936843 ], [ 38.8174165, 8.9942634 ], [ 38.8139561, 8.9935155 ], [ 38.8135087, 8.9934521 ], [ 38.8118547, 8.9947661 ], [ 38.8105658, 8.9963646 ], [ 38.806023, 8.9999586 ], [ 38.804171599999989, 9.0040571 ], [ 38.8038324, 9.0088005 ], [ 38.8040681, 9.0123412 ], [ 38.802971, 9.0155489 ], [ 38.801438, 9.0192316 ], [ 38.8012379, 9.0196774 ], [ 38.8010437, 9.0214108 ], [ 38.8012944, 9.0218089 ] ] ] } },
{ "type": "Feature", "properties": { "threshold_s": 300, "time_label": "5 min drive" }, "geometry": { "type": "Polygon", "coordinates": [ [ [ 38.6859727, 9.0736382 ], [ 38.6870994, 9.0749239 ], [ 38.6884663, 9.0751061 ], [ 38.689663, 9.0762027 ], [ 38.6900282, 9.0740514 ], [ 38.690748, 9.0729067 ], [ 38.6917743, 9.0715285 ], [ 38.6932044, 9.0722988 ], [ 38.6933118, 9.0726747 ], [ 38.6938391, 9.0730859 ], [ 38.6945052, 9.0723955 ], [ 38.6946523, 9.0720662 ], [ 38.6947811, 9.0717378 ], [ 38.6951271, 9.0706887 ], [ 38.6952025, 9.0702369 ], [ 38.6953996, 9.0696928 ], [ 38.6957356, 9.0682504 ], [ 38.6973106, 9.0674507 ], [ 38.698357799999989, 9.0683166 ], [ 38.6997166, 9.0668442 ], [ 38.6999183, 9.0662753 ], [ 38.6995185, 9.0650127 ], [ 38.699623699999989, 9.063205 ], [ 38.6985998, 9.063679 ], [ 38.6983666, 9.0650152 ], [ 38.6964191, 9.0650237 ], [ 38.6949087, 9.0637396 ], [ 38.6957136, 9.0615541 ], [ 38.6955364, 9.0602289 ], [ 38.6947565, 9.0592695 ], [ 38.6944255, 9.0590066 ], [ 38.6928854, 9.0586845 ], [ 38.6928332, 9.0587042 ], [ 38.6916544, 9.0592956 ], [ 38.6908701, 9.0609207 ], [ 38.6895502, 9.0616846 ], [ 38.6888574, 9.0617826 ], [ 38.6887622, 9.0621323 ], [ 38.6898755, 9.0643095 ], [ 38.6899024, 9.0645456 ], [ 38.6900988, 9.0652382 ], [ 38.6889002, 9.0668363 ], [ 38.6876886, 9.0673312 ], [ 38.6872816, 9.0676628 ], [ 38.6852767, 9.0690918 ], [ 38.6854128, 9.0694834 ], [ 38.6864601, 9.070055 ], [ 38.6869946, 9.071453 ], [ 38.6859727, 9.0736382 ] ] ] } },
{ "type": "Feature", "properties": { "threshold_s": 600, "time_label": "10 min drive" }, "geometry": { "type": "Polygon", "coordinates": [ [ [ 38.6852767, 9.0690918 ], [ 38.6848046, 9.0744871 ], [ 38.689663, 9.0762027 ], [ 38.6938391, 9.0730859 ], [ 38.6945052, 9.0723955 ], [ 38.6946523, 9.0720662 ], [ 38.698357799999989, 9.0683166 ], [ 38.6992261, 9.0679087 ], [ 38.7001384, 9.0673675 ], [ 38.7047361, 9.0671463 ], [ 38.7051867, 9.0669423 ], [ 38.7064393, 9.0656273 ], [ 38.7078967, 9.0623726 ], [ 38.7066177, 9.0581016 ], [ 38.7065344, 9.0580365 ], [ 38.7039984, 9.0561381 ], [ 38.7019271, 9.0549932 ], [ 38.6991694, 9.0541126 ], [ 38.6943398, 9.0523358 ], [ 38.6937929, 9.0502591 ], [ 38.6937608, 9.0499517 ], [ 38.693727, 9.0496195 ], [ 38.6936392, 9.04931 ], [ 38.6934752, 9.0489497 ], [ 38.6929451, 9.0483917 ], [ 38.6926122, 9.0484916 ], [ 38.6910361, 9.048995 ], [ 38.6905687, 9.0493811 ], [ 38.6872937, 9.0512525 ], [ 38.684895, 9.0518267 ], [ 38.6846724, 9.0563468 ], [ 38.6847206, 9.0589202 ], [ 38.6847507, 9.0616361 ], [ 38.6847362, 9.0650724 ], [ 38.6847681, 9.0654203 ], [ 38.6848503, 9.0662366 ], [ 38.6851587, 9.0687948 ], [ 38.6852767, 9.0690918 ] ] ] } },
{ "type": "Feature", "properties": { "threshold_s": 900, "time_label": "15 min drive" }, "geometry": { "type": "Polygon", "coordinates": [ [ [ 38.6852767, 9.0690918 ], [ 38.6848046, 9.0744871 ], [ 38.689663, 9.0762027 ], [ 38.6938391, 9.0730859 ], [ 38.6945052, 9.0723955 ], [ 38.6946523, 9.0720662 ], [ 38.6947811, 9.0717378 ], [ 38.698357799999989, 9.0683166 ], [ 38.6992261, 9.0679087 ], [ 38.7001384, 9.0673675 ], [ 38.7047361, 9.0671463 ], [ 38.7049681, 9.0734342 ], [ 38.7040883, 9.075675 ], [ 38.7066767, 9.0720331 ], [ 38.7051867, 9.0669423 ], [ 38.7064393, 9.0656273 ], [ 38.707658, 9.0628554 ], [ 38.7110449, 9.061498 ], [ 38.713122, 9.0590505 ], [ 38.7135377, 9.0568903 ], [ 38.7138824, 9.055029 ], [ 38.7116659, 9.0510319 ], [ 38.711742, 9.048993 ], [ 38.7099166, 9.047999 ], [ 38.7095936, 9.0480408 ], [ 38.7076919, 9.0489116 ], [ 38.7057191, 9.0494234 ], [ 38.7048341, 9.0497102 ], [ 38.7005753, 9.0501161 ], [ 38.698911699999989, 9.049344 ], [ 38.6983568, 9.0447582 ], [ 38.6988951, 9.0438378 ], [ 38.6990615, 9.0426303 ], [ 38.6991417, 9.0417875 ], [ 38.6989459, 9.0415146 ], [ 38.6977221, 9.0406134 ], [ 38.6958586, 9.0406544 ], [ 38.6945085, 9.0407461 ], [ 38.6940874, 9.040914 ], [ 38.6918912, 9.0441741 ], [ 38.688636099999989, 9.0444118 ], [ 38.6877134, 9.0447218 ], [ 38.6862624, 9.0453614 ], [ 38.685805, 9.0462952 ], [ 38.685388, 9.0473163 ], [ 38.6850035, 9.0482596 ], [ 38.684895, 9.0518267 ], [ 38.6846724, 9.0563468 ], [ 38.6847206, 9.0589202 ], [ 38.6847507, 9.0616361 ], [ 38.6847362, 9.0650724 ], [ 38.6847681, 9.0654203 ], [ 38.6848503, 9.0662366 ], [ 38.6851587, 9.0687948 ], [ 38.6852767, 9.0690918 ] ] ] } },
{ "type": "Feature", "properties": { "threshold_s": 300, "time_label": "5 min drive" }, "geometry": { "type": "Polygon", "coordinates": [ [ [ 38.7752482, 9.0271537 ], [ 38.774781, 9.0284029 ], [ 38.7765881, 9.0279405 ], [ 38.7777821, 9.0276153 ], [ 38.7791344, 9.0289262 ], [ 38.7795637, 9.0295252 ], [ 38.7796725, 9.0297337 ], [ 38.7797489, 9.0299081 ], [ 38.7809631, 9.0314094 ], [ 38.7820705, 9.0326994 ], [ 38.7820987, 9.0327323 ], [ 38.7834835, 9.0321406 ], [ 38.7845581, 9.0313118 ], [ 38.7859405, 9.0306672 ], [ 38.7867588, 9.0301967 ], [ 38.7884042, 9.0291921 ], [ 38.7898626, 9.0285236 ], [ 38.7906702, 9.0267488 ], [ 38.789281, 9.0267649 ], [ 38.7882379, 9.0254218 ], [ 38.7882015, 9.0248648 ], [ 38.7881353, 9.0228568 ], [ 38.7888875, 9.0215812 ], [ 38.7884159, 9.0207782 ], [ 38.7870651, 9.0196171 ], [ 38.7860842, 9.0182336 ], [ 38.7857034, 9.0172699 ], [ 38.7833401, 9.0160574 ], [ 38.7825032, 9.0156702 ], [ 38.7817509, 9.0160428 ], [ 38.7807383, 9.0166185 ], [ 38.7813904, 9.0177361 ], [ 38.7813556, 9.0188907 ], [ 38.7800908, 9.0202484 ], [ 38.7775842, 9.0202392 ], [ 38.7770019, 9.0188688 ], [ 38.77681590000001, 9.0193321 ], [ 38.7744601, 9.0203401 ], [ 38.7729915, 9.021206 ], [ 38.7726157, 9.0232898 ], [ 38.7734231, 9.0249135 ], [ 38.7739329, 9.0250723 ], [ 38.7752482, 9.0271537 ] ] ] } },
{ "type": "Feature", "properties": { "threshold_s": 600, "time_label": "10 min drive" }, "geometry": { "type": "Polygon", "coordinates": [ [ [ 38.7631958, 9.029803 ], [ 38.7636394, 9.0308323 ], [ 38.7672949, 9.0333336 ], [ 38.7681332, 9.0340919 ], [ 38.7703056, 9.0363681 ], [ 38.7707349, 9.0364693 ], [ 38.7752885, 9.0378956 ], [ 38.7765473, 9.0380698 ], [ 38.7772388, 9.038123 ], [ 38.7816332, 9.0394631 ], [ 38.7832014, 9.0393962 ], [ 38.7836258, 9.0393199 ], [ 38.7866579, 9.0379459 ], [ 38.7884075, 9.037232 ], [ 38.788646, 9.0371199 ], [ 38.788999, 9.0366321 ], [ 38.7898711, 9.0353037 ], [ 38.7913411, 9.0328014 ], [ 38.7947311, 9.0312946 ], [ 38.7988474, 9.0307862 ], [ 38.8000767, 9.0287239 ], [ 38.8000908, 9.0286678 ], [ 38.7988977, 9.0268528 ], [ 38.8002208, 9.022295 ], [ 38.8004962, 9.0219356 ], [ 38.7992964, 9.0204626 ], [ 38.797182, 9.0184257 ], [ 38.7939321, 9.0148977 ], [ 38.7933255, 9.0131401 ], [ 38.7929784, 9.012718 ], [ 38.7905071, 9.0089001 ], [ 38.7887931, 9.0078893 ], [ 38.7887402, 9.0078729 ], [ 38.7870385, 9.0084513 ], [ 38.7836044, 9.0063722 ], [ 38.7824663, 9.0048444 ], [ 38.7806044, 9.0049721 ], [ 38.7801361, 9.0051451 ], [ 38.7794724, 9.0056821 ], [ 38.7790846, 9.007266 ], [ 38.7781482, 9.0088664 ], [ 38.7740014, 9.0088061 ], [ 38.7725128, 9.0102701 ], [ 38.7694701, 9.0112646 ], [ 38.768895, 9.0121279 ], [ 38.766101, 9.0156017 ], [ 38.7649382, 9.0162277 ], [ 38.7640158, 9.0171291 ], [ 38.7638895, 9.0199177 ], [ 38.7650922, 9.0223314 ], [ 38.7673037, 9.0253571 ], [ 38.7664952, 9.0274613 ], [ 38.7633917, 9.0291295 ], [ 38.7631958, 9.029803 ] ] ] } },
{ "type": "Feature", "properties": { "threshold_s": 900, "time_label": "15 min drive" }, "geometry": { "type": "Polygon", "coordinates": [ [ [ 38.7540847, 9.0327214 ], [ 38.7579791, 9.0380662 ], [ 38.7640497, 9.0430431 ], [ 38.7683814, 9.0466274 ], [ 38.772725, 9.0469788 ], [ 38.7787114, 9.0473741 ], [ 38.7818429, 9.048846 ], [ 38.7822264, 9.0489175 ], [ 38.7881461, 9.0481785 ], [ 38.7893323, 9.046174 ], [ 38.7888638, 9.0443872 ], [ 38.7883687, 9.0411166 ], [ 38.7898711, 9.0353037 ], [ 38.7947311, 9.0312946 ], [ 38.7997189, 9.0335465 ], [ 38.805898, 9.0343795 ], [ 38.8105209, 9.0319502 ], [ 38.808606, 9.0296592 ], [ 38.8103332, 9.0222355 ], [ 38.8110726, 9.0213249 ], [ 38.8092932, 9.0158973 ], [ 38.8061032, 9.0115015 ], [ 38.8027111, 9.0071769 ], [ 38.8007586, 9.0056499 ], [ 38.7959731, 9.0027659 ], [ 38.7913789, 8.9990156 ], [ 38.7860546, 8.996506 ], [ 38.7831277, 8.9950529 ], [ 38.7792163, 8.9939508 ], [ 38.7772892, 8.9944502 ], [ 38.7770092, 8.9949946 ], [ 38.7716421, 9.0009861 ], [ 38.768731, 9.0043466 ], [ 38.7638989, 9.0084046 ], [ 38.7591779, 9.0112723 ], [ 38.753888, 9.0173878 ], [ 38.7537369, 9.0181425 ], [ 38.755685, 9.0209076 ], [ 38.7541621, 9.0265885 ], [ 38.7523777, 9.0300754 ], [ 38.7540847, 9.0327214 ] ] ] } },
{ "type": "Feature", "properties": { "threshold_s": 300, "time_label": "5 min drive" }, "geometry": { "type": "Polygon", "coordinates": [ [ [ 38.8725568, 9.02237 ], [ 38.8737431, 9.0236835 ], [ 38.8750489, 9.0249196 ], [ 38.8769115, 9.0250655 ], [ 38.8779759, 9.0262323 ], [ 38.8785366, 9.0267672 ], [ 38.8795723, 9.0267711 ], [ 38.8806957, 9.0256846 ], [ 38.881436, 9.0244124 ], [ 38.8825482, 9.023578 ], [ 38.8831974, 9.022929 ], [ 38.8846283, 9.0216266 ], [ 38.8856404, 9.0219568 ], [ 38.8858793, 9.0221634 ], [ 38.8859229, 9.0221349 ], [ 38.8859947, 9.021978 ], [ 38.8860051, 9.0216916 ], [ 38.8855622, 9.0202239 ], [ 38.8846908, 9.0195594 ], [ 38.8845476, 9.0178166 ], [ 38.8837834, 9.0169257 ], [ 38.8822467, 9.0153954 ], [ 38.8808553, 9.0141698 ], [ 38.880459, 9.0136335 ], [ 38.8785459, 9.0125232 ], [ 38.8770877, 9.0124704 ], [ 38.8774643, 9.0136264 ], [ 38.8769276, 9.0147408 ], [ 38.875388, 9.0149986 ], [ 38.8744941, 9.0145671 ], [ 38.8744957, 9.0154563 ], [ 38.8744746, 9.0159109 ], [ 38.8744942, 9.0163752 ], [ 38.8761976, 9.0177202 ], [ 38.8765792, 9.0188719 ], [ 38.8764855, 9.0197393 ], [ 38.8753005, 9.0211214 ], [ 38.8737938, 9.0211951 ], [ 38.8725624, 9.021311 ], [ 38.8725588, 9.0215174 ], [ 38.8725568, 9.02237 ] ] ] } },
{ "type": "Feature", "properties": { "threshold_s": 600, "time_label": "10 min drive" }, "geometry": { "type": "Polygon", "coordinates": [ [ [ 38.8629623, 9.0229316 ], [ 38.8641242, 9.0247925 ], [ 38.8656287, 9.0260738 ], [ 38.8682631, 9.0289126 ], [ 38.8684198, 9.0290747 ], [ 38.871983899999989, 9.0295753 ], [ 38.8745945, 9.0328456 ], [ 38.8745877, 9.0334639 ], [ 38.8745851, 9.0340029 ], [ 38.8757801, 9.0354669 ], [ 38.8769724, 9.0365074 ], [ 38.8778056, 9.037232 ], [ 38.878946, 9.0374277 ], [ 38.8803497, 9.0370691 ], [ 38.8828334, 9.0342109 ], [ 38.8861021, 9.03257 ], [ 38.889458500000011, 9.029954 ], [ 38.8906199, 9.0274217 ], [ 38.8910879, 9.0263395 ], [ 38.8920079, 9.0251462 ], [ 38.8955471, 9.0237263 ], [ 38.8944717, 9.0201679 ], [ 38.8944973, 9.0191105 ], [ 38.8946015, 9.0178817 ], [ 38.8926134, 9.0167035 ], [ 38.8907487, 9.0158764 ], [ 38.8906755, 9.015872 ], [ 38.8907445, 9.0166061 ], [ 38.8906634, 9.0178602 ], [ 38.89073, 9.0191277 ], [ 38.8862294, 9.0192266 ], [ 38.8856355, 9.0184126 ], [ 38.8855438, 9.0154758 ], [ 38.8850963, 9.0141426 ], [ 38.8850811, 9.0130612 ], [ 38.8884393, 9.0106306 ], [ 38.8888068, 9.0105582 ], [ 38.8876504, 9.0091286 ], [ 38.8859136, 9.0070369 ], [ 38.882456, 9.0063349 ], [ 38.8796872, 9.005045 ], [ 38.8767718, 9.0020768 ], [ 38.8765597, 9.0017587 ], [ 38.8764132, 9.002169 ], [ 38.8764657, 9.0023479 ], [ 38.8770401, 9.0050606 ], [ 38.8754976, 9.0070477 ], [ 38.8744783, 9.0078319 ], [ 38.8725588, 9.0109856 ], [ 38.8696938, 9.0094141 ], [ 38.8693115, 9.0088141 ], [ 38.8689723, 9.0085029 ], [ 38.8656089, 9.0113038 ], [ 38.8652095, 9.0115203 ], [ 38.86567, 9.0153076 ], [ 38.8643358, 9.0184438 ], [ 38.8610298, 9.020743 ], [ 38.8629623, 9.0229316 ] ] ] } },
{ "type": "Feature", "properties": { "threshold_s": 900, "time_label": "15 min drive" }, "geometry": { "type": "Polygon", "coordinates": [ [ [ 38.8559032, 9.0265052 ], [ 38.8580807, 9.0309077 ], [ 38.8589252, 9.031562 ], [ 38.8611759, 9.0314011 ], [ 38.8636881, 9.0301716 ], [ 38.8648603, 9.0291935 ], [ 38.8684198, 9.0290747 ], [ 38.8699011, 9.0331262 ], [ 38.8714937, 9.0387469 ], [ 38.8710607, 9.0441727 ], [ 38.8755365, 9.0466319 ], [ 38.8779188, 9.0485463 ], [ 38.8789232, 9.0475914 ], [ 38.8836794, 9.0454044 ], [ 38.8866864, 9.040869 ], [ 38.889201, 9.0390757 ], [ 38.8903677, 9.0368758 ], [ 38.8926476, 9.0338109 ], [ 38.8930339, 9.0330507 ], [ 38.8953325, 9.027668 ], [ 38.8956209, 9.0252058 ], [ 38.9002302, 9.0222733 ], [ 38.9008565, 9.0197236 ], [ 38.8978806, 9.0159447 ], [ 38.8991091, 9.0134851 ], [ 38.9004207, 9.0112823 ], [ 38.9005568, 9.0106524 ], [ 38.8978797, 9.0083322 ], [ 38.8945814, 9.003887 ], [ 38.8910357, 9.0005349 ], [ 38.8900902, 8.9996462 ], [ 38.8874944, 8.9978002 ], [ 38.8839908, 8.9956417 ], [ 38.8817418, 8.9964086 ], [ 38.8776031, 8.9979266 ], [ 38.8735718, 8.9973809 ], [ 38.8681081, 8.9992671 ], [ 38.8653506, 9.000656 ], [ 38.8650755, 9.0008421 ], [ 38.8636212, 9.0018483 ], [ 38.859065, 9.002772 ], [ 38.858677, 9.0033255 ], [ 38.8585702, 9.0036012 ], [ 38.8563196, 9.0078274 ], [ 38.855269, 9.0089063 ], [ 38.8544114, 9.0099079 ], [ 38.8547337, 9.0102682 ], [ 38.8565841, 9.0142086 ], [ 38.8565954, 9.0144101 ], [ 38.8566135, 9.0147307 ], [ 38.8566315, 9.0150511 ], [ 38.8566528, 9.0155972 ], [ 38.8566693, 9.0161242 ], [ 38.8566788, 9.016403 ], [ 38.8567029, 9.0169402 ], [ 38.8519286, 9.020363 ], [ 38.8509239, 9.0211028 ], [ 38.8535353, 9.0251396 ], [ 38.8542502, 9.0254448 ], [ 38.8559032, 9.0265052 ] ] ] } },
{ "type": "Feature", "properties": { "threshold_s": 300, "time_label": "5 min drive" }, "geometry": { "type": "Polygon", "coordinates": [ [ [ 38.854874, 8.9974818 ], [ 38.8558403, 8.9992759 ], [ 38.8574364, 9.0008895 ], [ 38.8584843, 9.0020071 ], [ 38.8601571, 9.0029796 ], [ 38.8616534, 9.0013971 ], [ 38.8621925, 8.9992314 ], [ 38.863330499999989, 8.9968197 ], [ 38.8641715, 8.9962063 ], [ 38.8673329, 8.996602 ], [ 38.8685319, 8.9965702 ], [ 38.8683298, 8.9954969 ], [ 38.8658631, 8.9953807 ], [ 38.8638084, 8.9931033 ], [ 38.8638173, 8.9912566 ], [ 38.8637898, 8.9912337 ], [ 38.8637297, 8.99125 ], [ 38.8615039, 8.9920033 ], [ 38.8588725, 8.9917772 ], [ 38.8583455, 8.9905159 ], [ 38.8582063, 8.9893403 ], [ 38.8581745, 8.9892107 ], [ 38.8579479, 8.9886808 ], [ 38.8578916, 8.9887005 ], [ 38.8570691, 8.9900553 ], [ 38.856082, 8.992128 ], [ 38.8547406, 8.9944476 ], [ 38.854874, 8.9974818 ] ] ] } },
{ "type": "Feature", "properties": { "threshold_s": 600, "time_label": "10 min drive" }, "geometry": { "type": "Polygon", "coordinates": [ [ [ 38.8487015, 8.9985398 ], [ 38.8492016, 9.001935 ], [ 38.8511864, 9.0038778 ], [ 38.8519758, 9.0039611 ], [ 38.8520229, 9.0038196 ], [ 38.8537604, 9.0014803 ], [ 38.8550829, 9.0014486 ], [ 38.8573183, 9.0035376 ], [ 38.8562293, 9.0055649 ], [ 38.8557418, 9.0078428 ], [ 38.8563341, 9.0081527 ], [ 38.856694, 9.0081418 ], [ 38.8569338, 9.0078125 ], [ 38.8588436, 9.0055906 ], [ 38.8590772, 9.005161 ], [ 38.859954, 9.0032962 ], [ 38.8629958, 9.0045807 ], [ 38.8653346, 9.0071711 ], [ 38.8655183, 9.0078997 ], [ 38.8662327, 9.0095132 ], [ 38.866467299999989, 9.009673 ], [ 38.8698051, 9.0088234 ], [ 38.8693955, 9.0060755 ], [ 38.8692713, 9.0054074 ], [ 38.868791, 9.003596 ], [ 38.8686443, 9.0028691 ], [ 38.868548, 9.0025283 ], [ 38.8680223, 9.0006733 ], [ 38.8675019, 9.000001 ], [ 38.8685319, 8.9965702 ], [ 38.8683298, 8.9954969 ], [ 38.8658631, 8.9953807 ], [ 38.8647621, 8.9947766 ], [ 38.8638084, 8.9931033 ], [ 38.8659556, 8.990281 ], [ 38.8637757, 8.988145 ], [ 38.8644268, 8.9854301 ], [ 38.862619, 8.9826484 ], [ 38.8598227, 8.9823993 ], [ 38.8580051, 8.9836492 ], [ 38.8556372, 8.9814877 ], [ 38.8553729, 8.9814377 ], [ 38.8542256, 8.9813634 ], [ 38.8535654, 8.9814008 ], [ 38.852094, 8.9832816 ], [ 38.8520521, 8.9846203 ], [ 38.8546241, 8.9872988 ], [ 38.8531815, 8.9890156 ], [ 38.8506281, 8.9896292 ], [ 38.8489683, 8.9909968 ], [ 38.8483633, 8.9914724 ], [ 38.8475934, 8.9925988 ], [ 38.8484516, 8.9939689 ], [ 38.8483224, 8.9976646 ], [ 38.8487015, 8.9985398 ] ] ] } },
{ "type": "Feature", "properties": { "threshold_s": 900, "time_label": "15 min drive" }, "geometry": { "type": "Polygon", "coordinates": [ [ [ 38.8386025, 9.0019375 ], [ 38.8432065, 9.0076345 ], [ 38.8463331, 9.0104403 ], [ 38.8482646, 9.0120106 ], [ 38.8523549, 9.015755 ], [ 38.8533311, 9.0166009 ], [ 38.8539545, 9.0171284 ], [ 38.8567812, 9.0191047 ], [ 38.8571499, 9.0190899 ], [ 38.8633168, 9.018985 ], [ 38.865731, 9.0207837 ], [ 38.8721682, 9.0187161 ], [ 38.8741028, 9.0189236 ], [ 38.8746138, 9.0181865 ], [ 38.8784919, 9.0120639 ], [ 38.8783678, 9.0107325 ], [ 38.8779021, 9.009779 ], [ 38.8772155, 9.0051419 ], [ 38.8794391, 9.0011745 ], [ 38.879364, 9.0010116 ], [ 38.8767032, 8.9999374 ], [ 38.8751623, 8.9993069 ], [ 38.87197780000001, 8.9972456 ], [ 38.8710961, 8.9968484 ], [ 38.8683298, 8.9954969 ], [ 38.8659556, 8.990281 ], [ 38.8644268, 8.9854301 ], [ 38.8694492, 8.9826364 ], [ 38.8692842, 8.9776795 ], [ 38.8632211, 8.9748911 ], [ 38.8611719, 8.9752872 ], [ 38.8542589, 8.9723237 ], [ 38.8539979, 8.9723627 ], [ 38.8540339, 8.9724259 ], [ 38.8546712, 8.974416 ], [ 38.8494104, 8.9788651 ], [ 38.845005, 8.9794268 ], [ 38.84429440000001, 8.9801963 ], [ 38.8425793, 8.9821145 ], [ 38.8393218, 8.9883791 ], [ 38.838026, 8.9945437 ], [ 38.8382562, 9.0007181 ], [ 38.8386025, 9.0019375 ] ] ] } },
{ "type": "Feature", "properties": { "threshold_s": 300, "time_label": "5 min drive" }, "geometry": { "type": "Polygon", "coordinates": [ [ [ 38.7182799, 9.0763662 ], [ 38.7190591, 9.077488 ], [ 38.7197901, 9.0703112 ], [ 38.7191502, 9.0700738 ], [ 38.7184079, 9.0698393 ], [ 38.7158404, 9.0681164 ], [ 38.7155081, 9.0679436 ], [ 38.7144677, 9.0620141 ], [ 38.7143868, 9.0611467 ], [ 38.7142127, 9.0594514 ], [ 38.714509, 9.0682505 ], [ 38.7146036, 9.0688953 ], [ 38.7157707, 9.0714928 ], [ 38.7160362, 9.0719192 ], [ 38.7166478, 9.0718531 ], [ 38.7172835, 9.071559 ], [ 38.7181498, 9.071257 ], [ 38.7183818, 9.0711855 ], [ 38.7186165, 9.0711339 ], [ 38.7182799, 9.0763662 ] ] ] } },
{ "type": "Feature", "properties": { "threshold_s": 600, "time_label": "10 min drive" }, "geometry": { "type": "Polygon", "coordinates": [ [ [ 38.7212082, 9.0809212 ], [ 38.7222228, 9.0847868 ], [ 38.7231521, 9.0851596 ], [ 38.7231448, 9.084217 ], [ 38.7235789, 9.0781644 ], [ 38.7247139, 9.0753918 ], [ 38.7257969, 9.0726548 ], [ 38.726472, 9.0661305 ], [ 38.7265023, 9.0657005 ], [ 38.7252597, 9.0642197 ], [ 38.7238357, 9.0634896 ], [ 38.7217762, 9.0625895 ], [ 38.7195573, 9.0613802 ], [ 38.7188539, 9.0537516 ], [ 38.7159088, 9.0528119 ], [ 38.711742, 9.048993 ], [ 38.7107677, 9.0488427 ], [ 38.707826, 9.0513915 ], [ 38.7059672, 9.055068 ], [ 38.7058868, 9.0598722 ], [ 38.7071273, 9.0631653 ], [ 38.707658, 9.0628554 ], [ 38.7110449, 9.061498 ], [ 38.714509, 9.0682505 ], [ 38.7146036, 9.0688953 ], [ 38.7151902, 9.0700342 ], [ 38.7157707, 9.0714928 ], [ 38.7160362, 9.0719192 ], [ 38.7182799, 9.0763662 ], [ 38.7190591, 9.077488 ], [ 38.7212082, 9.0809212 ] ] ] } },
{ "type": "Feature", "properties": { "threshold_s": 900, "time_label": "15 min drive" }, "geometry": { "type": "Polygon", "coordinates": [ [ [ 38.7222228, 9.0847868 ], [ 38.7188042, 9.0925749 ], [ 38.7265894, 9.0880836 ], [ 38.730374, 9.0869792 ], [ 38.7309526, 9.086197 ], [ 38.7287586, 9.0812933 ], [ 38.7348948, 9.0733919 ], [ 38.7349127, 9.0718786 ], [ 38.738775, 9.0629219 ], [ 38.7387881, 9.0628799 ], [ 38.7375255, 9.0607153 ], [ 38.7334597, 9.0567558 ], [ 38.7276328, 9.0505656 ], [ 38.7273196, 9.047603 ], [ 38.7270775, 9.0472554 ], [ 38.726934, 9.0470905 ], [ 38.7214261, 9.0451098 ], [ 38.7183845, 9.0434854 ], [ 38.7136608, 9.0379828 ], [ 38.7110124, 9.0384623 ], [ 38.708288, 9.0402862 ], [ 38.7074927, 9.0409749 ], [ 38.6993747, 9.0457293 ], [ 38.6991267, 9.0461292 ], [ 38.6987802, 9.0469779 ], [ 38.6978128, 9.0557983 ], [ 38.6956333, 9.0590879 ], [ 38.698142, 9.06594 ], [ 38.6989737, 9.0667622 ], [ 38.7049681, 9.0734342 ], [ 38.7066767, 9.0720331 ], [ 38.7160362, 9.0719192 ], [ 38.7182799, 9.0763662 ], [ 38.7190591, 9.077488 ], [ 38.7212082, 9.0809212 ], [ 38.7222228, 9.0847868 ] ] ] } },
{ "type": "Feature", "properties": { "threshold_s": 300, "time_label": "5 min drive" }, "geometry": { "type": "Polygon", "coordinates": [ [ [ 38.7513075, 9.0420444 ], [ 38.7529249, 9.0440196 ], [ 38.7542877, 9.0450162 ], [ 38.7552401, 9.0458515 ], [ 38.755617, 9.0458933 ], [ 38.7560377, 9.0453047 ], [ 38.7573255, 9.0439475 ], [ 38.7600057, 9.0440359 ], [ 38.7612864, 9.0448542 ], [ 38.7613838, 9.0448472 ], [ 38.7628306, 9.043556 ], [ 38.7628401, 9.0434637 ], [ 38.7633423, 9.0419701 ], [ 38.7647638, 9.0406035 ], [ 38.7673775, 9.0412689 ], [ 38.7683929, 9.0391379 ], [ 38.7673319, 9.0365137 ], [ 38.7673841, 9.0363515 ], [ 38.7665653, 9.0366879 ], [ 38.7639577, 9.0366488 ], [ 38.7632315, 9.0343164 ], [ 38.7636485, 9.0328556 ], [ 38.7663647, 9.032801 ], [ 38.7664081, 9.0326913 ], [ 38.7664014, 9.0314507 ], [ 38.7654192, 9.0307943 ], [ 38.7633917, 9.0291295 ], [ 38.7611664, 9.0293214 ], [ 38.7586122, 9.0287572 ], [ 38.758634, 9.0297558 ], [ 38.7598172, 9.0314772 ], [ 38.7590509, 9.0331043 ], [ 38.7579095, 9.0339593 ], [ 38.7570673, 9.0349685 ], [ 38.7549, 9.0340673 ], [ 38.7528617, 9.035044 ], [ 38.7522115, 9.0355968 ], [ 38.7521516, 9.0356663 ], [ 38.7509278, 9.037822 ], [ 38.750328, 9.0389292 ], [ 38.7504473, 9.0408737 ], [ 38.7513075, 9.0420444 ] ] ] } },
{ "type": "Feature", "properties": { "threshold_s": 600, "time_label": "10 min drive" }, "geometry": { "type": "Polygon", "coordinates": [ [ [ 38.7433663, 9.047114 ], [ 38.7446104, 9.0506486 ], [ 38.7446992, 9.0507129 ], [ 38.7489405, 9.0536645 ], [ 38.7522372, 9.054834 ], [ 38.753982, 9.0552087 ], [ 38.7569102, 9.0555767 ], [ 38.7615513, 9.0556329 ], [ 38.764614, 9.0541074 ], [ 38.7653567, 9.0526351 ], [ 38.7682121, 9.0503408 ], [ 38.7702489, 9.0500487 ], [ 38.7703563, 9.0500188 ], [ 38.772725, 9.0469788 ], [ 38.7753607, 9.0423724 ], [ 38.7784962, 9.0381963 ], [ 38.7779067, 9.0359559 ], [ 38.7770047, 9.0312073 ], [ 38.7742804, 9.0292455 ], [ 38.7722482, 9.0279523 ], [ 38.7717946, 9.0280784 ], [ 38.7706975, 9.0282685 ], [ 38.767701, 9.0287114 ], [ 38.7673563, 9.028805 ], [ 38.7625209, 9.0267749 ], [ 38.7624111, 9.0266163 ], [ 38.7616201, 9.0233396 ], [ 38.7638225, 9.0193203 ], [ 38.7638073, 9.0191651 ], [ 38.7633018, 9.0192267 ], [ 38.7582698, 9.020931 ], [ 38.7575174, 9.0206261 ], [ 38.7561953, 9.0200771 ], [ 38.754346, 9.0216889 ], [ 38.751883, 9.0249976 ], [ 38.7490952, 9.028018 ], [ 38.7452999, 9.0301931 ], [ 38.745241, 9.0302293 ], [ 38.7417078, 9.0339163 ], [ 38.7415025, 9.0344947 ], [ 38.7410243, 9.0368286 ], [ 38.7407971, 9.0398028 ], [ 38.7414151, 9.0426959 ], [ 38.7433663, 9.047114 ] ] ] } },
{ "type": "Feature", "properties": { "threshold_s": 900, "time_label": "15 min drive" }, "geometry": { "type": "Polygon", "coordinates": [ [ [ 38.7369876, 9.0559677 ], [ 38.7376966, 9.0592544 ], [ 38.737779, 9.0593116 ], [ 38.7395024, 9.0597291 ], [ 38.7438841, 9.0616172 ], [ 38.7470483, 9.063749 ], [ 38.7483684, 9.0645012 ], [ 38.7512422, 9.0651452 ], [ 38.7549185, 9.0645775 ], [ 38.7579726, 9.065167 ], [ 38.7609098, 9.066708 ], [ 38.7627161, 9.0665013 ], [ 38.7632041, 9.066229 ], [ 38.7645081, 9.0647029 ], [ 38.769501, 9.0628902 ], [ 38.7699458, 9.0626987 ], [ 38.7717021, 9.0608999 ], [ 38.7756462, 9.0597021 ], [ 38.7768038, 9.0590523 ], [ 38.7777284, 9.0570087 ], [ 38.7778891, 9.0559913 ], [ 38.7804541, 9.0517317 ], [ 38.7823471, 9.0504218 ], [ 38.7850703, 9.0458998 ], [ 38.7864934, 9.0444374 ], [ 38.7864503, 9.044088 ], [ 38.7853727, 9.0402983 ], [ 38.7851407, 9.0388863 ], [ 38.7860937, 9.0336826 ], [ 38.7867588, 9.0301967 ], [ 38.7868009, 9.0299594 ], [ 38.7845473, 9.0282398 ], [ 38.7830645, 9.0271982 ], [ 38.7814649, 9.022194 ], [ 38.7780195, 9.0189515 ], [ 38.7776519, 9.0186828 ], [ 38.776659, 9.0179653 ], [ 38.776591, 9.0179189 ], [ 38.7727337, 9.0165182 ], [ 38.7699102, 9.014068 ], [ 38.7690318, 9.0131385 ], [ 38.7654607, 9.0104574 ], [ 38.7647812, 9.0085945 ], [ 38.7643986, 9.0090118 ], [ 38.7636137, 9.009863 ], [ 38.7591779, 9.0112723 ], [ 38.7588792, 9.0116653 ], [ 38.7554942, 9.0142652 ], [ 38.7529601, 9.0121004 ], [ 38.7503024, 9.0129965 ], [ 38.7497617, 9.0140877 ], [ 38.7460695, 9.0165495 ], [ 38.7445428, 9.0193766 ], [ 38.7423635, 9.0205965 ], [ 38.7392467, 9.0223117 ], [ 38.7360555, 9.0233601 ], [ 38.7357585, 9.0235359 ], [ 38.7354078, 9.0251686 ], [ 38.7335543, 9.0292054 ], [ 38.73110830000001, 9.0327577 ], [ 38.7300508, 9.033799 ], [ 38.7312052, 9.0355354 ], [ 38.7310807, 9.0399107 ], [ 38.7305473, 9.0409807 ], [ 38.7300685, 9.0433154 ], [ 38.7318079, 9.0458731 ], [ 38.7321622, 9.0464676 ], [ 38.7338104, 9.0508502 ], [ 38.7356834, 9.0535869 ], [ 38.7369876, 9.0559677 ] ] ] } },
{ "type": "Feature", "properties": { "threshold_s": 300, "time_label": "5 min drive" }, "geometry": { "type": "Polygon", "coordinates": [ [ [ 38.7732789, 9.0121882 ], [ 38.773148, 9.0145762 ], [ 38.7732235, 9.0146348 ], [ 38.7756928, 9.012622 ], [ 38.776373, 9.0129175 ], [ 38.7793668, 9.0132882 ], [ 38.7789615, 9.0113466 ], [ 38.7789925, 9.0105062 ], [ 38.7782046, 9.0076547 ], [ 38.7793227, 9.0073006 ], [ 38.7809236, 9.0077517 ], [ 38.7810148, 9.0078206 ], [ 38.7822264, 9.0073517 ], [ 38.7831612, 9.0062702 ], [ 38.7841033, 9.0045257 ], [ 38.784047, 9.0031303 ], [ 38.783090799999989, 9.0006189 ], [ 38.7828391, 9.0003345 ], [ 38.7807019, 9.0003787 ], [ 38.7795597, 9.0006527 ], [ 38.7772268, 9.0028263 ], [ 38.7752118, 9.0003829 ], [ 38.7749536, 8.9996857 ], [ 38.7739914, 8.9989883 ], [ 38.7722506, 8.9984578 ], [ 38.770898099999989, 8.9992638 ], [ 38.7702795, 9.0000827 ], [ 38.769043, 9.0027762 ], [ 38.76827990000001, 9.0036892 ], [ 38.7679328, 9.0040963 ], [ 38.7679271, 9.0042908 ], [ 38.7680585, 9.0045594 ], [ 38.768828, 9.0061181 ], [ 38.7688796, 9.0061823 ], [ 38.7699657, 9.0092017 ], [ 38.7702843, 9.0101555 ], [ 38.7706225, 9.010122 ], [ 38.7725128, 9.0102701 ], [ 38.7732789, 9.0121882 ] ] ] } },
{ "type": "Feature", "properties": { "threshold_s": 600, "time_label": "10 min drive" }, "geometry": { "type": "Polygon", "coordinates": [ [ [ 38.7638895, 9.0199177 ], [ 38.7650922, 9.0223314 ], [ 38.7664473, 9.0226405 ], [ 38.7686595, 9.0207369 ], [ 38.7723687, 9.02177 ], [ 38.7726157, 9.0232898 ], [ 38.7763592, 9.0232278 ], [ 38.7764095, 9.0231921 ], [ 38.7791253, 9.0212346 ], [ 38.7827933, 9.0192845 ], [ 38.7868626, 9.0185753 ], [ 38.7890664, 9.0182611 ], [ 38.79037610000001, 9.0163806 ], [ 38.7904882, 9.0158742 ], [ 38.789912, 9.0117734 ], [ 38.7904413, 9.0114498 ], [ 38.7919494, 9.0097737 ], [ 38.7925181, 9.0080703 ], [ 38.7947168, 9.0050565 ], [ 38.7946479, 9.0046967 ], [ 38.7946308, 9.0046325 ], [ 38.7917389, 9.0056483 ], [ 38.7892042, 9.0040436 ], [ 38.7882698, 9.0017096 ], [ 38.7897293, 8.9996859 ], [ 38.7906855, 8.9993148 ], [ 38.7913789, 8.9990156 ], [ 38.7920983, 8.9987684 ], [ 38.792624, 8.9985777 ], [ 38.7931524, 8.9954781 ], [ 38.7913479, 8.9928249 ], [ 38.7887993, 8.9927548 ], [ 38.7852648, 8.9915358 ], [ 38.7822305, 8.9904055 ], [ 38.7779312, 8.9897209 ], [ 38.7771993, 8.9889938 ], [ 38.7730466, 8.9897253 ], [ 38.7711981, 8.9882736 ], [ 38.7711194, 8.9883651 ], [ 38.7690985, 8.9909227 ], [ 38.7679324, 8.991757 ], [ 38.7668799, 8.9927481 ], [ 38.7632901, 8.995034 ], [ 38.7619851, 8.9958804 ], [ 38.7603021, 8.9984982 ], [ 38.7592063, 9.0006528 ], [ 38.7603074, 9.0040662 ], [ 38.7609067, 9.0058947 ], [ 38.7627101, 9.0070834 ], [ 38.76206, 9.0111118 ], [ 38.7598898, 9.0114568 ], [ 38.7591938, 9.0114719 ], [ 38.759196, 9.0116 ], [ 38.7593389, 9.0118938 ], [ 38.762877, 9.0129834 ], [ 38.7632994, 9.0143168 ], [ 38.7623398, 9.017288 ], [ 38.7623666, 9.0174082 ], [ 38.7638895, 9.0199177 ] ] ] } },
{ "type": "Feature", "properties": { "threshold_s": 900, "time_label": "15 min drive" }, "geometry": { "type": "Polygon", "coordinates": [ [ [ 38.750742, 9.0170997 ], [ 38.7523491, 9.0197223 ], [ 38.754346, 9.0216889 ], [ 38.7562857, 9.0230635 ], [ 38.7614021, 9.0232701 ], [ 38.7616201, 9.0233396 ], [ 38.7650922, 9.0223314 ], [ 38.7673037, 9.0253571 ], [ 38.7664952, 9.0274613 ], [ 38.7639705, 9.0296349 ], [ 38.7668135, 9.0296198 ], [ 38.7701755, 9.0299115 ], [ 38.7723844, 9.0333248 ], [ 38.7735107, 9.0325106 ], [ 38.777492, 9.0307413 ], [ 38.7799938, 9.0303326 ], [ 38.7847756, 9.0284891 ], [ 38.7884042, 9.0291921 ], [ 38.7884871, 9.0289877 ], [ 38.7921482, 9.0254535 ], [ 38.7940937, 9.0255635 ], [ 38.7959232, 9.0247031 ], [ 38.79603, 9.0246455 ], [ 38.7962349, 9.0243572 ], [ 38.7970493, 9.0213331 ], [ 38.801438, 9.0192316 ], [ 38.8014734, 9.019214 ], [ 38.799423, 9.0175115 ], [ 38.8005754, 9.0134864 ], [ 38.8009101, 9.0132402 ], [ 38.8017033, 9.0092955 ], [ 38.8034796, 9.0044801 ], [ 38.8037032, 9.0037733 ], [ 38.804329, 9.0019673 ], [ 38.8046476, 9.0003258 ], [ 38.8044385, 8.9996268 ], [ 38.8043088, 8.9993655 ], [ 38.8004776, 8.9984045 ], [ 38.7965052, 8.9969379 ], [ 38.797341, 8.9927148 ], [ 38.797957, 8.9920335 ], [ 38.7976136, 8.9913002 ], [ 38.7967419, 8.9891166 ], [ 38.7961378, 8.9883409 ], [ 38.791375, 8.9871117 ], [ 38.789819799999989, 8.986366 ], [ 38.788826, 8.985809 ], [ 38.7855757, 8.9849273 ], [ 38.7842988, 8.9845215 ], [ 38.7829895, 8.9840922 ], [ 38.7786839, 8.9804382 ], [ 38.7752954, 8.9803589 ], [ 38.7728924, 8.9803205 ], [ 38.7713541, 8.9806587 ], [ 38.7662418, 8.9812714 ], [ 38.7636644, 8.9811005 ], [ 38.7627956, 8.9811445 ], [ 38.7603235, 8.9841974 ], [ 38.7595277, 8.9865796 ], [ 38.7554269, 8.9902342 ], [ 38.7552193, 8.9903365 ], [ 38.7526832, 8.9921582 ], [ 38.7514989, 8.9935134 ], [ 38.7503466, 8.994908 ], [ 38.7503139, 8.9949667 ], [ 38.7513059, 8.9968582 ], [ 38.7542355, 8.9997838 ], [ 38.7531698, 9.0041116 ], [ 38.7530085, 9.0043225 ], [ 38.7522274, 9.0054683 ], [ 38.752014, 9.0072861 ], [ 38.7482888, 9.0109348 ], [ 38.7505837, 9.0146787 ], [ 38.750742, 9.0170997 ] ] ] } },
{ "type": "Feature", "properties": { "threshold_s": 300, "time_label": "5 min drive" }, "geometry": { "type": "Polygon", "coordinates": [ [ [ 38.7780561, 9.0303012 ], [ 38.7782877, 9.031042 ], [ 38.7800837, 9.0326359 ], [ 38.7809407, 9.0329393 ], [ 38.7820987, 9.0327323 ], [ 38.7847393, 9.0337449 ], [ 38.785141, 9.0334743 ], [ 38.7860223, 9.0306152 ], [ 38.7867588, 9.0301967 ], [ 38.7895501, 9.0295027 ], [ 38.7905778, 9.0297413 ], [ 38.7916626, 9.0285942 ], [ 38.7919374, 9.0256425 ], [ 38.7894086, 9.0239549 ], [ 38.7876648, 9.0232365 ], [ 38.7862093, 9.0222595 ], [ 38.7854865, 9.0225353 ], [ 38.7831854, 9.0201498 ], [ 38.7827905, 9.0187878 ], [ 38.7821732, 9.018387 ], [ 38.7813556, 9.0188907 ], [ 38.7800908, 9.0202484 ], [ 38.7803991, 9.020821 ], [ 38.7788296, 9.023438 ], [ 38.7778352, 9.0234959 ], [ 38.7764838, 9.0227621 ], [ 38.7754273, 9.0227795 ], [ 38.7764432, 9.0256874 ], [ 38.7777275, 9.0282723 ], [ 38.7780561, 9.0303012 ] ] ] } },
{ "type": "Feature", "properties": { "threshold_s": 600, "time_label": "10 min drive" }, "geometry": { "type": "Polygon", "coordinates": [ [ [ 38.7709504, 9.0340645 ], [ 38.7734143, 9.0388789 ], [ 38.7777758, 9.0401384 ], [ 38.7818758, 9.0411522 ], [ 38.7828712, 9.0413032 ], [ 38.7832034, 9.0412485 ], [ 38.784006, 9.0409412 ], [ 38.788646, 9.0371199 ], [ 38.788999, 9.0366321 ], [ 38.7898711, 9.0353037 ], [ 38.7913411, 9.0328014 ], [ 38.7947311, 9.0312946 ], [ 38.7988474, 9.0307862 ], [ 38.8011234, 9.0303124 ], [ 38.8022468, 9.0290022 ], [ 38.8022679, 9.0289403 ], [ 38.8020118, 9.0282786 ], [ 38.8018846, 9.028053 ], [ 38.8006361, 9.0234734 ], [ 38.8014876, 9.0217608 ], [ 38.8016071, 9.0216033 ], [ 38.8020513, 9.0210223 ], [ 38.797182, 9.0184257 ], [ 38.7967567, 9.0182941 ], [ 38.7947434, 9.0176284 ], [ 38.7915556, 9.0156549 ], [ 38.7890701, 9.0126731 ], [ 38.7880908, 9.0106422 ], [ 38.7823498, 9.0091425 ], [ 38.7816411, 9.0083637 ], [ 38.7810148, 9.0078206 ], [ 38.7809236, 9.0077517 ], [ 38.7803711, 9.0080397 ], [ 38.7793008, 9.0087445 ], [ 38.775033, 9.0113597 ], [ 38.773148, 9.0145762 ], [ 38.7700074, 9.0148215 ], [ 38.7699191, 9.014831 ], [ 38.7692811, 9.0152555 ], [ 38.7682007, 9.0165141 ], [ 38.766175, 9.0194163 ], [ 38.7664473, 9.0226405 ], [ 38.7696171, 9.026581 ], [ 38.7673563, 9.028805 ], [ 38.7660695, 9.0292297 ], [ 38.7657206, 9.0293019 ], [ 38.7696665, 9.0317334 ], [ 38.7709504, 9.0340645 ] ] ] } },
{ "type": "Feature", "properties": { "threshold_s": 900, "time_label": "15 min drive" }, "geometry": { "type": "Polygon", "coordinates": [ [ [ 38.7596169, 9.0366557 ], [ 38.7630674, 9.0433818 ], [ 38.7673458, 9.0478868 ], [ 38.7720477, 9.0473428 ], [ 38.7779641, 9.0485114 ], [ 38.7803797, 9.0490786 ], [ 38.7830713, 9.0491877 ], [ 38.7892183, 9.0480524 ], [ 38.7906995, 9.0454025 ], [ 38.7918929, 9.0415089 ], [ 38.7898711, 9.0353037 ], [ 38.7947311, 9.0312946 ], [ 38.7997189, 9.0335465 ], [ 38.8042312, 9.0365115 ], [ 38.8081541, 9.0338291 ], [ 38.8116564, 9.0325841 ], [ 38.810141, 9.0310664 ], [ 38.8102636, 9.0243078 ], [ 38.8106941, 9.0237117 ], [ 38.8113499, 9.0229316 ], [ 38.8119681, 9.0221034 ], [ 38.8120899, 9.0212209 ], [ 38.8120747, 9.0206652 ], [ 38.8098596, 9.0156041 ], [ 38.8061032, 9.0115015 ], [ 38.8012158, 9.0086368 ], [ 38.7946308, 9.0046325 ], [ 38.7883566, 9.0003414 ], [ 38.7845898, 8.998985 ], [ 38.7788648, 8.9968111 ], [ 38.7783889, 8.9982605 ], [ 38.7734655, 9.0030482 ], [ 38.7717075, 9.0049966 ], [ 38.7672577, 9.0104737 ], [ 38.7629096, 9.0108249 ], [ 38.7626954, 9.0108388 ], [ 38.76206, 9.0111118 ], [ 38.7576248, 9.0176281 ], [ 38.7575894, 9.0177418 ], [ 38.7605536, 9.0224021 ], [ 38.7572128, 9.026898 ], [ 38.75534, 9.028952 ], [ 38.7559373, 9.0307996 ], [ 38.7580195, 9.0345421 ], [ 38.7596169, 9.0366557 ] ] ] } },
{ "type": "Feature", "properties": { "threshold_s": 300, "time_label": "5 min drive" }, "geometry": { "type": "Polygon", "coordinates": [ [ [ 38.7747833, 9.0070232 ], [ 38.7751776, 9.0098829 ], [ 38.7759849, 9.0099015 ], [ 38.7784591, 9.0103509 ], [ 38.781424, 9.0121573 ], [ 38.7829445, 9.010364 ], [ 38.7855299, 9.0086168 ], [ 38.7873394, 9.0074464 ], [ 38.7880187, 9.0050821 ], [ 38.7871067, 9.0018216 ], [ 38.7870403, 8.9997513 ], [ 38.7873295, 8.9978484 ], [ 38.7866273, 8.9961126 ], [ 38.7842643, 8.9950205 ], [ 38.7836621, 8.9932839 ], [ 38.783090799999989, 8.9925567 ], [ 38.7821462, 8.9917529 ], [ 38.7792901, 8.9935064 ], [ 38.7772892, 8.9944502 ], [ 38.7770092, 8.9949946 ], [ 38.777362, 8.9984848 ], [ 38.7779966, 8.9994625 ], [ 38.7795597, 9.0006527 ], [ 38.7787355, 9.0030202 ], [ 38.7768754, 9.0031859 ], [ 38.7753379, 9.0044741 ], [ 38.773414, 9.0061278 ], [ 38.773443, 9.0062162 ], [ 38.7747833, 9.0070232 ] ] ] } },
{ "type": "Feature", "properties": { "threshold_s": 600, "time_label": "10 min drive" }, "geometry": { "type": "Polygon", "coordinates": [ [ [ 38.7682007, 9.0165141 ], [ 38.7713573, 9.0204686 ], [ 38.7740967, 9.0193713 ], [ 38.7747315, 9.0192594 ], [ 38.7760797, 9.0175791 ], [ 38.7807383, 9.0166185 ], [ 38.7813556, 9.0188907 ], [ 38.7810531, 9.0207143 ], [ 38.7811702, 9.0225738 ], [ 38.7828895, 9.0215465 ], [ 38.7849275, 9.020122 ], [ 38.7888092, 9.0179132 ], [ 38.79037610000001, 9.0163806 ], [ 38.7914293, 9.0143947 ], [ 38.793999, 9.0122732 ], [ 38.7950341, 9.0117579 ], [ 38.7953327, 9.0115677 ], [ 38.7961994, 9.0100267 ], [ 38.7967858, 9.0085313 ], [ 38.797621, 9.0063149 ], [ 38.797983, 9.0046067 ], [ 38.7981876, 9.0030972 ], [ 38.797986, 9.0026206 ], [ 38.7955181, 9.0020965 ], [ 38.7965052, 8.9969379 ], [ 38.7956395, 8.9945489 ], [ 38.7948366, 8.9914727 ], [ 38.7942992, 8.9887271 ], [ 38.7908932, 8.9872382 ], [ 38.7888132, 8.9859297 ], [ 38.7879749, 8.9856538 ], [ 38.7855757, 8.9849273 ], [ 38.7810382, 8.9833915 ], [ 38.7791983, 8.9832948 ], [ 38.774466, 8.9840908 ], [ 38.7731591, 8.9845459 ], [ 38.77311, 8.9846007 ], [ 38.7730621, 8.9846542 ], [ 38.7716921, 8.9892484 ], [ 38.7712247, 8.9902551 ], [ 38.7708378, 8.9911658 ], [ 38.7704442, 8.9929865 ], [ 38.7702186, 8.9948896 ], [ 38.7683732, 8.9987024 ], [ 38.7666007, 9.0001548 ], [ 38.7657816, 9.0007925 ], [ 38.7657918, 9.0013837 ], [ 38.7663704, 9.0019672 ], [ 38.7663964, 9.0070441 ], [ 38.7661556, 9.0073141 ], [ 38.7658891, 9.0123181 ], [ 38.7682007, 9.0165141 ] ] ] } },
{ "type": "Feature", "properties": { "threshold_s": 900, "time_label": "15 min drive" }, "geometry": { "type": "Polygon", "coordinates": [ [ [ 38.7542984, 9.0119961 ], [ 38.7555162, 9.0160017 ], [ 38.7575894, 9.0177418 ], [ 38.7645123, 9.0221623 ], [ 38.7673037, 9.0253571 ], [ 38.7740239, 9.029924 ], [ 38.7818312, 9.0297687 ], [ 38.782939, 9.0305886 ], [ 38.7839698, 9.0314066 ], [ 38.7859405, 9.0306672 ], [ 38.7867588, 9.0301967 ], [ 38.7884042, 9.0291921 ], [ 38.7940937, 9.0255635 ], [ 38.795948, 9.0245221 ], [ 38.801438, 9.0192316 ], [ 38.8034284, 9.0138029 ], [ 38.8059445, 9.0070212 ], [ 38.8076454, 9.001485 ], [ 38.8076692, 8.9973537 ], [ 38.8074506, 8.996151 ], [ 38.8026197, 8.990167 ], [ 38.8035396, 8.9855276 ], [ 38.8035562, 8.9852867 ], [ 38.8021619, 8.9853275 ], [ 38.7996331, 8.9854045 ], [ 38.7971379, 8.9861223 ], [ 38.788826, 8.985809 ], [ 38.7879749, 8.9856538 ], [ 38.7855757, 8.9849273 ], [ 38.7842988, 8.9845215 ], [ 38.7787516, 8.9794447 ], [ 38.7777914, 8.9763594 ], [ 38.7774548, 8.9759568 ], [ 38.7773636, 8.975878 ], [ 38.7760118, 8.9755812 ], [ 38.7748957, 8.9753542 ], [ 38.7736234, 8.9756236 ], [ 38.7707829, 8.9764667 ], [ 38.7676058, 8.9774758 ], [ 38.767071, 8.9778048 ], [ 38.7632382, 8.981275 ], [ 38.763176, 8.9813554 ], [ 38.7608696, 8.9875656 ], [ 38.7598661, 8.9943823 ], [ 38.7586621, 8.999279 ], [ 38.7586856, 8.9999436 ], [ 38.7567295, 9.0078257 ], [ 38.7542984, 9.0119961 ] ] ] } },
{ "type": "Feature", "properties": { "threshold_s": 300, "time_label": "5 min drive" }, "geometry": { "type": "Polygon", "coordinates": [ [ [ 38.7666752, 8.9710198 ], [ 38.7661617, 8.9720444 ], [ 38.7676223, 8.9713902 ], [ 38.7696909, 8.9686206 ], [ 38.768958499999989, 8.9650687 ], [ 38.7696234, 8.9636751 ], [ 38.7718099, 8.962378 ], [ 38.7726464, 8.9617668 ], [ 38.7728872, 8.9614966 ], [ 38.7746049, 8.9599046 ], [ 38.775242, 8.9583361 ], [ 38.7755169, 8.9575612 ], [ 38.7753178, 8.956777 ], [ 38.7750039, 8.9561273 ], [ 38.7745982, 8.9553157 ], [ 38.7743597, 8.9549174 ], [ 38.774085, 8.9546643 ], [ 38.7708151, 8.9532883 ], [ 38.7675847, 8.9534635 ], [ 38.7657115, 8.9541348 ], [ 38.7643243, 8.9549306 ], [ 38.7637631, 8.9553352 ], [ 38.76364490000001, 8.9555997 ], [ 38.7638096, 8.9575442 ], [ 38.7637591, 8.9608204 ], [ 38.7635887, 8.9618935 ], [ 38.7634032, 8.9632481 ], [ 38.7633086, 8.9638436 ], [ 38.7632587, 8.9641906 ], [ 38.7629765, 8.9659959 ], [ 38.7629101, 8.9664361 ], [ 38.762844200000011, 8.9668596 ], [ 38.7628083, 8.9670849 ], [ 38.7627354, 8.9676055 ], [ 38.7638272, 8.967659 ], [ 38.7643277, 8.9676341 ], [ 38.7647743, 8.9676345 ], [ 38.7668531, 8.9689063 ], [ 38.7667704, 8.9707306 ], [ 38.7666752, 8.9710198 ] ] ] } },
{ "type": "Feature", "properties": { "threshold_s": 600, "time_label": "10 min drive" }, "geometry": { "type": "Polygon", "coordinates": [ [ [ 38.7596918, 8.9783251 ], [ 38.759964, 8.9792704 ], [ 38.7608841, 8.9786978 ], [ 38.7688078, 8.9778368 ], [ 38.7701639, 8.9786274 ], [ 38.7714209, 8.9793042 ], [ 38.7719831, 8.9795407 ], [ 38.7722493, 8.9796533 ], [ 38.7720609, 8.9756886 ], [ 38.7705231, 8.9704184 ], [ 38.7715801, 8.967035 ], [ 38.7746049, 8.9599046 ], [ 38.775242, 8.9583361 ], [ 38.7778845, 8.9525715 ], [ 38.7781105, 8.9512402 ], [ 38.77675, 8.9469359 ], [ 38.7759608, 8.9454448 ], [ 38.7755343, 8.944993 ], [ 38.7697956, 8.9428309 ], [ 38.7682387, 8.9435755 ], [ 38.7665323, 8.9445711 ], [ 38.7610491, 8.9474346 ], [ 38.7560588, 8.9495278 ], [ 38.7527288, 8.9558138 ], [ 38.7516371, 8.9589428 ], [ 38.7516577, 8.9600086 ], [ 38.7518256, 8.961464 ], [ 38.7537374, 8.9637344 ], [ 38.7567186, 8.9656751 ], [ 38.7609422, 8.9727954 ], [ 38.7607317, 8.9735508 ], [ 38.7606675, 8.9737722 ], [ 38.7605834, 8.9740789 ], [ 38.7604122, 8.974693 ], [ 38.7602367, 8.9753929 ], [ 38.7596897, 8.9769291 ], [ 38.7596943, 8.9779839 ], [ 38.7596918, 8.9783251 ] ] ] } },
{ "type": "Feature", "properties": { "threshold_s": 900, "time_label": "15 min drive" }, "geometry": { "type": "Polygon", "coordinates": [ [ [ 38.7538277, 8.9833521 ], [ 38.7578307, 8.9889704 ], [ 38.7593683, 8.989876 ], [ 38.765639, 8.9866311 ], [ 38.7729728, 8.9865826 ], [ 38.7757769, 8.9873237 ], [ 38.7786151, 8.9867668 ], [ 38.7790112, 8.986333 ], [ 38.7810148, 8.9841267 ], [ 38.7810323, 8.9840708 ], [ 38.7810382, 8.9833915 ], [ 38.7787516, 8.9794447 ], [ 38.7773623, 8.9752898 ], [ 38.7770659, 8.9681153 ], [ 38.7826701, 8.9608098 ], [ 38.7839938, 8.9602919 ], [ 38.7869571, 8.9521051 ], [ 38.7869148, 8.9479375 ], [ 38.78618, 8.9454845 ], [ 38.7848496, 8.9444194 ], [ 38.7802668, 8.9424387 ], [ 38.7761788, 8.9351716 ], [ 38.7748782, 8.9336159 ], [ 38.7720993, 8.9331388 ], [ 38.7653644, 8.9350338 ], [ 38.7620469, 8.9360386 ], [ 38.7553427, 8.939825 ], [ 38.7501968, 8.9407104 ], [ 38.7500882, 8.9414002 ], [ 38.748765, 8.9466319 ], [ 38.7481319, 8.9487824 ], [ 38.7428955, 8.9554628 ], [ 38.7422292, 8.9561109 ], [ 38.7422287, 8.9561532 ], [ 38.7433683, 8.9632936 ], [ 38.7469169, 8.9682709 ], [ 38.7487097, 8.969819 ], [ 38.7513166, 8.9717443 ], [ 38.7545591, 8.9806549 ], [ 38.7537834, 8.9832472 ], [ 38.7538277, 8.9833521 ] ] ] } },
{ "type": "Feature", "properties": { "threshold_s": 300, "time_label": "5 min drive" }, "geometry": { "type": "Polygon", "coordinates": [ [ [ 38.7778365, 9.0113481 ], [ 38.7778035, 9.0124771 ], [ 38.7793668, 9.0132882 ], [ 38.782059, 9.014438 ], [ 38.7834846, 9.01484 ], [ 38.7848288, 9.0151578 ], [ 38.7857073, 9.0141619 ], [ 38.7874703, 9.0134929 ], [ 38.789912, 9.0117734 ], [ 38.7904413, 9.0114498 ], [ 38.7919494, 9.0097737 ], [ 38.7932745, 9.0089167 ], [ 38.7925181, 9.0080703 ], [ 38.7917436, 9.0057285 ], [ 38.7917389, 9.0056483 ], [ 38.7892042, 9.0040436 ], [ 38.7882698, 9.0017096 ], [ 38.7897293, 8.9996859 ], [ 38.7894879, 8.9990878 ], [ 38.7869011, 8.9980859 ], [ 38.7865356, 8.9978286 ], [ 38.7849841, 8.9979637 ], [ 38.7822224, 8.9988671 ], [ 38.7819173, 8.9988803 ], [ 38.7792988, 8.9978577 ], [ 38.7791942, 8.9979054 ], [ 38.7783258, 8.9985267 ], [ 38.7795597, 9.0006527 ], [ 38.7787355, 9.0030202 ], [ 38.7776747, 9.0055086 ], [ 38.775304, 9.0062872 ], [ 38.7747833, 9.0070232 ], [ 38.7763593, 9.0077319 ], [ 38.7776996, 9.0101831 ], [ 38.7778365, 9.0113481 ] ] ] } },
{ "type": "Feature", "properties": { "threshold_s": 600, "time_label": "10 min drive" }, "geometry": { "type": "Polygon", "coordinates": [ [ [ 38.7693626, 9.0163824 ], [ 38.7703065, 9.0178326 ], [ 38.771192, 9.0184455 ], [ 38.7742102, 9.0174735 ], [ 38.7741335, 9.0152535 ], [ 38.776373, 9.0129175 ], [ 38.7790322, 9.0148252 ], [ 38.7807383, 9.0166185 ], [ 38.7800908, 9.0202484 ], [ 38.7787771, 9.0234759 ], [ 38.7812063, 9.0252209 ], [ 38.7812609, 9.0251757 ], [ 38.7846348, 9.0227478 ], [ 38.7862759, 9.0237897 ], [ 38.7903417, 9.0214052 ], [ 38.7921291, 9.0212226 ], [ 38.7933946, 9.0212397 ], [ 38.7953428, 9.0176745 ], [ 38.7990841, 9.0152732 ], [ 38.8009101, 9.0132402 ], [ 38.8017033, 9.0092955 ], [ 38.802184, 9.0074508 ], [ 38.8021486, 9.0062351 ], [ 38.8023024, 9.0034086 ], [ 38.802689, 9.0013388 ], [ 38.8024677, 9.0009613 ], [ 38.8007767, 9.0000299 ], [ 38.799224, 9.000165 ], [ 38.7965052, 8.9969379 ], [ 38.7956395, 8.9945489 ], [ 38.7952264, 8.9934812 ], [ 38.7949535, 8.9927309 ], [ 38.7948242, 8.9923398 ], [ 38.7938117, 8.9895998 ], [ 38.7937429, 8.9895272 ], [ 38.792569, 8.9896677 ], [ 38.7908448, 8.9901828 ], [ 38.7876549, 8.9893973 ], [ 38.7831639, 8.9889418 ], [ 38.7816779, 8.9891378 ], [ 38.777445299999989, 8.9880264 ], [ 38.7769009, 8.9885584 ], [ 38.776855, 8.9886044 ], [ 38.776481, 8.989139 ], [ 38.7761585, 8.989666 ], [ 38.7741154, 8.9932832 ], [ 38.7741375, 8.9945623 ], [ 38.7717799, 8.9976465 ], [ 38.768846, 8.999063 ], [ 38.7672642, 9.0017771 ], [ 38.7671183, 9.0031016 ], [ 38.7674794, 9.0056217 ], [ 38.7678266, 9.0080481 ], [ 38.7672577, 9.0104737 ], [ 38.7672256, 9.0115334 ], [ 38.769726, 9.0132853 ], [ 38.7693626, 9.0163824 ] ] ] } },
{ "type": "Feature", "properties": { "threshold_s": 900, "time_label": "15 min drive" }, "geometry": { "type": "Polygon", "coordinates": [ [ [ 38.7566767, 9.0148583 ], [ 38.7586505, 9.0180415 ], [ 38.7645123, 9.0221623 ], [ 38.7673037, 9.0253571 ], [ 38.7708632, 9.0299515 ], [ 38.7734187, 9.0325067 ], [ 38.7735107, 9.0325106 ], [ 38.7803192, 9.03193 ], [ 38.7820987, 9.0327323 ], [ 38.7834835, 9.0321406 ], [ 38.7859405, 9.0306672 ], [ 38.7905778, 9.0297413 ], [ 38.7924578, 9.0298325 ], [ 38.7926088, 9.0298108 ], [ 38.7981611, 9.0287943 ], [ 38.7991979, 9.0286409 ], [ 38.7988977, 9.0268528 ], [ 38.8027586, 9.0219534 ], [ 38.807704, 9.0203778 ], [ 38.8067176, 9.0172053 ], [ 38.8091263, 9.0116086 ], [ 38.8094223, 9.0111091 ], [ 38.8098948, 9.0097693 ], [ 38.8108174, 9.0069524 ], [ 38.8114826, 9.0040966 ], [ 38.8110608, 9.0014718 ], [ 38.8114396, 8.9963737 ], [ 38.8107579, 8.9937651 ], [ 38.8087936, 8.9923329 ], [ 38.8079632, 8.9923411 ], [ 38.8057382, 8.9919325 ], [ 38.8052069, 8.9919328 ], [ 38.8021714, 8.9855567 ], [ 38.8021619, 8.9853275 ], [ 38.7996331, 8.9854045 ], [ 38.7971379, 8.9861223 ], [ 38.791375, 8.9871117 ], [ 38.789819799999989, 8.986366 ], [ 38.788826, 8.985809 ], [ 38.7855757, 8.9849273 ], [ 38.7842988, 8.9845215 ], [ 38.7829895, 8.9840922 ], [ 38.7787516, 8.9794447 ], [ 38.7749841, 8.9795122 ], [ 38.7718879, 8.979752 ], [ 38.7708268, 8.9803929 ], [ 38.7695651, 8.9811775 ], [ 38.7691776, 8.9814885 ], [ 38.7686049, 8.9823656 ], [ 38.7673754, 8.985989 ], [ 38.7672391, 8.9864353 ], [ 38.7657081, 8.9898585 ], [ 38.7622938, 8.9937159 ], [ 38.7597039, 8.9959808 ], [ 38.759032, 8.998066 ], [ 38.7586856, 8.9999436 ], [ 38.7587616, 9.0011842 ], [ 38.7587711, 9.0014635 ], [ 38.7587985, 9.0020734 ], [ 38.7588747, 9.0040341 ], [ 38.7588742, 9.0086394 ], [ 38.7553236, 9.0121104 ], [ 38.7566767, 9.0148583 ] ] ] } },
{ "type": "Feature", "properties": { "threshold_s": 300, "time_label": "5 min drive" }, "geometry": { "type": "Polygon", "coordinates": [ [ [ 38.7359396, 8.9495212 ], [ 38.7345153, 8.9509479 ], [ 38.7366857, 8.9505038 ], [ 38.7372737, 8.9516334 ], [ 38.7381752, 8.9526622 ], [ 38.7388181, 8.9533071 ], [ 38.7391974, 8.9534311 ], [ 38.7410898, 8.9550802 ], [ 38.7412389, 8.9554323 ], [ 38.741532, 8.9558019 ], [ 38.7429693, 8.9567245 ], [ 38.7436067, 8.9570909 ], [ 38.745216, 8.9570471 ], [ 38.7479981, 8.9578798 ], [ 38.7487685, 8.9578441 ], [ 38.7487706, 8.9578089 ], [ 38.7487906, 8.957471 ], [ 38.7476609, 8.9574208 ], [ 38.7459107, 8.9567583 ], [ 38.7464126, 8.9546611 ], [ 38.7473767, 8.9545751 ], [ 38.7490782, 8.9529902 ], [ 38.7498187, 8.952433 ], [ 38.7501137, 8.95218 ], [ 38.7489388, 8.9514326 ], [ 38.7479702, 8.9492071 ], [ 38.7478913, 8.9486632 ], [ 38.746371, 8.946891 ], [ 38.7453574, 8.9458738 ], [ 38.7437519, 8.9440007 ], [ 38.7438478, 8.9436514 ], [ 38.7418311, 8.9450198 ], [ 38.7408816, 8.9454938 ], [ 38.7400183, 8.9458615 ], [ 38.7376984, 8.946645 ], [ 38.7363732, 8.9470809 ], [ 38.7343275, 8.9483029 ], [ 38.7345058, 8.9482886 ], [ 38.7359396, 8.9495212 ] ] ] } },
{ "type": "Feature", "properties": { "threshold_s": 600, "time_label": "10 min drive" }, "geometry": { "type": "Polygon", "coordinates": [ [ [ 38.727503, 8.9529559 ], [ 38.7300856, 8.9575519 ], [ 38.7309928, 8.9577975 ], [ 38.733176899999989, 8.9569398 ], [ 38.7335671, 8.9563225 ], [ 38.7388181, 8.9533071 ], [ 38.7403759, 8.9568763 ], [ 38.7429656, 8.9598609 ], [ 38.743187399999989, 8.9628821 ], [ 38.7431857, 8.9636017 ], [ 38.7439679, 8.9641027 ], [ 38.7480411, 8.9670263 ], [ 38.7487476, 8.967392 ], [ 38.7502609, 8.9667641 ], [ 38.7551391, 8.964469 ], [ 38.756366, 8.9636477 ], [ 38.7579586, 8.9615616 ], [ 38.7586793, 8.959135 ], [ 38.7584882, 8.955665 ], [ 38.7567779, 8.9504498 ], [ 38.7565238, 8.9459981 ], [ 38.7564201, 8.9447894 ], [ 38.7548051, 8.9422793 ], [ 38.7510243, 8.9387161 ], [ 38.7502692, 8.9376556 ], [ 38.7447779, 8.935317 ], [ 38.744579, 8.9351656 ], [ 38.7390876, 8.9371395 ], [ 38.7342534, 8.9379186 ], [ 38.7321951, 8.9402901 ], [ 38.7268514, 8.9431378 ], [ 38.7259931, 8.9444006 ], [ 38.7248986, 8.9464576 ], [ 38.7245779, 8.9472544 ], [ 38.7239026, 8.9489642 ], [ 38.7239063, 8.9490538 ], [ 38.7239636, 8.9499045 ], [ 38.7260554, 8.9526424 ], [ 38.727503, 8.9529559 ] ] ] } },
{ "type": "Feature", "properties": { "threshold_s": 900, "time_label": "15 min drive" }, "geometry": { "type": "Polygon", "coordinates": [ [ [ 38.7177612, 8.9572047 ], [ 38.7210091, 8.9627561 ], [ 38.726049, 8.9654819 ], [ 38.7314281, 8.9698301 ], [ 38.7391084, 8.9719625 ], [ 38.744201, 8.9741389 ], [ 38.7465915, 8.9763782 ], [ 38.7475396, 8.9770303 ], [ 38.7491498, 8.9781407 ], [ 38.7492249, 8.9781378 ], [ 38.7523198, 8.9776614 ], [ 38.7576654, 8.9743967 ], [ 38.7613593, 8.9707294 ], [ 38.76242, 8.9685074 ], [ 38.762618, 8.9673329 ], [ 38.7669112, 8.9608269 ], [ 38.7673832, 8.9605214 ], [ 38.7700654, 8.9578666 ], [ 38.7698595, 8.9566651 ], [ 38.7666979, 8.9536434 ], [ 38.7659699, 8.9533813 ], [ 38.7612636, 8.9486256 ], [ 38.7623253, 8.9463102 ], [ 38.7626817, 8.9456225 ], [ 38.7628957, 8.9451813 ], [ 38.758741, 8.9406331 ], [ 38.7576368, 8.9340032 ], [ 38.7575599, 8.933409 ], [ 38.755101, 8.930555 ], [ 38.7489011, 8.9275017 ], [ 38.7464069, 8.9258678 ], [ 38.744131, 8.9249258 ], [ 38.7402365, 8.9256797 ], [ 38.7339398, 8.9269285 ], [ 38.733004, 8.9275767 ], [ 38.7292463, 8.9311108 ], [ 38.7288901, 8.9317142 ], [ 38.7272252, 8.9343336 ], [ 38.7203398, 8.9360585 ], [ 38.7182757, 8.9384784 ], [ 38.7176965, 8.9409372 ], [ 38.7147032, 8.9481447 ], [ 38.7140557, 8.9495558 ], [ 38.7138415, 8.9507643 ], [ 38.7139443, 8.9548284 ], [ 38.7177612, 8.9572047 ] ] ] } },
{ "type": "Feature", "properties": { "threshold_s": 300, "time_label": "5 min drive" }, "geometry": { "type": "Polygon", "coordinates": [ [ [ 38.7738585, 9.0107737 ], [ 38.7742634, 9.0124589 ], [ 38.7743465, 9.0124832 ], [ 38.7778035, 9.0124771 ], [ 38.7801527, 9.0119568 ], [ 38.7817163, 9.0136245 ], [ 38.7824118, 9.0128966 ], [ 38.7837169, 9.0111525 ], [ 38.7851768, 9.0101595 ], [ 38.7877303, 9.0086557 ], [ 38.7887931, 9.0078893 ], [ 38.7898343, 9.0055715 ], [ 38.7894034, 9.0046542 ], [ 38.7882698, 9.0017096 ], [ 38.78788440000001, 9.0005935 ], [ 38.7873295, 8.9978484 ], [ 38.7860546, 8.996506 ], [ 38.7831277, 8.9950529 ], [ 38.7805353, 8.9943244 ], [ 38.7792163, 8.9939508 ], [ 38.7772892, 8.9944502 ], [ 38.7770092, 8.9949946 ], [ 38.777362, 8.9984848 ], [ 38.7779966, 8.9994625 ], [ 38.7772268, 9.0028263 ], [ 38.7757771, 9.0033548 ], [ 38.7734655, 9.0030482 ], [ 38.7717075, 9.0049966 ], [ 38.7715262, 9.0057579 ], [ 38.7719898, 9.0068159 ], [ 38.7734878, 9.0068822 ], [ 38.7751776, 9.0098829 ], [ 38.7738585, 9.0107737 ] ] ] } },
{ "type": "Feature", "properties": { "threshold_s": 600, "time_label": "10 min drive" }, "geometry": { "type": "Polygon", "coordinates": [ [ [ 38.7657801, 9.0168339 ], [ 38.7666902, 9.0194705 ], [ 38.7686595, 9.0207369 ], [ 38.772948, 9.0210846 ], [ 38.7748887, 9.021689 ], [ 38.7757479, 9.0204704 ], [ 38.7767495, 9.0195951 ], [ 38.7805245, 9.0220573 ], [ 38.7803283, 9.0233325 ], [ 38.7806577, 9.0238498 ], [ 38.7811059, 9.0234327 ], [ 38.7828895, 9.0215465 ], [ 38.7854499, 9.0200894 ], [ 38.7873343, 9.0195722 ], [ 38.7896598, 9.0192439 ], [ 38.791997, 9.0167392 ], [ 38.7930271, 9.0146946 ], [ 38.7961516, 9.0125743 ], [ 38.797059, 9.0107003 ], [ 38.7978778, 9.008977 ], [ 38.7990622, 9.0056269 ], [ 38.8001074, 9.0025819 ], [ 38.8001838, 9.0022144 ], [ 38.7991572, 9.0019977 ], [ 38.7977966, 9.0017538 ], [ 38.7955181, 9.0020965 ], [ 38.7946719, 8.9978068 ], [ 38.7965052, 8.9969379 ], [ 38.7956395, 8.9945489 ], [ 38.7952264, 8.9934812 ], [ 38.7949535, 8.9927309 ], [ 38.7942992, 8.9887271 ], [ 38.7920807, 8.9883178 ], [ 38.7890151, 8.9881152 ], [ 38.7851306, 8.9856381 ], [ 38.7843123, 8.9857955 ], [ 38.7803636, 8.9851876 ], [ 38.779193, 8.9844972 ], [ 38.778325, 8.9844791 ], [ 38.7756216, 8.9845761 ], [ 38.7731591, 8.9845459 ], [ 38.77311, 8.9846007 ], [ 38.7730621, 8.9846542 ], [ 38.7732891, 8.986205 ], [ 38.7716921, 8.9892484 ], [ 38.7712555, 8.9905916 ], [ 38.771232, 8.9913267 ], [ 38.7708398, 8.9931594 ], [ 38.7682519, 8.9964896 ], [ 38.765179, 8.9981909 ], [ 38.764029, 9.0002724 ], [ 38.764064, 9.0016943 ], [ 38.7642637, 9.0025648 ], [ 38.764577, 9.0029893 ], [ 38.765411, 9.0036496 ], [ 38.7661556, 9.0073141 ], [ 38.764761, 9.0088177 ], [ 38.7644245, 9.0091892 ], [ 38.7636137, 9.009863 ], [ 38.7626954, 9.0108388 ], [ 38.7625799, 9.011047 ], [ 38.7627294, 9.0115076 ], [ 38.7658891, 9.0123181 ], [ 38.7661117, 9.016113 ], [ 38.7657801, 9.0168339 ] ] ] } },
{ "type": "Feature", "properties": { "threshold_s": 900, "time_label": "15 min drive" }, "geometry": { "type": "Polygon", "coordinates": [ [ [ 38.753888, 9.0173878 ], [ 38.7561953, 9.0200771 ], [ 38.7600498, 9.0221853 ], [ 38.7602254, 9.0222978 ], [ 38.7664952, 9.0274613 ], [ 38.7673563, 9.028805 ], [ 38.7719169, 9.0307387 ], [ 38.7741301, 9.0305373 ], [ 38.7821375, 9.0323922 ], [ 38.783986400000011, 9.0315834 ], [ 38.7859405, 9.0306672 ], [ 38.7867588, 9.0301967 ], [ 38.7898626, 9.0285236 ], [ 38.7959445, 9.0257353 ], [ 38.796299, 9.025302 ], [ 38.8019774, 9.0198821 ], [ 38.802462, 9.0194301 ], [ 38.8042417, 9.0123665 ], [ 38.8065782, 9.0089915 ], [ 38.8082091, 9.0032886 ], [ 38.8088088, 9.0004855 ], [ 38.8088474, 8.9974101 ], [ 38.8085471, 8.9956857 ], [ 38.8081755, 8.9953317 ], [ 38.8078527, 8.9950238 ], [ 38.8071589, 8.9948582 ], [ 38.8020439, 8.9901737 ], [ 38.8035396, 8.9855276 ], [ 38.8035562, 8.9852867 ], [ 38.8021619, 8.9853275 ], [ 38.7996331, 8.9854045 ], [ 38.7971379, 8.9861223 ], [ 38.788826, 8.985809 ], [ 38.7879749, 8.9856538 ], [ 38.7855757, 8.9849273 ], [ 38.7842988, 8.9845215 ], [ 38.7787516, 8.9794447 ], [ 38.7777914, 8.9763594 ], [ 38.7774548, 8.9759568 ], [ 38.7773636, 8.975878 ], [ 38.7760118, 8.9755812 ], [ 38.7747477, 8.9756875 ], [ 38.7741197, 8.9758294 ], [ 38.7676058, 8.9774758 ], [ 38.763834, 8.9819059 ], [ 38.7622147, 8.9858887 ], [ 38.7591509, 8.9921947 ], [ 38.7562667, 8.9945462 ], [ 38.7556778, 8.9958187 ], [ 38.7560106, 8.9967932 ], [ 38.7576883, 9.0047943 ], [ 38.7545018, 9.0072532 ], [ 38.7519181, 9.0117755 ], [ 38.7527724, 9.0143482 ], [ 38.753888, 9.0173878 ] ] ] } },
{ "type": "Feature", "properties": { "threshold_s": 300, "time_label": "5 min drive" }, "geometry": { "type": "Polygon", "coordinates": [ [ [ 38.7795597, 9.0006527 ], [ 38.7792411, 9.0026554 ], [ 38.7800881, 9.0034661 ], [ 38.7816243, 9.0021541 ], [ 38.7839279, 9.0010036 ], [ 38.7856291, 9.0010559 ], [ 38.7859947, 9.0008023 ], [ 38.7862933, 9.0000274 ], [ 38.7873295, 8.9978484 ], [ 38.788491, 8.9960225 ], [ 38.7886913, 8.9948075 ], [ 38.7887993, 8.9927548 ], [ 38.788291, 8.9915527 ], [ 38.7881416, 8.9909852 ], [ 38.7893008, 8.9887511 ], [ 38.7886764, 8.9882605 ], [ 38.7868774, 8.9866064 ], [ 38.7855757, 8.9849273 ], [ 38.7842988, 8.9845215 ], [ 38.7820984, 8.9844963 ], [ 38.7805367, 8.9844949 ], [ 38.7789434, 8.9853554 ], [ 38.7777723, 8.9862016 ], [ 38.777445299999989, 8.9880264 ], [ 38.7779312, 8.9897209 ], [ 38.776505, 8.9916901 ], [ 38.7765276, 8.9919231 ], [ 38.7742053, 8.9932382 ], [ 38.7741154, 8.9932832 ], [ 38.7741375, 8.9945623 ], [ 38.7742583, 8.9950284 ], [ 38.7752527, 8.9957331 ], [ 38.7770092, 8.9949946 ], [ 38.7781307, 8.9965431 ], [ 38.7776278, 8.9979624 ], [ 38.777362, 8.9984848 ], [ 38.7779966, 8.9994625 ], [ 38.7795597, 9.0006527 ] ] ] } },
{ "type": "Feature", "properties": { "threshold_s": 600, "time_label": "10 min drive" }, "geometry": { "type": "Polygon", "coordinates": [ [ [ 38.7738585, 9.0107737 ], [ 38.7743198, 9.0122732 ], [ 38.7744038, 9.0122967 ], [ 38.7778035, 9.0124771 ], [ 38.7817494, 9.0139229 ], [ 38.7825499, 9.0130512 ], [ 38.7883565, 9.0096317 ], [ 38.7896763, 9.0092286 ], [ 38.7919736, 9.0079378 ], [ 38.7919719, 9.0077005 ], [ 38.7917436, 9.0057285 ], [ 38.7917389, 9.0056483 ], [ 38.7920983, 8.9987684 ], [ 38.792624, 8.9985777 ], [ 38.7931544, 8.9983837 ], [ 38.7936291, 8.9982041 ], [ 38.7941482, 8.9979968 ], [ 38.7946719, 8.9978068 ], [ 38.7965052, 8.9969379 ], [ 38.7976136, 8.9913002 ], [ 38.79654, 8.9900417 ], [ 38.7942992, 8.9887271 ], [ 38.791375, 8.9871117 ], [ 38.788826, 8.985809 ], [ 38.7879749, 8.9856538 ], [ 38.7855757, 8.9849273 ], [ 38.7842988, 8.9845215 ], [ 38.7829895, 8.9840922 ], [ 38.7787516, 8.9794447 ], [ 38.7777914, 8.9763594 ], [ 38.7774548, 8.9759568 ], [ 38.7773636, 8.975878 ], [ 38.7730839, 8.9782915 ], [ 38.7691776, 8.9814885 ], [ 38.7686049, 8.9823656 ], [ 38.7673754, 8.985989 ], [ 38.7657081, 8.9898585 ], [ 38.7654197, 8.9966008 ], [ 38.7653393, 8.9971114 ], [ 38.7665433, 9.0010165 ], [ 38.7679271, 9.0042908 ], [ 38.7680585, 9.0045594 ], [ 38.768307, 9.0047561 ], [ 38.7719838, 9.0062934 ], [ 38.7738585, 9.0107737 ] ] ] } },
{ "type": "Feature", "properties": { "threshold_s": 900, "time_label": "15 min drive" }, "geometry": { "type": "Polygon", "coordinates": [ [ [ 38.7657801, 9.0168339 ], [ 38.7676275, 9.0197284 ], [ 38.7677259, 9.0197702 ], [ 38.772948, 9.0210846 ], [ 38.7806577, 9.0238498 ], [ 38.7863688, 9.0207494 ], [ 38.7896598, 9.0192439 ], [ 38.794452, 9.0163865 ], [ 38.7985634, 9.0142392 ], [ 38.8005325, 9.0104479 ], [ 38.8013197, 9.0088365 ], [ 38.8030335, 9.003732 ], [ 38.8038473, 9.0011438 ], [ 38.8036877, 9.0002622 ], [ 38.8046098, 8.9919487 ], [ 38.8058082, 8.9901794 ], [ 38.8057913, 8.9893077 ], [ 38.8035562, 8.9852867 ], [ 38.8021619, 8.9853275 ], [ 38.7996331, 8.9854045 ], [ 38.7971379, 8.9861223 ], [ 38.7899075, 8.9859732 ], [ 38.7880106, 8.9854871 ], [ 38.7855757, 8.9849273 ], [ 38.7787516, 8.9794447 ], [ 38.7777914, 8.9763594 ], [ 38.7784204, 8.9681007 ], [ 38.7767244, 8.9667629 ], [ 38.7748485, 8.9657708 ], [ 38.7664998, 8.9707517 ], [ 38.7655318, 8.9710292 ], [ 38.7618748, 8.9727921 ], [ 38.7579608, 8.9816198 ], [ 38.7564533, 8.9867181 ], [ 38.7556778, 8.9958187 ], [ 38.7588747, 9.0040341 ], [ 38.7590709, 9.0058808 ], [ 38.7598898, 9.0114568 ], [ 38.7657801, 9.0168339 ] ] ] } }
]
}
