{
"type": "FeatureCollection",
"name": "isochrone_shop_kiosk_walk",
"crs": { "type": "name", "properties": { "name": "urn:ogc:def:crs:OGC:1.3:CRS84" } },
"features": [
{ "type": "Feature", "properties": { "threshold_s": 300, "time_label": "5 min walk" }, "geometry": { "type": "Polygon", "coordinates": [ [ [ 105.844329, 21.0168267 ], [ 105.8443555, 21.0170014 ], [ 105.8451541, 21.0162466 ], [ 105.8454387, 21.01542 ], [ 105.845951200000016, 21.014312 ], [ 105.845846499999979, 21.0138196 ], [ 105.845719399999979, 21.0133657 ], [ 105.8452984, 21.0134518 ], [ 105.8450315, 21.0140596 ], [ 105.8441655, 21.0145502 ], [ 105.8432542, 21.0143207 ], [ 105.842844899999989, 21.0139577 ], [ 105.8423851, 21.0136837 ], [ 105.8414563, 21.0134154 ], [ 105.8413787, 21.0134169 ], [ 105.8413199, 21.0134184 ], [ 105.841088, 21.0134947 ], [ 105.8417746, 21.0142145 ], [ 105.8426967, 21.014787 ], [ 105.8432513, 21.0155825 ], [ 105.8441846, 21.0161234 ], [ 105.844329, 21.0168267 ] ] ] } },
{ "type": "Feature", "properties": { "threshold_s": 600, "time_label": "10 min walk" }, "geometry": { "type": "Polygon", "coordinates": [ [ [ 105.838992599999983, 21.01514 ], [ 105.839243, 21.0160403 ], [ 105.840426100000016, 21.0167471 ], [ 105.8414115, 21.0176273 ], [ 105.8414145, 21.0178295 ], [ 105.8422501, 21.0182379 ], [ 105.843516599999987, 21.0181953 ], [ 105.8440234, 21.0188761 ], [ 105.8440936, 21.0193667 ], [ 105.844169099999988, 21.0196043 ], [ 105.8442365, 21.0195878 ], [ 105.8443007, 21.0195677 ], [ 105.84451540000002, 21.0182906 ], [ 105.844818099999983, 21.0173794 ], [ 105.845683, 21.01704 ], [ 105.8461965, 21.0170919 ], [ 105.8466918, 21.01722 ], [ 105.846985, 21.0173538 ], [ 105.847838, 21.0171685 ], [ 105.8479757, 21.0170593 ], [ 105.8477822, 21.0167244 ], [ 105.8473725, 21.0154903 ], [ 105.8478975, 21.0152815 ], [ 105.848346699999979, 21.0153123 ], [ 105.848381299999986, 21.0153119 ], [ 105.8484084, 21.0153117 ], [ 105.8484705, 21.0152719 ], [ 105.848470899999981, 21.0152175 ], [ 105.848469099999988, 21.0151579 ], [ 105.8484139, 21.0150723 ], [ 105.8483709, 21.0150723 ], [ 105.8483369, 21.0150723 ], [ 105.847819199999989, 21.0150999 ], [ 105.8469715, 21.0144893 ], [ 105.8475297, 21.0133763 ], [ 105.8482353, 21.0134829 ], [ 105.8482809, 21.0134853 ], [ 105.8483173, 21.0134823 ], [ 105.848439499999984, 21.0133802 ], [ 105.848447399999984, 21.0132723 ], [ 105.848273799999987, 21.013261 ], [ 105.8479739, 21.0119444 ], [ 105.8479992, 21.0117844 ], [ 105.847818, 21.011828 ], [ 105.8464739, 21.0114627 ], [ 105.846092499999983, 21.0105382 ], [ 105.8449397, 21.0104502 ], [ 105.845169799999979, 21.0110389 ], [ 105.845495500000013, 21.0114332 ], [ 105.8455437, 21.0125883 ], [ 105.8452984, 21.0134518 ], [ 105.8450315, 21.0140596 ], [ 105.8441655, 21.0145502 ], [ 105.8432542, 21.0143207 ], [ 105.842844899999989, 21.0139577 ], [ 105.8423851, 21.0136837 ], [ 105.8416716, 21.0135261 ], [ 105.8414563, 21.0134154 ], [ 105.8413787, 21.0134169 ], [ 105.8413199, 21.0134184 ], [ 105.841088, 21.0134947 ], [ 105.8413515, 21.0110836 ], [ 105.8414439, 21.0110831 ], [ 105.8418088, 21.0110809 ], [ 105.8425742, 21.0112215 ], [ 105.842727699999983, 21.0112228 ], [ 105.842772199999985, 21.0111061 ], [ 105.842824899999982, 21.0108388 ], [ 105.842781, 21.0106939 ], [ 105.842518299999981, 21.010832 ], [ 105.8414412, 21.0105853 ], [ 105.8412929, 21.0100664 ], [ 105.8413022, 21.0097815 ], [ 105.8412025, 21.0097838 ], [ 105.8406699, 21.0101353 ], [ 105.8405978, 21.010198 ], [ 105.8401744, 21.0110493 ], [ 105.8392282, 21.01283 ], [ 105.8389565, 21.012945 ], [ 105.838633, 21.0132105 ], [ 105.8381729, 21.0136265 ], [ 105.838949199999988, 21.0142057 ], [ 105.83905, 21.0148673 ], [ 105.838992599999983, 21.01514 ] ] ] } },
{ "type": "Feature", "properties": { "threshold_s": 900, "time_label": "15 min walk" }, "geometry": { "type": "Polygon", "coordinates": [ [ [ 105.8369058, 21.0169733 ], [ 105.8373865, 21.0180464 ], [ 105.8376702, 21.0182387 ], [ 105.838055199999985, 21.0184725 ], [ 105.838974, 21.0189207 ], [ 105.83919539999998, 21.0190332 ], [ 105.839608799999979, 21.0190016 ], [ 105.8397696, 21.0189906 ], [ 105.8406848, 21.0192221 ], [ 105.8413584, 21.0204461 ], [ 105.8413621, 21.0207321 ], [ 105.8413626, 21.0207692 ], [ 105.843036399999988, 21.0215768 ], [ 105.8438803, 21.0219471 ], [ 105.8445617, 21.0220953 ], [ 105.8449798, 21.0217298 ], [ 105.8451685, 21.0214653 ], [ 105.846134699999979, 21.0206861 ], [ 105.847710599999985, 21.0205706 ], [ 105.848777, 21.0198738 ], [ 105.850048799999982, 21.0186058 ], [ 105.850770399999988, 21.0173956 ], [ 105.8513198, 21.0168416 ], [ 105.851700199999982, 21.0152238 ], [ 105.851848899999979, 21.0136057 ], [ 105.851847600000013, 21.0135662 ], [ 105.851731500000014, 21.0134462 ], [ 105.8510117, 21.0117448 ], [ 105.8509284, 21.0105531 ], [ 105.8508246, 21.0104231 ], [ 105.8499136, 21.009523 ], [ 105.8485991, 21.0091879 ], [ 105.847428099999988, 21.008046 ], [ 105.8473238, 21.0080242 ], [ 105.8455794, 21.007776 ], [ 105.845386499999989, 21.0077563 ], [ 105.8452926, 21.0081436 ], [ 105.845227499999979, 21.0084969 ], [ 105.8452884, 21.0100443 ], [ 105.8449397, 21.0104502 ], [ 105.845169799999979, 21.0110389 ], [ 105.8455437, 21.0125883 ], [ 105.8452984, 21.0134518 ], [ 105.8450315, 21.0140596 ], [ 105.8432542, 21.0143207 ], [ 105.842844899999989, 21.0139577 ], [ 105.8423851, 21.0136837 ], [ 105.8416716, 21.0135261 ], [ 105.8414563, 21.0134154 ], [ 105.8413787, 21.0134169 ], [ 105.8413199, 21.0134184 ], [ 105.841088, 21.0134947 ], [ 105.839323, 21.0130658 ], [ 105.8392282, 21.01283 ], [ 105.839422099999979, 21.011754 ], [ 105.8401744, 21.0110493 ], [ 105.8413515, 21.0110836 ], [ 105.8414439, 21.0110831 ], [ 105.8418088, 21.0110809 ], [ 105.8425742, 21.0112215 ], [ 105.842727699999983, 21.0112228 ], [ 105.842772199999985, 21.0111061 ], [ 105.842824899999982, 21.0108388 ], [ 105.842781, 21.0106939 ], [ 105.842925399999984, 21.0088663 ], [ 105.8429611, 21.0083531 ], [ 105.8430449, 21.0081655 ], [ 105.842647, 21.007473 ], [ 105.8413113, 21.0063215 ], [ 105.8411422, 21.006771 ], [ 105.8400025, 21.0078489 ], [ 105.8393065, 21.0095079 ], [ 105.8389282, 21.0098871 ], [ 105.837626899999989, 21.0104747 ], [ 105.836857399999985, 21.0108048 ], [ 105.8367867, 21.0108849 ], [ 105.8361373, 21.0122536 ], [ 105.8358304, 21.012698 ], [ 105.8358302, 21.0130518 ], [ 105.83600939999998, 21.0144222 ], [ 105.8361085, 21.014708 ], [ 105.8363, 21.0163195 ], [ 105.8361741, 21.0165805 ], [ 105.8369058, 21.0169733 ] ] ] } },
{ "type": "Feature", "properties": { "threshold_s": 300, "time_label": "5 min walk" }, "geometry": { "type": "Polygon", "coordinates": [ [ [ 105.8426967, 21.014787 ], [ 105.8432513, 21.0155825 ], [ 105.8441846, 21.0161234 ], [ 105.844888, 21.0163364 ], [ 105.8451541, 21.0162466 ], [ 105.845883599999979, 21.0160686 ], [ 105.846795299999982, 21.0160291 ], [ 105.8472715, 21.015515 ], [ 105.8473492, 21.015325 ], [ 105.8473282, 21.0152608 ], [ 105.8472656, 21.0151995 ], [ 105.847214799999989, 21.0152125 ], [ 105.8468831, 21.0152883 ], [ 105.8463486, 21.0151112 ], [ 105.8461106, 21.0148728 ], [ 105.845951200000016, 21.014312 ], [ 105.8467151, 21.0138532 ], [ 105.846767, 21.013838 ], [ 105.846747, 21.0134487 ], [ 105.8464602, 21.0125973 ], [ 105.8461596, 21.0120037 ], [ 105.845495500000013, 21.0114332 ], [ 105.84605089999998, 21.0121199 ], [ 105.8455437, 21.0125883 ], [ 105.8452984, 21.0134518 ], [ 105.8450315, 21.0140596 ], [ 105.8441655, 21.0145502 ], [ 105.8432542, 21.0143207 ], [ 105.842844899999989, 21.0139577 ], [ 105.8423851, 21.0136837 ], [ 105.842251599999983, 21.0140504 ], [ 105.8426967, 21.014787 ] ] ] } },
{ "type": "Feature", "properties": { "threshold_s": 600, "time_label": "10 min walk" }, "geometry": { "type": "Polygon", "coordinates": [ [ [ 105.8414072, 21.0173073 ], [ 105.8416694, 21.0175993 ], [ 105.843516599999987, 21.0181953 ], [ 105.844167, 21.0193556 ], [ 105.84451540000002, 21.0182906 ], [ 105.8461965, 21.0170919 ], [ 105.8473556, 21.0182764 ], [ 105.8493093, 21.0170875 ], [ 105.8505289, 21.0152301 ], [ 105.8505477, 21.0134568 ], [ 105.8498827, 21.0117193 ], [ 105.8493602, 21.0104679 ], [ 105.849244699999986, 21.0103873 ], [ 105.849110199999984, 21.0103289 ], [ 105.847779799999984, 21.0098561 ], [ 105.846095299999988, 21.0082713 ], [ 105.8459444, 21.0082565 ], [ 105.845227499999979, 21.0084969 ], [ 105.8449397, 21.0104502 ], [ 105.845169799999979, 21.0110389 ], [ 105.8455437, 21.0125883 ], [ 105.8452984, 21.0134518 ], [ 105.8432542, 21.0143207 ], [ 105.842844899999989, 21.0139577 ], [ 105.8423851, 21.0136837 ], [ 105.8414563, 21.0134154 ], [ 105.8413787, 21.0134169 ], [ 105.8413199, 21.0134184 ], [ 105.841088, 21.0134947 ], [ 105.8403519, 21.0143317 ], [ 105.841318, 21.0152793 ], [ 105.8414072, 21.0173073 ] ] ] } },
{ "type": "Feature", "properties": { "threshold_s": 900, "time_label": "15 min walk" }, "geometry": { "type": "Polygon", "coordinates": [ [ [ 105.839808, 21.0185506 ], [ 105.8394118, 21.0188848 ], [ 105.839608799999979, 21.0190016 ], [ 105.8397696, 21.0189906 ], [ 105.8406848, 21.0192221 ], [ 105.8413584, 21.0204461 ], [ 105.841558299999988, 21.020661 ], [ 105.8430397, 21.0213913 ], [ 105.8444872, 21.0218761 ], [ 105.8449315, 21.0217436 ], [ 105.8449798, 21.0217298 ], [ 105.8451685, 21.0214653 ], [ 105.846134699999979, 21.0206861 ], [ 105.846745, 21.0205023 ], [ 105.848212599999982, 21.020974 ], [ 105.8483011, 21.0210518 ], [ 105.8483946, 21.02106 ], [ 105.849970199999987, 21.0206242 ], [ 105.8500125, 21.0205117 ], [ 105.8497291, 21.0196171 ], [ 105.850657499999983, 21.0186116 ], [ 105.851494299999985, 21.0181657 ], [ 105.8520763, 21.0171997 ], [ 105.852265299999985, 21.0168092 ], [ 105.8537187, 21.0156249 ], [ 105.85375, 21.0153541 ], [ 105.8537512, 21.0137163 ], [ 105.853576, 21.0135216 ], [ 105.8530265, 21.0134566 ], [ 105.8523807, 21.0134658 ], [ 105.8517022, 21.0118222 ], [ 105.851686499999985, 21.0116317 ], [ 105.8521654, 21.0099279 ], [ 105.852108199999989, 21.0087707 ], [ 105.851997900000015, 21.0085599 ], [ 105.851396599999987, 21.0083109 ], [ 105.8512596, 21.0082585 ], [ 105.8500796, 21.0084915 ], [ 105.8489679, 21.0083256 ], [ 105.848223300000015, 21.0071982 ], [ 105.848132599999985, 21.0070995 ], [ 105.847321, 21.0063321 ], [ 105.847310599999986, 21.0063321 ], [ 105.8472656, 21.0063322 ], [ 105.847225499999979, 21.0063324 ], [ 105.8466293, 21.0066835 ], [ 105.8449235, 21.0069653 ], [ 105.8447435, 21.0069889 ], [ 105.843563499999988, 21.0072331 ], [ 105.8422292, 21.0082636 ], [ 105.8415639, 21.008153 ], [ 105.8411886, 21.008355 ], [ 105.840991100000011, 21.0089816 ], [ 105.8397425, 21.0100938 ], [ 105.8397054, 21.0101366 ], [ 105.8394329, 21.0110614 ], [ 105.838117699999984, 21.0122488 ], [ 105.837447399999988, 21.0137678 ], [ 105.8376458, 21.014187 ], [ 105.8378569, 21.0144549 ], [ 105.8379217, 21.0160638 ], [ 105.837928199999979, 21.0160747 ], [ 105.839148899999984, 21.0167053 ], [ 105.8393977, 21.0169516 ], [ 105.839808, 21.0185506 ] ] ] } },
{ "type": "Feature", "properties": { "threshold_s": 300, "time_label": "5 min walk" }, "geometry": { "type": "Polygon", "coordinates": [ [ [ 105.84605089999998, 21.0121199 ], [ 105.8455437, 21.0125883 ], [ 105.845665, 21.0126565 ], [ 105.846219399999981, 21.012609 ], [ 105.846277699999987, 21.0125942 ], [ 105.8464682, 21.0118704 ], [ 105.8464739, 21.0114627 ], [ 105.8459798, 21.0113362 ], [ 105.84604, 21.0106597 ], [ 105.846829, 21.0105703 ], [ 105.8462778, 21.0100997 ], [ 105.84621629999998, 21.009925 ], [ 105.845732600000019, 21.0087434 ], [ 105.846095299999988, 21.0082713 ], [ 105.846089299999988, 21.0079147 ], [ 105.8455794, 21.007776 ], [ 105.845386499999989, 21.0077563 ], [ 105.8452926, 21.0081436 ], [ 105.845227499999979, 21.0084969 ], [ 105.8456931, 21.0092604 ], [ 105.8452884, 21.0100443 ], [ 105.8449397, 21.0104502 ], [ 105.845169799999979, 21.0110389 ], [ 105.845495500000013, 21.0114332 ], [ 105.845979, 21.0115572 ], [ 105.84605089999998, 21.0121199 ] ] ] } },
{ "type": "Feature", "properties": { "threshold_s": 600, "time_label": "10 min walk" }, "geometry": { "type": "Polygon", "coordinates": [ [ [ 105.8440204, 21.0145618 ], [ 105.8440765, 21.0154253 ], [ 105.8443329, 21.0155831 ], [ 105.846397, 21.0153551 ], [ 105.8472715, 21.015515 ], [ 105.8473725, 21.0154903 ], [ 105.8486902, 21.0136136 ], [ 105.849015099999988, 21.0133727 ], [ 105.8499128, 21.011871 ], [ 105.8499115, 21.0118017 ], [ 105.849875, 21.0106252 ], [ 105.849901, 21.0086354 ], [ 105.849271, 21.0084755 ], [ 105.848229, 21.0065647 ], [ 105.847321, 21.0063321 ], [ 105.847310599999986, 21.0063321 ], [ 105.8472656, 21.0063322 ], [ 105.847225499999979, 21.0063324 ], [ 105.8457685, 21.0066653 ], [ 105.8445248, 21.0067561 ], [ 105.843996799999985, 21.0067582 ], [ 105.8426544, 21.0072266 ], [ 105.840980099999982, 21.0081695 ], [ 105.8418279, 21.0084792 ], [ 105.842925399999984, 21.0088663 ], [ 105.845227499999979, 21.0084969 ], [ 105.8452884, 21.0100443 ], [ 105.8449397, 21.0104502 ], [ 105.845169799999979, 21.0110389 ], [ 105.8455437, 21.0125883 ], [ 105.8452984, 21.0134518 ], [ 105.8440204, 21.0145618 ] ] ] } },
{ "type": "Feature", "properties": { "threshold_s": 900, "time_label": "15 min walk" }, "geometry": { "type": "Polygon", "coordinates": [ [ [ 105.8438212, 21.0181427 ], [ 105.8439301, 21.0182691 ], [ 105.844818099999983, 21.0173794 ], [ 105.847466, 21.0182456 ], [ 105.848417499999982, 21.0181247 ], [ 105.848549, 21.0180448 ], [ 105.849374499999982, 21.0170408 ], [ 105.850940899999983, 21.0151728 ], [ 105.8523728, 21.0136489 ], [ 105.8517022, 21.0118222 ], [ 105.8521654, 21.0099279 ], [ 105.85285709999998, 21.0090953 ], [ 105.852981899999989, 21.0088301 ], [ 105.8529832, 21.0087722 ], [ 105.8513694, 21.0072447 ], [ 105.8512407, 21.0064142 ], [ 105.8512375, 21.0063684 ], [ 105.8511797, 21.0063072 ], [ 105.849462, 21.0054958 ], [ 105.8482496, 21.0034402 ], [ 105.848075699999981, 21.0031712 ], [ 105.8478716, 21.0031634 ], [ 105.8464015, 21.0034428 ], [ 105.8447081, 21.0035551 ], [ 105.843650199999985, 21.0044482 ], [ 105.8415726, 21.0045396 ], [ 105.841498, 21.0045406 ], [ 105.8411025, 21.0051215 ], [ 105.840235099999987, 21.0065748 ], [ 105.8389402, 21.0079616 ], [ 105.838631, 21.0101754 ], [ 105.839935, 21.0108495 ], [ 105.8403377, 21.0108967 ], [ 105.841088, 21.0134947 ], [ 105.8417746, 21.0142145 ], [ 105.8432513, 21.0155825 ], [ 105.8433861, 21.0171286 ], [ 105.8433952, 21.0172849 ], [ 105.843404099999987, 21.0174454 ], [ 105.8434082, 21.0175215 ], [ 105.8436638, 21.0179165 ], [ 105.8438212, 21.0181427 ] ] ] } },
{ "type": "Feature", "properties": { "threshold_s": 300, "time_label": "5 min walk" }, "geometry": { "type": "Polygon", "coordinates": [ [ [ 105.844329, 21.0168267 ], [ 105.8443555, 21.0170014 ], [ 105.8451541, 21.0162466 ], [ 105.8454387, 21.01542 ], [ 105.845498, 21.0149047 ], [ 105.8457671, 21.0139405 ], [ 105.8455097, 21.0134712 ], [ 105.8452984, 21.0134518 ], [ 105.8450315, 21.0140596 ], [ 105.8441655, 21.0145502 ], [ 105.8432542, 21.0143207 ], [ 105.842844899999989, 21.0139577 ], [ 105.8423851, 21.0136837 ], [ 105.8414563, 21.0134154 ], [ 105.8413787, 21.0134169 ], [ 105.8413199, 21.0134184 ], [ 105.841088, 21.0134947 ], [ 105.8417746, 21.0142145 ], [ 105.8426967, 21.014787 ], [ 105.8432513, 21.0155825 ], [ 105.8441846, 21.0161234 ], [ 105.844329, 21.0168267 ] ] ] } },
{ "type": "Feature", "properties": { "threshold_s": 600, "time_label": "10 min walk" }, "geometry": { "type": "Polygon", "coordinates": [ [ [ 105.838992599999983, 21.01514 ], [ 105.839243, 21.0160403 ], [ 105.8404547, 21.0161348 ], [ 105.841325, 21.0167126 ], [ 105.8413261, 21.0173079 ], [ 105.8413094, 21.0178275 ], [ 105.841416399999986, 21.0179823 ], [ 105.8415255, 21.0181081 ], [ 105.8422833, 21.0185793 ], [ 105.843516599999987, 21.0181953 ], [ 105.8440234, 21.0188761 ], [ 105.8440936, 21.0193667 ], [ 105.8441319, 21.0198091 ], [ 105.844523, 21.019811 ], [ 105.844498, 21.0196969 ], [ 105.844167, 21.0193556 ], [ 105.84451540000002, 21.0182906 ], [ 105.844818099999983, 21.0173794 ], [ 105.845683, 21.01704 ], [ 105.8461965, 21.0170919 ], [ 105.8466918, 21.01722 ], [ 105.846985, 21.0173538 ], [ 105.847838, 21.0171685 ], [ 105.847983899999988, 21.0171367 ], [ 105.8479757, 21.0170593 ], [ 105.847968599999987, 21.0169921 ], [ 105.8477822, 21.0167244 ], [ 105.8473725, 21.0154903 ], [ 105.8478975, 21.0152815 ], [ 105.848346699999979, 21.0153123 ], [ 105.848381299999986, 21.0153119 ], [ 105.848470899999981, 21.0152175 ], [ 105.8483709, 21.0150723 ], [ 105.8483369, 21.0150723 ], [ 105.847819199999989, 21.0150999 ], [ 105.8469715, 21.0144893 ], [ 105.8475297, 21.0133763 ], [ 105.848165699999981, 21.0133741 ], [ 105.8482749, 21.0133237 ], [ 105.848273799999987, 21.013261 ], [ 105.847654399999982, 21.0121155 ], [ 105.8478912, 21.0118827 ], [ 105.847818, 21.011828 ], [ 105.8464739, 21.0114627 ], [ 105.846092499999983, 21.0105382 ], [ 105.8449397, 21.0104502 ], [ 105.842781, 21.0106939 ], [ 105.842518299999981, 21.010832 ], [ 105.8414412, 21.0105853 ], [ 105.8412929, 21.0100664 ], [ 105.8412023, 21.0100653 ], [ 105.8408669, 21.0102377 ], [ 105.8407469, 21.0103617 ], [ 105.8403377, 21.0108967 ], [ 105.8413515, 21.0110836 ], [ 105.8414439, 21.0110831 ], [ 105.8418088, 21.0110809 ], [ 105.8425742, 21.0112215 ], [ 105.842727699999983, 21.0112228 ], [ 105.842772199999985, 21.0111061 ], [ 105.842824899999982, 21.0108388 ], [ 105.845169799999979, 21.0110389 ], [ 105.845495500000013, 21.0114332 ], [ 105.8455437, 21.0125883 ], [ 105.8452984, 21.0134518 ], [ 105.8450315, 21.0140596 ], [ 105.8441655, 21.0145502 ], [ 105.8432542, 21.0143207 ], [ 105.842844899999989, 21.0139577 ], [ 105.8423851, 21.0136837 ], [ 105.8416716, 21.0135261 ], [ 105.8414563, 21.0134154 ], [ 105.8413787, 21.0134169 ], [ 105.8413199, 21.0134184 ], [ 105.841088, 21.0134947 ], [ 105.8403519, 21.0143317 ], [ 105.839583, 21.0135494 ], [ 105.839323, 21.0130658 ], [ 105.8392282, 21.01283 ], [ 105.8389565, 21.012945 ], [ 105.8388572, 21.0136282 ], [ 105.838856099999987, 21.013886 ], [ 105.838992599999983, 21.01514 ] ] ] } },
{ "type": "Feature", "properties": { "threshold_s": 900, "time_label": "15 min walk" }, "geometry": { "type": "Polygon", "coordinates": [ [ [ 105.8369058, 21.0169733 ], [ 105.8375343, 21.0179773 ], [ 105.8389785, 21.0189859 ], [ 105.83919539999998, 21.0190332 ], [ 105.839608799999979, 21.0190016 ], [ 105.8397696, 21.0189906 ], [ 105.8406848, 21.0192221 ], [ 105.8411667, 21.0207718 ], [ 105.8413626, 21.0207692 ], [ 105.841419299999984, 21.0207684 ], [ 105.843036399999988, 21.0215768 ], [ 105.843131699999986, 21.0218562 ], [ 105.8445617, 21.0220953 ], [ 105.8460309, 21.0215242 ], [ 105.846745, 21.0205023 ], [ 105.847710599999985, 21.0205706 ], [ 105.848212599999982, 21.020974 ], [ 105.848354499999985, 21.0209747 ], [ 105.848777, 21.0198738 ], [ 105.8496135, 21.0195834 ], [ 105.8496704, 21.0194663 ], [ 105.8500613, 21.0186604 ], [ 105.8504625, 21.0179843 ], [ 105.8513994, 21.0169371 ], [ 105.851700199999982, 21.0152238 ], [ 105.8517029, 21.0151651 ], [ 105.851705399999986, 21.0151085 ], [ 105.851722, 21.0136037 ], [ 105.8516367, 21.013534 ], [ 105.8509936, 21.0118715 ], [ 105.8510165, 21.0118265 ], [ 105.851013899999984, 21.011786 ], [ 105.8510117, 21.0117448 ], [ 105.850692899999984, 21.0105088 ], [ 105.8499136, 21.009523 ], [ 105.8498718, 21.0095236 ], [ 105.849828, 21.0095242 ], [ 105.8490179, 21.0095714 ], [ 105.8477631, 21.0091354 ], [ 105.847535, 21.0084167 ], [ 105.847301299999984, 21.0081021 ], [ 105.8455794, 21.007776 ], [ 105.845386499999989, 21.0077563 ], [ 105.8452926, 21.0081436 ], [ 105.845227499999979, 21.0084969 ], [ 105.8452884, 21.0100443 ], [ 105.8449397, 21.0104502 ], [ 105.845169799999979, 21.0110389 ], [ 105.8455437, 21.0125883 ], [ 105.8452984, 21.0134518 ], [ 105.8450315, 21.0140596 ], [ 105.8432542, 21.0143207 ], [ 105.842844899999989, 21.0139577 ], [ 105.8423851, 21.0136837 ], [ 105.8416716, 21.0135261 ], [ 105.8414563, 21.0134154 ], [ 105.8413787, 21.0134169 ], [ 105.8413199, 21.0134184 ], [ 105.841088, 21.0134947 ], [ 105.839323, 21.0130658 ], [ 105.8392282, 21.01283 ], [ 105.839422099999979, 21.011754 ], [ 105.8401744, 21.0110493 ], [ 105.8413515, 21.0110836 ], [ 105.8414439, 21.0110831 ], [ 105.8418088, 21.0110809 ], [ 105.8425742, 21.0112215 ], [ 105.842727699999983, 21.0112228 ], [ 105.842772199999985, 21.0111061 ], [ 105.842824899999982, 21.0108388 ], [ 105.842781, 21.0106939 ], [ 105.8413022, 21.0097815 ], [ 105.842925399999984, 21.0088663 ], [ 105.8429611, 21.0083531 ], [ 105.8430449, 21.0081655 ], [ 105.8419506, 21.0075241 ], [ 105.84151559999998, 21.0071533 ], [ 105.8413237, 21.0069589 ], [ 105.8411422, 21.006771 ], [ 105.840226699999988, 21.0078235 ], [ 105.839531699999981, 21.0092818 ], [ 105.8393065, 21.0095079 ], [ 105.8389282, 21.0098871 ], [ 105.8377045, 21.0105321 ], [ 105.8369552, 21.010914 ], [ 105.836891, 21.0110089 ], [ 105.8368415, 21.0110827 ], [ 105.8361373, 21.0122536 ], [ 105.836244199999982, 21.0135179 ], [ 105.8361531, 21.014106 ], [ 105.8361085, 21.014708 ], [ 105.8363, 21.0163195 ], [ 105.8369058, 21.0169733 ] ] ] } }
]
}
