{
"type": "FeatureCollection",
"name": "isochrone_shop_deli_walk",
"crs": { "type": "name", "properties": { "name": "urn:ogc:def:crs:OGC:1.3:CRS84" } },
"features": [
{ "type": "Feature", "properties": { "threshold_s": 300, "time_label": "5 min walk" }, "geometry": { "type": "Polygon", "coordinates": [ [ [ 38.7505748, 9.0308459 ], [ 38.7504043, 9.0309179 ], [ 38.7507542, 9.0312616 ], [ 38.7510342, 9.0314715 ], [ 38.7511804, 9.031488 ], [ 38.7513293, 9.0314934 ], [ 38.7513681, 9.0314923 ], [ 38.7527272, 9.0324999 ], [ 38.7529134, 9.0324932 ], [ 38.7533217, 9.0320304 ], [ 38.7538315, 9.0315198 ], [ 38.7539195, 9.0314367 ], [ 38.7523914, 9.0301702 ], [ 38.7531912, 9.0297342 ], [ 38.7542995, 9.0292944 ], [ 38.7549882, 9.0290272 ], [ 38.7558917, 9.0307419 ], [ 38.75534, 9.028952 ], [ 38.7549855, 9.028112 ], [ 38.7547552, 9.0283671 ], [ 38.7533422, 9.0288862 ], [ 38.7526328, 9.0285574 ], [ 38.7522364, 9.0284491 ], [ 38.7520736, 9.0284741 ], [ 38.7513996, 9.0292771 ], [ 38.7513753, 9.029648 ], [ 38.7512775, 9.0305243 ], [ 38.7505748, 9.0308459 ] ] ] } },
{ "type": "Feature", "properties": { "threshold_s": 600, "time_label": "10 min walk" }, "geometry": { "type": "Polygon", "coordinates": [ [ [ 38.7471613, 9.0322425 ], [ 38.7471956, 9.0323047 ], [ 38.7472291, 9.0323322 ], [ 38.74731, 9.0323547 ], [ 38.7475825, 9.0323943 ], [ 38.748647, 9.0320905 ], [ 38.7492119, 9.0335496 ], [ 38.7500172, 9.0344503 ], [ 38.7500595, 9.0344758 ], [ 38.7501601, 9.0345287 ], [ 38.7513763, 9.033904 ], [ 38.7514298, 9.033863 ], [ 38.7514989, 9.0338101 ], [ 38.7515809, 9.0337472 ], [ 38.752775, 9.0329494 ], [ 38.7537317, 9.0330835 ], [ 38.7549, 9.0340673 ], [ 38.7553975, 9.0323865 ], [ 38.7558521, 9.0318884 ], [ 38.7559834, 9.0307648 ], [ 38.7568262, 9.030107 ], [ 38.7573225, 9.0296974 ], [ 38.7586122, 9.0287572 ], [ 38.7581126, 9.0269965 ], [ 38.7577313, 9.0264413 ], [ 38.7572955, 9.0263761 ], [ 38.756242, 9.0266529 ], [ 38.7548754, 9.0266116 ], [ 38.7543934, 9.0265644 ], [ 38.7541621, 9.0265885 ], [ 38.7541936, 9.026673 ], [ 38.7547552, 9.0283671 ], [ 38.7533422, 9.0288862 ], [ 38.7526328, 9.0285574 ], [ 38.7520469, 9.0273197 ], [ 38.7521239, 9.0269641 ], [ 38.7521154, 9.0268598 ], [ 38.7519514, 9.0265814 ], [ 38.7523074, 9.025126 ], [ 38.7526061, 9.0247498 ], [ 38.751583, 9.0249059 ], [ 38.7511448, 9.025789 ], [ 38.7508772, 9.0273428 ], [ 38.7502819, 9.0275903 ], [ 38.7494022, 9.027615 ], [ 38.748161, 9.0290428 ], [ 38.7485238, 9.0304428 ], [ 38.7484038, 9.0311236 ], [ 38.7472213, 9.032079 ], [ 38.7471572, 9.0321841 ], [ 38.7471613, 9.0322425 ] ] ] } },
{ "type": "Feature", "properties": { "threshold_s": 900, "time_label": "15 min walk" }, "geometry": { "type": "Polygon", "coordinates": [ [ [ 38.7481788, 9.0369824 ], [ 38.7484628, 9.0374386 ], [ 38.7486231, 9.0373188 ], [ 38.7501814, 9.0362262 ], [ 38.7517063, 9.0371802 ], [ 38.7520458, 9.0377947 ], [ 38.7521449, 9.0379001 ], [ 38.7525465, 9.0380504 ], [ 38.754862, 9.0375543 ], [ 38.7550527, 9.0350946 ], [ 38.7549, 9.0340673 ], [ 38.7558521, 9.0318884 ], [ 38.7568262, 9.030107 ], [ 38.7573225, 9.0296974 ], [ 38.7586122, 9.0287572 ], [ 38.7607526, 9.0291155 ], [ 38.7615119, 9.0304589 ], [ 38.7615913, 9.0308121 ], [ 38.7616276, 9.0311284 ], [ 38.762776, 9.0299567 ], [ 38.7627668, 9.0299115 ], [ 38.7619278, 9.0277646 ], [ 38.7603009, 9.0259014 ], [ 38.7591047, 9.0249154 ], [ 38.7575279, 9.0235574 ], [ 38.7562857, 9.0230635 ], [ 38.7551053, 9.0237342 ], [ 38.7536041, 9.0241676 ], [ 38.7522691, 9.0233545 ], [ 38.752741, 9.02144 ], [ 38.7523527, 9.0212902 ], [ 38.7520041, 9.0213349 ], [ 38.7518263, 9.0213936 ], [ 38.7519772, 9.0217558 ], [ 38.7520594, 9.0220584 ], [ 38.7520335, 9.0233397 ], [ 38.7508048, 9.0245939 ], [ 38.748782, 9.0262905 ], [ 38.7471063, 9.0265819 ], [ 38.7468466, 9.0268846 ], [ 38.7456176, 9.0283852 ], [ 38.745241, 9.0302293 ], [ 38.7441603, 9.0327651 ], [ 38.745832, 9.0344079 ], [ 38.7474784, 9.0357517 ], [ 38.7481788, 9.0369824 ] ] ] } }
]
}
