{
"type": "FeatureCollection",
"name": "isochrone_amenity_ice_cream_walk",
"crs": { "type": "name", "properties": { "name": "urn:ogc:def:crs:OGC:1.3:CRS84" } },
"features": [
{ "type": "Feature", "properties": { "threshold_s": 300, "time_label": "5 min walk" }, "geometry": { "type": "Polygon", "coordinates": [ [ [ 38.7822512, 8.9894542 ], [ 38.7822305, 8.9904055 ], [ 38.7823858, 8.9901732 ], [ 38.7826636, 8.9897776 ], [ 38.7836802, 8.989196 ], [ 38.7843977, 8.9900773 ], [ 38.7845344, 8.9902803 ], [ 38.7851041, 8.9901383 ], [ 38.7852537, 8.9896641 ], [ 38.7852551, 8.9888688 ], [ 38.7852267, 8.987993 ], [ 38.7863919, 8.9875443 ], [ 38.7854196, 8.9872595 ], [ 38.7856999, 8.9863203 ], [ 38.785606, 8.9859282 ], [ 38.7855757, 8.9849273 ], [ 38.7846151, 8.9853846 ], [ 38.784115, 8.9851798 ], [ 38.7831475, 8.985593 ], [ 38.7829011, 8.9860035 ], [ 38.782795299999989, 8.9861683 ], [ 38.7826612, 8.9863771 ], [ 38.7809604, 8.9863534 ], [ 38.7816162, 8.9868435 ], [ 38.7821635, 8.9875304 ], [ 38.7823949, 8.9880129 ], [ 38.7826362, 8.9885462 ], [ 38.7822512, 8.9894542 ] ] ] } },
{ "type": "Feature", "properties": { "threshold_s": 600, "time_label": "10 min walk" }, "geometry": { "type": "Polygon", "coordinates": [ [ [ 38.77967, 8.9921255 ], [ 38.7797226, 8.9922354 ], [ 38.7804589, 8.9928799 ], [ 38.7809926, 8.9933249 ], [ 38.7828373, 8.9930964 ], [ 38.7848228, 8.9926656 ], [ 38.7864352, 8.991668 ], [ 38.7871316, 8.9907792 ], [ 38.7882802, 8.9889543 ], [ 38.7886764, 8.9882605 ], [ 38.7886316, 8.987331 ], [ 38.7888132, 8.9859297 ], [ 38.7879749, 8.9856538 ], [ 38.7865849, 8.9852329 ], [ 38.7864894, 8.985204 ], [ 38.7855757, 8.9849273 ], [ 38.7842988, 8.9845215 ], [ 38.7833636, 8.9842113 ], [ 38.7824454, 8.9839019 ], [ 38.7810382, 8.9833915 ], [ 38.7807425, 8.9839147 ], [ 38.7799272, 8.9853434 ], [ 38.779468, 8.9858295 ], [ 38.7793551, 8.9859527 ], [ 38.7791239, 8.986207 ], [ 38.7787847, 8.9878668 ], [ 38.7791501, 8.9881894 ], [ 38.7796594, 8.9901999 ], [ 38.77967, 8.9921255 ] ] ] } },
{ "type": "Feature", "properties": { "threshold_s": 900, "time_label": "15 min walk" }, "geometry": { "type": "Polygon", "coordinates": [ [ [ 38.7766387, 8.9930597 ], [ 38.7785485, 8.9951933 ], [ 38.7794371, 8.9957638 ], [ 38.780365, 8.9959179 ], [ 38.7828273, 8.996347 ], [ 38.7831231, 8.996349 ], [ 38.7845103, 8.9958517 ], [ 38.7859963, 8.9952907 ], [ 38.7880334, 8.9933872 ], [ 38.7887993, 8.9927548 ], [ 38.7886027, 8.9912301 ], [ 38.7898357, 8.9893544 ], [ 38.7912444, 8.9883347 ], [ 38.7914167, 8.9880342 ], [ 38.791375, 8.9871117 ], [ 38.788826, 8.985809 ], [ 38.7855757, 8.9849273 ], [ 38.7842988, 8.9845215 ], [ 38.7833636, 8.9842113 ], [ 38.7824454, 8.9839019 ], [ 38.781234, 8.9834683 ], [ 38.7785645, 8.9821469 ], [ 38.7782983, 8.982017 ], [ 38.7769699, 8.9823757 ], [ 38.777238, 8.9839864 ], [ 38.7766992, 8.9857251 ], [ 38.7764753, 8.9868029 ], [ 38.776481, 8.989139 ], [ 38.777074, 8.9920119 ], [ 38.7766295, 8.9930188 ], [ 38.7766387, 8.9930597 ] ] ] } },
{ "type": "Feature", "properties": { "threshold_s": 300, "time_label": "5 min walk" }, "geometry": { "type": "Polygon", "coordinates": [ [ [ 38.7432775, 8.9892118 ], [ 38.7433261, 8.9892725 ], [ 38.7439976, 8.9887137 ], [ 38.7449272, 8.9878513 ], [ 38.7452968, 8.9874874 ], [ 38.745739, 8.9870659 ], [ 38.7462675, 8.9865609 ], [ 38.7472685, 8.9858837 ], [ 38.7466588, 8.9856712 ], [ 38.7460893, 8.985871 ], [ 38.7457786, 8.9860408 ], [ 38.7450484, 8.987087 ], [ 38.7446737, 8.9868283 ], [ 38.7441847, 8.9862839 ], [ 38.7432687, 8.9860148 ], [ 38.7427596, 8.9863312 ], [ 38.7429326, 8.987467 ], [ 38.7430401, 8.9875055 ], [ 38.743797, 8.9882934 ], [ 38.7432775, 8.9892118 ] ] ] } },
{ "type": "Feature", "properties": { "threshold_s": 600, "time_label": "10 min walk" }, "geometry": { "type": "Polygon", "coordinates": [ [ [ 38.7405069, 8.9909098 ], [ 38.7407297, 8.9911753 ], [ 38.7417867, 8.9912174 ], [ 38.7418565, 8.9913407 ], [ 38.7427999, 8.9909033 ], [ 38.74305, 8.9914614 ], [ 38.743326, 8.9918845 ], [ 38.7434942, 8.9914052 ], [ 38.7437032, 8.9908295 ], [ 38.7446282, 8.9907519 ], [ 38.7447238, 8.9908057 ], [ 38.7447858, 8.9902008 ], [ 38.7457274, 8.9902239 ], [ 38.7460253, 8.9899743 ], [ 38.746032, 8.9892115 ], [ 38.7461135, 8.9881828 ], [ 38.7458333, 8.9871828 ], [ 38.7460785, 8.9870505 ], [ 38.7462675, 8.9865609 ], [ 38.7466588, 8.9856712 ], [ 38.7472685, 8.9858837 ], [ 38.7479603, 8.9859844 ], [ 38.7484798, 8.9867709 ], [ 38.7483555, 8.9877016 ], [ 38.7484541, 8.9880293 ], [ 38.7485859, 8.9879394 ], [ 38.7487071, 8.9877578 ], [ 38.7486479, 8.9869149 ], [ 38.7493942, 8.9868021 ], [ 38.7497623, 8.9858633 ], [ 38.7503347, 8.9852324 ], [ 38.7506529, 8.9845084 ], [ 38.749979, 8.9842547 ], [ 38.749083, 8.9838288 ], [ 38.7491314, 8.9844733 ], [ 38.7491096, 8.985385 ], [ 38.74802, 8.9855194 ], [ 38.7478244, 8.9850778 ], [ 38.7478419, 8.9848579 ], [ 38.7478086, 8.9840864 ], [ 38.7478159, 8.9834376 ], [ 38.7478409, 8.9829408 ], [ 38.7470775, 8.9834876 ], [ 38.7469304, 8.9835016 ], [ 38.7465178, 8.9822653 ], [ 38.7460128, 8.9829303 ], [ 38.7453103, 8.9829937 ], [ 38.7450895, 8.9832914 ], [ 38.7440929, 8.9831576 ], [ 38.7434792, 8.9838322 ], [ 38.743505, 8.9842753 ], [ 38.7435155, 8.9846347 ], [ 38.7445685, 8.9845483 ], [ 38.7446144, 8.9851407 ], [ 38.744819, 8.9850859 ], [ 38.7450016, 8.985044 ], [ 38.7451722, 8.9850326 ], [ 38.7454584, 8.9850502 ], [ 38.7457786, 8.9860408 ], [ 38.745739, 8.9870659 ], [ 38.7450484, 8.987087 ], [ 38.7446737, 8.9868283 ], [ 38.7441847, 8.9862839 ], [ 38.7434511, 8.9861355 ], [ 38.7432687, 8.9860148 ], [ 38.7427596, 8.9863312 ], [ 38.7418294, 8.985895 ], [ 38.7414295, 8.9850703 ], [ 38.7412354, 8.9862099 ], [ 38.7409434, 8.9863919 ], [ 38.740175, 8.9866201 ], [ 38.7410196, 8.9870354 ], [ 38.7410566, 8.9875385 ], [ 38.7401894, 8.987797 ], [ 38.7411293, 8.9881328 ], [ 38.7409043, 8.9890675 ], [ 38.7415596, 8.9890124 ], [ 38.7420324, 8.9892332 ], [ 38.7417482, 8.9901297 ], [ 38.741361, 8.9904695 ], [ 38.7405069, 8.9909098 ] ] ] } },
{ "type": "Feature", "properties": { "threshold_s": 900, "time_label": "15 min walk" }, "geometry": { "type": "Polygon", "coordinates": [ [ [ 38.7390878, 8.9934914 ], [ 38.7391173, 8.9940268 ], [ 38.7409421, 8.9939036 ], [ 38.7428288, 8.9942111 ], [ 38.7434026, 8.9939302 ], [ 38.7452549, 8.9933223 ], [ 38.7460314, 8.9936245 ], [ 38.7463845, 8.9937738 ], [ 38.7464444, 8.9937992 ], [ 38.7475225, 8.9920818 ], [ 38.7482563, 8.9911526 ], [ 38.7505294, 8.9903366 ], [ 38.7511589, 8.9890855 ], [ 38.7514143, 8.9880999 ], [ 38.7513983, 8.9875137 ], [ 38.752699, 8.9856692 ], [ 38.7532425, 8.9839796 ], [ 38.7537834, 8.9832472 ], [ 38.7519464, 8.9825705 ], [ 38.7509465, 8.9818895 ], [ 38.7503875, 8.9815975 ], [ 38.7495568, 8.9814266 ], [ 38.7478037, 8.9807153 ], [ 38.7464727, 8.9793627 ], [ 38.7447973, 8.9800177 ], [ 38.7430794, 8.9803576 ], [ 38.7429655, 8.9814508 ], [ 38.7414242, 8.982242 ], [ 38.7418126, 8.9831436 ], [ 38.7415929, 8.9840381 ], [ 38.7393057, 8.9838339 ], [ 38.7388376, 8.9858469 ], [ 38.738839, 8.9858925 ], [ 38.7389203, 8.986896 ], [ 38.7382566, 8.9884032 ], [ 38.7384434, 8.9890888 ], [ 38.7392615, 8.9900174 ], [ 38.7390187, 8.9918219 ], [ 38.7390878, 8.9934914 ] ] ] } },
{ "type": "Feature", "properties": { "threshold_s": 300, "time_label": "5 min walk" }, "geometry": { "type": "Polygon", "coordinates": [ [ [ 38.7725072, 9.0345694 ], [ 38.7725176, 9.0347448 ], [ 38.7738715, 9.0340424 ], [ 38.7740198, 9.034221 ], [ 38.7744317, 9.0345757 ], [ 38.7745939, 9.0343699 ], [ 38.7746801, 9.0338098 ], [ 38.7746426, 9.0331073 ], [ 38.775312, 9.0329041 ], [ 38.7756993, 9.0332601 ], [ 38.7762109, 9.0324478 ], [ 38.775375, 9.0328458 ], [ 38.77477, 9.0326884 ], [ 38.7740528, 9.0325519 ], [ 38.7736567, 9.0323003 ], [ 38.7736071, 9.0317865 ], [ 38.7748316, 9.0316931 ], [ 38.7741151, 9.0313039 ], [ 38.7741301, 9.0305373 ], [ 38.7749236, 9.0305033 ], [ 38.7747707, 9.0302428 ], [ 38.7740239, 9.029924 ], [ 38.7739974, 9.0298455 ], [ 38.7738646, 9.0301277 ], [ 38.7732182, 9.0304161 ], [ 38.7729685, 9.0305567 ], [ 38.7730453, 9.0308631 ], [ 38.7735951, 9.0314084 ], [ 38.772529, 9.0315464 ], [ 38.7722518, 9.0311573 ], [ 38.7720152, 9.0304855 ], [ 38.7720568, 9.0301421 ], [ 38.7719169, 9.0307387 ], [ 38.7716368, 9.0314225 ], [ 38.7715755, 9.0316326 ], [ 38.7714916, 9.032111 ], [ 38.7713409, 9.0329295 ], [ 38.7716729, 9.0326009 ], [ 38.77157290000001, 9.0321565 ], [ 38.7718327, 9.0317416 ], [ 38.7724072, 9.0321943 ], [ 38.7724387, 9.0322865 ], [ 38.7723844, 9.0333248 ], [ 38.7731029, 9.0328984 ], [ 38.7735455, 9.0333945 ], [ 38.7725072, 9.0345694 ] ] ] } },
{ "type": "Feature", "properties": { "threshold_s": 600, "time_label": "10 min walk" }, "geometry": { "type": "Polygon", "coordinates": [ [ [ 38.7683848, 9.0328415 ], [ 38.7672949, 9.0333336 ], [ 38.7684305, 9.0329237 ], [ 38.768567, 9.0339854 ], [ 38.7690897, 9.034443 ], [ 38.7694288, 9.034481 ], [ 38.7703516, 9.0350562 ], [ 38.7705822, 9.0350296 ], [ 38.7706302, 9.0364174 ], [ 38.7707349, 9.0364693 ], [ 38.771258, 9.0349868 ], [ 38.7722643, 9.0352881 ], [ 38.7725503, 9.0352767 ], [ 38.7736848, 9.0351991 ], [ 38.7746987, 9.035767 ], [ 38.7735963, 9.0366353 ], [ 38.7740442, 9.0370837 ], [ 38.7744577, 9.0375841 ], [ 38.7751304, 9.0363919 ], [ 38.7755904, 9.035647 ], [ 38.7769673, 9.0357669 ], [ 38.7779067, 9.0359559 ], [ 38.7778481, 9.0358062 ], [ 38.777810700000011, 9.0357259 ], [ 38.7778229, 9.0347648 ], [ 38.778329, 9.0342757 ], [ 38.7784292, 9.0339164 ], [ 38.778092, 9.033304 ], [ 38.7783575, 9.0319742 ], [ 38.7784859, 9.031106 ], [ 38.7780561, 9.0303012 ], [ 38.777429, 9.0299351 ], [ 38.7769143, 9.029707 ], [ 38.7756426, 9.0296429 ], [ 38.7758849, 9.0286076 ], [ 38.7754884, 9.0272635 ], [ 38.7756414, 9.0271272 ], [ 38.7756265, 9.0269555 ], [ 38.7756024, 9.0269209 ], [ 38.7754401, 9.0268163 ], [ 38.7752508, 9.0269569 ], [ 38.7752482, 9.0271537 ], [ 38.7752165, 9.0276289 ], [ 38.774781, 9.0284029 ], [ 38.773523, 9.0284492 ], [ 38.7732102, 9.0275909 ], [ 38.7726906, 9.0277322 ], [ 38.7718031, 9.0272166 ], [ 38.7713737, 9.0275635 ], [ 38.7705804, 9.0283662 ], [ 38.7704497, 9.0287457 ], [ 38.7702638, 9.0292044 ], [ 38.7691699, 9.02951 ], [ 38.769002, 9.0296097 ], [ 38.7689039, 9.030268 ], [ 38.7684935, 9.0309673 ], [ 38.7683912, 9.0312261 ], [ 38.768614, 9.0322962 ], [ 38.7683848, 9.0328415 ] ] ] } },
{ "type": "Feature", "properties": { "threshold_s": 900, "time_label": "15 min walk" }, "geometry": { "type": "Polygon", "coordinates": [ [ [ 38.7673841, 9.0363515 ], [ 38.7673319, 9.0365137 ], [ 38.7694764, 9.0373855 ], [ 38.7707849, 9.0374901 ], [ 38.7719861, 9.0388152 ], [ 38.7728901, 9.0400549 ], [ 38.7734143, 9.0388789 ], [ 38.7758589, 9.0393326 ], [ 38.7780224, 9.0381513 ], [ 38.7785826, 9.0382486 ], [ 38.7789494, 9.0383492 ], [ 38.7791536, 9.0381632 ], [ 38.7797197, 9.0361348 ], [ 38.7804737, 9.033912 ], [ 38.7806722, 9.0327462 ], [ 38.7802271, 9.0305908 ], [ 38.7795637, 9.0295252 ], [ 38.7791344, 9.0289262 ], [ 38.7785228, 9.0266245 ], [ 38.777594, 9.0246542 ], [ 38.7762122, 9.025038 ], [ 38.7739588, 9.0248857 ], [ 38.7723472, 9.0239117 ], [ 38.7722297, 9.0251154 ], [ 38.7719931, 9.0256488 ], [ 38.7718031, 9.0272166 ], [ 38.7696171, 9.026581 ], [ 38.7687999, 9.0273241 ], [ 38.7673191, 9.0287294 ], [ 38.7660695, 9.0292297 ], [ 38.7661201, 9.0294042 ], [ 38.7664014, 9.0314507 ], [ 38.7649893, 9.0322779 ], [ 38.7646004, 9.0322919 ], [ 38.7661891, 9.0333479 ], [ 38.7666668, 9.0338927 ], [ 38.7667998, 9.0339848 ], [ 38.7673841, 9.0363515 ] ] ] } },
{ "type": "Feature", "properties": { "threshold_s": 300, "time_label": "5 min walk" }, "geometry": { "type": "Polygon", "coordinates": [ [ [ 38.7684475, 9.0050954 ], [ 38.7674794, 9.0056217 ], [ 38.7686704, 9.0056819 ], [ 38.768828, 9.0061181 ], [ 38.7688796, 9.0061823 ], [ 38.769243, 9.006491 ], [ 38.7689393, 9.0061301 ], [ 38.7689564, 9.0055062 ], [ 38.7697441, 9.0055966 ], [ 38.7700586, 9.006106 ], [ 38.7704877, 9.0061312 ], [ 38.7709697, 9.0062587 ], [ 38.7715262, 9.0057579 ], [ 38.7718892, 9.0054106 ], [ 38.7717075, 9.0049966 ], [ 38.7724753, 9.004786 ], [ 38.7720394, 9.0043244 ], [ 38.7722564, 9.003714 ], [ 38.7718476, 9.0030184 ], [ 38.7717739, 9.0033601 ], [ 38.7716451, 9.0039323 ], [ 38.7709223, 9.0039999 ], [ 38.7707131, 9.0045185 ], [ 38.7699232, 9.0043125 ], [ 38.7692675, 9.0042938 ], [ 38.7685232, 9.0041739 ], [ 38.76827990000001, 9.0036892 ], [ 38.768701, 9.0029118 ], [ 38.7691042, 9.0027905 ], [ 38.7698957, 9.003069 ], [ 38.7699389, 9.0030404 ], [ 38.7701344, 9.0029403 ], [ 38.769043, 9.0027762 ], [ 38.7686334, 9.0028801 ], [ 38.7675736, 9.0030528 ], [ 38.7675149, 9.0030812 ], [ 38.7679302, 9.0037633 ], [ 38.7679328, 9.0040963 ], [ 38.767867, 9.0044714 ], [ 38.7680585, 9.0045594 ], [ 38.768307, 9.0047561 ], [ 38.7684475, 9.0050954 ] ] ] } },
{ "type": "Feature", "properties": { "threshold_s": 600, "time_label": "10 min walk" }, "geometry": { "type": "Polygon", "coordinates": [ [ [ 38.7655601, 9.0066962 ], [ 38.7653785, 9.0081712 ], [ 38.7661556, 9.0073141 ], [ 38.7674965, 9.0079313 ], [ 38.7687646, 9.0089092 ], [ 38.7699805, 9.0099909 ], [ 38.7701538, 9.010067 ], [ 38.7714755, 9.0087054 ], [ 38.7715684, 9.0086364 ], [ 38.7730641, 9.0075053 ], [ 38.7743817, 9.0065093 ], [ 38.775304, 9.0062872 ], [ 38.7749376, 9.0058728 ], [ 38.7747095, 9.005959 ], [ 38.77382510000001, 9.0059662 ], [ 38.7731847, 9.00438 ], [ 38.7734664, 9.0036753 ], [ 38.7734655, 9.0030482 ], [ 38.7734899, 9.0014308 ], [ 38.7728595, 9.0004235 ], [ 38.772146, 9.0007666 ], [ 38.7707613, 8.9998261 ], [ 38.7706407, 8.9997545 ], [ 38.7702116, 9.0000569 ], [ 38.7690531, 9.0007967 ], [ 38.7673828, 8.9998628 ], [ 38.7663276, 9.0000911 ], [ 38.7657356, 9.0008423 ], [ 38.7653709, 9.0022946 ], [ 38.7649561, 9.0026522 ], [ 38.7643257, 9.0041211 ], [ 38.7643041, 9.0046681 ], [ 38.7651978, 9.0060858 ], [ 38.7655601, 9.0066962 ] ] ] } },
{ "type": "Feature", "properties": { "threshold_s": 900, "time_label": "15 min walk" }, "geometry": { "type": "Polygon", "coordinates": [ [ [ 38.7630569, 9.0097652 ], [ 38.7633712, 9.0101186 ], [ 38.7654659, 9.0106243 ], [ 38.7665273, 9.0107266 ], [ 38.768797, 9.0113452 ], [ 38.7695735, 9.0120323 ], [ 38.7708979, 9.010699 ], [ 38.772598, 9.0100844 ], [ 38.7727248, 9.0097637 ], [ 38.7730641, 9.0075053 ], [ 38.7753949, 9.008012 ], [ 38.7770297, 9.0082385 ], [ 38.776921, 9.0067186 ], [ 38.7776747, 9.0055086 ], [ 38.7774528, 9.0057013 ], [ 38.7749376, 9.0058728 ], [ 38.7731847, 9.00438 ], [ 38.7734664, 9.0036753 ], [ 38.7738653, 9.0030627 ], [ 38.7734899, 9.0014308 ], [ 38.7753335, 9.0004719 ], [ 38.7749536, 8.9996857 ], [ 38.7739914, 8.9989883 ], [ 38.7725222, 8.9981068 ], [ 38.7713511, 8.9969567 ], [ 38.7696973, 8.997182 ], [ 38.7682505, 8.9968962 ], [ 38.7667359, 8.9963641 ], [ 38.7652306, 8.9972696 ], [ 38.7651727, 8.9973575 ], [ 38.7649383, 8.997765 ], [ 38.7646304, 8.9983497 ], [ 38.7641369, 8.9997092 ], [ 38.7629789, 9.000368 ], [ 38.7628341, 9.0016946 ], [ 38.762364, 9.0030482 ], [ 38.7624464, 9.0054975 ], [ 38.7628455, 9.0072415 ], [ 38.7630776, 9.0088677 ], [ 38.7630569, 9.0097652 ] ] ] } },
{ "type": "Feature", "properties": { "threshold_s": 300, "time_label": "5 min walk" }, "geometry": { "type": "Polygon", "coordinates": [ [ [ 38.8737431, 9.0236835 ], [ 38.873755, 9.0240773 ], [ 38.8750646, 9.0237706 ], [ 38.8750615, 9.0240843 ], [ 38.8750561, 9.0243297 ], [ 38.8750613, 9.0245133 ], [ 38.8747875, 9.0250639 ], [ 38.875055, 9.0250647 ], [ 38.875865, 9.0259877 ], [ 38.8770126, 9.0264448 ], [ 38.8770119, 9.0269047 ], [ 38.8776164, 9.0260412 ], [ 38.8778794, 9.0250328 ], [ 38.8784334, 9.0250432 ], [ 38.8773867, 9.0245353 ], [ 38.8764304, 9.023792 ], [ 38.8760856, 9.0233127 ], [ 38.8752333, 9.0224214 ], [ 38.8757849, 9.0219119 ], [ 38.8762187, 9.0216982 ], [ 38.8753005, 9.0211214 ], [ 38.8752516, 9.0212513 ], [ 38.8753549, 9.0217066 ], [ 38.8750795, 9.0224152 ], [ 38.8750686, 9.0228119 ], [ 38.8737938, 9.022379 ], [ 38.8737554, 9.0232372 ], [ 38.8737431, 9.0236835 ] ] ] } },
{ "type": "Feature", "properties": { "threshold_s": 600, "time_label": "10 min walk" }, "geometry": { "type": "Polygon", "coordinates": [ [ [ 38.8713118, 9.0249797 ], [ 38.871514, 9.0255043 ], [ 38.8729307, 9.0263647 ], [ 38.8740854, 9.0274601 ], [ 38.8742068, 9.0277654 ], [ 38.8746748, 9.0282308 ], [ 38.875839, 9.0291596 ], [ 38.8769886, 9.0300841 ], [ 38.8769923, 9.0296077 ], [ 38.8770003, 9.0291666 ], [ 38.8785121, 9.0284637 ], [ 38.879569, 9.0279048 ], [ 38.8806787, 9.0268026 ], [ 38.8806896, 9.0262677 ], [ 38.8806957, 9.0256846 ], [ 38.8807612, 9.0250512 ], [ 38.8823278, 9.02514 ], [ 38.881436, 9.0244124 ], [ 38.8808167, 9.0239283 ], [ 38.8795678, 9.0228099 ], [ 38.8795757, 9.0222579 ], [ 38.8795812, 9.0216418 ], [ 38.8793118, 9.0213318 ], [ 38.8779246, 9.0205748 ], [ 38.8764855, 9.0197393 ], [ 38.8757868, 9.0208335 ], [ 38.8753005, 9.0211214 ], [ 38.8737938, 9.0211951 ], [ 38.8741028, 9.0189236 ], [ 38.8733147, 9.018458 ], [ 38.8728838, 9.0207276 ], [ 38.8725624, 9.021311 ], [ 38.8713787, 9.0215514 ], [ 38.8713847, 9.0219847 ], [ 38.8702927, 9.0231006 ], [ 38.8704741, 9.0233383 ], [ 38.8707725, 9.0237753 ], [ 38.8713118, 9.0249797 ] ] ] } },
{ "type": "Feature", "properties": { "threshold_s": 900, "time_label": "15 min walk" }, "geometry": { "type": "Polygon", "coordinates": [ [ [ 38.8728559, 9.0284044 ], [ 38.8725337, 9.0295832 ], [ 38.8729201, 9.0294594 ], [ 38.87461960000001, 9.029592 ], [ 38.8745996, 9.0300826 ], [ 38.8745982, 9.0307306 ], [ 38.874594, 9.0312755 ], [ 38.8758048, 9.0322907 ], [ 38.8769483, 9.0334756 ], [ 38.8775822, 9.0327674 ], [ 38.876965, 9.031774 ], [ 38.8769763, 9.0313121 ], [ 38.8785159, 9.0307424 ], [ 38.8795528, 9.0307298 ], [ 38.880622, 9.0301474 ], [ 38.8811702, 9.0296542 ], [ 38.88223, 9.0285489 ], [ 38.8825451, 9.0282566 ], [ 38.8831701, 9.0277149 ], [ 38.8839751, 9.0268499 ], [ 38.8842542, 9.0264999 ], [ 38.8853825, 9.0254399 ], [ 38.8844485, 9.0242591 ], [ 38.8836307, 9.0234482 ], [ 38.8831974, 9.022929 ], [ 38.8827652, 9.0218139 ], [ 38.8819166, 9.020721 ], [ 38.8807936, 9.019455 ], [ 38.8793192, 9.0188797 ], [ 38.8793192, 9.0182945 ], [ 38.8779426, 9.017195 ], [ 38.8768106, 9.0180733 ], [ 38.8765792, 9.0188719 ], [ 38.876574, 9.0194041 ], [ 38.8764855, 9.0197393 ], [ 38.8757868, 9.0208335 ], [ 38.8753005, 9.0211214 ], [ 38.8737938, 9.0211951 ], [ 38.8734232, 9.0204522 ], [ 38.8734134, 9.0200097 ], [ 38.8741028, 9.0189236 ], [ 38.8746138, 9.0181865 ], [ 38.873664, 9.0172847 ], [ 38.8734038, 9.0168163 ], [ 38.8731579, 9.0163746 ], [ 38.8714703, 9.0163517 ], [ 38.8712381, 9.0177542 ], [ 38.8704404, 9.0186891 ], [ 38.8697505, 9.0195955 ], [ 38.8686226, 9.0208837 ], [ 38.867883, 9.0208283 ], [ 38.8682184, 9.0214591 ], [ 38.8696316, 9.0219902 ], [ 38.8693717, 9.0233182 ], [ 38.8695093, 9.0235378 ], [ 38.8701036, 9.0245107 ], [ 38.8694559, 9.0259726 ], [ 38.8705179, 9.0270392 ], [ 38.8712753, 9.0259754 ], [ 38.8729307, 9.0263647 ], [ 38.8724045, 9.02739 ], [ 38.8728559, 9.0284044 ] ] ] } },
{ "type": "Feature", "properties": { "threshold_s": 300, "time_label": "5 min walk" }, "geometry": { "type": "Polygon", "coordinates": [ [ [ 38.73815, 8.9949962 ], [ 38.7384233, 8.9954457 ], [ 38.7387787, 8.9953251 ], [ 38.7387317, 8.9950244 ], [ 38.738917, 8.9944997 ], [ 38.7393096, 8.9941036 ], [ 38.7397378, 8.9943393 ], [ 38.7397899, 8.9949741 ], [ 38.7401499, 8.995209 ], [ 38.7403138, 8.9953538 ], [ 38.7402641, 8.9945665 ], [ 38.7409005, 8.9943516 ], [ 38.7414043, 8.9942008 ], [ 38.7411296, 8.9936811 ], [ 38.7409119, 8.9932721 ], [ 38.7412965, 8.9928056 ], [ 38.7419007, 8.9927539 ], [ 38.741397, 8.9923979 ], [ 38.741192, 8.9921603 ], [ 38.7419719, 8.9915285 ], [ 38.7409959, 8.9915568 ], [ 38.7408172, 8.9913007 ], [ 38.7407297, 8.9911753 ], [ 38.74071, 8.9911471 ], [ 38.741361, 8.9904695 ], [ 38.7405569, 8.9909596 ], [ 38.7405069, 8.9909098 ], [ 38.7401914, 8.9904123 ], [ 38.7397497, 8.9903826 ], [ 38.7396808, 8.9905137 ], [ 38.7394726, 8.9909847 ], [ 38.7397446, 8.9917148 ], [ 38.7390187, 8.9918219 ], [ 38.7395202, 8.9921384 ], [ 38.7392676, 8.9926514 ], [ 38.7383214, 8.9925488 ], [ 38.7384474, 8.9928997 ], [ 38.7381533, 8.9935934 ], [ 38.738095199999989, 8.9942698 ], [ 38.7379878, 8.9946592 ], [ 38.73815, 8.9949962 ] ] ] } },
{ "type": "Feature", "properties": { "threshold_s": 600, "time_label": "10 min walk" }, "geometry": { "type": "Polygon", "coordinates": [ [ [ 38.7363319, 8.9957165 ], [ 38.7351872, 8.9964457 ], [ 38.7372738, 8.9969263 ], [ 38.7376171, 8.9969094 ], [ 38.7393881, 8.99834 ], [ 38.7401272, 8.9982717 ], [ 38.7409592, 8.9979415 ], [ 38.7412902, 8.9975805 ], [ 38.7413994, 8.9963553 ], [ 38.7424426, 8.9950761 ], [ 38.7434026, 8.9939302 ], [ 38.7435959, 8.9936548 ], [ 38.7445799, 8.9920487 ], [ 38.7445228, 8.9897713 ], [ 38.7442572, 8.989045 ], [ 38.7439976, 8.9887137 ], [ 38.7424041, 8.9872639 ], [ 38.7410196, 8.9870354 ], [ 38.7388766, 8.9880609 ], [ 38.7375006, 8.9887629 ], [ 38.7371454, 8.9903463 ], [ 38.7370993, 8.9921017 ], [ 38.7369668, 8.9932614 ], [ 38.7375891, 8.9942972 ], [ 38.7363319, 8.9957165 ] ] ] } },
{ "type": "Feature", "properties": { "threshold_s": 900, "time_label": "15 min walk" }, "geometry": { "type": "Polygon", "coordinates": [ [ [ 38.7322609, 8.9956067 ], [ 38.7316547, 8.9970266 ], [ 38.7337268, 8.9973737 ], [ 38.7346893, 8.9983293 ], [ 38.7347479, 8.9980126 ], [ 38.7363821, 8.9968527 ], [ 38.7374857, 8.9988067 ], [ 38.7375811, 8.9992208 ], [ 38.7377315, 9.0001406 ], [ 38.7377659, 9.0011554 ], [ 38.7378135, 9.0012163 ], [ 38.7378631, 9.0012798 ], [ 38.737886, 9.0013092 ], [ 38.7386285, 9.0012726 ], [ 38.7405517, 9.0016754 ], [ 38.7406738, 9.0016086 ], [ 38.7404379, 8.9997461 ], [ 38.7416821, 8.9987747 ], [ 38.7418776, 8.9986943 ], [ 38.7417226, 8.9984967 ], [ 38.7413994, 8.9963553 ], [ 38.7424426, 8.9950761 ], [ 38.7434026, 8.9939302 ], [ 38.744418, 8.9932773 ], [ 38.7458342, 8.9949273 ], [ 38.7463083, 8.995148 ], [ 38.7467784, 8.9939409 ], [ 38.747121, 8.9917451 ], [ 38.7467489, 8.9907856 ], [ 38.7466502, 8.9887152 ], [ 38.7466872, 8.9882466 ], [ 38.7462675, 8.9865609 ], [ 38.7441847, 8.9862839 ], [ 38.7425393, 8.9852723 ], [ 38.7415929, 8.9840381 ], [ 38.7392856, 8.9844684 ], [ 38.7375167, 8.9854513 ], [ 38.737164, 8.9860752 ], [ 38.7371663, 8.9867057 ], [ 38.7369129, 8.9877493 ], [ 38.7350048, 8.9882145 ], [ 38.7345985, 8.9883599 ], [ 38.7341961, 8.9893524 ], [ 38.7338755, 8.9910757 ], [ 38.733715, 8.9918419 ], [ 38.7341396, 8.9939366 ], [ 38.7330833, 8.9950507 ], [ 38.7326592, 8.9953344 ], [ 38.7322609, 8.9956067 ] ] ] } },
{ "type": "Feature", "properties": { "threshold_s": 300, "time_label": "5 min walk" }, "geometry": { "type": "Polygon", "coordinates": [ [ [ 38.7899619, 8.994329 ], [ 38.7900146, 8.9944088 ], [ 38.7908023, 8.9945153 ], [ 38.7918475, 8.9944966 ], [ 38.7925811, 8.9942786 ], [ 38.7933804, 8.9941166 ], [ 38.792913, 8.9938197 ], [ 38.7924798, 8.9935091 ], [ 38.79196, 8.9931645 ], [ 38.7918435, 8.9923162 ], [ 38.793028, 8.9918786 ], [ 38.7936797, 8.9917278 ], [ 38.7932241, 8.9911744 ], [ 38.7932496, 8.9902193 ], [ 38.7937435, 8.9900171 ], [ 38.7935972, 8.9898297 ], [ 38.7935246, 8.9897445 ], [ 38.792569, 8.9896677 ], [ 38.7930034, 8.9904073 ], [ 38.7928077, 8.9908644 ], [ 38.7928279, 8.9917407 ], [ 38.7917543, 8.9922639 ], [ 38.7907049, 8.9923927 ], [ 38.790229, 8.9920772 ], [ 38.7897353, 8.991741 ], [ 38.7899619, 8.994329 ] ] ] } },
{ "type": "Feature", "properties": { "threshold_s": 600, "time_label": "10 min walk" }, "geometry": { "type": "Polygon", "coordinates": [ [ [ 38.787379, 8.9954801 ], [ 38.7876687, 8.9957904 ], [ 38.788114299999989, 8.9962622 ], [ 38.7889144, 8.9964707 ], [ 38.7893068, 8.997061 ], [ 38.7894646, 8.996574 ], [ 38.790424, 8.9965468 ], [ 38.7907287, 8.9971431 ], [ 38.7917227, 8.9977053 ], [ 38.7927549, 8.9973449 ], [ 38.7929622, 8.9972811 ], [ 38.793274, 8.9971722 ], [ 38.7932951, 8.9971641 ], [ 38.794295, 8.996814 ], [ 38.7949274, 8.9968629 ], [ 38.7948523, 8.9966292 ], [ 38.7944971, 8.995647 ], [ 38.7954886, 8.9954404 ], [ 38.7956395, 8.9945489 ], [ 38.7955188, 8.9942217 ], [ 38.7952264, 8.9934812 ], [ 38.7951373, 8.9923063 ], [ 38.795499, 8.9912753 ], [ 38.7950666, 8.9903072 ], [ 38.795226, 8.9899873 ], [ 38.7952325, 8.9888119 ], [ 38.7950009, 8.9878822 ], [ 38.7947336, 8.9876264 ], [ 38.7942992, 8.9887271 ], [ 38.7933953, 8.9891541 ], [ 38.7931372, 8.9893507 ], [ 38.7921964, 8.9890052 ], [ 38.7921223, 8.9883589 ], [ 38.7921402, 8.9878098 ], [ 38.7920728, 8.9872025 ], [ 38.7920286, 8.9871575 ], [ 38.7910599, 8.9874849 ], [ 38.790411, 8.9881826 ], [ 38.7902545, 8.9885252 ], [ 38.7902951, 8.9885638 ], [ 38.7908511, 8.9885033 ], [ 38.7915243, 8.9889524 ], [ 38.7916591, 8.9890332 ], [ 38.7922018, 8.9893687 ], [ 38.7924159, 8.9898914 ], [ 38.7913071, 8.9904803 ], [ 38.7909201, 8.9900792 ], [ 38.7908448, 8.9901828 ], [ 38.7905229, 8.9906157 ], [ 38.7909991, 8.9909693 ], [ 38.7917485, 8.9908199 ], [ 38.7928077, 8.9908644 ], [ 38.7928279, 8.9917407 ], [ 38.7917543, 8.9922639 ], [ 38.7907049, 8.9923927 ], [ 38.790229, 8.9920772 ], [ 38.7897353, 8.991741 ], [ 38.7887993, 8.9927548 ], [ 38.7885437, 8.9923131 ], [ 38.7886027, 8.9912301 ], [ 38.7881416, 8.9909852 ], [ 38.7885388, 8.9899385 ], [ 38.7877175, 8.9895661 ], [ 38.7877338, 8.989613 ], [ 38.7879109, 8.9901953 ], [ 38.7871316, 8.9907792 ], [ 38.7873739, 8.9912929 ], [ 38.7867218, 8.9921765 ], [ 38.7872777, 8.9926361 ], [ 38.7880334, 8.9933872 ], [ 38.7873682, 8.9940098 ], [ 38.7886557, 8.9947681 ], [ 38.7881817, 8.9950421 ], [ 38.787379, 8.9954801 ] ] ] } },
{ "type": "Feature", "properties": { "threshold_s": 900, "time_label": "15 min walk" }, "geometry": { "type": "Polygon", "coordinates": [ [ [ 38.7849841, 8.9979637 ], [ 38.7847739, 8.9993148 ], [ 38.7848621, 8.9993589 ], [ 38.7872522, 8.9999453 ], [ 38.7875567, 8.9999102 ], [ 38.78759, 8.9998962 ], [ 38.7894879, 8.9990878 ], [ 38.7906855, 8.9993148 ], [ 38.7931544, 8.9983837 ], [ 38.7936291, 8.9982041 ], [ 38.7946719, 8.9978068 ], [ 38.7965052, 8.9969379 ], [ 38.7966688, 8.9966862 ], [ 38.7960317, 8.9948828 ], [ 38.7955188, 8.9942217 ], [ 38.7966451, 8.9921571 ], [ 38.797957, 8.9920335 ], [ 38.7976136, 8.9913002 ], [ 38.7968687, 8.9908044 ], [ 38.7980917, 8.9885152 ], [ 38.7992705, 8.9883311 ], [ 38.7976586, 8.9872854 ], [ 38.7985792, 8.9856667 ], [ 38.7979094, 8.9848105 ], [ 38.7977784, 8.9847761 ], [ 38.7955908, 8.9847633 ], [ 38.7939513, 8.9846698 ], [ 38.7921878, 8.9841655 ], [ 38.7912949, 8.9845058 ], [ 38.7898734, 8.9852407 ], [ 38.788826, 8.985809 ], [ 38.7876418, 8.9868276 ], [ 38.7858793, 8.9879902 ], [ 38.7852551, 8.9888688 ], [ 38.7849383, 8.9897562 ], [ 38.7843922, 8.9918375 ], [ 38.7848684, 8.9936965 ], [ 38.7845103, 8.9958517 ], [ 38.7849841, 8.9979637 ] ] ] } },
{ "type": "Feature", "properties": { "threshold_s": 300, "time_label": "5 min walk" }, "geometry": { "type": "Polygon", "coordinates": [ [ [ 38.7809817, 9.0108855 ], [ 38.7801715, 9.0109604 ], [ 38.7806296, 9.0112613 ], [ 38.7810649, 9.011236 ], [ 38.7811587, 9.0112123 ], [ 38.7815672, 9.0104227 ], [ 38.7818241, 9.010273 ], [ 38.7817363, 9.009675 ], [ 38.7823498, 9.0091425 ], [ 38.7825194, 9.0091421 ], [ 38.7828936, 9.0091551 ], [ 38.7833831, 9.0092518 ], [ 38.782728, 9.008771 ], [ 38.7831538, 9.00811 ], [ 38.7828239, 9.0074981 ], [ 38.7822264, 9.0073517 ], [ 38.7818447, 9.0067853 ], [ 38.7811549, 9.0064925 ], [ 38.7811388, 9.0058152 ], [ 38.7810221, 9.0058338 ], [ 38.7808687, 9.0065461 ], [ 38.7801379, 9.0069719 ], [ 38.7798688, 9.0069835 ], [ 38.7793355, 9.0069961 ], [ 38.7791634, 9.0076332 ], [ 38.7790943, 9.0080133 ], [ 38.7788281, 9.0086468 ], [ 38.7786698, 9.0089458 ], [ 38.7791667, 9.0096975 ], [ 38.7796241, 9.0100486 ], [ 38.7798955, 9.009995 ], [ 38.780713, 9.0097015 ], [ 38.7808196, 9.0096836 ], [ 38.7810637, 9.010816 ], [ 38.7809817, 9.0108855 ] ] ] } },
{ "type": "Feature", "properties": { "threshold_s": 600, "time_label": "10 min walk" }, "geometry": { "type": "Polygon", "coordinates": [ [ [ 38.7778365, 9.0113481 ], [ 38.7778035, 9.0124771 ], [ 38.7782262, 9.0118166 ], [ 38.7789615, 9.0113466 ], [ 38.7801527, 9.0119568 ], [ 38.7795295, 9.0130347 ], [ 38.7792254, 9.0132141 ], [ 38.7793668, 9.0132882 ], [ 38.7798366, 9.0130278 ], [ 38.7810275, 9.0135169 ], [ 38.7812692, 9.0141888 ], [ 38.782059, 9.014438 ], [ 38.7821316, 9.0139772 ], [ 38.7835138, 9.0134781 ], [ 38.7834518, 9.0134488 ], [ 38.7831329, 9.0133339 ], [ 38.7825499, 9.0130512 ], [ 38.7832051, 9.0118482 ], [ 38.7835543, 9.0118734 ], [ 38.7836253, 9.0118787 ], [ 38.7842348, 9.0111045 ], [ 38.7855563, 9.0108907 ], [ 38.7857111, 9.0102443 ], [ 38.7851768, 9.0101595 ], [ 38.7844364, 9.0100156 ], [ 38.7841769, 9.008861 ], [ 38.7848943, 9.008467 ], [ 38.7855299, 9.0086168 ], [ 38.7856355, 9.0081908 ], [ 38.7853284, 9.00681 ], [ 38.7847403, 9.0066431 ], [ 38.7846753, 9.0066285 ], [ 38.7841301, 9.0065027 ], [ 38.7831223, 9.0055476 ], [ 38.7838566, 9.0045185 ], [ 38.7836494, 9.0045185 ], [ 38.7824927, 9.004531 ], [ 38.7822238, 9.0039933 ], [ 38.781468, 9.0045317 ], [ 38.7806882, 9.0033184 ], [ 38.7810322, 9.0029607 ], [ 38.780006899999989, 9.0025548 ], [ 38.7799164, 9.0025541 ], [ 38.7798272, 9.0026634 ], [ 38.779138, 9.0039362 ], [ 38.7791347, 9.0046913 ], [ 38.7782481, 9.0051158 ], [ 38.7780499, 9.0051597 ], [ 38.7776747, 9.0055086 ], [ 38.7781773, 9.0053519 ], [ 38.7794724, 9.0056821 ], [ 38.7793355, 9.0069961 ], [ 38.7790846, 9.007266 ], [ 38.7785454, 9.0085995 ], [ 38.7781482, 9.0088664 ], [ 38.7778545, 9.009386 ], [ 38.7776996, 9.0101831 ], [ 38.7778365, 9.0113481 ] ] ] } },
{ "type": "Feature", "properties": { "threshold_s": 900, "time_label": "15 min walk" }, "geometry": { "type": "Polygon", "coordinates": [ [ [ 38.7746289, 9.010785 ], [ 38.7746465, 9.0115406 ], [ 38.7768362, 9.0119613 ], [ 38.7778035, 9.0124771 ], [ 38.7792254, 9.0132141 ], [ 38.7805355, 9.0150445 ], [ 38.7807383, 9.0166185 ], [ 38.7813904, 9.0177361 ], [ 38.7821732, 9.018387 ], [ 38.782235, 9.0183828 ], [ 38.782823, 9.0174736 ], [ 38.7836142, 9.0165478 ], [ 38.7857985, 9.0153244 ], [ 38.785903, 9.0148125 ], [ 38.7863242, 9.01321 ], [ 38.7878286, 9.0118477 ], [ 38.7887416, 9.011563 ], [ 38.7894027, 9.0104001 ], [ 38.7890337, 9.0094553 ], [ 38.7880361, 9.0076636 ], [ 38.7876324, 9.0064331 ], [ 38.7869585, 9.0047681 ], [ 38.7857958, 9.0024607 ], [ 38.784636399999989, 9.0018117 ], [ 38.7834549, 9.0004129 ], [ 38.7812856, 8.9996232 ], [ 38.7794906, 8.9991652 ], [ 38.7795597, 9.0006527 ], [ 38.7797689, 9.0015699 ], [ 38.7792411, 9.0026554 ], [ 38.7772268, 9.0028263 ], [ 38.7768292, 9.0030111 ], [ 38.7753379, 9.0044741 ], [ 38.775304, 9.0062872 ], [ 38.7757529, 9.0073272 ], [ 38.7759286, 9.0076709 ], [ 38.7759849, 9.0099015 ], [ 38.7746584, 9.0107774 ], [ 38.7746289, 9.010785 ] ] ] } },
{ "type": "Feature", "properties": { "threshold_s": 300, "time_label": "5 min walk" }, "geometry": { "type": "Polygon", "coordinates": [ [ [ 38.7782501, 8.9988141 ], [ 38.7779966, 8.9994625 ], [ 38.7788891, 8.9997858 ], [ 38.7794906, 8.9991652 ], [ 38.7800713, 8.9993625 ], [ 38.7802523, 8.9999692 ], [ 38.7795597, 9.0006527 ], [ 38.7796696, 9.0006454 ], [ 38.7801477, 9.0005493 ], [ 38.7809611, 8.999987 ], [ 38.7812856, 8.9996232 ], [ 38.7816457, 8.9992002 ], [ 38.7819173, 8.9988803 ], [ 38.7822124, 8.9978322 ], [ 38.7822046, 8.997274 ], [ 38.7817216, 8.9977381 ], [ 38.7817443, 8.9986419 ], [ 38.7806393, 8.9975317 ], [ 38.7802986, 8.996918 ], [ 38.7806037, 8.9964146 ], [ 38.7809383, 8.9959589 ], [ 38.7812836, 8.9954543 ], [ 38.7798823, 8.9953285 ], [ 38.7792063, 8.995031 ], [ 38.7785485, 8.9951933 ], [ 38.7777683, 8.9954023 ], [ 38.7785756, 8.9959215 ], [ 38.7781307, 8.9965431 ], [ 38.7783876, 8.9974996 ], [ 38.7776278, 8.9979624 ], [ 38.777362, 8.9984848 ], [ 38.7782501, 8.9988141 ] ] ] } },
{ "type": "Feature", "properties": { "threshold_s": 600, "time_label": "10 min walk" }, "geometry": { "type": "Polygon", "coordinates": [ [ [ 38.7787355, 9.0030202 ], [ 38.7796307, 9.0042357 ], [ 38.780255, 9.0042323 ], [ 38.7803191, 9.0041113 ], [ 38.7810322, 9.0029607 ], [ 38.7816243, 9.0021541 ], [ 38.782411, 9.0014722 ], [ 38.7835287, 9.0002109 ], [ 38.7839798, 8.9998376 ], [ 38.7839102, 8.9987704 ], [ 38.7831216, 8.9974816 ], [ 38.7837104, 8.996249 ], [ 38.7839091, 8.9950352 ], [ 38.7837035, 8.9950437 ], [ 38.7831277, 8.9950529 ], [ 38.7821735, 8.9939806 ], [ 38.7821728, 8.9934872 ], [ 38.7818248, 8.9926732 ], [ 38.7815785, 8.992024 ], [ 38.7808029, 8.9921666 ], [ 38.7792204, 8.9924686 ], [ 38.7785505, 8.9925918 ], [ 38.7779248, 8.992709 ], [ 38.7779375, 8.992766 ], [ 38.7779972, 8.993111 ], [ 38.7772892, 8.9944502 ], [ 38.7770092, 8.9949946 ], [ 38.7777683, 8.9954023 ], [ 38.7781307, 8.9965431 ], [ 38.7776278, 8.9979624 ], [ 38.777362, 8.9984848 ], [ 38.7779966, 8.9994625 ], [ 38.7788891, 8.9997858 ], [ 38.7795597, 9.0006527 ], [ 38.7797689, 9.0015699 ], [ 38.7792411, 9.0026554 ], [ 38.7787355, 9.0030202 ] ] ] } },
{ "type": "Feature", "properties": { "threshold_s": 900, "time_label": "15 min walk" }, "geometry": { "type": "Polygon", "coordinates": [ [ [ 38.7787355, 9.0030202 ], [ 38.7774528, 9.0057013 ], [ 38.7785178, 9.006465 ], [ 38.7793355, 9.0069961 ], [ 38.7812226, 9.0070596 ], [ 38.7827072, 9.0061669 ], [ 38.7836494, 9.0045185 ], [ 38.7845137, 9.003219 ], [ 38.7858522, 9.001513 ], [ 38.7864798, 9.0004639 ], [ 38.7869011, 8.9980859 ], [ 38.78693160000001, 8.9978532 ], [ 38.7860637, 8.9950606 ], [ 38.7854666, 8.9933759 ], [ 38.7843227, 8.9908991 ], [ 38.7829238, 8.9893312 ], [ 38.7795862, 8.9884558 ], [ 38.7771993, 8.9889938 ], [ 38.7776379, 8.9908962 ], [ 38.7766295, 8.9930188 ], [ 38.7744085, 8.9935113 ], [ 38.7743139, 8.993575 ], [ 38.774301, 8.9940623 ], [ 38.7745281, 8.9942727 ], [ 38.7770092, 8.9949946 ], [ 38.7776278, 8.9979624 ], [ 38.777362, 8.9984848 ], [ 38.7779966, 8.9994625 ], [ 38.7787355, 9.0030202 ] ] ] } }
]
}
