{
"type": "FeatureCollection",
"name": "isochrone_shop_butcher_walk",
"crs": { "type": "name", "properties": { "name": "urn:ogc:def:crs:OGC:1.3:CRS84" } },
"features": [
{ "type": "Feature", "properties": { "threshold_s": 300, "time_label": "5 min walk" }, "geometry": { "type": "Polygon", "coordinates": [ [ [ 38.7895004, 8.9949998 ], [ 38.7891596, 8.9951631 ], [ 38.7896246, 8.9951685 ], [ 38.7903908, 8.9948847 ], [ 38.7908023, 8.9945153 ], [ 38.7922046, 8.9940336 ], [ 38.792913, 8.9938197 ], [ 38.7924798, 8.9935091 ], [ 38.79196, 8.9931645 ], [ 38.7918435, 8.9923162 ], [ 38.7917543, 8.9922639 ], [ 38.7909991, 8.9909693 ], [ 38.7917485, 8.9908199 ], [ 38.7928077, 8.9908644 ], [ 38.7932241, 8.9911744 ], [ 38.793088, 8.9904577 ], [ 38.7932496, 8.9902193 ], [ 38.7931797, 8.9901665 ], [ 38.7930034, 8.9904073 ], [ 38.7913071, 8.9904803 ], [ 38.7905229, 8.9906157 ], [ 38.7897353, 8.991741 ], [ 38.7885437, 8.9923131 ], [ 38.790229, 8.9920772 ], [ 38.7907049, 8.9923927 ], [ 38.7913479, 8.9928249 ], [ 38.7916283, 8.993625 ], [ 38.7913922, 8.9939124 ], [ 38.7899619, 8.994329 ], [ 38.7895004, 8.9949998 ] ] ] } },
{ "type": "Feature", "properties": { "threshold_s": 600, "time_label": "10 min walk" }, "geometry": { "type": "Polygon", "coordinates": [ [ [ 38.786585, 8.9945701 ], [ 38.7866273, 8.9961126 ], [ 38.788114299999989, 8.9962622 ], [ 38.7887658, 8.9972848 ], [ 38.7893068, 8.997061 ], [ 38.7907287, 8.9971431 ], [ 38.7918951, 8.9981743 ], [ 38.7922475, 8.9975302 ], [ 38.7927747, 8.996845 ], [ 38.7939551, 8.9958391 ], [ 38.7944971, 8.995647 ], [ 38.795228, 8.9952271 ], [ 38.7953573, 8.9950541 ], [ 38.7954028, 8.9946432 ], [ 38.7952264, 8.9934812 ], [ 38.7950923, 8.9927666 ], [ 38.7950385, 8.9913782 ], [ 38.7945593, 8.9897957 ], [ 38.7952325, 8.9888119 ], [ 38.7950009, 8.9878822 ], [ 38.7947336, 8.9876264 ], [ 38.7942992, 8.9887271 ], [ 38.7933953, 8.9891541 ], [ 38.7921223, 8.9883589 ], [ 38.7921402, 8.9878098 ], [ 38.7904508, 8.9882494 ], [ 38.7905339, 8.9883889 ], [ 38.7892605, 8.9895906 ], [ 38.787751299999989, 8.9893192 ], [ 38.7875402, 8.9894 ], [ 38.7871316, 8.9907792 ], [ 38.7864352, 8.991668 ], [ 38.7860104, 8.9923858 ], [ 38.7872777, 8.9926361 ], [ 38.7873682, 8.9940098 ], [ 38.786585, 8.9945701 ] ] ] } },
{ "type": "Feature", "properties": { "threshold_s": 900, "time_label": "15 min walk" }, "geometry": { "type": "Polygon", "coordinates": [ [ [ 38.7846699, 8.999389 ], [ 38.7847196, 8.9994549 ], [ 38.7852584, 9.0000068 ], [ 38.7862933, 9.0000274 ], [ 38.7878517, 9.0006103 ], [ 38.78788440000001, 9.0005935 ], [ 38.7897293, 8.9996859 ], [ 38.7906855, 8.9993148 ], [ 38.7920983, 8.9987684 ], [ 38.792624, 8.9985777 ], [ 38.7931544, 8.9983837 ], [ 38.7936291, 8.9982041 ], [ 38.7946719, 8.9978068 ], [ 38.7965052, 8.9969379 ], [ 38.7966688, 8.9966862 ], [ 38.7960317, 8.9948828 ], [ 38.7955188, 8.9942217 ], [ 38.7952264, 8.9934812 ], [ 38.7966451, 8.9921571 ], [ 38.797957, 8.9920335 ], [ 38.7976136, 8.9913002 ], [ 38.7968687, 8.9908044 ], [ 38.79654, 8.9900417 ], [ 38.7980917, 8.9885152 ], [ 38.7979616, 8.9880834 ], [ 38.7971379, 8.9861223 ], [ 38.79769790000001, 8.9855921 ], [ 38.7961789, 8.9851257 ], [ 38.7951953, 8.9859305 ], [ 38.7930244, 8.9851688 ], [ 38.7925522, 8.9846265 ], [ 38.7907538, 8.9854946 ], [ 38.7899673, 8.9856765 ], [ 38.7898412, 8.9859249 ], [ 38.7877505, 8.9868647 ], [ 38.7863919, 8.9875443 ], [ 38.7858793, 8.9879902 ], [ 38.78467, 8.9891226 ], [ 38.7838371, 8.9909241 ], [ 38.783081, 8.9918757 ], [ 38.7840953, 8.9926818 ], [ 38.7846283, 8.9946273 ], [ 38.7842643, 8.9950205 ], [ 38.7845103, 8.9958517 ], [ 38.784963, 8.9974392 ], [ 38.7845898, 8.998985 ], [ 38.7846699, 8.999389 ] ] ] } },
{ "type": "Feature", "properties": { "threshold_s": 300, "time_label": "5 min walk" }, "geometry": { "type": "Polygon", "coordinates": [ [ [ 38.7294562, 8.973532 ], [ 38.7291308, 8.9744208 ], [ 38.7305717, 8.9746057 ], [ 38.7312003, 8.9741872 ], [ 38.7326229, 8.9743842 ], [ 38.7327397, 8.9743163 ], [ 38.7327305, 8.9739133 ], [ 38.7322444, 8.973779 ], [ 38.7319405, 8.9736278 ], [ 38.7312944, 8.9731897 ], [ 38.7310847, 8.9722338 ], [ 38.731304, 8.9711036 ], [ 38.7313365, 8.970098 ], [ 38.731406, 8.9690896 ], [ 38.7312357, 8.9690863 ], [ 38.7312638, 8.970095 ], [ 38.730036, 8.9710097 ], [ 38.7294433, 8.971329 ], [ 38.7292314, 8.9716261 ], [ 38.7294311, 8.9723348 ], [ 38.7294562, 8.973532 ] ] ] } },
{ "type": "Feature", "properties": { "threshold_s": 600, "time_label": "10 min walk" }, "geometry": { "type": "Polygon", "coordinates": [ [ [ 38.7264343, 8.9743913 ], [ 38.7265484, 8.9754515 ], [ 38.7277759, 8.9759181 ], [ 38.7282267, 8.9758101 ], [ 38.7296868, 8.9752961 ], [ 38.7305717, 8.9746057 ], [ 38.7312003, 8.9741872 ], [ 38.7326229, 8.9743842 ], [ 38.7329368, 8.9759191 ], [ 38.7340525, 8.9771848 ], [ 38.734298, 8.9766916 ], [ 38.7348683, 8.9754504 ], [ 38.735481299999989, 8.9742963 ], [ 38.7350764, 8.9729773 ], [ 38.73397, 8.9732129 ], [ 38.7327305, 8.9739133 ], [ 38.7322444, 8.973779 ], [ 38.7323354, 8.9719693 ], [ 38.7330006, 8.9708765 ], [ 38.7329476, 8.9698573 ], [ 38.7327157, 8.9682691 ], [ 38.7319965, 8.9671521 ], [ 38.731473, 8.966727 ], [ 38.731137, 8.9665362 ], [ 38.7304807, 8.966341 ], [ 38.7303297, 8.9672767 ], [ 38.730311, 8.9678103 ], [ 38.7286909, 8.9686703 ], [ 38.7284254, 8.9687511 ], [ 38.7269896, 8.9696828 ], [ 38.7264578, 8.9692085 ], [ 38.7264641, 8.9702238 ], [ 38.7264738, 8.9713381 ], [ 38.7265073, 8.9723639 ], [ 38.7266294, 8.9728033 ], [ 38.7264343, 8.9743913 ] ] ] } },
{ "type": "Feature", "properties": { "threshold_s": 900, "time_label": "15 min walk" }, "geometry": { "type": "Polygon", "coordinates": [ [ [ 38.7238351, 8.9744615 ], [ 38.7236413, 8.9762745 ], [ 38.7254655, 8.9772808 ], [ 38.7265934, 8.9768304 ], [ 38.7282267, 8.9758101 ], [ 38.7296868, 8.9752961 ], [ 38.7305717, 8.9746057 ], [ 38.7329368, 8.9759191 ], [ 38.7332414, 8.9782144 ], [ 38.733022, 8.9786617 ], [ 38.7347433, 8.9809237 ], [ 38.7347285, 8.9804375 ], [ 38.7352525, 8.9782991 ], [ 38.7377935, 8.9768912 ], [ 38.7383257, 8.9751617 ], [ 38.7384252, 8.9736465 ], [ 38.7370553, 8.9715671 ], [ 38.736614, 8.9708234 ], [ 38.7354362, 8.9691904 ], [ 38.7349066, 8.9691642 ], [ 38.734564, 8.9691946 ], [ 38.7327157, 8.9682691 ], [ 38.7335819, 8.9654407 ], [ 38.7338065, 8.9651427 ], [ 38.7338521, 8.9650684 ], [ 38.7338797, 8.9650101 ], [ 38.7339849, 8.9640239 ], [ 38.7330546, 8.9628478 ], [ 38.7329381, 8.9628062 ], [ 38.7313369, 8.9645637 ], [ 38.729296, 8.9648433 ], [ 38.7274935, 8.9655921 ], [ 38.7260745, 8.9664712 ], [ 38.7244625, 8.967494 ], [ 38.7238605, 8.9678774 ], [ 38.7238739, 8.9698759 ], [ 38.7246904, 8.9722934 ], [ 38.7240788, 8.9733432 ], [ 38.7238351, 8.9744615 ] ] ] } },
{ "type": "Feature", "properties": { "threshold_s": 300, "time_label": "5 min walk" }, "geometry": { "type": "Polygon", "coordinates": [ [ [ 38.6985788, 9.0556581 ], [ 38.6981849, 9.0557349 ], [ 38.6987807, 9.0562692 ], [ 38.6991699, 9.0563597 ], [ 38.7000378, 9.056514 ], [ 38.7002447, 9.0563818 ], [ 38.6997269, 9.0556392 ], [ 38.6996228, 9.0553267 ], [ 38.6992067, 9.0541006 ], [ 38.6998611, 9.0538908 ], [ 38.7006055, 9.0536682 ], [ 38.70086830000001, 9.0530457 ], [ 38.7002836, 9.0527636 ], [ 38.6998352, 9.0519705 ], [ 38.6992003, 9.0516876 ], [ 38.6988981, 9.0513168 ], [ 38.6986034, 9.0516081 ], [ 38.697561, 9.0516751 ], [ 38.6984248, 9.0525551 ], [ 38.6984234, 9.0526575 ], [ 38.6982223, 9.0532907 ], [ 38.6976805, 9.0541231 ], [ 38.6982968, 9.0539767 ], [ 38.6991694, 9.0541126 ], [ 38.6990862, 9.0555345 ], [ 38.6985788, 9.0556581 ] ] ] } },
{ "type": "Feature", "properties": { "threshold_s": 600, "time_label": "10 min walk" }, "geometry": { "type": "Polygon", "coordinates": [ [ [ 38.6981824, 9.0570705 ], [ 38.6975437, 9.0580471 ], [ 38.6986917, 9.0585525 ], [ 38.6988808, 9.0586267 ], [ 38.7005793, 9.0595266 ], [ 38.7010521, 9.0595299 ], [ 38.7017655, 9.0592067 ], [ 38.7026165, 9.0576526 ], [ 38.7023228, 9.0572434 ], [ 38.7025273, 9.0556177 ], [ 38.7019271, 9.0549932 ], [ 38.7016694, 9.0533114 ], [ 38.7019365, 9.0522669 ], [ 38.7009128, 9.0519301 ], [ 38.7006421, 9.0506096 ], [ 38.7005753, 9.0501161 ], [ 38.698911699999989, 9.049344 ], [ 38.6974378, 9.0491639 ], [ 38.6962332, 9.0505908 ], [ 38.6963144, 9.0517702 ], [ 38.697561, 9.0516751 ], [ 38.6982223, 9.0532907 ], [ 38.6976805, 9.0541231 ], [ 38.6978128, 9.0557983 ], [ 38.6981824, 9.0570705 ] ] ] } },
{ "type": "Feature", "properties": { "threshold_s": 900, "time_label": "15 min walk" }, "geometry": { "type": "Polygon", "coordinates": [ [ [ 38.6957863, 9.0587297 ], [ 38.6956333, 9.0590879 ], [ 38.6961776, 9.0596618 ], [ 38.6964729, 9.059862 ], [ 38.6972836, 9.0598782 ], [ 38.6993266, 9.0609338 ], [ 38.6994728, 9.061271 ], [ 38.6996338, 9.0615015 ], [ 38.7008241, 9.0622054 ], [ 38.7009481, 9.0618652 ], [ 38.7011245, 9.0613602 ], [ 38.701327, 9.0604821 ], [ 38.7029672, 9.0594974 ], [ 38.7032803, 9.059461 ], [ 38.7036008, 9.0584962 ], [ 38.7047267, 9.056395 ], [ 38.7046905, 9.0562136 ], [ 38.7043163, 9.0554984 ], [ 38.7031314, 9.0556818 ], [ 38.7019271, 9.0549932 ], [ 38.7016694, 9.0533114 ], [ 38.7019365, 9.0522669 ], [ 38.7005753, 9.0501161 ], [ 38.698911699999989, 9.049344 ], [ 38.6974378, 9.0491639 ], [ 38.6962332, 9.0505908 ], [ 38.6963144, 9.0517702 ], [ 38.6982223, 9.0532907 ], [ 38.6976805, 9.0541231 ], [ 38.6978128, 9.0557983 ], [ 38.6975437, 9.0580471 ], [ 38.6957863, 9.0587297 ] ] ] } },
{ "type": "Feature", "properties": { "threshold_s": 300, "time_label": "5 min walk" }, "geometry": { "type": "Polygon", "coordinates": [ [ [ 38.7128176, 8.9620123 ], [ 38.7126955, 8.9618891 ], [ 38.7129141, 8.9622677 ], [ 38.7130683, 8.9621613 ], [ 38.7136728, 8.9617756 ], [ 38.7138022, 8.9616333 ], [ 38.7149043, 8.9619481 ], [ 38.7150158, 8.9614105 ], [ 38.7150516, 8.9611706 ], [ 38.7151333, 8.9606502 ], [ 38.715255, 8.9602221 ], [ 38.7153669, 8.9595894 ], [ 38.7164153, 8.9599987 ], [ 38.7158953, 8.959401 ], [ 38.7159381, 8.958451 ], [ 38.7150279, 8.9590328 ], [ 38.7145335, 8.9583044 ], [ 38.7135831, 8.9589752 ], [ 38.7135389, 8.958914 ], [ 38.7131641, 8.958331 ], [ 38.7129155, 8.9582156 ], [ 38.7122696, 8.9580717 ], [ 38.7121377, 8.9584504 ], [ 38.7119596, 8.9591044 ], [ 38.7119113, 8.9593962 ], [ 38.7116398, 8.9601888 ], [ 38.7117078, 8.9604128 ], [ 38.7120137, 8.960298 ], [ 38.7120625, 8.9601126 ], [ 38.7118565, 8.9597387 ], [ 38.7127613, 8.959633 ], [ 38.7128283, 8.9597324 ], [ 38.7133282, 8.95929 ], [ 38.7140952, 8.9596855 ], [ 38.7136436, 8.9602259 ], [ 38.7135471, 8.9609676 ], [ 38.7135092, 8.9614044 ], [ 38.7135422, 8.9615568 ], [ 38.7128176, 8.9620123 ] ] ] } },
{ "type": "Feature", "properties": { "threshold_s": 600, "time_label": "10 min walk" }, "geometry": { "type": "Polygon", "coordinates": [ [ [ 38.7114208, 8.963849 ], [ 38.7114121, 8.9645081 ], [ 38.7129534, 8.9636095 ], [ 38.7136356, 8.9631317 ], [ 38.7143151, 8.9626967 ], [ 38.7161542, 8.9625726 ], [ 38.7174451, 8.9623531 ], [ 38.7185303, 8.963298 ], [ 38.7186366, 8.9622269 ], [ 38.7188049, 8.9610279 ], [ 38.7189954, 8.9594014 ], [ 38.7192077, 8.9581358 ], [ 38.7186374, 8.9566228 ], [ 38.7172587, 8.956501 ], [ 38.7159333, 8.9564812 ], [ 38.7141587, 8.955684 ], [ 38.7137833, 8.9553078 ], [ 38.7125244, 8.9558076 ], [ 38.7116066, 8.9567775 ], [ 38.7104482, 8.9583245 ], [ 38.7097281, 8.9588112 ], [ 38.7091719, 8.9597006 ], [ 38.7089925, 8.9603678 ], [ 38.7105954, 8.9614016 ], [ 38.7114597, 8.962623 ], [ 38.7114208, 8.963849 ] ] ] } },
{ "type": "Feature", "properties": { "threshold_s": 900, "time_label": "15 min walk" }, "geometry": { "type": "Polygon", "coordinates": [ [ [ 38.7106141, 8.9653122 ], [ 38.7097062, 8.9659719 ], [ 38.7095952, 8.9664675 ], [ 38.712379, 8.9671588 ], [ 38.7126809, 8.9675692 ], [ 38.712457, 8.9671328 ], [ 38.7114295, 8.9649916 ], [ 38.7129534, 8.9636095 ], [ 38.7136356, 8.9631317 ], [ 38.7143151, 8.9626967 ], [ 38.7161542, 8.9625726 ], [ 38.7168079, 8.9640889 ], [ 38.7162717, 8.9655001 ], [ 38.7165685, 8.9653121 ], [ 38.7166624, 8.9652527 ], [ 38.7185229, 8.9660309 ], [ 38.7191355, 8.9656619 ], [ 38.7197162, 8.9653009 ], [ 38.7199082, 8.9651799 ], [ 38.7211378, 8.9643517 ], [ 38.7210918, 8.9627066 ], [ 38.7214727, 8.9607792 ], [ 38.7212055, 8.9602742 ], [ 38.7216753, 8.9586665 ], [ 38.7219625, 8.9576642 ], [ 38.7219223, 8.956398 ], [ 38.7205638, 8.9560748 ], [ 38.7198537, 8.9546209 ], [ 38.7195767, 8.9541353 ], [ 38.7180653, 8.9552998 ], [ 38.7169911, 8.9552216 ], [ 38.7155025, 8.9548746 ], [ 38.7155355, 8.9529384 ], [ 38.7160796, 8.9525004 ], [ 38.715132, 8.9523883 ], [ 38.7142994, 8.9526966 ], [ 38.714506, 8.9529219 ], [ 38.7139443, 8.9548284 ], [ 38.7127281, 8.9547367 ], [ 38.7120212, 8.9546961 ], [ 38.7112694, 8.9546488 ], [ 38.7093868, 8.9554634 ], [ 38.7085889, 8.9560004 ], [ 38.7080373, 8.9563716 ], [ 38.7074345, 8.9567802 ], [ 38.7057729, 8.9579063 ], [ 38.7051364, 8.9582794 ], [ 38.7064034, 8.959663 ], [ 38.7065922, 8.9611247 ], [ 38.707016, 8.9614837 ], [ 38.7080768, 8.9619725 ], [ 38.7087815, 8.9621467 ], [ 38.7094085, 8.9621977 ], [ 38.709906, 8.9623832 ], [ 38.7114597, 8.962623 ], [ 38.7114208, 8.963849 ], [ 38.7106141, 8.9653122 ] ] ] } },
{ "type": "Feature", "properties": { "threshold_s": 300, "time_label": "5 min walk" }, "geometry": { "type": "Polygon", "coordinates": [ [ [ 38.8066425, 8.9964116 ], [ 38.8067103, 8.9970067 ], [ 38.8073381, 8.9970719 ], [ 38.8080199, 8.9966153 ], [ 38.8078462, 8.9964692 ], [ 38.8075995, 8.9959874 ], [ 38.8076301, 8.995257 ], [ 38.8081755, 8.9953317 ], [ 38.8085471, 8.9956857 ], [ 38.8090577, 8.9957108 ], [ 38.8094676, 8.9959788 ], [ 38.8098063, 8.9963339 ], [ 38.8100611, 8.9960219 ], [ 38.8105754, 8.9954653 ], [ 38.810763, 8.9947908 ], [ 38.8118547, 8.9947661 ], [ 38.8119944, 8.994761 ], [ 38.8110683, 8.993765 ], [ 38.8107593, 8.9934705 ], [ 38.8102292, 8.9931253 ], [ 38.8095608, 8.9928624 ], [ 38.809365, 8.9926009 ], [ 38.8090317, 8.9923216 ], [ 38.8085009, 8.9923319 ], [ 38.8082294, 8.9923386 ], [ 38.8076612, 8.9923388 ], [ 38.8071132, 8.9928996 ], [ 38.8066818, 8.9934673 ], [ 38.8066372, 8.9941833 ], [ 38.8064401, 8.9943979 ], [ 38.8063609, 8.9944712 ], [ 38.8067273, 8.9946446 ], [ 38.8068257, 8.9953357 ], [ 38.806481, 8.9956841 ], [ 38.8064447, 8.9962077 ], [ 38.8066425, 8.9964116 ] ] ] } },
{ "type": "Feature", "properties": { "threshold_s": 600, "time_label": "10 min walk" }, "geometry": { "type": "Polygon", "coordinates": [ [ [ 38.8049696, 8.9990194 ], [ 38.8044385, 8.9996268 ], [ 38.8056857, 8.9996652 ], [ 38.8070261, 8.9987976 ], [ 38.8073943, 8.9991009 ], [ 38.8075428, 8.9992301 ], [ 38.8076722, 8.9993446 ], [ 38.8083713, 8.9979499 ], [ 38.8088474, 8.9974101 ], [ 38.8098586, 8.9968974 ], [ 38.8105743, 8.997857 ], [ 38.8105702, 8.9982139 ], [ 38.8105596, 8.9991003 ], [ 38.8105564, 8.9994101 ], [ 38.8109662, 8.9985239 ], [ 38.8118916, 8.998218 ], [ 38.8126026, 8.9974188 ], [ 38.8138059, 8.9964663 ], [ 38.8145296, 8.9954933 ], [ 38.8150698, 8.9945494 ], [ 38.815139, 8.9942059 ], [ 38.8138215, 8.993309 ], [ 38.8135125, 8.9928387 ], [ 38.8124356, 8.9918892 ], [ 38.8109919, 8.9911971 ], [ 38.8105834, 8.9908174 ], [ 38.8099639, 8.9901534 ], [ 38.8095501, 8.9901498 ], [ 38.8086243, 8.9901947 ], [ 38.807755, 8.9893444 ], [ 38.8075425, 8.9892921 ], [ 38.8067318, 8.9901697 ], [ 38.806748, 8.9907392 ], [ 38.8057382, 8.9919325 ], [ 38.8052069, 8.9919328 ], [ 38.8048338, 8.9919389 ], [ 38.8046098, 8.9919487 ], [ 38.8041766, 8.9923595 ], [ 38.8040663, 8.9937184 ], [ 38.8039235, 8.9944224 ], [ 38.8040898, 8.9947794 ], [ 38.8042092, 8.9950158 ], [ 38.8044103, 8.9953973 ], [ 38.804645, 8.9958576 ], [ 38.8048254, 8.9962424 ], [ 38.8053571, 8.9973306 ], [ 38.8055228, 8.9976769 ], [ 38.8049696, 8.9990194 ] ] ] } },
{ "type": "Feature", "properties": { "threshold_s": 900, "time_label": "15 min walk" }, "geometry": { "type": "Polygon", "coordinates": [ [ [ 38.8021955, 9.0011235 ], [ 38.8016798, 9.0013748 ], [ 38.8027198, 9.001756 ], [ 38.804329, 9.0019673 ], [ 38.8058042, 9.0021666 ], [ 38.807424, 9.0019457 ], [ 38.8077821, 9.001534 ], [ 38.8097799, 9.001739 ], [ 38.8105224, 9.0026899 ], [ 38.811864, 9.0014674 ], [ 38.8130757, 9.0006165 ], [ 38.8134335, 9.0002885 ], [ 38.8142442, 8.9994205 ], [ 38.8149685, 8.9986732 ], [ 38.815762, 8.997904 ], [ 38.8160655, 8.9975588 ], [ 38.8163624, 8.9971492 ], [ 38.818171, 8.9959103 ], [ 38.8176652, 8.9945341 ], [ 38.8173123, 8.9931804 ], [ 38.8167976, 8.9923828 ], [ 38.8160405, 8.9906542 ], [ 38.814689799999989, 8.9903523 ], [ 38.8135928, 8.9897028 ], [ 38.8127899, 8.9893411 ], [ 38.8109257, 8.9889653 ], [ 38.8103143, 8.9883096 ], [ 38.8095916, 8.9871104 ], [ 38.8094608, 8.9871787 ], [ 38.8076053, 8.9881615 ], [ 38.8062832, 8.9878092 ], [ 38.8058192, 8.9877787 ], [ 38.8051656, 8.9882064 ], [ 38.8042798, 8.9888877 ], [ 38.8036113, 8.9897174 ], [ 38.8028242, 8.9908194 ], [ 38.8024711, 8.9914824 ], [ 38.8027192, 8.9920103 ], [ 38.8022096, 8.9940263 ], [ 38.8042092, 8.9950158 ], [ 38.8044103, 8.9953973 ], [ 38.8037968, 8.9973995 ], [ 38.8034011, 8.9988843 ], [ 38.8035232, 8.9992247 ], [ 38.8024677, 9.0009613 ], [ 38.8021955, 9.0011235 ] ] ] } },
{ "type": "Feature", "properties": { "threshold_s": 300, "time_label": "5 min walk" }, "geometry": { "type": "Polygon", "coordinates": [ [ [ 38.8171611, 9.0191599 ], [ 38.8171751, 9.0194641 ], [ 38.8174625, 9.0194205 ], [ 38.8199606, 9.0189684 ], [ 38.82083, 9.0188161 ], [ 38.8212509, 9.0187748 ], [ 38.8215588, 9.0187509 ], [ 38.8222674, 9.0177774 ], [ 38.822608, 9.0174956 ], [ 38.8216767, 9.0168867 ], [ 38.8208946, 9.0170286 ], [ 38.8203869, 9.016437 ], [ 38.8203736, 9.0163276 ], [ 38.8196928, 9.0158391 ], [ 38.819362, 9.0164901 ], [ 38.8194153, 9.0171491 ], [ 38.8194273, 9.0176486 ], [ 38.8171611, 9.0191599 ] ] ] } },
{ "type": "Feature", "properties": { "threshold_s": 600, "time_label": "10 min walk" }, "geometry": { "type": "Polygon", "coordinates": [ [ [ 38.8155185, 9.0169905 ], [ 38.8133688, 9.0197109 ], [ 38.8141871, 9.0196762 ], [ 38.8171751, 9.0194641 ], [ 38.8174625, 9.0194205 ], [ 38.8199606, 9.0189684 ], [ 38.82083, 9.0188161 ], [ 38.8212509, 9.0187748 ], [ 38.8215588, 9.0187509 ], [ 38.8235368, 9.0189136 ], [ 38.8259263, 9.0200121 ], [ 38.8260633, 9.0200614 ], [ 38.8260162, 9.0169832 ], [ 38.8238827, 9.0149469 ], [ 38.8232273, 9.0147013 ], [ 38.8196501, 9.0156462 ], [ 38.8175437, 9.0163151 ], [ 38.8155185, 9.0169905 ] ] ] } },
{ "type": "Feature", "properties": { "threshold_s": 900, "time_label": "15 min walk" }, "geometry": { "type": "Polygon", "coordinates": [ [ [ 38.8108795, 9.0190988 ], [ 38.810139, 9.0201299 ], [ 38.8114472, 9.0213592 ], [ 38.8144426, 9.0217712 ], [ 38.8146516, 9.0217388 ], [ 38.8174625, 9.0194205 ], [ 38.8199606, 9.0189684 ], [ 38.8228887, 9.0194977 ], [ 38.8248824, 9.0211988 ], [ 38.8257156, 9.022524 ], [ 38.8264276, 9.0234039 ], [ 38.8265137, 9.0234793 ], [ 38.8285495, 9.0210826 ], [ 38.8287024, 9.0208684 ], [ 38.8285938, 9.0186405 ], [ 38.8288702, 9.0160176 ], [ 38.8283509, 9.014774 ], [ 38.82823, 9.0146017 ], [ 38.8259101, 9.012311 ], [ 38.8215799, 9.01153 ], [ 38.8208147, 9.013098 ], [ 38.8174128, 9.0151084 ], [ 38.8149607, 9.0141972 ], [ 38.8141595, 9.01432 ], [ 38.8133219, 9.0156396 ], [ 38.8108795, 9.0190988 ] ] ] } },
{ "type": "Feature", "properties": { "threshold_s": 300, "time_label": "5 min walk" }, "geometry": { "type": "Polygon", "coordinates": [ [ [ 38.6811243, 8.997457 ], [ 38.6808805, 8.9971702 ], [ 38.6808536, 8.998254 ], [ 38.6814009, 8.9978174 ], [ 38.6812889, 8.9976889 ], [ 38.6822639, 8.9969378 ], [ 38.6823846, 8.9970603 ], [ 38.6825905, 8.997327 ], [ 38.6830549, 8.9979043 ], [ 38.68330060000001, 8.9982141 ], [ 38.683538, 8.998518 ], [ 38.6842533, 8.9974675 ], [ 38.6845001, 8.9977629 ], [ 38.6850788, 8.9983171 ], [ 38.6852425, 8.9985215 ], [ 38.6852872, 8.9985835 ], [ 38.6854685, 8.9969976 ], [ 38.685227500000011, 8.9967021 ], [ 38.6849866, 8.9964014 ], [ 38.6847597, 8.9961016 ], [ 38.6845293, 8.9958121 ], [ 38.6843261, 8.9955443 ], [ 38.6842051, 8.9954119 ], [ 38.6840324, 8.9951916 ], [ 38.6849978, 8.9944267 ], [ 38.6851714, 8.9946456 ], [ 38.6853008, 8.994778 ], [ 38.6855273, 8.995034 ], [ 38.6857802, 8.9941661 ], [ 38.6854704, 8.9944045 ], [ 38.6847643, 8.9941224 ], [ 38.6838033, 8.9948859 ], [ 38.6835708, 8.9945742 ], [ 38.6833429, 8.9943049 ], [ 38.6831508, 8.9939704 ], [ 38.6831684, 8.9940296 ], [ 38.6821047, 8.9947732 ], [ 38.6818994, 8.9945075 ], [ 38.6816596, 8.9942142 ], [ 38.6814564, 8.9939283 ], [ 38.680941, 8.9952548 ], [ 38.6810609, 8.9954386 ], [ 38.6811356, 8.9955393 ], [ 38.6814033, 8.9958329 ], [ 38.6816276, 8.9961236 ], [ 38.6818631, 8.9964084 ], [ 38.6820941, 8.9966939 ], [ 38.6811243, 8.997457 ] ] ] } },
{ "type": "Feature", "properties": { "threshold_s": 600, "time_label": "10 min walk" }, "geometry": { "type": "Polygon", "coordinates": [ [ [ 38.6786822, 8.9993505 ], [ 38.6788814, 8.9995776 ], [ 38.679854, 9.0004402 ], [ 38.681533, 9.0005964 ], [ 38.682927, 9.0009162 ], [ 38.6844009, 9.0006751 ], [ 38.6858024, 9.0007324 ], [ 38.6864233, 9.0008937 ], [ 38.6868927, 9.0007255 ], [ 38.6869897, 9.0000439 ], [ 38.6876973, 8.9986949 ], [ 38.6878398, 8.998161 ], [ 38.6879292, 8.9967691 ], [ 38.6883723, 8.9960103 ], [ 38.6891506, 8.995202 ], [ 38.6880434, 8.9939087 ], [ 38.6882241, 8.9932719 ], [ 38.6884732, 8.9922838 ], [ 38.6883719, 8.9921394 ], [ 38.6872186, 8.9920613 ], [ 38.6863727, 8.9918705 ], [ 38.6857823, 8.9918573 ], [ 38.6840161, 8.991556 ], [ 38.6826465, 8.9909803 ], [ 38.6813116, 8.9908937 ], [ 38.680671, 8.9918214 ], [ 38.6794847, 8.9929729 ], [ 38.6789179, 8.9939927 ], [ 38.6785674, 8.9955381 ], [ 38.6786509, 8.9965 ], [ 38.6778367, 8.9977602 ], [ 38.6779038, 8.9984189 ], [ 38.6784175, 8.9990347 ], [ 38.6786822, 8.9993505 ] ] ] } },
{ "type": "Feature", "properties": { "threshold_s": 900, "time_label": "15 min walk" }, "geometry": { "type": "Polygon", "coordinates": [ [ [ 38.675574, 9.0009486 ], [ 38.6756193, 9.0018143 ], [ 38.6769229, 9.0028475 ], [ 38.6769859, 9.0028859 ], [ 38.678433, 9.0027965 ], [ 38.6801721, 9.0030396 ], [ 38.6811407, 9.0021932 ], [ 38.6827558, 9.0018986 ], [ 38.683953, 9.0016938 ], [ 38.6850326, 9.001866 ], [ 38.6860303, 9.0028237 ], [ 38.6860111, 9.0024279 ], [ 38.6868927, 9.0007255 ], [ 38.6869897, 9.0000439 ], [ 38.6876973, 8.9986949 ], [ 38.6883786, 8.9984734 ], [ 38.6891028, 8.997977 ], [ 38.6892135, 8.996071 ], [ 38.6893476, 8.9954795 ], [ 38.6893353, 8.995361 ], [ 38.6895916, 8.9941912 ], [ 38.690739, 8.9935738 ], [ 38.6893504, 8.9926156 ], [ 38.6902124, 8.991235 ], [ 38.6907094, 8.9902955 ], [ 38.6903582, 8.9897751 ], [ 38.6891482, 8.9897749 ], [ 38.6885636, 8.9897283 ], [ 38.6868004, 8.9893215 ], [ 38.6866124, 8.9890716 ], [ 38.6857622, 8.988466 ], [ 38.6843392, 8.9890153 ], [ 38.6829512, 8.9884367 ], [ 38.6825623, 8.988484 ], [ 38.68164, 8.9886809 ], [ 38.6811486, 8.989052 ], [ 38.6810303, 8.9891889 ], [ 38.6813116, 8.9908937 ], [ 38.6811387, 8.9912606 ], [ 38.680671, 8.9918214 ], [ 38.6791438, 8.9911786 ], [ 38.6775641, 8.9908386 ], [ 38.6762399, 8.9921118 ], [ 38.6764887, 8.9935881 ], [ 38.676004399999989, 8.9941957 ], [ 38.6759648, 8.9942445 ], [ 38.6752622, 8.9949177 ], [ 38.6750725, 8.9955353 ], [ 38.6754006, 8.9969078 ], [ 38.6754695, 8.9981776 ], [ 38.6755647, 8.9995835 ], [ 38.6755771, 9.0005058 ], [ 38.675574, 9.0009486 ] ] ] } },
{ "type": "Feature", "properties": { "threshold_s": 300, "time_label": "5 min walk" }, "geometry": { "type": "Polygon", "coordinates": [ [ [ 38.7954484, 9.0144599 ], [ 38.7949421, 9.0145161 ], [ 38.7953561, 9.0146018 ], [ 38.7960421, 9.0145066 ], [ 38.7961444, 9.0141103 ], [ 38.7967933, 9.0136709 ], [ 38.7974215, 9.0149247 ], [ 38.7980998, 9.0146957 ], [ 38.7973233, 9.0133333 ], [ 38.7979855, 9.0132711 ], [ 38.7984096, 9.0131613 ], [ 38.7987004, 9.0130873 ], [ 38.7990194, 9.0130044 ], [ 38.7982384, 9.0121833 ], [ 38.798827, 9.0118663 ], [ 38.7992304, 9.0116693 ], [ 38.7981407, 9.0111577 ], [ 38.7976532, 9.0106452 ], [ 38.7980147, 9.0102396 ], [ 38.7975811, 9.0104535 ], [ 38.7973048, 9.0098473 ], [ 38.7965463, 9.0097939 ], [ 38.7965066, 9.009705 ], [ 38.7959003, 9.0093869 ], [ 38.7959258, 9.0094485 ], [ 38.7960673, 9.0097425 ], [ 38.7956005, 9.0103345 ], [ 38.7953645, 9.0109659 ], [ 38.7953327, 9.0115677 ], [ 38.7950341, 9.0117579 ], [ 38.7955817, 9.0122013 ], [ 38.7961516, 9.0125743 ], [ 38.7958668, 9.0132147 ], [ 38.7955126, 9.0135726 ], [ 38.794637, 9.0128729 ], [ 38.7952787, 9.013791 ], [ 38.7954484, 9.0144599 ] ] ] } },
{ "type": "Feature", "properties": { "threshold_s": 600, "time_label": "10 min walk" }, "geometry": { "type": "Polygon", "coordinates": [ [ [ 38.7921028, 9.0145334 ], [ 38.7925776, 9.0155524 ], [ 38.7935302, 9.0165567 ], [ 38.7942433, 9.0173075 ], [ 38.7953428, 9.0176745 ], [ 38.7964611, 9.0166918 ], [ 38.7976428, 9.0172639 ], [ 38.798261, 9.0179686 ], [ 38.799423, 9.0175115 ], [ 38.7993742, 9.0166647 ], [ 38.7993613, 9.0164409 ], [ 38.7993474, 9.0162004 ], [ 38.8010152, 9.0156682 ], [ 38.8011038, 9.0147831 ], [ 38.8009101, 9.0132402 ], [ 38.8009248, 9.011785 ], [ 38.8015329, 9.0110254 ], [ 38.8018943, 9.0099701 ], [ 38.8017493, 9.0093791 ], [ 38.8017033, 9.0092955 ], [ 38.8012158, 9.0086368 ], [ 38.8004904, 9.0083131 ], [ 38.7989798, 9.0079 ], [ 38.7985602, 9.0081237 ], [ 38.7970892, 9.0075365 ], [ 38.7968254, 9.0071466 ], [ 38.7962282, 9.007959 ], [ 38.7950326, 9.0075934 ], [ 38.7944434, 9.0064145 ], [ 38.7940952, 9.0070438 ], [ 38.7939037, 9.0077938 ], [ 38.7932745, 9.0089167 ], [ 38.7930062, 9.0095869 ], [ 38.7924598, 9.0111145 ], [ 38.79217340000001, 9.0115364 ], [ 38.7919485, 9.0120027 ], [ 38.7922613, 9.0130458 ], [ 38.7921028, 9.0145334 ] ] ] } },
{ "type": "Feature", "properties": { "threshold_s": 900, "time_label": "15 min walk" }, "geometry": { "type": "Polygon", "coordinates": [ [ [ 38.7944213, 9.0205261 ], [ 38.7946089, 9.0211486 ], [ 38.7958715, 9.0208691 ], [ 38.7963902, 9.0201553 ], [ 38.7982742, 9.0186008 ], [ 38.7994298, 9.0188571 ], [ 38.8007335, 9.0190982 ], [ 38.8008205, 9.0191198 ], [ 38.8012388, 9.0191975 ], [ 38.801438, 9.0192316 ], [ 38.8020435, 9.0174997 ], [ 38.803377, 9.0153076 ], [ 38.8034284, 9.0138029 ], [ 38.8043118, 9.0125923 ], [ 38.8041047, 9.011598 ], [ 38.8031981, 9.010045 ], [ 38.8035896, 9.0087763 ], [ 38.8049162, 9.0076893 ], [ 38.8049791, 9.0076544 ], [ 38.805089, 9.0074997 ], [ 38.8027111, 9.0071769 ], [ 38.8016877, 9.0064996 ], [ 38.8003301, 9.0058599 ], [ 38.7988894, 9.00532 ], [ 38.7967938, 9.004626 ], [ 38.7954807, 9.0043642 ], [ 38.7946308, 9.0046325 ], [ 38.7936953, 9.0050935 ], [ 38.7932577, 9.006302 ], [ 38.7913185, 9.007363 ], [ 38.7902255, 9.0090147 ], [ 38.7901039, 9.0104895 ], [ 38.7914692, 9.0118748 ], [ 38.7894273, 9.0132141 ], [ 38.7885749, 9.0144729 ], [ 38.79037610000001, 9.0163806 ], [ 38.791997, 9.0167392 ], [ 38.7934182, 9.0170489 ], [ 38.793548199999989, 9.0170861 ], [ 38.794481, 9.0195938 ], [ 38.794404299999989, 9.0203074 ], [ 38.7944213, 9.0205261 ] ] ] } },
{ "type": "Feature", "properties": { "threshold_s": 300, "time_label": "5 min walk" }, "geometry": { "type": "Polygon", "coordinates": [ [ [ 38.7950857, 9.0111877 ], [ 38.7955817, 9.0122013 ], [ 38.7961516, 9.0125743 ], [ 38.7968796, 9.0125686 ], [ 38.7975274, 9.0125425 ], [ 38.7979901, 9.0118103 ], [ 38.7981407, 9.0111577 ], [ 38.7980147, 9.0102396 ], [ 38.7981024, 9.0094849 ], [ 38.7990177, 9.0090624 ], [ 38.7993051, 9.0096285 ], [ 38.7996712, 9.0103615 ], [ 38.7997137, 9.0104342 ], [ 38.7998842, 9.0107714 ], [ 38.7998352, 9.0096788 ], [ 38.800421, 9.0090292 ], [ 38.7994633, 9.0088444 ], [ 38.798781, 9.0085965 ], [ 38.7976317, 9.0084889 ], [ 38.7974214, 9.0082378 ], [ 38.7967773, 9.0076836 ], [ 38.7962282, 9.007959 ], [ 38.7956965, 9.0089405 ], [ 38.7955481, 9.0092291 ], [ 38.7953275, 9.009737 ], [ 38.7953639, 9.0098224 ], [ 38.7954609, 9.0100269 ], [ 38.7952405, 9.0110731 ], [ 38.7950857, 9.0111877 ] ] ] } },
{ "type": "Feature", "properties": { "threshold_s": 600, "time_label": "10 min walk" }, "geometry": { "type": "Polygon", "coordinates": [ [ [ 38.7941522, 9.0143398 ], [ 38.7948124, 9.0150846 ], [ 38.7952426, 9.0151258 ], [ 38.7960421, 9.0145066 ], [ 38.7961444, 9.0141103 ], [ 38.7967933, 9.0136709 ], [ 38.7973233, 9.0133333 ], [ 38.7979855, 9.0132711 ], [ 38.7984096, 9.0131613 ], [ 38.7989219, 9.0136427 ], [ 38.7985634, 9.0142392 ], [ 38.7980998, 9.0146957 ], [ 38.7974215, 9.0149247 ], [ 38.7976736, 9.0154279 ], [ 38.7984497, 9.0153368 ], [ 38.7991377, 9.0154168 ], [ 38.7995843, 9.014715 ], [ 38.7995559, 9.0145723 ], [ 38.7993591, 9.0137884 ], [ 38.8000431, 9.0135149 ], [ 38.8005754, 9.0134864 ], [ 38.8009101, 9.0132402 ], [ 38.8005309, 9.0128911 ], [ 38.8004661, 9.0122986 ], [ 38.8007875, 9.0118616 ], [ 38.8009248, 9.011785 ], [ 38.8016759, 9.0114717 ], [ 38.8021047, 9.0110989 ], [ 38.8021012, 9.0107921 ], [ 38.8020407, 9.0103992 ], [ 38.8018943, 9.0099701 ], [ 38.8017493, 9.0093791 ], [ 38.8017033, 9.0092955 ], [ 38.802897, 9.0088572 ], [ 38.8028004, 9.0086231 ], [ 38.8027111, 9.0071769 ], [ 38.802184, 9.0074508 ], [ 38.8017743, 9.0076652 ], [ 38.8013695, 9.0078641 ], [ 38.8012885, 9.0067028 ], [ 38.8008775, 9.0069041 ], [ 38.8004418, 9.0071237 ], [ 38.8000265, 9.0073532 ], [ 38.7993394, 9.0069055 ], [ 38.7990016, 9.0065682 ], [ 38.7987974, 9.006169 ], [ 38.79863, 9.0058402 ], [ 38.7980686, 9.0057269 ], [ 38.7974873, 9.0060231 ], [ 38.79709230000001, 9.0065462 ], [ 38.7966496, 9.0067563 ], [ 38.7957325, 9.0058203 ], [ 38.7961183, 9.0056384 ], [ 38.7965608, 9.0054258 ], [ 38.7959238, 9.0052582 ], [ 38.7953007, 9.0060254 ], [ 38.7942706, 9.0060773 ], [ 38.7944434, 9.0064145 ], [ 38.7935545, 9.0069479 ], [ 38.7934165, 9.0078694 ], [ 38.7931097, 9.0079085 ], [ 38.7932745, 9.0089167 ], [ 38.7930062, 9.0095869 ], [ 38.7935795, 9.0101392 ], [ 38.7938893, 9.010515 ], [ 38.7937747, 9.0115234 ], [ 38.7928272, 9.0113517 ], [ 38.7931859, 9.0116294 ], [ 38.7934121, 9.012522 ], [ 38.7929784, 9.012718 ], [ 38.7933255, 9.0131401 ], [ 38.7940764, 9.0129817 ], [ 38.7945598, 9.0137423 ], [ 38.7941522, 9.0143398 ] ] ] } },
{ "type": "Feature", "properties": { "threshold_s": 900, "time_label": "15 min walk" }, "geometry": { "type": "Polygon", "coordinates": [ [ [ 38.7895896, 9.0132853 ], [ 38.789299, 9.0139947 ], [ 38.7906608, 9.0150595 ], [ 38.7912393, 9.0152125 ], [ 38.7923031, 9.016046 ], [ 38.7926361, 9.0163461 ], [ 38.7934182, 9.0170489 ], [ 38.7942433, 9.0173075 ], [ 38.7953428, 9.0176745 ], [ 38.796247, 9.0179322 ], [ 38.7978731, 9.0179686 ], [ 38.7982742, 9.0186008 ], [ 38.7994298, 9.0188571 ], [ 38.799423, 9.0175115 ], [ 38.7993742, 9.0166647 ], [ 38.7993613, 9.0164409 ], [ 38.7993474, 9.0162004 ], [ 38.8010152, 9.0156682 ], [ 38.8012821, 9.0163717 ], [ 38.8025814, 9.0160673 ], [ 38.8030907, 9.0146854 ], [ 38.8034284, 9.0138029 ], [ 38.804126599999989, 9.0125327 ], [ 38.804167, 9.0123654 ], [ 38.8041047, 9.011598 ], [ 38.8032582, 9.0106494 ], [ 38.8031981, 9.010045 ], [ 38.8035896, 9.0087763 ], [ 38.8049162, 9.0076893 ], [ 38.8049791, 9.0076544 ], [ 38.805683, 9.007259 ], [ 38.8060831, 9.0069465 ], [ 38.8059445, 9.0070212 ], [ 38.8058057, 9.0070941 ], [ 38.8056402, 9.0071786 ], [ 38.805089, 9.0074997 ], [ 38.8027111, 9.0071769 ], [ 38.8023672, 9.0061179 ], [ 38.8030658, 9.0047334 ], [ 38.8019364, 9.0054341 ], [ 38.8012192, 9.004282 ], [ 38.8009293, 9.004679 ], [ 38.8004539, 9.0052943 ], [ 38.7990787, 9.0048374 ], [ 38.7993101, 9.0037383 ], [ 38.7982943, 9.0031359 ], [ 38.7981876, 9.0030972 ], [ 38.7974373, 9.003495 ], [ 38.7959731, 9.0027659 ], [ 38.7956938, 9.0024303 ], [ 38.7955731, 9.0024996 ], [ 38.7953516, 9.002629 ], [ 38.7952821, 9.0031356 ], [ 38.7946308, 9.0046325 ], [ 38.7937877, 9.0050546 ], [ 38.7936953, 9.0050935 ], [ 38.7937552, 9.005399 ], [ 38.7932577, 9.006302 ], [ 38.7917389, 9.0056483 ], [ 38.7912769, 9.0068298 ], [ 38.791289, 9.0069846 ], [ 38.7905339, 9.008216 ], [ 38.7899365, 9.0083445 ], [ 38.7896763, 9.0092286 ], [ 38.7909578, 9.0099514 ], [ 38.7916999, 9.0107534 ], [ 38.7914692, 9.0118748 ], [ 38.7910495, 9.0135358 ], [ 38.7897772, 9.0133568 ], [ 38.7895896, 9.0132853 ] ] ] } },
{ "type": "Feature", "properties": { "threshold_s": 300, "time_label": "5 min walk" }, "geometry": { "type": "Polygon", "coordinates": [ [ [ 38.849253, 9.0102303 ], [ 38.8495552, 9.0106743 ], [ 38.8501821, 9.0112122 ], [ 38.8508042, 9.011824 ], [ 38.8514114, 9.0124393 ], [ 38.8522861, 9.0128627 ], [ 38.853011, 9.0125192 ], [ 38.8529977, 9.0119574 ], [ 38.8537348, 9.0116279 ], [ 38.8543405, 9.0110968 ], [ 38.8547445, 9.0105454 ], [ 38.8553392, 9.0098668 ], [ 38.8555564, 9.0097626 ], [ 38.8550058, 9.0094496 ], [ 38.8546816, 9.0089297 ], [ 38.853986, 9.0089576 ], [ 38.8536024, 9.0082444 ], [ 38.8536102, 9.0079195 ], [ 38.8530144, 9.0079414 ], [ 38.8523716, 9.0078146 ], [ 38.852275, 9.0068517 ], [ 38.8521127, 9.0067882 ], [ 38.8521691, 9.0079262 ], [ 38.8518947, 9.0080049 ], [ 38.8511813, 9.0080332 ], [ 38.8506214, 9.0085624 ], [ 38.8506469, 9.0089346 ], [ 38.8497549, 9.0094434 ], [ 38.849253, 9.0102303 ] ] ] } },
{ "type": "Feature", "properties": { "threshold_s": 600, "time_label": "10 min walk" }, "geometry": { "type": "Polygon", "coordinates": [ [ [ 38.8462662, 9.0096357 ], [ 38.8463485, 9.010859 ], [ 38.8467203, 9.0108408 ], [ 38.847902, 9.0122981 ], [ 38.8482732, 9.0122675 ], [ 38.8488138, 9.0122333 ], [ 38.8496773, 9.0139663 ], [ 38.8499277, 9.0139466 ], [ 38.8505319, 9.0139061 ], [ 38.8515265, 9.0152912 ], [ 38.8523727, 9.0163211 ], [ 38.853145499999989, 9.015706 ], [ 38.8538705, 9.0148474 ], [ 38.8545625, 9.0143346 ], [ 38.8558992, 9.0129653 ], [ 38.8570844, 9.0114112 ], [ 38.8578645, 9.010625 ], [ 38.8589129, 9.0096859 ], [ 38.8585414, 9.0093123 ], [ 38.8572477, 9.0081577 ], [ 38.8569338, 9.0078125 ], [ 38.8566571, 9.0078192 ], [ 38.8563196, 9.0078274 ], [ 38.8557418, 9.0078428 ], [ 38.8552158, 9.0078569 ], [ 38.854648, 9.0078709 ], [ 38.8541231, 9.0079006 ], [ 38.8536102, 9.0079195 ], [ 38.852275, 9.0068517 ], [ 38.8528108, 9.0051244 ], [ 38.8527947, 9.004667 ], [ 38.8527888, 9.0045656 ], [ 38.8520299, 9.0035595 ], [ 38.8517382, 9.0038426 ], [ 38.8503409, 9.0051464 ], [ 38.8495646, 9.0058563 ], [ 38.8482917, 9.0073074 ], [ 38.8469961, 9.0087308 ], [ 38.8462662, 9.0096357 ] ] ] } },
{ "type": "Feature", "properties": { "threshold_s": 900, "time_label": "15 min walk" }, "geometry": { "type": "Polygon", "coordinates": [ [ [ 38.8422945, 9.0106625 ], [ 38.8423073, 9.0107548 ], [ 38.8441922, 9.0115618 ], [ 38.845088, 9.0128228 ], [ 38.8464861, 9.0141699 ], [ 38.8474786, 9.0151166 ], [ 38.8484199, 9.0161924 ], [ 38.8491505, 9.0168544 ], [ 38.8503053, 9.0178439 ], [ 38.850984, 9.0183972 ], [ 38.8524208, 9.019717 ], [ 38.85295, 9.0193795 ], [ 38.8540127, 9.0182575 ], [ 38.8539981, 9.0179037 ], [ 38.8539791, 9.0176302 ], [ 38.8539545, 9.0171284 ], [ 38.8539473, 9.0168578 ], [ 38.8539399, 9.0165809 ], [ 38.8552464, 9.0151289 ], [ 38.8566528, 9.0155972 ], [ 38.8572824, 9.0150046 ], [ 38.8589978, 9.0130718 ], [ 38.8595776, 9.0123967 ], [ 38.8608098, 9.010934 ], [ 38.8616108, 9.0101591 ], [ 38.8617346, 9.009599 ], [ 38.8613047, 9.0088591 ], [ 38.8598499, 9.007293 ], [ 38.8591442, 9.0064317 ], [ 38.8580084, 9.0067357 ], [ 38.8562293, 9.0055649 ], [ 38.8554005, 9.0033442 ], [ 38.8537604, 9.0014803 ], [ 38.8519741, 9.0012565 ], [ 38.8516852, 9.0012743 ], [ 38.8492897, 9.0026261 ], [ 38.8489048, 9.0030357 ], [ 38.8479872, 9.0040643 ], [ 38.8465118, 9.0055648 ], [ 38.845633, 9.0065575 ], [ 38.8447192, 9.0079034 ], [ 38.8444242, 9.0088279 ], [ 38.844274, 9.009326 ], [ 38.8422945, 9.0106625 ] ] ] } },
{ "type": "Feature", "properties": { "threshold_s": 300, "time_label": "5 min walk" }, "geometry": { "type": "Polygon", "coordinates": [ [ [ 38.8335319, 9.0115512 ], [ 38.8334363, 9.0124295 ], [ 38.8337181, 9.012633 ], [ 38.8343128, 9.0126685 ], [ 38.8346482, 9.0125389 ], [ 38.835474499999989, 9.0126231 ], [ 38.835653, 9.0130025 ], [ 38.836217, 9.0136407 ], [ 38.8368326, 9.0138754 ], [ 38.8376445, 9.013587 ], [ 38.8379266, 9.0135641 ], [ 38.8378873, 9.012835 ], [ 38.8378818, 9.0126903 ], [ 38.837874, 9.0124842 ], [ 38.8382099, 9.0118729 ], [ 38.8387853, 9.0118398 ], [ 38.8387846, 9.0114947 ], [ 38.8393347, 9.0108974 ], [ 38.8389146, 9.0104508 ], [ 38.8385102, 9.0100639 ], [ 38.8381036, 9.009756 ], [ 38.8376473, 9.0094291 ], [ 38.8372734, 9.0094508 ], [ 38.8367705, 9.0090283 ], [ 38.8367389, 9.0085532 ], [ 38.8363087, 9.0083377 ], [ 38.835943, 9.0084869 ], [ 38.8358678, 9.008523 ], [ 38.8361127, 9.009518 ], [ 38.8360134, 9.0095261 ], [ 38.8355817, 9.0095578 ], [ 38.8351584, 9.0095752 ], [ 38.8344486, 9.0100314 ], [ 38.8340105, 9.0101834 ], [ 38.8346072, 9.0104967 ], [ 38.8352492, 9.0108374 ], [ 38.8350034, 9.0116458 ], [ 38.8346589, 9.0117963 ], [ 38.8343739, 9.0119166 ], [ 38.8337425, 9.0114417 ], [ 38.8335319, 9.0115512 ] ] ] } },
{ "type": "Feature", "properties": { "threshold_s": 600, "time_label": "10 min walk" }, "geometry": { "type": "Polygon", "coordinates": [ [ [ 38.8313208, 9.0126214 ], [ 38.8310686, 9.0142472 ], [ 38.8313292, 9.0144428 ], [ 38.8326385, 9.0151611 ], [ 38.8334563, 9.0157356 ], [ 38.833806, 9.0159945 ], [ 38.8342359, 9.0157288 ], [ 38.8358129, 9.0146212 ], [ 38.8367596, 9.0145022 ], [ 38.8382001, 9.014944 ], [ 38.8387312, 9.0159937 ], [ 38.8388254, 9.0168786 ], [ 38.8388264, 9.0170628 ], [ 38.8395884, 9.0164068 ], [ 38.840135, 9.0144086 ], [ 38.8404995, 9.0141096 ], [ 38.8412227, 9.0124694 ], [ 38.8419599, 9.0116159 ], [ 38.8423269, 9.011252 ], [ 38.8423073, 9.0107548 ], [ 38.8422715, 9.0102378 ], [ 38.8407943, 9.0092092 ], [ 38.8396823, 9.0081263 ], [ 38.8387066, 9.0074123 ], [ 38.8376643, 9.0064777 ], [ 38.8369434, 9.0057327 ], [ 38.8361511, 9.0058521 ], [ 38.8352711, 9.0062397 ], [ 38.8334531, 9.0067732 ], [ 38.8329471, 9.0073198 ], [ 38.8326237, 9.0077481 ], [ 38.8323261, 9.0083378 ], [ 38.8321745, 9.0088399 ], [ 38.8325144, 9.0101273 ], [ 38.8313069, 9.0109771 ], [ 38.8313208, 9.0126214 ] ] ] } },
{ "type": "Feature", "properties": { "threshold_s": 900, "time_label": "15 min walk" }, "geometry": { "type": "Polygon", "coordinates": [ [ [ 38.8286234, 9.0152151 ], [ 38.8279971, 9.0161429 ], [ 38.8299657, 9.0172269 ], [ 38.8330438, 9.0186834 ], [ 38.833469, 9.0186682 ], [ 38.8338649, 9.0186685 ], [ 38.8341614, 9.0186573 ], [ 38.8343875, 9.0186488 ], [ 38.8344329, 9.0186475 ], [ 38.8347316, 9.0186392 ], [ 38.8382193, 9.0195134 ], [ 38.8388775, 9.0203366 ], [ 38.8413201, 9.018034 ], [ 38.8418342, 9.0175989 ], [ 38.8422804, 9.0171249 ], [ 38.8433051, 9.0152585 ], [ 38.8429797, 9.0130858 ], [ 38.8445194, 9.0118618 ], [ 38.8451155, 9.0116817 ], [ 38.8453276, 9.0105192 ], [ 38.8432065, 9.0076345 ], [ 38.8431904, 9.0075458 ], [ 38.8414973, 9.0060321 ], [ 38.8408287, 9.0056331 ], [ 38.8386052, 9.0043614 ], [ 38.835301, 9.0032933 ], [ 38.8350485, 9.0029058 ], [ 38.8336857, 9.0030785 ], [ 38.8320313, 9.0036904 ], [ 38.8303265, 9.0044892 ], [ 38.8302422, 9.0045291 ], [ 38.830126, 9.0060406 ], [ 38.8299262, 9.0088213 ], [ 38.8294038, 9.009848 ], [ 38.8291171, 9.010904 ], [ 38.8287742, 9.0122387 ], [ 38.8286234, 9.0152151 ] ] ] } },
{ "type": "Feature", "properties": { "threshold_s": 300, "time_label": "5 min walk" }, "geometry": { "type": "Polygon", "coordinates": [ [ [ 38.7822904, 9.0188626 ], [ 38.782435, 9.0193034 ], [ 38.7827933, 9.0192845 ], [ 38.7827905, 9.0187878 ], [ 38.7829991, 9.0181545 ], [ 38.782823, 9.0174736 ], [ 38.7838972, 9.0171203 ], [ 38.7841292, 9.0165435 ], [ 38.785197599999989, 9.0165246 ], [ 38.7852992, 9.015771 ], [ 38.7849176, 9.0153398 ], [ 38.784454, 9.0152374 ], [ 38.7838533, 9.0151 ], [ 38.783456, 9.0150193 ], [ 38.7830595, 9.0154163 ], [ 38.7822345, 9.0146718 ], [ 38.7825032, 9.0156702 ], [ 38.7819098, 9.0159584 ], [ 38.7819011, 9.0162539 ], [ 38.7819307, 9.0165447 ], [ 38.7820039, 9.0176052 ], [ 38.7821732, 9.018387 ], [ 38.7822904, 9.0188626 ] ] ] } },
{ "type": "Feature", "properties": { "threshold_s": 600, "time_label": "10 min walk" }, "geometry": { "type": "Polygon", "coordinates": [ [ [ 38.7809505, 9.0208487 ], [ 38.7811702, 9.0225738 ], [ 38.7828895, 9.0215465 ], [ 38.7837476, 9.021184 ], [ 38.7849275, 9.020122 ], [ 38.786564, 9.019551 ], [ 38.7871463, 9.0184091 ], [ 38.7875552, 9.0160411 ], [ 38.787648, 9.0157163 ], [ 38.7874085, 9.0152361 ], [ 38.7872721, 9.0151271 ], [ 38.7849176, 9.0153398 ], [ 38.784454, 9.0152374 ], [ 38.7838533, 9.0151 ], [ 38.783456, 9.0150193 ], [ 38.7817163, 9.0136245 ], [ 38.7821314, 9.0121521 ], [ 38.7820902, 9.0117878 ], [ 38.7819703, 9.0111927 ], [ 38.7811587, 9.0112123 ], [ 38.7810649, 9.011236 ], [ 38.781424, 9.0121573 ], [ 38.7793196, 9.0134699 ], [ 38.7794376, 9.0144829 ], [ 38.7807383, 9.0166185 ], [ 38.7813556, 9.0188907 ], [ 38.780964, 9.020229 ], [ 38.7809505, 9.0208487 ] ] ] } },
{ "type": "Feature", "properties": { "threshold_s": 900, "time_label": "15 min walk" }, "geometry": { "type": "Polygon", "coordinates": [ [ [ 38.779954, 9.0227054 ], [ 38.7782289, 9.0233603 ], [ 38.7810352, 9.0250527 ], [ 38.7813799, 9.0254233 ], [ 38.7835811, 9.023344 ], [ 38.7844447, 9.0234322 ], [ 38.7846621, 9.0234334 ], [ 38.7876736, 9.021887 ], [ 38.7889373, 9.0206759 ], [ 38.7896598, 9.0192439 ], [ 38.7911232, 9.0175922 ], [ 38.7917798, 9.0168777 ], [ 38.7904882, 9.0158742 ], [ 38.7901675, 9.0136932 ], [ 38.78792, 9.011371 ], [ 38.7855563, 9.0108907 ], [ 38.7839933, 9.0093829 ], [ 38.7809236, 9.0077517 ], [ 38.7803711, 9.0080397 ], [ 38.7792599, 9.0090637 ], [ 38.7792251, 9.009369 ], [ 38.7791667, 9.0096975 ], [ 38.7786358, 9.0111903 ], [ 38.7761009, 9.0118694 ], [ 38.7764946, 9.0126188 ], [ 38.7772287, 9.0140474 ], [ 38.7790322, 9.0148252 ], [ 38.7807383, 9.0166185 ], [ 38.7813904, 9.0177361 ], [ 38.7800908, 9.0202484 ], [ 38.779954, 9.0227054 ] ] ] } },
{ "type": "Feature", "properties": { "threshold_s": 300, "time_label": "5 min walk" }, "geometry": { "type": "Polygon", "coordinates": [ [ [ 38.8455957, 9.0496638 ], [ 38.8457277, 9.0501837 ], [ 38.8462717, 9.0497834 ], [ 38.8467643, 9.0493571 ], [ 38.8468595, 9.0488056 ], [ 38.8468947, 9.048649 ], [ 38.8466719, 9.0489268 ], [ 38.84542, 9.048866 ], [ 38.8459579, 9.0480697 ], [ 38.8453908, 9.0487611 ], [ 38.8453515, 9.0488104 ], [ 38.8455957, 9.0496638 ] ] ] } },
{ "type": "Feature", "properties": { "threshold_s": 600, "time_label": "10 min walk" }, "geometry": { "type": "Polygon", "coordinates": [ [ [ 38.8436415, 9.0501392 ], [ 38.8438708, 9.050832 ], [ 38.8438145, 9.0505595 ], [ 38.8444564, 9.0491097 ], [ 38.8455957, 9.0496638 ], [ 38.8457277, 9.0501837 ], [ 38.8462717, 9.0497834 ], [ 38.8467643, 9.0493571 ], [ 38.8495097, 9.0495413 ], [ 38.8491305, 9.0489273 ], [ 38.8489383, 9.0480514 ], [ 38.849285, 9.0467733 ], [ 38.8493473, 9.046376 ], [ 38.849203, 9.045056 ], [ 38.849038899999989, 9.044727 ], [ 38.8478971, 9.045271 ], [ 38.8464468, 9.0454796 ], [ 38.84497, 9.046215 ], [ 38.8441013, 9.0455867 ], [ 38.8433902, 9.0461354 ], [ 38.8425675, 9.046541 ], [ 38.8426955, 9.0469764 ], [ 38.8429941, 9.0481321 ], [ 38.8423917, 9.0487633 ], [ 38.8431449, 9.0489151 ], [ 38.8436415, 9.0501392 ] ] ] } },
{ "type": "Feature", "properties": { "threshold_s": 900, "time_label": "15 min walk" }, "geometry": { "type": "Polygon", "coordinates": [ [ [ 38.8419441, 9.0503506 ], [ 38.8423777, 9.0510737 ], [ 38.8438708, 9.050832 ], [ 38.8438145, 9.0505595 ], [ 38.8444564, 9.0491097 ], [ 38.8455957, 9.0496638 ], [ 38.8457277, 9.0501837 ], [ 38.8462717, 9.0497834 ], [ 38.8467643, 9.0493571 ], [ 38.8495097, 9.0495413 ], [ 38.8491305, 9.0489273 ], [ 38.8489383, 9.0480514 ], [ 38.8489989, 9.0473458 ], [ 38.849285, 9.0467733 ], [ 38.849297, 9.0466383 ], [ 38.8493473, 9.046376 ], [ 38.8497684, 9.045627 ], [ 38.851137799999989, 9.0456661 ], [ 38.8513818, 9.0469799 ], [ 38.8517808, 9.0470272 ], [ 38.8522906, 9.0469934 ], [ 38.8522858, 9.0465111 ], [ 38.8516621, 9.0458277 ], [ 38.8516538, 9.0447 ], [ 38.8515897, 9.0446953 ], [ 38.8500354, 9.0439483 ], [ 38.8498887, 9.0428047 ], [ 38.850243399999989, 9.0418224 ], [ 38.8488361, 9.042384 ], [ 38.8480143, 9.0421245 ], [ 38.8465472, 9.042408 ], [ 38.844924, 9.0425383 ], [ 38.844424, 9.0424455 ], [ 38.8443743, 9.0425485 ], [ 38.8436161, 9.0435002 ], [ 38.8426623, 9.0432913 ], [ 38.8422387, 9.0449176 ], [ 38.841565, 9.0447535 ], [ 38.8407344, 9.0443888 ], [ 38.8404123, 9.0440393 ], [ 38.8407137, 9.0449231 ], [ 38.8401769, 9.0463548 ], [ 38.8400849, 9.0468261 ], [ 38.8405487, 9.0480595 ], [ 38.8405245, 9.0490252 ], [ 38.8415927, 9.049032 ], [ 38.8419441, 9.0503506 ] ] ] } },
{ "type": "Feature", "properties": { "threshold_s": 300, "time_label": "5 min walk" }, "geometry": { "type": "Polygon", "coordinates": [ [ [ 38.8555653, 8.9902654 ], [ 38.8555369, 8.9903932 ], [ 38.8556567, 8.9903294 ], [ 38.8568845, 8.9908585 ], [ 38.8573229, 8.9907128 ], [ 38.8575818, 8.9906425 ], [ 38.8583455, 8.9905159 ], [ 38.8587432, 8.9917684 ], [ 38.8591397, 8.992353 ], [ 38.8592559, 8.9923584 ], [ 38.8588725, 8.9917772 ], [ 38.8584656, 8.9905089 ], [ 38.8593632, 8.9902947 ], [ 38.8605401, 8.9900193 ], [ 38.8596444, 8.9887113 ], [ 38.8601097, 8.9886676 ], [ 38.8608515, 8.9884187 ], [ 38.8608234, 8.9883212 ], [ 38.8599327, 8.9882185 ], [ 38.8595586, 8.9881377 ], [ 38.8591289, 8.9872016 ], [ 38.8577534, 8.9872462 ], [ 38.8576072, 8.9866157 ], [ 38.8574933, 8.9866475 ], [ 38.8568714, 8.9874459 ], [ 38.8578879, 8.9879246 ], [ 38.8572003, 8.9889388 ], [ 38.856671, 8.9898325 ], [ 38.855841, 8.9894729 ], [ 38.8555653, 8.9902654 ] ] ] } },
{ "type": "Feature", "properties": { "threshold_s": 600, "time_label": "10 min walk" }, "geometry": { "type": "Polygon", "coordinates": [ [ [ 38.8526487, 8.9918466 ], [ 38.8531163, 8.9926068 ], [ 38.8548895, 8.9937717 ], [ 38.8549672, 8.9937883 ], [ 38.8562381, 8.9934576 ], [ 38.8570309, 8.9933285 ], [ 38.8590765, 8.9937681 ], [ 38.8591227, 8.9938164 ], [ 38.860943399999989, 8.9946623 ], [ 38.8610331, 8.9945874 ], [ 38.8608822, 8.9931282 ], [ 38.8618657, 8.9924504 ], [ 38.8615039, 8.9920033 ], [ 38.8612392, 8.990008 ], [ 38.861744, 8.9888229 ], [ 38.8632305, 8.9889749 ], [ 38.8637757, 8.988145 ], [ 38.8637348, 8.9880715 ], [ 38.8624835, 8.9879483 ], [ 38.8614618, 8.9872907 ], [ 38.8607092, 8.9865919 ], [ 38.8604593, 8.9853259 ], [ 38.8604303, 8.9852646 ], [ 38.8593035, 8.9847486 ], [ 38.8580051, 8.9836492 ], [ 38.8570085, 8.9839276 ], [ 38.8561924, 8.9841889 ], [ 38.8560706, 8.9847627 ], [ 38.8549651, 8.9860901 ], [ 38.8549442, 8.986173 ], [ 38.8546241, 8.9872988 ], [ 38.8544359, 8.9879859 ], [ 38.8542296, 8.9887146 ], [ 38.8539, 8.989857 ], [ 38.8530363, 8.9905409 ], [ 38.8528949, 8.99101 ], [ 38.8526487, 8.9918466 ] ] ] } },
{ "type": "Feature", "properties": { "threshold_s": 900, "time_label": "15 min walk" }, "geometry": { "type": "Polygon", "coordinates": [ [ [ 38.8502364, 8.9925857 ], [ 38.8511032, 8.9940366 ], [ 38.8518646, 8.9947502 ], [ 38.8522509, 8.9948575 ], [ 38.8523152, 8.9948708 ], [ 38.8537455, 8.9941806 ], [ 38.8549742, 8.9957103 ], [ 38.8558598, 8.9960325 ], [ 38.8560811, 8.9945648 ], [ 38.8570309, 8.9933285 ], [ 38.8590765, 8.9937681 ], [ 38.8591227, 8.9938164 ], [ 38.8593936, 8.9962152 ], [ 38.859155, 8.996546 ], [ 38.8589432, 8.9972043 ], [ 38.8598634, 8.9976441 ], [ 38.8610291, 8.9973159 ], [ 38.863330499999989, 8.9968197 ], [ 38.8639457, 8.9954635 ], [ 38.8638084, 8.9931033 ], [ 38.8638173, 8.9912566 ], [ 38.8659556, 8.990281 ], [ 38.864589, 8.990171 ], [ 38.8637757, 8.988145 ], [ 38.8636013, 8.9870832 ], [ 38.8634779, 8.9846274 ], [ 38.862918, 8.983961 ], [ 38.8609425, 8.9830174 ], [ 38.8598227, 8.9823993 ], [ 38.8580051, 8.9836492 ], [ 38.8570085, 8.9839276 ], [ 38.8551102, 8.9833849 ], [ 38.8548508, 8.9832892 ], [ 38.8536926, 8.9828295 ], [ 38.8526832, 8.9846077 ], [ 38.8536001, 8.9855664 ], [ 38.8535035, 8.9871681 ], [ 38.8534163, 8.9881738 ], [ 38.8531815, 8.9890156 ], [ 38.8520014, 8.9906585 ], [ 38.8514576, 8.9927766 ], [ 38.8502364, 8.9925857 ] ] ] } },
{ "type": "Feature", "properties": { "threshold_s": 300, "time_label": "5 min walk" }, "geometry": { "type": "Polygon", "coordinates": [ [ [ 38.7478037, 8.9807153 ], [ 38.7464459, 8.9815467 ], [ 38.7468322, 8.9817306 ], [ 38.7478409, 8.9829408 ], [ 38.749083, 8.9838288 ], [ 38.7500797, 8.9845346 ], [ 38.749979, 8.9842547 ], [ 38.7496555, 8.9826637 ], [ 38.7496029, 8.98177 ], [ 38.7495568, 8.9814266 ], [ 38.7494497, 8.9805597 ], [ 38.7493828, 8.979404 ], [ 38.7493579, 8.9790552 ], [ 38.7491498, 8.9781407 ], [ 38.7487046, 8.9789307 ], [ 38.7477986, 8.9798018 ], [ 38.7478037, 8.9807153 ] ] ] } },
{ "type": "Feature", "properties": { "threshold_s": 600, "time_label": "10 min walk" }, "geometry": { "type": "Polygon", "coordinates": [ [ [ 38.7431532, 8.9816006 ], [ 38.743529, 8.9827014 ], [ 38.7444504, 8.9826411 ], [ 38.7451237, 8.9837035 ], [ 38.745361, 8.9836846 ], [ 38.7454385, 8.9836801 ], [ 38.7456487, 8.9836676 ], [ 38.7461868, 8.9836034 ], [ 38.746394, 8.983574 ], [ 38.7469304, 8.9835016 ], [ 38.7478419, 8.9848579 ], [ 38.7472685, 8.9858837 ], [ 38.7484798, 8.9867709 ], [ 38.7486479, 8.9869149 ], [ 38.7493942, 8.9868021 ], [ 38.750677, 8.9868608 ], [ 38.7511048, 8.9872674 ], [ 38.7512463, 8.9870877 ], [ 38.751491, 8.9864276 ], [ 38.7520243, 8.9850979 ], [ 38.7524498, 8.9849586 ], [ 38.7531529, 8.9835029 ], [ 38.7523577, 8.9832828 ], [ 38.7512111, 8.98268 ], [ 38.7506471, 8.9815533 ], [ 38.751215, 8.9809463 ], [ 38.7513561, 8.9792693 ], [ 38.7515388, 8.9784886 ], [ 38.7510629, 8.9789577 ], [ 38.7497169, 8.9780273 ], [ 38.7501669, 8.9764382 ], [ 38.7489269, 8.9753662 ], [ 38.7488619, 8.9753689 ], [ 38.7481808, 8.9756412 ], [ 38.7475522, 8.9764474 ], [ 38.7475396, 8.9770303 ], [ 38.7465289, 8.9778681 ], [ 38.7456397, 8.9789122 ], [ 38.7449528, 8.9790733 ], [ 38.7442095, 8.9795913 ], [ 38.7434271, 8.980675 ], [ 38.7431532, 8.9816006 ] ] ] } },
{ "type": "Feature", "properties": { "threshold_s": 900, "time_label": "15 min walk" }, "geometry": { "type": "Polygon", "coordinates": [ [ [ 38.7446737, 8.9868283 ], [ 38.7448246, 8.9880896 ], [ 38.7457931, 8.9880188 ], [ 38.7475859, 8.9892081 ], [ 38.7482605, 8.9898488 ], [ 38.7503111, 8.9898229 ], [ 38.7523237, 8.9908358 ], [ 38.7524056, 8.9908153 ], [ 38.7532448, 8.9890109 ], [ 38.7530755, 8.9872909 ], [ 38.7542526, 8.9861048 ], [ 38.7544409, 8.9852592 ], [ 38.7545767, 8.98405 ], [ 38.7560531, 8.982418 ], [ 38.7545591, 8.9806549 ], [ 38.7527538, 8.9800289 ], [ 38.753462399999989, 8.977608 ], [ 38.7531719, 8.9751756 ], [ 38.7514275, 8.9741778 ], [ 38.7506493, 8.9733294 ], [ 38.7499348, 8.9727532 ], [ 38.7493072, 8.972256 ], [ 38.748119, 8.972232 ], [ 38.7468163, 8.9736847 ], [ 38.7445888, 8.9747177 ], [ 38.743432, 8.9768358 ], [ 38.7433497, 8.9771834 ], [ 38.7419893, 8.9789691 ], [ 38.7410277, 8.9791287 ], [ 38.7404008, 8.9793497 ], [ 38.7400372, 8.9805206 ], [ 38.7412755, 8.9806774 ], [ 38.7418126, 8.9831436 ], [ 38.7435155, 8.9846347 ], [ 38.7446737, 8.9868283 ] ] ] } },
{ "type": "Feature", "properties": { "threshold_s": 300, "time_label": "5 min walk" }, "geometry": { "type": "Polygon", "coordinates": [ [ [ 38.7850562, 8.8679097 ], [ 38.7850192, 8.8684395 ], [ 38.7852598, 8.8685307 ], [ 38.7853792, 8.8685771 ], [ 38.7861984, 8.8684563 ], [ 38.7869565, 8.868445 ], [ 38.7870403, 8.8692524 ], [ 38.7869715, 8.8696718 ], [ 38.7874801, 8.8694301 ], [ 38.788019, 8.869591 ], [ 38.7886547, 8.86974 ], [ 38.7886181, 8.868762 ], [ 38.7887664, 8.8678828 ], [ 38.7885699, 8.8674042 ], [ 38.7894752, 8.8669075 ], [ 38.789298, 8.8667656 ], [ 38.7885478, 8.866284 ], [ 38.7878202, 8.8658736 ], [ 38.7880777, 8.8652914 ], [ 38.7882218, 8.8649665 ], [ 38.7870661, 8.8654803 ], [ 38.7866749, 8.8660732 ], [ 38.786109, 8.8666169 ], [ 38.7858018, 8.8664972 ], [ 38.7853346, 8.8662855 ], [ 38.7852231, 8.8673797 ], [ 38.7850562, 8.8679097 ] ] ] } },
{ "type": "Feature", "properties": { "threshold_s": 600, "time_label": "10 min walk" }, "geometry": { "type": "Polygon", "coordinates": [ [ [ 38.7823113, 8.8691762 ], [ 38.7830892, 8.8702168 ], [ 38.7840463, 8.8698258 ], [ 38.7851259, 8.8694985 ], [ 38.7851829, 8.8691277 ], [ 38.7861984, 8.8684563 ], [ 38.7869715, 8.8696718 ], [ 38.7862303, 8.870587 ], [ 38.7857455, 8.8712012 ], [ 38.7865558, 8.8712502 ], [ 38.7876252, 8.8719989 ], [ 38.788126, 8.8720835 ], [ 38.7887566, 8.8720683 ], [ 38.7897809, 8.8713377 ], [ 38.790599, 8.8706288 ], [ 38.7907183, 8.8703783 ], [ 38.7906245, 8.8699474 ], [ 38.790385, 8.8689382 ], [ 38.7903173, 8.868669 ], [ 38.7900303, 8.8675427 ], [ 38.7908551, 8.8665555 ], [ 38.7918102, 8.8664732 ], [ 38.7908771, 8.8656257 ], [ 38.7915257, 8.8648496 ], [ 38.7916953, 8.8646619 ], [ 38.7917762, 8.864454 ], [ 38.7903795, 8.8648575 ], [ 38.7898592, 8.8639418 ], [ 38.7894986, 8.8633579 ], [ 38.7890889, 8.8633064 ], [ 38.7885102, 8.8636303 ], [ 38.7873542, 8.8630043 ], [ 38.7873461, 8.8624232 ], [ 38.7871208, 8.8630321 ], [ 38.7858784, 8.863231 ], [ 38.7860124, 8.8636999 ], [ 38.7860529, 8.8649204 ], [ 38.7849782, 8.8655039 ], [ 38.784045, 8.8664654 ], [ 38.782783, 8.8667079 ], [ 38.782674, 8.8674672 ], [ 38.7823096, 8.8687745 ], [ 38.7823113, 8.8691762 ] ] ] } },
{ "type": "Feature", "properties": { "threshold_s": 900, "time_label": "15 min walk" }, "geometry": { "type": "Polygon", "coordinates": [ [ [ 38.780314, 8.8699954 ], [ 38.7808344, 8.8723937 ], [ 38.7821024, 8.8709203 ], [ 38.7837177, 8.8714079 ], [ 38.7849167, 8.8720943 ], [ 38.7868206, 8.8724345 ], [ 38.7866139, 8.8741797 ], [ 38.7868801, 8.8743071 ], [ 38.7891117, 8.8755951 ], [ 38.7899096, 8.875391 ], [ 38.7901014, 8.8750384 ], [ 38.7917952, 8.8733306 ], [ 38.793669, 8.8725482 ], [ 38.794414, 8.8723742 ], [ 38.7942606, 8.8719236 ], [ 38.7937642, 8.8706927 ], [ 38.7944028, 8.8686921 ], [ 38.7945043, 8.8664641 ], [ 38.7937301, 8.8653709 ], [ 38.7939731, 8.8634058 ], [ 38.7939688, 8.8622335 ], [ 38.791479, 8.8612439 ], [ 38.7904199, 8.8604952 ], [ 38.7900212, 8.8603942 ], [ 38.7894081, 8.8602891 ], [ 38.7884395, 8.8606288 ], [ 38.7868586, 8.8614592 ], [ 38.7852439, 8.8617282 ], [ 38.7839754, 8.8614291 ], [ 38.7832764, 8.8615901 ], [ 38.7829937, 8.862076 ], [ 38.7822307, 8.8635385 ], [ 38.7817879, 8.8651416 ], [ 38.7806171, 8.8660652 ], [ 38.77991440000001, 8.8683443 ], [ 38.780314, 8.8699954 ] ] ] } },
{ "type": "Feature", "properties": { "threshold_s": 300, "time_label": "5 min walk" }, "geometry": { "type": "Polygon", "coordinates": [ [ [ 38.7683696, 9.0132238 ], [ 38.7684628, 9.0140058 ], [ 38.7691702, 9.0142051 ], [ 38.7699597, 9.0151489 ], [ 38.7700074, 9.0148215 ], [ 38.7699173, 9.01413 ], [ 38.7699102, 9.014068 ], [ 38.7698139, 9.0132732 ], [ 38.7695735, 9.0120323 ], [ 38.769581, 9.011501 ], [ 38.7702843, 9.0101555 ], [ 38.7708706, 9.0102932 ], [ 38.7699805, 9.0099909 ], [ 38.7690658, 9.0102768 ], [ 38.7690866, 9.0104551 ], [ 38.768797, 9.0113452 ], [ 38.7672256, 9.0115334 ], [ 38.768895, 9.0121279 ], [ 38.7683696, 9.0132238 ] ] ] } },
{ "type": "Feature", "properties": { "threshold_s": 600, "time_label": "10 min walk" }, "geometry": { "type": "Polygon", "coordinates": [ [ [ 38.7656866, 9.0141398 ], [ 38.7662772, 9.0151661 ], [ 38.7671802, 9.01551 ], [ 38.7682007, 9.0165141 ], [ 38.7693392, 9.0177338 ], [ 38.7698828, 9.0178749 ], [ 38.7703065, 9.0178326 ], [ 38.7704103, 9.0177491 ], [ 38.7703919, 9.0176358 ], [ 38.7701632, 9.0161573 ], [ 38.771399, 9.0157563 ], [ 38.7719268, 9.0161546 ], [ 38.7720471, 9.0162575 ], [ 38.7720935, 9.0161841 ], [ 38.7718846, 9.0146755 ], [ 38.771485, 9.0152003 ], [ 38.7700074, 9.0148215 ], [ 38.7699173, 9.01413 ], [ 38.7699102, 9.014068 ], [ 38.7698139, 9.0132732 ], [ 38.7696976, 9.0130606 ], [ 38.7695735, 9.0120323 ], [ 38.7702376, 9.011401 ], [ 38.7708979, 9.010699 ], [ 38.7725128, 9.0102701 ], [ 38.7738585, 9.0107737 ], [ 38.7727248, 9.0097637 ], [ 38.7722728, 9.0092068 ], [ 38.7721322, 9.008018 ], [ 38.7720729, 9.0079411 ], [ 38.7717272, 9.0079713 ], [ 38.7706685, 9.0078058 ], [ 38.7700137, 9.0073279 ], [ 38.7699708, 9.0073954 ], [ 38.7703402, 9.008014 ], [ 38.7698977, 9.0094015 ], [ 38.7690658, 9.0102768 ], [ 38.7675962, 9.0104364 ], [ 38.7669781, 9.0103088 ], [ 38.7654693, 9.0098641 ], [ 38.7649839, 9.0099274 ], [ 38.7654659, 9.0106243 ], [ 38.7665273, 9.0107266 ], [ 38.7658891, 9.0123181 ], [ 38.7665394, 9.0135282 ], [ 38.7656866, 9.0141398 ] ] ] } },
{ "type": "Feature", "properties": { "threshold_s": 900, "time_label": "15 min walk" }, "geometry": { "type": "Polygon", "coordinates": [ [ [ 38.7645296, 9.0152253 ], [ 38.7645019, 9.0170063 ], [ 38.7650242, 9.0169385 ], [ 38.7653746, 9.01689 ], [ 38.7657801, 9.0168339 ], [ 38.76707, 9.0182094 ], [ 38.7676275, 9.0197284 ], [ 38.7682162, 9.0202984 ], [ 38.7683769, 9.0195567 ], [ 38.7701968, 9.0198391 ], [ 38.7707143, 9.0204246 ], [ 38.7713214, 9.0206571 ], [ 38.7717645, 9.0208402 ], [ 38.7719565, 9.0209145 ], [ 38.7722851, 9.0209297 ], [ 38.7720816, 9.019536 ], [ 38.7722273, 9.018897 ], [ 38.7722032, 9.0178639 ], [ 38.7737666, 9.0173089 ], [ 38.7741098, 9.0174452 ], [ 38.7741268, 9.017451 ], [ 38.7742102, 9.0174735 ], [ 38.7743357, 9.0174881 ], [ 38.7749521, 9.0175413 ], [ 38.7749456, 9.0174641 ], [ 38.774385, 9.0171846 ], [ 38.7732861, 9.0163395 ], [ 38.7741335, 9.0152535 ], [ 38.7735741, 9.0141328 ], [ 38.7743465, 9.0124832 ], [ 38.7756285, 9.0131207 ], [ 38.7764946, 9.0126188 ], [ 38.7770236, 9.0122745 ], [ 38.7768362, 9.0119613 ], [ 38.7767145, 9.0118338 ], [ 38.7757903, 9.0113439 ], [ 38.7759849, 9.0099015 ], [ 38.7764101, 9.0093644 ], [ 38.7759286, 9.0076709 ], [ 38.7747609, 9.0062335 ], [ 38.7747853, 9.0060007 ], [ 38.7747095, 9.005959 ], [ 38.77382510000001, 9.0059662 ], [ 38.7724753, 9.004786 ], [ 38.7709223, 9.0039999 ], [ 38.7699232, 9.0043125 ], [ 38.7685232, 9.0041739 ], [ 38.7683436, 9.0041373 ], [ 38.7679271, 9.0042908 ], [ 38.7674794, 9.0056217 ], [ 38.7671835, 9.0061529 ], [ 38.7661556, 9.0073141 ], [ 38.7643308, 9.0075099 ], [ 38.7630776, 9.0088677 ], [ 38.7630569, 9.0097652 ], [ 38.76206, 9.0111118 ], [ 38.761471899999989, 9.0111922 ], [ 38.7614943, 9.0113313 ], [ 38.7625946, 9.0114688 ], [ 38.762877, 9.0129834 ], [ 38.7630452, 9.0139917 ], [ 38.7634972, 9.0149011 ], [ 38.7645296, 9.0152253 ] ] ] } },
{ "type": "Feature", "properties": { "threshold_s": 300, "time_label": "5 min walk" }, "geometry": { "type": "Polygon", "coordinates": [ [ [ 38.766689, 8.9969817 ], [ 38.7667034, 8.9971716 ], [ 38.766772, 8.9969781 ], [ 38.7667359, 8.9963641 ], [ 38.7672745, 8.9956139 ], [ 38.7681658, 8.9951992 ], [ 38.768621, 8.9952975 ], [ 38.7686913, 8.9948239 ], [ 38.769111, 8.9937333 ], [ 38.7694141, 8.9936997 ], [ 38.7690329, 8.9931543 ], [ 38.7680585, 8.9926427 ], [ 38.767995, 8.992182 ], [ 38.7673422, 8.991923 ], [ 38.766946, 8.9915539 ], [ 38.7658954, 8.990874 ], [ 38.7660614, 8.9911266 ], [ 38.7657322, 8.9921354 ], [ 38.7652382, 8.9929139 ], [ 38.7652789, 8.99306 ], [ 38.7653392, 8.9935721 ], [ 38.7646568, 8.9944547 ], [ 38.7648456, 8.9946651 ], [ 38.7656003, 8.9952358 ], [ 38.7659106, 8.9960934 ], [ 38.766689, 8.9969817 ] ] ] } },
{ "type": "Feature", "properties": { "threshold_s": 600, "time_label": "10 min walk" }, "geometry": { "type": "Polygon", "coordinates": [ [ [ 38.7642438, 8.9982718 ], [ 38.7641066, 8.9989933 ], [ 38.7649101, 8.9987426 ], [ 38.7661211, 8.9998327 ], [ 38.7662835, 9.0001701 ], [ 38.7669806, 9.0004762 ], [ 38.7670242, 9.0003609 ], [ 38.7674183, 8.9988296 ], [ 38.7677011, 8.9984807 ], [ 38.7681495, 8.9979743 ], [ 38.7696973, 8.997182 ], [ 38.7710027, 8.9963483 ], [ 38.7714715, 8.9955867 ], [ 38.7711804, 8.9944005 ], [ 38.7708398, 8.9931594 ], [ 38.7713957, 8.9920023 ], [ 38.771232, 8.9913267 ], [ 38.7700921, 8.9906088 ], [ 38.7685902, 8.9904968 ], [ 38.76804, 8.9900825 ], [ 38.7662867, 8.9897064 ], [ 38.7659893, 8.9894164 ], [ 38.7651287, 8.9879443 ], [ 38.7650777, 8.9877284 ], [ 38.7650281, 8.9876688 ], [ 38.7645054, 8.9887634 ], [ 38.7641176, 8.9900018 ], [ 38.762995, 8.9903022 ], [ 38.7634444, 8.991077 ], [ 38.7623647, 8.9921115 ], [ 38.7623074, 8.993798 ], [ 38.7624092, 8.9944189 ], [ 38.7629159, 8.995284 ], [ 38.7632473, 8.9967653 ], [ 38.764286, 8.9977654 ], [ 38.7642438, 8.9982718 ] ] ] } },
{ "type": "Feature", "properties": { "threshold_s": 900, "time_label": "15 min walk" }, "geometry": { "type": "Polygon", "coordinates": [ [ [ 38.7611096, 8.9987565 ], [ 38.7616126, 9.0004111 ], [ 38.7633803, 9.0013968 ], [ 38.7642637, 9.0025648 ], [ 38.7661822, 9.003448 ], [ 38.7675149, 9.0030812 ], [ 38.7675736, 9.0030528 ], [ 38.7680387, 9.0028194 ], [ 38.768222, 9.0016574 ], [ 38.7682709, 9.001456 ], [ 38.7675743, 8.9996401 ], [ 38.7693671, 8.9994722 ], [ 38.7694789, 8.9995581 ], [ 38.7705998, 8.9995274 ], [ 38.7709739, 8.9988383 ], [ 38.7711435, 8.9985284 ], [ 38.7714849, 8.997922 ], [ 38.7724357, 8.9962689 ], [ 38.7730161, 8.9946505 ], [ 38.7741547, 8.9942423 ], [ 38.7743364, 8.9940624 ], [ 38.7744181, 8.9939815 ], [ 38.7742053, 8.9932382 ], [ 38.7740155, 8.9912685 ], [ 38.7730702, 8.9902493 ], [ 38.7718993, 8.9891153 ], [ 38.7713654, 8.9885962 ], [ 38.7709777, 8.9895426 ], [ 38.7706285, 8.9900889 ], [ 38.7685902, 8.9904968 ], [ 38.76804, 8.9900825 ], [ 38.7675038, 8.9888305 ], [ 38.7681005, 8.9878776 ], [ 38.7672391, 8.9864353 ], [ 38.7659556, 8.9848944 ], [ 38.7654715, 8.9847927 ], [ 38.7643047, 8.985346 ], [ 38.7631698, 8.9862702 ], [ 38.7622147, 8.9858887 ], [ 38.7622547, 8.986898 ], [ 38.7621897, 8.9874769 ], [ 38.7621897, 8.9875462 ], [ 38.7622024, 8.9876198 ], [ 38.7629735, 8.988449 ], [ 38.7617532, 8.9899193 ], [ 38.7609888, 8.9899086 ], [ 38.7606736, 8.9904015 ], [ 38.7610217, 8.9913848 ], [ 38.7591509, 8.9921947 ], [ 38.7594068, 8.9930156 ], [ 38.7597052, 8.9938001 ], [ 38.7598005, 8.9955437 ], [ 38.7606917, 8.9957366 ], [ 38.7616834, 8.9974021 ], [ 38.761552, 8.9977717 ], [ 38.7611096, 8.9987565 ] ] ] } },
{ "type": "Feature", "properties": { "threshold_s": 300, "time_label": "5 min walk" }, "geometry": { "type": "Polygon", "coordinates": [ [ [ 38.6963388, 8.9836751 ], [ 38.6961552, 8.9838323 ], [ 38.6962468, 8.9838996 ], [ 38.6967726, 8.9841201 ], [ 38.6977859, 8.9837994 ], [ 38.6979199, 8.9829275 ], [ 38.6989226, 8.9831663 ], [ 38.6991773, 8.9831655 ], [ 38.6999731, 8.9833347 ], [ 38.7008104, 8.9835302 ], [ 38.7016462, 8.9825158 ], [ 38.7013388, 8.9821965 ], [ 38.7010304, 8.9818848 ], [ 38.7003875, 8.9808642 ], [ 38.6997292, 8.980752 ], [ 38.698746, 8.9809909 ], [ 38.6979901, 8.9816283 ], [ 38.6977675, 8.9818016 ], [ 38.6971002, 8.9827037 ], [ 38.6965081, 8.9820355 ], [ 38.6959225, 8.9824999 ], [ 38.6963983, 8.9825788 ], [ 38.6963388, 8.9836751 ] ] ] } },
{ "type": "Feature", "properties": { "threshold_s": 600, "time_label": "10 min walk" }, "geometry": { "type": "Polygon", "coordinates": [ [ [ 38.6939254, 8.9838644 ], [ 38.693959, 8.9852155 ], [ 38.6943827, 8.9854831 ], [ 38.6945343, 8.9855771 ], [ 38.6951955, 8.984899 ], [ 38.6966926, 8.984349 ], [ 38.6973507, 8.9856199 ], [ 38.6971775, 8.9866206 ], [ 38.6984945, 8.9856619 ], [ 38.7002514, 8.9843015 ], [ 38.7007646, 8.9841368 ], [ 38.7023145, 8.9838931 ], [ 38.7043217, 8.9845778 ], [ 38.704614, 8.9839068 ], [ 38.7029082, 8.9831517 ], [ 38.7029636, 8.9811853 ], [ 38.7035401, 8.9807977 ], [ 38.7038834, 8.9806209 ], [ 38.7039586, 8.9805843 ], [ 38.7042106, 8.980467 ], [ 38.703741, 8.979493 ], [ 38.7025917, 8.9781379 ], [ 38.7011701, 8.9781948 ], [ 38.7004553, 8.9789512 ], [ 38.6988983, 8.9793136 ], [ 38.6979892, 8.9792591 ], [ 38.6971076, 8.9790953 ], [ 38.6955209, 8.9797336 ], [ 38.6944034, 8.9803241 ], [ 38.6936216, 8.9810817 ], [ 38.6928764, 8.9821618 ], [ 38.6925964, 8.9825835 ], [ 38.6939254, 8.9838644 ] ] ] } },
{ "type": "Feature", "properties": { "threshold_s": 900, "time_label": "15 min walk" }, "geometry": { "type": "Polygon", "coordinates": [ [ [ 38.6915797, 8.9861131 ], [ 38.6918943, 8.988866 ], [ 38.6931132, 8.9890707 ], [ 38.6962191, 8.9889482 ], [ 38.6969275, 8.9885841 ], [ 38.7000203, 8.9878052 ], [ 38.7006956, 8.9876632 ], [ 38.7022477, 8.9869998 ], [ 38.7024686, 8.9866885 ], [ 38.7033878, 8.985784 ], [ 38.7056176, 8.9852563 ], [ 38.7071906, 8.9860857 ], [ 38.7079946, 8.9866397 ], [ 38.7073909, 8.9843039 ], [ 38.7066204, 8.980861 ], [ 38.7066203, 8.9793818 ], [ 38.7065982, 8.9789976 ], [ 38.7064267, 8.9784528 ], [ 38.7048041, 8.9767915 ], [ 38.7040856, 8.976641 ], [ 38.701205, 8.9770969 ], [ 38.6990956, 8.9766961 ], [ 38.6974509, 8.9758923 ], [ 38.6945347, 8.977501 ], [ 38.6925836, 8.9788265 ], [ 38.6913398, 8.9795708 ], [ 38.6896554, 8.9814752 ], [ 38.6894648, 8.9820109 ], [ 38.6901029, 8.9832175 ], [ 38.6915797, 8.9861131 ] ] ] } },
{ "type": "Feature", "properties": { "threshold_s": 300, "time_label": "5 min walk" }, "geometry": { "type": "Polygon", "coordinates": [ [ [ 38.8586617, 9.0432653 ], [ 38.8586934, 9.0433939 ], [ 38.8589638, 9.0436153 ], [ 38.8597627, 9.0433652 ], [ 38.8603766, 9.0436 ], [ 38.8610663, 9.0441016 ], [ 38.8617945, 9.043717 ], [ 38.8610693, 9.0433853 ], [ 38.8611985, 9.0430106 ], [ 38.8617734, 9.0428215 ], [ 38.8624575, 9.042992 ], [ 38.8624824, 9.0428882 ], [ 38.8618921, 9.0423394 ], [ 38.8623722, 9.0417232 ], [ 38.8626234, 9.0416479 ], [ 38.8621308, 9.0416981 ], [ 38.8614938, 9.0421139 ], [ 38.8612374, 9.0425226 ], [ 38.861035, 9.0426504 ], [ 38.8602115, 9.0424014 ], [ 38.8602914, 9.0418012 ], [ 38.8599222, 9.0412022 ], [ 38.8600363, 9.0420521 ], [ 38.8585874, 9.041454 ], [ 38.8578819, 9.041178 ], [ 38.8585308, 9.0419803 ], [ 38.858589, 9.0424991 ], [ 38.8586617, 9.0432653 ] ] ] } },
{ "type": "Feature", "properties": { "threshold_s": 600, "time_label": "10 min walk" }, "geometry": { "type": "Polygon", "coordinates": [ [ [ 38.8568375, 9.0451424 ], [ 38.8567619, 9.046229 ], [ 38.8586716, 9.0464118 ], [ 38.8591884, 9.0466488 ], [ 38.8601222, 9.046957 ], [ 38.8611968, 9.0469175 ], [ 38.8623481, 9.0468929 ], [ 38.8629663, 9.0465945 ], [ 38.8637347, 9.0457861 ], [ 38.8641107, 9.0445553 ], [ 38.8645287, 9.0435735 ], [ 38.8642994, 9.0425629 ], [ 38.8655955, 9.0414163 ], [ 38.8655926, 9.0406232 ], [ 38.8649301, 9.0399668 ], [ 38.8635779, 9.0396729 ], [ 38.8624582, 9.0389323 ], [ 38.8622163, 9.0388208 ], [ 38.8614705, 9.0390186 ], [ 38.8603764, 9.0404452 ], [ 38.8597932, 9.0411193 ], [ 38.8578819, 9.041178 ], [ 38.8572925, 9.0407034 ], [ 38.8565137, 9.0401242 ], [ 38.8560468, 9.0398064 ], [ 38.8554811, 9.0395405 ], [ 38.8550536, 9.0394011 ], [ 38.8548687, 9.0397909 ], [ 38.8554091, 9.0416172 ], [ 38.8561894, 9.0423213 ], [ 38.8573526, 9.0437817 ], [ 38.8568375, 9.0451424 ] ] ] } },
{ "type": "Feature", "properties": { "threshold_s": 900, "time_label": "15 min walk" }, "geometry": { "type": "Polygon", "coordinates": [ [ [ 38.8535899, 9.0457767 ], [ 38.8539839, 9.04691 ], [ 38.8558769, 9.0482086 ], [ 38.8561682, 9.048397 ], [ 38.8570453, 9.0487996 ], [ 38.8589054, 9.049238 ], [ 38.8597342, 9.0493996 ], [ 38.8611813, 9.0496817 ], [ 38.8615139, 9.0491519 ], [ 38.8620771, 9.0479971 ], [ 38.8644568, 9.0471352 ], [ 38.864908, 9.0474997 ], [ 38.8651161, 9.047613 ], [ 38.8659955, 9.0479541 ], [ 38.8657136, 9.0459437 ], [ 38.8664671, 9.0450744 ], [ 38.8681522, 9.0436492 ], [ 38.8679901, 9.0413286 ], [ 38.8673427, 9.0401281 ], [ 38.8675797, 9.0383181 ], [ 38.8668743, 9.0391631 ], [ 38.8646204, 9.0383765 ], [ 38.8639924, 9.0378354 ], [ 38.8632778, 9.0370633 ], [ 38.8624756, 9.0366788 ], [ 38.8600513, 9.0370965 ], [ 38.8595071, 9.0374629 ], [ 38.8582686, 9.0386175 ], [ 38.8574704, 9.0391062 ], [ 38.8565156, 9.0395088 ], [ 38.8550191, 9.0382506 ], [ 38.853992, 9.0366474 ], [ 38.8536942, 9.0366949 ], [ 38.852131, 9.0377126 ], [ 38.8515406, 9.0390248 ], [ 38.8535947, 9.0392518 ], [ 38.8535732, 9.04111 ], [ 38.8528343, 9.0416318 ], [ 38.8531206, 9.041897 ], [ 38.8540386, 9.043 ], [ 38.8538822, 9.0447165 ], [ 38.8535899, 9.0457767 ] ] ] } },
{ "type": "Feature", "properties": { "threshold_s": 300, "time_label": "5 min walk" }, "geometry": { "type": "Polygon", "coordinates": [ [ [ 38.7798217, 9.0112284 ], [ 38.7801527, 9.0119568 ], [ 38.7806296, 9.0112613 ], [ 38.7810649, 9.011236 ], [ 38.7811587, 9.0112123 ], [ 38.7819703, 9.0111927 ], [ 38.7820902, 9.0117878 ], [ 38.781424, 9.0121573 ], [ 38.7813332, 9.0121982 ], [ 38.7813604, 9.0122926 ], [ 38.7814968, 9.0132973 ], [ 38.7816516, 9.0130261 ], [ 38.7814606, 9.0122943 ], [ 38.7821314, 9.0121521 ], [ 38.782751, 9.0114268 ], [ 38.783239, 9.0112642 ], [ 38.7837169, 9.0111525 ], [ 38.7837584, 9.0105215 ], [ 38.7839428, 9.0099255 ], [ 38.7833831, 9.0092518 ], [ 38.782728, 9.008771 ], [ 38.7820243, 9.0086886 ], [ 38.7818469, 9.0080756 ], [ 38.7813303, 9.0080928 ], [ 38.7808102, 9.0082564 ], [ 38.780677, 9.0087119 ], [ 38.7799623, 9.009092 ], [ 38.7796166, 9.0095556 ], [ 38.7798955, 9.009995 ], [ 38.780713, 9.0097015 ], [ 38.7808196, 9.0096836 ], [ 38.7814152, 9.0097141 ], [ 38.7815672, 9.0104227 ], [ 38.7810637, 9.010816 ], [ 38.7809817, 9.0108855 ], [ 38.7801715, 9.0109604 ], [ 38.7798588, 9.0109705 ], [ 38.7795543, 9.0109593 ], [ 38.7798217, 9.0112284 ] ] ] } },
{ "type": "Feature", "properties": { "threshold_s": 600, "time_label": "10 min walk" }, "geometry": { "type": "Polygon", "coordinates": [ [ [ 38.7778365, 9.0113481 ], [ 38.7778035, 9.0124771 ], [ 38.7792254, 9.0132141 ], [ 38.7793668, 9.0132882 ], [ 38.7810275, 9.0135169 ], [ 38.7812692, 9.0141888 ], [ 38.7817509, 9.0160428 ], [ 38.7818197, 9.0163062 ], [ 38.7819307, 9.0165447 ], [ 38.7819011, 9.0162539 ], [ 38.7819098, 9.0159584 ], [ 38.782059, 9.014438 ], [ 38.7832979, 9.0148016 ], [ 38.7834846, 9.01484 ], [ 38.7845973, 9.014103 ], [ 38.7851496, 9.0138266 ], [ 38.7849573, 9.0126377 ], [ 38.7861708, 9.0118995 ], [ 38.7871128, 9.0111039 ], [ 38.7874857, 9.0102637 ], [ 38.7873338, 9.0102722 ], [ 38.7864858, 9.0087789 ], [ 38.786227, 9.0083458 ], [ 38.7856355, 9.0081908 ], [ 38.7843461, 9.0078941 ], [ 38.7847403, 9.0066431 ], [ 38.7846753, 9.0066285 ], [ 38.7841301, 9.0065027 ], [ 38.7836044, 9.0063722 ], [ 38.7827901, 9.0058712 ], [ 38.7824663, 9.0048444 ], [ 38.7808424, 9.0051589 ], [ 38.7806044, 9.0049721 ], [ 38.7794724, 9.0056821 ], [ 38.7790846, 9.007266 ], [ 38.7785454, 9.0085995 ], [ 38.7781482, 9.0088664 ], [ 38.7778545, 9.009386 ], [ 38.7776996, 9.0101831 ], [ 38.7778365, 9.0113481 ] ] ] } },
{ "type": "Feature", "properties": { "threshold_s": 900, "time_label": "15 min walk" }, "geometry": { "type": "Polygon", "coordinates": [ [ [ 38.7813556, 9.0188907 ], [ 38.7814285, 9.0193487 ], [ 38.7823451, 9.0199957 ], [ 38.7827933, 9.0192845 ], [ 38.7838972, 9.0171203 ], [ 38.785197599999989, 9.0165246 ], [ 38.7874588, 9.0155706 ], [ 38.7874703, 9.0134929 ], [ 38.7890943, 9.0121969 ], [ 38.789912, 9.0117734 ], [ 38.7904845, 9.0105537 ], [ 38.7902255, 9.0090147 ], [ 38.7891895, 9.0082186 ], [ 38.7887931, 9.0078893 ], [ 38.7876324, 9.0064331 ], [ 38.7871496, 9.0051748 ], [ 38.7856484, 9.0032226 ], [ 38.7855785, 9.0032038 ], [ 38.7836735, 9.0030581 ], [ 38.7815539, 9.0023892 ], [ 38.7799164, 9.0025541 ], [ 38.7792411, 9.0026554 ], [ 38.7780499, 9.0051597 ], [ 38.7776747, 9.0055086 ], [ 38.7774528, 9.0057013 ], [ 38.7790846, 9.007266 ], [ 38.7781482, 9.0088664 ], [ 38.7770129, 9.0090246 ], [ 38.7756041, 9.0097969 ], [ 38.7742127, 9.0105641 ], [ 38.7746465, 9.0115406 ], [ 38.7768362, 9.0119613 ], [ 38.7778035, 9.0124771 ], [ 38.7792254, 9.0132141 ], [ 38.7801995, 9.0149448 ], [ 38.7807383, 9.0166185 ], [ 38.7813556, 9.0188907 ] ] ] } },
{ "type": "Feature", "properties": { "threshold_s": 300, "time_label": "5 min walk" }, "geometry": { "type": "Polygon", "coordinates": [ [ [ 38.768846, 8.999063 ], [ 38.7675743, 8.9996401 ], [ 38.7681263, 9.000064 ], [ 38.7689181, 8.9999709 ], [ 38.7694789, 8.9995581 ], [ 38.7696818, 9.0002831 ], [ 38.7702048, 9.0005321 ], [ 38.7696174, 9.0011353 ], [ 38.769688, 9.0011882 ], [ 38.7703282, 9.0011176 ], [ 38.7705819, 9.0007731 ], [ 38.7704085, 9.0001463 ], [ 38.7707613, 8.9998261 ], [ 38.7710336, 8.9993824 ], [ 38.7709739, 8.9988383 ], [ 38.770891, 8.9987957 ], [ 38.770898099999989, 8.9992638 ], [ 38.7705147, 8.9994814 ], [ 38.7699423, 8.9998955 ], [ 38.769665, 8.9993234 ], [ 38.7699206, 8.9987492 ], [ 38.7691867, 8.9986179 ], [ 38.7685717, 8.9982426 ], [ 38.7683732, 8.9987024 ], [ 38.768846, 8.999063 ] ] ] } },
{ "type": "Feature", "properties": { "threshold_s": 600, "time_label": "10 min walk" }, "geometry": { "type": "Polygon", "coordinates": [ [ [ 38.7675149, 9.0030812 ], [ 38.7679271, 9.0042908 ], [ 38.7682938, 9.0043483 ], [ 38.7684808, 9.0042916 ], [ 38.76827990000001, 9.0036892 ], [ 38.7691042, 9.0027905 ], [ 38.7698957, 9.003069 ], [ 38.7703137, 9.003597 ], [ 38.7706338, 9.0026901 ], [ 38.7717739, 9.0033601 ], [ 38.772113, 9.0032542 ], [ 38.7727683, 9.0030296 ], [ 38.7728709, 9.0022388 ], [ 38.7734899, 9.0014308 ], [ 38.7728595, 9.0004235 ], [ 38.7735825, 8.9997115 ], [ 38.7736869, 8.9994737 ], [ 38.7729631, 8.9990413 ], [ 38.7725222, 8.9981068 ], [ 38.7730326, 8.9973437 ], [ 38.7727062, 8.9962474 ], [ 38.7726755, 8.9962277 ], [ 38.7714715, 8.9955867 ], [ 38.7710398, 8.9958541 ], [ 38.769846, 8.9955893 ], [ 38.769518, 8.9962843 ], [ 38.7682519, 8.9964896 ], [ 38.7689952, 8.9971992 ], [ 38.7685717, 8.9982426 ], [ 38.767404, 8.9983552 ], [ 38.7667584, 8.998057 ], [ 38.7665302, 8.9984777 ], [ 38.7656343, 8.9994049 ], [ 38.7649779, 8.9996025 ], [ 38.7653333, 9.0005965 ], [ 38.7654833, 9.001129 ], [ 38.7657918, 9.0013837 ], [ 38.7662892, 9.0024594 ], [ 38.7675149, 9.0030812 ] ] ] } },
{ "type": "Feature", "properties": { "threshold_s": 900, "time_label": "15 min walk" }, "geometry": { "type": "Polygon", "coordinates": [ [ [ 38.7656774, 9.005688 ], [ 38.7661929, 9.0071093 ], [ 38.7663964, 9.0070441 ], [ 38.7678357, 9.0064787 ], [ 38.7687166, 9.0066328 ], [ 38.769243, 9.006491 ], [ 38.7709697, 9.0062587 ], [ 38.7719898, 9.0068159 ], [ 38.772037, 9.0067954 ], [ 38.772547, 9.0061212 ], [ 38.7728032, 9.0057086 ], [ 38.7731847, 9.00438 ], [ 38.7734664, 9.0036753 ], [ 38.7734655, 9.0030482 ], [ 38.773622, 9.0018561 ], [ 38.774843, 9.0010288 ], [ 38.7757839, 9.001319 ], [ 38.7762203, 9.001462 ], [ 38.7762056, 9.001101 ], [ 38.7749536, 8.9996857 ], [ 38.7739914, 8.9989883 ], [ 38.7744293, 8.9971067 ], [ 38.775132, 8.9958947 ], [ 38.7748685, 8.9939269 ], [ 38.7747749, 8.9936803 ], [ 38.7742053, 8.9932382 ], [ 38.7725376, 8.9931435 ], [ 38.7708398, 8.9931594 ], [ 38.7700673, 8.992499 ], [ 38.7681141, 8.9932534 ], [ 38.7664925, 8.9943395 ], [ 38.7656003, 8.9952358 ], [ 38.7637441, 8.9960754 ], [ 38.763649, 8.9961853 ], [ 38.7633437, 8.9965623 ], [ 38.7632473, 8.9967653 ], [ 38.7636897, 8.9974485 ], [ 38.7630087, 8.9993346 ], [ 38.7629789, 9.000368 ], [ 38.7628341, 9.0016946 ], [ 38.7627804, 9.0027459 ], [ 38.7632552, 9.0036992 ], [ 38.7645144, 9.0045259 ], [ 38.7656774, 9.005688 ] ] ] } },
{ "type": "Feature", "properties": { "threshold_s": 300, "time_label": "5 min walk" }, "geometry": { "type": "Polygon", "coordinates": [ [ [ 38.7887993, 8.9927548 ], [ 38.7900146, 8.9944088 ], [ 38.7899619, 8.994329 ], [ 38.7907049, 8.9923927 ], [ 38.7913479, 8.9928249 ], [ 38.7919032, 8.9931163 ], [ 38.79196, 8.9931645 ], [ 38.7918435, 8.9923162 ], [ 38.7917543, 8.9922639 ], [ 38.7909991, 8.9909693 ], [ 38.7917485, 8.9908199 ], [ 38.7928077, 8.9908644 ], [ 38.792569, 8.9896677 ], [ 38.7924159, 8.9898914 ], [ 38.7913071, 8.9904803 ], [ 38.7909201, 8.9900792 ], [ 38.7908448, 8.9901828 ], [ 38.7905229, 8.9906157 ], [ 38.7897353, 8.991741 ], [ 38.7886027, 8.9912301 ], [ 38.7882387, 8.9913539 ], [ 38.788291, 8.9915527 ], [ 38.7885437, 8.9923131 ], [ 38.7887993, 8.9927548 ] ] ] } },
{ "type": "Feature", "properties": { "threshold_s": 600, "time_label": "10 min walk" }, "geometry": { "type": "Polygon", "coordinates": [ [ [ 38.7860621, 8.9936699 ], [ 38.7860637, 8.9950606 ], [ 38.787379, 8.9954801 ], [ 38.7875536, 8.9956627 ], [ 38.787635, 8.995753 ], [ 38.7876687, 8.9957904 ], [ 38.788114299999989, 8.9962622 ], [ 38.7889144, 8.9964707 ], [ 38.7893068, 8.997061 ], [ 38.7907287, 8.9971431 ], [ 38.7917227, 8.9977053 ], [ 38.7919628, 8.9965426 ], [ 38.7929497, 8.9955485 ], [ 38.7931524, 8.9954781 ], [ 38.7944971, 8.995647 ], [ 38.7945207, 8.9953942 ], [ 38.7943037, 8.9941335 ], [ 38.7944663, 8.9929127 ], [ 38.7949535, 8.9927309 ], [ 38.7939993, 8.9922093 ], [ 38.7944312, 8.9913036 ], [ 38.7941338, 8.9900363 ], [ 38.7944626, 8.9888502 ], [ 38.7948121, 8.988467 ], [ 38.7942992, 8.9887271 ], [ 38.7933953, 8.9891541 ], [ 38.7921964, 8.9890052 ], [ 38.7921223, 8.9883589 ], [ 38.7920807, 8.9883178 ], [ 38.7916494, 8.988039 ], [ 38.7909064, 8.9877822 ], [ 38.790411, 8.9881826 ], [ 38.7892844, 8.9887155 ], [ 38.7890604, 8.9888117 ], [ 38.788579, 8.9890066 ], [ 38.787751299999989, 8.9893192 ], [ 38.7875402, 8.9894 ], [ 38.7866353, 8.989756 ], [ 38.786303, 8.9900919 ], [ 38.7862157, 8.9911515 ], [ 38.7855384, 8.9920264 ], [ 38.7860104, 8.9923858 ], [ 38.7860621, 8.9936699 ] ] ] } },
{ "type": "Feature", "properties": { "threshold_s": 900, "time_label": "15 min walk" }, "geometry": { "type": "Polygon", "coordinates": [ [ [ 38.7856127, 8.9987552 ], [ 38.7848429, 8.9992744 ], [ 38.7852672, 8.999087 ], [ 38.7875247, 8.9998242 ], [ 38.7875567, 8.9999102 ], [ 38.78759, 8.9998962 ], [ 38.7894879, 8.9990878 ], [ 38.7906855, 8.9993148 ], [ 38.792624, 8.9985777 ], [ 38.7931544, 8.9983837 ], [ 38.7936291, 8.9982041 ], [ 38.7946719, 8.9978068 ], [ 38.7965052, 8.9969379 ], [ 38.796536, 8.9967385 ], [ 38.7956395, 8.9945489 ], [ 38.7955188, 8.9942217 ], [ 38.7966451, 8.9921571 ], [ 38.7976136, 8.9913002 ], [ 38.7967419, 8.9891166 ], [ 38.7965669, 8.9878238 ], [ 38.7969504, 8.9865892 ], [ 38.7971379, 8.9861223 ], [ 38.7957324, 8.9860249 ], [ 38.7957135, 8.9860835 ], [ 38.7947336, 8.9876264 ], [ 38.7942992, 8.9887271 ], [ 38.7921402, 8.9878098 ], [ 38.7920728, 8.9872025 ], [ 38.7922301, 8.9863968 ], [ 38.7925236, 8.9859406 ], [ 38.7929046, 8.9852543 ], [ 38.7929265, 8.9851831 ], [ 38.7929394, 8.9851413 ], [ 38.7924659, 8.9850161 ], [ 38.7900837, 8.9853118 ], [ 38.788826, 8.985809 ], [ 38.7873733, 8.9867546 ], [ 38.786632, 8.9870718 ], [ 38.7858793, 8.9879902 ], [ 38.7844916, 8.9891908 ], [ 38.7834159, 8.9909636 ], [ 38.7830903, 8.9912217 ], [ 38.7827035, 8.9916183 ], [ 38.783090799999989, 8.9925567 ], [ 38.7836708, 8.9938204 ], [ 38.7837035, 8.9950437 ], [ 38.7845103, 8.9958517 ], [ 38.7860546, 8.996506 ], [ 38.7856127, 8.9987552 ] ] ] } }
]
}
