{
"type": "FeatureCollection",
"name": "isochrone_amenity_marketplace_walk",
"crs": { "type": "name", "properties": { "name": "urn:ogc:def:crs:OGC:1.3:CRS84" } },
"features": [
{ "type": "Feature", "properties": { "threshold_s": 300, "time_label": "5 min walk" }, "geometry": { "type": "Polygon", "coordinates": [ [ [ 38.7388286, 9.0297935 ], [ 38.7389599, 9.0307779 ], [ 38.7396809, 9.0312789 ], [ 38.7406436, 9.0310006 ], [ 38.7409484, 9.0312258 ], [ 38.7413431, 9.0313382 ], [ 38.7414246, 9.0313298 ], [ 38.7413999, 9.0305567 ], [ 38.7419312, 9.0300338 ], [ 38.7427752, 9.0293362 ], [ 38.7433317, 9.0288728 ], [ 38.7438139, 9.0288302 ], [ 38.7431722, 9.0283607 ], [ 38.743086, 9.0284969 ], [ 38.7430758, 9.0287356 ], [ 38.7426967, 9.0292574 ], [ 38.7418432, 9.0291681 ], [ 38.7414964, 9.0286185 ], [ 38.7411225, 9.0286084 ], [ 38.7403628, 9.0285092 ], [ 38.7399615, 9.0281151 ], [ 38.7407515, 9.0275142 ], [ 38.7404537, 9.0273928 ], [ 38.7395632, 9.0279329 ], [ 38.7387231, 9.0281303 ], [ 38.7391743, 9.0285647 ], [ 38.7386895, 9.0292456 ], [ 38.7388286, 9.0297935 ] ] ] } },
{ "type": "Feature", "properties": { "threshold_s": 600, "time_label": "10 min walk" }, "geometry": { "type": "Polygon", "coordinates": [ [ [ 38.7365902, 9.0311661 ], [ 38.7370889, 9.0322481 ], [ 38.7380256, 9.0328911 ], [ 38.7386519, 9.033309 ], [ 38.739012, 9.0339387 ], [ 38.7398837, 9.0337646 ], [ 38.7402905, 9.0337396 ], [ 38.7417706, 9.0340836 ], [ 38.7420146, 9.0341229 ], [ 38.7429368, 9.0342591 ], [ 38.7433143, 9.0341427 ], [ 38.7427711, 9.0340679 ], [ 38.742057, 9.0339659 ], [ 38.7417078, 9.0339163 ], [ 38.7413348, 9.0338705 ], [ 38.7413187, 9.0321096 ], [ 38.7414059, 9.0321356 ], [ 38.7414978, 9.0321403 ], [ 38.7421592, 9.0322811 ], [ 38.7422276, 9.0322978 ], [ 38.7422445, 9.0322303 ], [ 38.7414246, 9.0313298 ], [ 38.7413999, 9.0305567 ], [ 38.7419312, 9.0300338 ], [ 38.7427752, 9.0293362 ], [ 38.7433317, 9.0288728 ], [ 38.744473, 9.0293587 ], [ 38.745241, 9.0302293 ], [ 38.7459818, 9.0310786 ], [ 38.7460528, 9.0310262 ], [ 38.7452999, 9.0301931 ], [ 38.744532, 9.0293143 ], [ 38.744184, 9.0285707 ], [ 38.7441712, 9.0284912 ], [ 38.7442397, 9.0275461 ], [ 38.7452193, 9.0273356 ], [ 38.7456176, 9.0283852 ], [ 38.745625, 9.0284495 ], [ 38.746431, 9.0288773 ], [ 38.7465638, 9.0282733 ], [ 38.7465277, 9.0280037 ], [ 38.7459522, 9.0274025 ], [ 38.7459093, 9.0267541 ], [ 38.7450443, 9.0260932 ], [ 38.745275, 9.0256588 ], [ 38.7449778, 9.0260597 ], [ 38.7446363, 9.0266686 ], [ 38.7432164, 9.024764 ], [ 38.7428134, 9.0251011 ], [ 38.7421965, 9.0255991 ], [ 38.7414669, 9.0261991 ], [ 38.7408818, 9.026716 ], [ 38.7401153, 9.0262136 ], [ 38.7404802, 9.0252066 ], [ 38.7404759, 9.0251856 ], [ 38.7401624, 9.0247706 ], [ 38.7394682, 9.0257666 ], [ 38.7391099, 9.0256144 ], [ 38.7388719, 9.0253522 ], [ 38.738609, 9.0251772 ], [ 38.7380542, 9.0253051 ], [ 38.7374238, 9.0254659 ], [ 38.7373963, 9.0256735 ], [ 38.7373517, 9.0262427 ], [ 38.7372099, 9.0272757 ], [ 38.7361622, 9.0275899 ], [ 38.7359718, 9.0288134 ], [ 38.7358975, 9.0295136 ], [ 38.7360728, 9.0300627 ], [ 38.7365902, 9.0311661 ] ] ] } },
{ "type": "Feature", "properties": { "threshold_s": 900, "time_label": "15 min walk" }, "geometry": { "type": "Polygon", "coordinates": [ [ [ 38.7340489, 9.0324588 ], [ 38.734811, 9.0342586 ], [ 38.7357049, 9.0343764 ], [ 38.7363286, 9.034467 ], [ 38.7386385, 9.0351785 ], [ 38.7398791, 9.0354155 ], [ 38.7399477, 9.0353739 ], [ 38.7415025, 9.0344947 ], [ 38.7424704, 9.0363845 ], [ 38.7424476, 9.0374529 ], [ 38.7427477, 9.0364837 ], [ 38.7428422, 9.0353794 ], [ 38.7439918, 9.0343989 ], [ 38.745538, 9.034985 ], [ 38.7458998, 9.0353783 ], [ 38.7466615, 9.0344848 ], [ 38.7475825, 9.0323943 ], [ 38.7488477, 9.0315436 ], [ 38.7479223, 9.0308362 ], [ 38.7472081, 9.0293312 ], [ 38.7496045, 9.028671 ], [ 38.7502386, 9.0276837 ], [ 38.7502819, 9.0275903 ], [ 38.748782, 9.0262905 ], [ 38.7484098, 9.0257303 ], [ 38.747689, 9.0250316 ], [ 38.747068, 9.0231475 ], [ 38.7466739, 9.0231346 ], [ 38.744300699999989, 9.0223826 ], [ 38.7441473, 9.022135 ], [ 38.7439812, 9.0218566 ], [ 38.7431634, 9.0219375 ], [ 38.7413523, 9.0216627 ], [ 38.7392467, 9.0223117 ], [ 38.7375027, 9.0224529 ], [ 38.735892, 9.0230719 ], [ 38.7351751, 9.0243157 ], [ 38.7338172, 9.0250172 ], [ 38.733439, 9.0256799 ], [ 38.7332821, 9.0271852 ], [ 38.732689, 9.0290311 ], [ 38.732803, 9.0293206 ], [ 38.7336148, 9.0309322 ], [ 38.7338104, 9.0317038 ], [ 38.7340489, 9.0324588 ] ] ] } },
{ "type": "Feature", "properties": { "threshold_s": 300, "time_label": "5 min walk" }, "geometry": { "type": "Polygon", "coordinates": [ [ [ 38.7924474, 9.0247009 ], [ 38.7921482, 9.0254535 ], [ 38.7924283, 9.0251427 ], [ 38.7928014, 9.0249078 ], [ 38.79338820000001, 9.0245801 ], [ 38.7936678, 9.0253023 ], [ 38.7935669, 9.0258737 ], [ 38.7940937, 9.0255635 ], [ 38.7939776, 9.0253189 ], [ 38.7935947, 9.0244763 ], [ 38.7938382, 9.0243465 ], [ 38.7939773, 9.0242672 ], [ 38.7946808, 9.0244009 ], [ 38.7948147, 9.0246739 ], [ 38.7949806, 9.0249993 ], [ 38.7949944, 9.0250263 ], [ 38.7954952, 9.0249473 ], [ 38.7959232, 9.0247031 ], [ 38.796299, 9.025302 ], [ 38.7963524, 9.0252368 ], [ 38.79603, 9.0246455 ], [ 38.7962349, 9.0243572 ], [ 38.795468, 9.0239753 ], [ 38.7953796, 9.023819 ], [ 38.7952798, 9.0235539 ], [ 38.7951798, 9.0233693 ], [ 38.7950509, 9.0231314 ], [ 38.7948324, 9.0228675 ], [ 38.7947893, 9.0227948 ], [ 38.7947299, 9.0226734 ], [ 38.7948623, 9.021823 ], [ 38.7937734, 9.02122 ], [ 38.7947738, 9.021815 ], [ 38.7947102, 9.0226269 ], [ 38.7942946, 9.0225869 ], [ 38.7939679, 9.0228036 ], [ 38.7937379, 9.0231305 ], [ 38.7930765, 9.0228625 ], [ 38.7928829, 9.0236637 ], [ 38.7929197, 9.0242342 ], [ 38.7924474, 9.0247009 ] ] ] } },
{ "type": "Feature", "properties": { "threshold_s": 600, "time_label": "10 min walk" }, "geometry": { "type": "Polygon", "coordinates": [ [ [ 38.7895024, 9.026371 ], [ 38.789281, 9.0267649 ], [ 38.790334799999989, 9.0270686 ], [ 38.7915674, 9.0270575 ], [ 38.7928896, 9.0272559 ], [ 38.7942303, 9.0273802 ], [ 38.7955746, 9.0285027 ], [ 38.7960305, 9.0281001 ], [ 38.7977484, 9.028048 ], [ 38.7978297, 9.0280291 ], [ 38.7985755, 9.0272506 ], [ 38.7991677, 9.0261906 ], [ 38.799208, 9.0254482 ], [ 38.7992708, 9.0244144 ], [ 38.7995347, 9.0226701 ], [ 38.7997247, 9.0224304 ], [ 38.7986957, 9.0223015 ], [ 38.7974583, 9.0223814 ], [ 38.7970493, 9.0213331 ], [ 38.7972284, 9.0207265 ], [ 38.7963957, 9.0197565 ], [ 38.7953878, 9.0188777 ], [ 38.7949564, 9.0184715 ], [ 38.794481, 9.0195938 ], [ 38.7934172, 9.0198174 ], [ 38.7930264, 9.0197486 ], [ 38.7918911, 9.0189685 ], [ 38.7910475, 9.0204121 ], [ 38.7904683, 9.0214873 ], [ 38.790751, 9.0231924 ], [ 38.7895887, 9.0245102 ], [ 38.7897938, 9.0259138 ], [ 38.7895024, 9.026371 ] ] ] } },
{ "type": "Feature", "properties": { "threshold_s": 900, "time_label": "15 min walk" }, "geometry": { "type": "Polygon", "coordinates": [ [ [ 38.7864765, 9.028295 ], [ 38.7874505, 9.0295787 ], [ 38.7883327, 9.0293321 ], [ 38.7900916, 9.0290698 ], [ 38.7909753, 9.0285905 ], [ 38.7924578, 9.0298325 ], [ 38.7935214, 9.0301317 ], [ 38.7954111, 9.0306171 ], [ 38.7968678, 9.0306899 ], [ 38.7988474, 9.0307862 ], [ 38.7999568, 9.0296698 ], [ 38.8011353, 9.0288661 ], [ 38.8011287, 9.0270811 ], [ 38.8007248, 9.0258275 ], [ 38.8009271, 9.0237179 ], [ 38.8017335, 9.0225322 ], [ 38.8023247, 9.021325 ], [ 38.8016899, 9.0200113 ], [ 38.8012768, 9.0197874 ], [ 38.7992848, 9.0191203 ], [ 38.797182, 9.0184257 ], [ 38.7961176, 9.0180856 ], [ 38.7947434, 9.0176284 ], [ 38.794059, 9.0174125 ], [ 38.7937514, 9.0173155 ], [ 38.7925888, 9.0170411 ], [ 38.7907635, 9.0166364 ], [ 38.7902737, 9.0165384 ], [ 38.7886453, 9.0177173 ], [ 38.7878468, 9.0195093 ], [ 38.7875611, 9.0213976 ], [ 38.7868984, 9.0221641 ], [ 38.7873243, 9.0235556 ], [ 38.7863276, 9.0246843 ], [ 38.7866034, 9.0262502 ], [ 38.7864765, 9.028295 ] ] ] } },
{ "type": "Feature", "properties": { "threshold_s": 300, "time_label": "5 min walk" }, "geometry": { "type": "Polygon", "coordinates": [ [ [ 38.735529, 9.0614272 ], [ 38.7350977, 9.0620591 ], [ 38.7355609, 9.061583 ], [ 38.7357134, 9.0615047 ], [ 38.7360201, 9.0611151 ], [ 38.7363064, 9.0608186 ], [ 38.736792, 9.0611152 ], [ 38.7367653, 9.0616751 ], [ 38.7368904, 9.0612861 ], [ 38.7370839, 9.0609298 ], [ 38.7377581, 9.0614097 ], [ 38.7377835, 9.061339 ], [ 38.7375255, 9.0607153 ], [ 38.7379535, 9.0604257 ], [ 38.7384407, 9.0605578 ], [ 38.7386338, 9.0609194 ], [ 38.7387201, 9.0603232 ], [ 38.7393674, 9.0603152 ], [ 38.739800099999989, 9.0605455 ], [ 38.739958, 9.0602444 ], [ 38.7401898, 9.0598316 ], [ 38.7400366, 9.0593494 ], [ 38.7397624, 9.0591395 ], [ 38.7395808, 9.0586325 ], [ 38.7392006, 9.0581271 ], [ 38.739572, 9.0579534 ], [ 38.7395114, 9.0578766 ], [ 38.7390587, 9.0580648 ], [ 38.7386058, 9.0583466 ], [ 38.7381626, 9.057934 ], [ 38.737762, 9.0575096 ], [ 38.7360067, 9.0577336 ], [ 38.7364249, 9.0580932 ], [ 38.736845099999989, 9.0584841 ], [ 38.7371957, 9.0588128 ], [ 38.7372496, 9.0588633 ], [ 38.7375003, 9.0593213 ], [ 38.7373013, 9.059816 ], [ 38.7369864, 9.059945 ], [ 38.7365085, 9.0599498 ], [ 38.7362757, 9.0596239 ], [ 38.7358364, 9.0598891 ], [ 38.7354352, 9.0595114 ], [ 38.7353072, 9.0593997 ], [ 38.7351388, 9.059259 ], [ 38.7350747, 9.0599398 ], [ 38.7353949, 9.0602561 ], [ 38.7357487, 9.0603105 ], [ 38.7362685, 9.060665 ], [ 38.7358412, 9.0611148 ], [ 38.7355517, 9.0613419 ], [ 38.735529, 9.0614272 ] ] ] } },
{ "type": "Feature", "properties": { "threshold_s": 600, "time_label": "10 min walk" }, "geometry": { "type": "Polygon", "coordinates": [ [ [ 38.7324362, 9.0625583 ], [ 38.7330401, 9.0641488 ], [ 38.7331442, 9.0641871 ], [ 38.7332949, 9.0641514 ], [ 38.7344986, 9.0636264 ], [ 38.7351153, 9.0644491 ], [ 38.7352167, 9.0647007 ], [ 38.7356646, 9.0643071 ], [ 38.7368918, 9.0632553 ], [ 38.7378232, 9.0638251 ], [ 38.738375, 9.0641539 ], [ 38.7398408, 9.0640486 ], [ 38.7409942, 9.0630381 ], [ 38.7419798, 9.0625773 ], [ 38.742487, 9.0623012 ], [ 38.7429537, 9.06191 ], [ 38.743271, 9.0604902 ], [ 38.7426118, 9.0595434 ], [ 38.7422151, 9.0590113 ], [ 38.7421707, 9.0577633 ], [ 38.7421901, 9.0567739 ], [ 38.7417261, 9.0551551 ], [ 38.7416893, 9.0551333 ], [ 38.7415397, 9.0550517 ], [ 38.7404677, 9.0551041 ], [ 38.739381, 9.0548087 ], [ 38.7376958, 9.0551661 ], [ 38.7373622, 9.0555475 ], [ 38.7357025, 9.0554734 ], [ 38.7351906, 9.0553483 ], [ 38.7334452, 9.0551843 ], [ 38.7332947, 9.0567827 ], [ 38.7328347, 9.0569126 ], [ 38.7325385, 9.0579586 ], [ 38.732499, 9.0593583 ], [ 38.7322374, 9.0601225 ], [ 38.7320946, 9.0605338 ], [ 38.73244, 9.0621119 ], [ 38.7324362, 9.0625583 ] ] ] } },
{ "type": "Feature", "properties": { "threshold_s": 900, "time_label": "15 min walk" }, "geometry": { "type": "Polygon", "coordinates": [ [ [ 38.7288957, 9.0620394 ], [ 38.7290442, 9.0640591 ], [ 38.7308706, 9.0655205 ], [ 38.7318847, 9.066792 ], [ 38.732668, 9.067268 ], [ 38.7348023, 9.067876 ], [ 38.7359696, 9.067535 ], [ 38.737577, 9.0667543 ], [ 38.7395156, 9.0665593 ], [ 38.7418311, 9.06565 ], [ 38.7423564, 9.0652064 ], [ 38.7444387, 9.0647108 ], [ 38.7455709, 9.0645584 ], [ 38.7446581, 9.0623415 ], [ 38.7455977, 9.0603829 ], [ 38.7455553, 9.059599 ], [ 38.7449682, 9.0581992 ], [ 38.744174, 9.0561007 ], [ 38.7440539, 9.053498 ], [ 38.7436691, 9.0522275 ], [ 38.7435776, 9.0521707 ], [ 38.7409902, 9.051947 ], [ 38.7395797, 9.0537895 ], [ 38.7381866, 9.0534053 ], [ 38.7371239, 9.0530397 ], [ 38.7363382, 9.0529235 ], [ 38.735557, 9.0531724 ], [ 38.733463, 9.0529987 ], [ 38.7321089, 9.0526759 ], [ 38.7312594, 9.0530117 ], [ 38.7302284, 9.0551549 ], [ 38.7300074, 9.0553602 ], [ 38.7300478, 9.0568363 ], [ 38.7292165, 9.0588289 ], [ 38.7291569, 9.06014 ], [ 38.7288957, 9.0620394 ] ] ] } },
{ "type": "Feature", "properties": { "threshold_s": 300, "time_label": "5 min walk" }, "geometry": { "type": "Polygon", "coordinates": [ [ [ 38.6905357, 9.0631059 ], [ 38.690291, 9.063188 ], [ 38.6904724, 9.0639058 ], [ 38.6910561, 9.0640268 ], [ 38.6913191, 9.0643176 ], [ 38.6915568, 9.0645346 ], [ 38.6912961, 9.0640159 ], [ 38.692162, 9.0637273 ], [ 38.6927442, 9.0636051 ], [ 38.6938621, 9.063463 ], [ 38.6940303, 9.0630964 ], [ 38.6936891, 9.0631298 ], [ 38.6927531, 9.0633849 ], [ 38.6922431, 9.0627872 ], [ 38.6925396, 9.0625144 ], [ 38.6928513, 9.0622536 ], [ 38.693357, 9.061967 ], [ 38.6937593, 9.0617596 ], [ 38.6936877, 9.0615865 ], [ 38.6932369, 9.0610924 ], [ 38.6932881, 9.0608898 ], [ 38.6932065, 9.0606496 ], [ 38.693144, 9.0604975 ], [ 38.6922817, 9.0612098 ], [ 38.6920074, 9.0606647 ], [ 38.69164030000001, 9.0608355 ], [ 38.6911903, 9.0607486 ], [ 38.6907564, 9.0598948 ], [ 38.6904408, 9.0601018 ], [ 38.6908701, 9.0609207 ], [ 38.6904348, 9.0609096 ], [ 38.6900582, 9.060925 ], [ 38.6900918, 9.0612723 ], [ 38.6895502, 9.0616846 ], [ 38.6896231, 9.0622892 ], [ 38.6896388, 9.0624727 ], [ 38.6902644, 9.0621997 ], [ 38.6905774, 9.0621744 ], [ 38.6910042, 9.0620726 ], [ 38.6915509, 9.0623601 ], [ 38.6916407, 9.0625245 ], [ 38.6918657, 9.0628978 ], [ 38.6919653, 9.0632288 ], [ 38.6905357, 9.0631059 ] ] ] } },
{ "type": "Feature", "properties": { "threshold_s": 600, "time_label": "10 min walk" }, "geometry": { "type": "Polygon", "coordinates": [ [ [ 38.6885209, 9.0648263 ], [ 38.6886651, 9.0658104 ], [ 38.6892545, 9.0662204 ], [ 38.6902188, 9.0670238 ], [ 38.6904144, 9.0668404 ], [ 38.6912267, 9.0659222 ], [ 38.6923934, 9.0662594 ], [ 38.6930621, 9.0666791 ], [ 38.6934306, 9.0671014 ], [ 38.6937235, 9.0667431 ], [ 38.6944538, 9.0658992 ], [ 38.6943871, 9.0652611 ], [ 38.6943667, 9.0645807 ], [ 38.6949087, 9.0637396 ], [ 38.6944909, 9.0629642 ], [ 38.6951215, 9.0617439 ], [ 38.6954913, 9.0616455 ], [ 38.6957136, 9.0615541 ], [ 38.6959863, 9.0603192 ], [ 38.6961776, 9.0596618 ], [ 38.6957335, 9.0595285 ], [ 38.6953634, 9.0594192 ], [ 38.6944346, 9.0584685 ], [ 38.6941077, 9.0580864 ], [ 38.6933983, 9.0575099 ], [ 38.692886, 9.057138 ], [ 38.6914947, 9.0571641 ], [ 38.6906354, 9.0570742 ], [ 38.6895352, 9.0571079 ], [ 38.6895137, 9.0584772 ], [ 38.6884746, 9.0588297 ], [ 38.6880247, 9.058852 ], [ 38.688314, 9.0593476 ], [ 38.6884599, 9.0594964 ], [ 38.6886941, 9.0608337 ], [ 38.6888574, 9.0617826 ], [ 38.6873407, 9.0615741 ], [ 38.6887622, 9.0621323 ], [ 38.6896929, 9.0631057 ], [ 38.6897258, 9.0633651 ], [ 38.6898755, 9.0643095 ], [ 38.6899024, 9.0645456 ], [ 38.689964, 9.0649149 ], [ 38.6892566, 9.0657486 ], [ 38.6885209, 9.0648263 ] ] ] } },
{ "type": "Feature", "properties": { "threshold_s": 900, "time_label": "15 min walk" }, "geometry": { "type": "Polygon", "coordinates": [ [ [ 38.6878622, 9.0685103 ], [ 38.688394, 9.0694408 ], [ 38.6892408, 9.0699431 ], [ 38.6893412, 9.069898 ], [ 38.6912349, 9.0696005 ], [ 38.6924871, 9.0694628 ], [ 38.6941096, 9.070327 ], [ 38.6950548, 9.0687711 ], [ 38.6957356, 9.0682504 ], [ 38.6963716, 9.0673118 ], [ 38.6973144, 9.065732 ], [ 38.6972442, 9.0656717 ], [ 38.6964191, 9.0650237 ], [ 38.6949129, 9.064549 ], [ 38.6949087, 9.0637396 ], [ 38.6944909, 9.0629642 ], [ 38.6954913, 9.0616455 ], [ 38.6964282, 9.0617 ], [ 38.6964729, 9.059862 ], [ 38.696446, 9.0593073 ], [ 38.6955824, 9.0578386 ], [ 38.6960578, 9.0567023 ], [ 38.6951817, 9.0556893 ], [ 38.6947698, 9.0553757 ], [ 38.6935833, 9.0545411 ], [ 38.6928496, 9.0540991 ], [ 38.6925848, 9.0543485 ], [ 38.6917673, 9.054865 ], [ 38.6905285, 9.0549828 ], [ 38.6887237, 9.0547257 ], [ 38.6869503, 9.0551165 ], [ 38.6867133, 9.0567056 ], [ 38.6861356, 9.0572107 ], [ 38.6855907, 9.058977 ], [ 38.6855925, 9.0592233 ], [ 38.6855911, 9.0594215 ], [ 38.6847899, 9.0610469 ], [ 38.6847578, 9.0622835 ], [ 38.6853551, 9.0625824 ], [ 38.6858723, 9.0628697 ], [ 38.6861114, 9.0646191 ], [ 38.6859844, 9.0657272 ], [ 38.6861873, 9.0663638 ], [ 38.6872816, 9.0676628 ], [ 38.6878622, 9.0685103 ] ] ] } },
{ "type": "Feature", "properties": { "threshold_s": 300, "time_label": "5 min walk" }, "geometry": { "type": "Polygon", "coordinates": [ [ [ 38.6992628, 9.0640201 ], [ 38.6988687, 9.0641447 ], [ 38.6995185, 9.0650127 ], [ 38.7006765, 9.0654449 ], [ 38.7020686, 9.0652843 ], [ 38.7029162, 9.0652896 ], [ 38.7041346, 9.0651968 ], [ 38.7021921, 9.0645409 ], [ 38.7019419, 9.0637089 ], [ 38.7014728, 9.0633152 ], [ 38.7010752, 9.0628874 ], [ 38.7011245, 9.0613602 ], [ 38.7008241, 9.0622054 ], [ 38.7001179, 9.0631128 ], [ 38.6992628, 9.0640201 ] ] ] } },
{ "type": "Feature", "properties": { "threshold_s": 600, "time_label": "10 min walk" }, "geometry": { "type": "Polygon", "coordinates": [ [ [ 38.6977765, 9.0668718 ], [ 38.6979246, 9.0672075 ], [ 38.6992261, 9.0679087 ], [ 38.7001384, 9.0673675 ], [ 38.7002325, 9.0669452 ], [ 38.700320499999989, 9.0664126 ], [ 38.7006765, 9.0654449 ], [ 38.7020686, 9.0652843 ], [ 38.7029162, 9.0652896 ], [ 38.7041346, 9.0651968 ], [ 38.7043412, 9.0666829 ], [ 38.7047361, 9.0671463 ], [ 38.7051867, 9.0669423 ], [ 38.7059357, 9.0659722 ], [ 38.7064393, 9.0656273 ], [ 38.7063595, 9.0652375 ], [ 38.705868, 9.0642181 ], [ 38.7056641, 9.0634023 ], [ 38.7051728, 9.0634582 ], [ 38.7041232, 9.0624965 ], [ 38.7037088, 9.0621442 ], [ 38.7033109, 9.0609337 ], [ 38.7032452, 9.0605246 ], [ 38.7032803, 9.059461 ], [ 38.7032568, 9.0593789 ], [ 38.7015798, 9.0591796 ], [ 38.6999338, 9.059503 ], [ 38.6993131, 9.0608766 ], [ 38.6993266, 9.0609338 ], [ 38.6994728, 9.061271 ], [ 38.6994999, 9.0628589 ], [ 38.6989032, 9.0634492 ], [ 38.6985998, 9.063679 ], [ 38.6986036, 9.0638013 ], [ 38.6983666, 9.0650152 ], [ 38.6972442, 9.0656717 ], [ 38.6977765, 9.0668718 ] ] ] } },
{ "type": "Feature", "properties": { "threshold_s": 900, "time_label": "15 min walk" }, "geometry": { "type": "Polygon", "coordinates": [ [ [ 38.6935942, 9.0657889 ], [ 38.6947086, 9.0671631 ], [ 38.6950692, 9.0674319 ], [ 38.6963716, 9.0673118 ], [ 38.698357799999989, 9.0683166 ], [ 38.6992261, 9.0679087 ], [ 38.7001384, 9.0673675 ], [ 38.7002325, 9.0669452 ], [ 38.7020686, 9.0652843 ], [ 38.7029162, 9.0652896 ], [ 38.7043412, 9.0666829 ], [ 38.7036744, 9.0682538 ], [ 38.7054831, 9.06788 ], [ 38.7064393, 9.0656273 ], [ 38.7063595, 9.0652375 ], [ 38.707658, 9.0628554 ], [ 38.7078967, 9.0623726 ], [ 38.7079938, 9.0620327 ], [ 38.7080747, 9.0616768 ], [ 38.706267, 9.0595279 ], [ 38.7054858, 9.0595392 ], [ 38.7035425, 9.0579234 ], [ 38.7037269, 9.0569513 ], [ 38.703291, 9.0573553 ], [ 38.7005986, 9.0566938 ], [ 38.7000378, 9.056514 ], [ 38.6984106, 9.0577311 ], [ 38.6972836, 9.0598782 ], [ 38.6981379, 9.0624259 ], [ 38.6969639, 9.064293 ], [ 38.6947412, 9.0651259 ], [ 38.6935942, 9.0657889 ] ] ] } },
{ "type": "Feature", "properties": { "threshold_s": 300, "time_label": "5 min walk" }, "geometry": { "type": "Polygon", "coordinates": [ [ [ 38.7428963, 9.0345213 ], [ 38.7428422, 9.0353794 ], [ 38.7435168, 9.0343395 ], [ 38.7439918, 9.0343989 ], [ 38.7439692, 9.0342222 ], [ 38.7455097, 9.0345712 ], [ 38.7447562, 9.0333098 ], [ 38.745682, 9.0328467 ], [ 38.7471559, 9.0325573 ], [ 38.7475825, 9.0323943 ], [ 38.7476809, 9.032044 ], [ 38.7472213, 9.032079 ], [ 38.7469049, 9.0323628 ], [ 38.7450782, 9.0323696 ], [ 38.7441603, 9.0327651 ], [ 38.7437521, 9.0338112 ], [ 38.7433143, 9.0341427 ], [ 38.7427711, 9.0340679 ], [ 38.742057, 9.0339659 ], [ 38.7417078, 9.0339163 ], [ 38.7417706, 9.0340836 ], [ 38.7420146, 9.0341229 ], [ 38.7428963, 9.0345213 ] ] ] } },
{ "type": "Feature", "properties": { "threshold_s": 600, "time_label": "10 min walk" }, "geometry": { "type": "Polygon", "coordinates": [ [ [ 38.7421026, 9.038028 ], [ 38.7424634, 9.0384922 ], [ 38.7424476, 9.0374529 ], [ 38.7427477, 9.0364837 ], [ 38.7443637, 9.0371691 ], [ 38.7459972, 9.0372572 ], [ 38.7468786, 9.0362052 ], [ 38.7478271, 9.0355923 ], [ 38.7487176, 9.0350745 ], [ 38.7501601, 9.0345287 ], [ 38.7503308, 9.0339662 ], [ 38.7504699, 9.0328679 ], [ 38.7502945, 9.0318113 ], [ 38.7505748, 9.0308459 ], [ 38.7496738, 9.030456 ], [ 38.748969099999989, 9.0302438 ], [ 38.7485238, 9.0304428 ], [ 38.7469903, 9.030221 ], [ 38.7452999, 9.0301931 ], [ 38.744532, 9.0293143 ], [ 38.744473, 9.0293587 ], [ 38.745241, 9.0302293 ], [ 38.7448118, 9.0317249 ], [ 38.7441603, 9.0327651 ], [ 38.7437521, 9.0338112 ], [ 38.7427711, 9.0340679 ], [ 38.742057, 9.0339659 ], [ 38.7422276, 9.0322978 ], [ 38.7422445, 9.0322303 ], [ 38.7414246, 9.0313298 ], [ 38.7413999, 9.0305567 ], [ 38.7413848, 9.030462 ], [ 38.7408745, 9.0306912 ], [ 38.7399488, 9.031464 ], [ 38.7387485, 9.0325818 ], [ 38.7385034, 9.0342278 ], [ 38.7388659, 9.0341421 ], [ 38.7391086, 9.0340858 ], [ 38.7398837, 9.0337646 ], [ 38.7402905, 9.0337396 ], [ 38.7415025, 9.0344947 ], [ 38.7428422, 9.0353794 ], [ 38.7424704, 9.0363845 ], [ 38.7421026, 9.038028 ] ] ] } },
{ "type": "Feature", "properties": { "threshold_s": 900, "time_label": "15 min walk" }, "geometry": { "type": "Polygon", "coordinates": [ [ [ 38.7405972, 9.039077 ], [ 38.7399448, 9.040324 ], [ 38.7413221, 9.040716 ], [ 38.7427163, 9.0408189 ], [ 38.7429569, 9.0407418 ], [ 38.7439561, 9.0403011 ], [ 38.7440231, 9.0390856 ], [ 38.7457761, 9.0389735 ], [ 38.7474383, 9.0393107 ], [ 38.7493769, 9.0385907 ], [ 38.7490281, 9.0365532 ], [ 38.7501814, 9.0362262 ], [ 38.7519532, 9.0361278 ], [ 38.752117, 9.0358999 ], [ 38.7522115, 9.0355968 ], [ 38.7522417, 9.0353395 ], [ 38.7515809, 9.0337472 ], [ 38.752775, 9.0329494 ], [ 38.753646, 9.0327236 ], [ 38.7538552, 9.0324985 ], [ 38.7533217, 9.0320304 ], [ 38.7523914, 9.0301702 ], [ 38.7531912, 9.0297342 ], [ 38.752155, 9.0284649 ], [ 38.7520736, 9.0284741 ], [ 38.7514842, 9.0286248 ], [ 38.7513421, 9.0286667 ], [ 38.7493904, 9.0279921 ], [ 38.7483515, 9.0274422 ], [ 38.7471391, 9.0276918 ], [ 38.7459093, 9.0267541 ], [ 38.7446363, 9.0266686 ], [ 38.7427112, 9.0274712 ], [ 38.7422454, 9.0269872 ], [ 38.7418089, 9.0274527 ], [ 38.7411225, 9.0286084 ], [ 38.739742, 9.0284841 ], [ 38.7391743, 9.0285647 ], [ 38.7381933, 9.0289131 ], [ 38.7370265, 9.0296332 ], [ 38.7363668, 9.0305868 ], [ 38.7362058, 9.0308289 ], [ 38.7362601, 9.0316838 ], [ 38.7367322, 9.0327964 ], [ 38.7357049, 9.0343764 ], [ 38.735731, 9.0345109 ], [ 38.7361414, 9.0350579 ], [ 38.7369836, 9.0356029 ], [ 38.7378842, 9.0374214 ], [ 38.7394452, 9.0375711 ], [ 38.7399621, 9.0381132 ], [ 38.7405972, 9.039077 ] ] ] } },
{ "type": "Feature", "properties": { "threshold_s": 300, "time_label": "5 min walk" }, "geometry": { "type": "Polygon", "coordinates": [ [ [ 38.7372118, 9.0303343 ], [ 38.7373947, 9.0308309 ], [ 38.7375475, 9.0309289 ], [ 38.73793160000001, 9.0300999 ], [ 38.738059, 9.0301787 ], [ 38.7380877, 9.0301982 ], [ 38.7383887, 9.0303941 ], [ 38.738425, 9.0304177 ], [ 38.7389599, 9.0307779 ], [ 38.7388025, 9.0310421 ], [ 38.7388135, 9.0317373 ], [ 38.7391481, 9.0320037 ], [ 38.7394966, 9.0315341 ], [ 38.7399742, 9.0314816 ], [ 38.7402157, 9.0316487 ], [ 38.7404906, 9.0318534 ], [ 38.7409484, 9.0312258 ], [ 38.7413431, 9.0313382 ], [ 38.7414014, 9.032089 ], [ 38.7413187, 9.0321096 ], [ 38.7414059, 9.0321356 ], [ 38.7414978, 9.0321403 ], [ 38.7414949, 9.0320899 ], [ 38.7414246, 9.0313298 ], [ 38.7413225, 9.0310427 ], [ 38.7413999, 9.0305567 ], [ 38.7413848, 9.030462 ], [ 38.7419312, 9.0300338 ], [ 38.7418619, 9.0299892 ], [ 38.7415488, 9.0297294 ], [ 38.7418432, 9.0291681 ], [ 38.7414596, 9.0288964 ], [ 38.741006, 9.0293525 ], [ 38.7406642, 9.0291213 ], [ 38.7403628, 9.0285092 ], [ 38.7399615, 9.0281151 ], [ 38.7404256, 9.0274322 ], [ 38.7404537, 9.0273928 ], [ 38.7395632, 9.0279329 ], [ 38.7391978, 9.0284985 ], [ 38.7387231, 9.0281303 ], [ 38.7384208, 9.0279218 ], [ 38.7381277, 9.0277121 ], [ 38.737705, 9.0285919 ], [ 38.7372579, 9.0282829 ], [ 38.737078, 9.0283667 ], [ 38.7375224, 9.0288787 ], [ 38.7373091, 9.0292832 ], [ 38.7370265, 9.0296332 ], [ 38.7375489, 9.0298709 ], [ 38.7372118, 9.0303343 ] ] ] } },
{ "type": "Feature", "properties": { "threshold_s": 600, "time_label": "10 min walk" }, "geometry": { "type": "Polygon", "coordinates": [ [ [ 38.7367322, 9.0327964 ], [ 38.7357049, 9.0343764 ], [ 38.7369454, 9.0344738 ], [ 38.7380256, 9.0328911 ], [ 38.7386519, 9.033309 ], [ 38.739012, 9.0339387 ], [ 38.7398837, 9.0337646 ], [ 38.7417706, 9.0340836 ], [ 38.7420146, 9.0341229 ], [ 38.7429368, 9.0342591 ], [ 38.7432999, 9.0343113 ], [ 38.7433143, 9.0341427 ], [ 38.7427711, 9.0340679 ], [ 38.7422276, 9.0322978 ], [ 38.7422445, 9.0322303 ], [ 38.7414246, 9.0313298 ], [ 38.7419312, 9.0300338 ], [ 38.7427752, 9.0293362 ], [ 38.744473, 9.0293587 ], [ 38.744532, 9.0293143 ], [ 38.7442397, 9.0275461 ], [ 38.7441766, 9.0275157 ], [ 38.7427112, 9.0274712 ], [ 38.742287, 9.0256813 ], [ 38.7428134, 9.0251011 ], [ 38.7421965, 9.0255991 ], [ 38.7404759, 9.0251856 ], [ 38.7388719, 9.0253522 ], [ 38.7380542, 9.0253051 ], [ 38.7374238, 9.0254659 ], [ 38.7359638, 9.0260384 ], [ 38.7348595, 9.0266997 ], [ 38.7341325, 9.0273109 ], [ 38.7338709, 9.0291547 ], [ 38.7338878, 9.0292468 ], [ 38.7346934, 9.0303441 ], [ 38.7349606, 9.0318653 ], [ 38.7357518, 9.032411 ], [ 38.7367322, 9.0327964 ] ] ] } },
{ "type": "Feature", "properties": { "threshold_s": 900, "time_label": "15 min walk" }, "geometry": { "type": "Polygon", "coordinates": [ [ [ 38.7324074, 9.0340065 ], [ 38.7339193, 9.0359216 ], [ 38.7340047, 9.0359315 ], [ 38.735731, 9.0345109 ], [ 38.7363286, 9.034467 ], [ 38.7378218, 9.0348811 ], [ 38.7386385, 9.0351785 ], [ 38.7398791, 9.0354155 ], [ 38.7399477, 9.0353739 ], [ 38.7415025, 9.0344947 ], [ 38.7424704, 9.0363845 ], [ 38.7424476, 9.0374529 ], [ 38.7427477, 9.0364837 ], [ 38.7428422, 9.0353794 ], [ 38.7439918, 9.0343989 ], [ 38.745538, 9.034985 ], [ 38.7458998, 9.0353783 ], [ 38.7466615, 9.0344848 ], [ 38.7472213, 9.032079 ], [ 38.7469058, 9.0313368 ], [ 38.7472081, 9.0293312 ], [ 38.7480031, 9.0281187 ], [ 38.7480859, 9.027872 ], [ 38.7471945, 9.025634 ], [ 38.7466013, 9.0257342 ], [ 38.745275, 9.0256588 ], [ 38.7434632, 9.024576 ], [ 38.7440472, 9.0232515 ], [ 38.744300699999989, 9.0223826 ], [ 38.7441473, 9.022135 ], [ 38.743323, 9.0222097 ], [ 38.7413523, 9.0216627 ], [ 38.7392467, 9.0223117 ], [ 38.7375027, 9.0224529 ], [ 38.7353696, 9.0225515 ], [ 38.7352817, 9.0225768 ], [ 38.7344777, 9.0239488 ], [ 38.7335289, 9.0249806 ], [ 38.7325665, 9.0271077 ], [ 38.7318434, 9.0277109 ], [ 38.7304595, 9.0287023 ], [ 38.731509, 9.0299434 ], [ 38.7318257, 9.0314097 ], [ 38.7323861, 9.0339007 ], [ 38.7324074, 9.0340065 ] ] ] } },
{ "type": "Feature", "properties": { "threshold_s": 300, "time_label": "5 min walk" }, "geometry": { "type": "Polygon", "coordinates": [ [ [ 38.8243082, 9.0139798 ], [ 38.823589, 9.0151629 ], [ 38.8238827, 9.0149469 ], [ 38.8243533, 9.0146504 ], [ 38.8252172, 9.0145254 ], [ 38.825619, 9.0154116 ], [ 38.8250198, 9.0155417 ], [ 38.8249889, 9.0158547 ], [ 38.8248615, 9.0163434 ], [ 38.8251483, 9.0160125 ], [ 38.8261352, 9.0157037 ], [ 38.8264124, 9.0157562 ], [ 38.8269489, 9.0149332 ], [ 38.827165, 9.0144907 ], [ 38.8277264, 9.0139966 ], [ 38.8282041, 9.013187 ], [ 38.8283706, 9.0130305 ], [ 38.8278655, 9.012169 ], [ 38.8274539, 9.0120175 ], [ 38.8270598, 9.0118905 ], [ 38.8267236, 9.0112778 ], [ 38.826323, 9.0107743 ], [ 38.8263126, 9.0111804 ], [ 38.826007, 9.0121256 ], [ 38.8259101, 9.012311 ], [ 38.8262455, 9.0124695 ], [ 38.8264766, 9.0125401 ], [ 38.8262938, 9.0135327 ], [ 38.8258571, 9.0134481 ], [ 38.8253075, 9.013363 ], [ 38.8248761, 9.0133857 ], [ 38.8244028, 9.013401 ], [ 38.8243082, 9.0139798 ] ] ] } },
{ "type": "Feature", "properties": { "threshold_s": 600, "time_label": "10 min walk" }, "geometry": { "type": "Polygon", "coordinates": [ [ [ 38.8214604, 9.0156608 ], [ 38.8215928, 9.0174044 ], [ 38.8228849, 9.0172726 ], [ 38.8237634, 9.0179832 ], [ 38.8243115, 9.0177309 ], [ 38.8251109, 9.0192614 ], [ 38.8259667, 9.0193676 ], [ 38.8263112, 9.0182905 ], [ 38.8272203, 9.0171723 ], [ 38.8279438, 9.0162441 ], [ 38.8279971, 9.0161429 ], [ 38.8286234, 9.0152151 ], [ 38.8295341, 9.0146683 ], [ 38.8296814, 9.0140506 ], [ 38.8299872, 9.0125538 ], [ 38.8304096, 9.0120107 ], [ 38.8299727, 9.0117409 ], [ 38.8287906, 9.0116164 ], [ 38.8284933, 9.0113395 ], [ 38.8285318, 9.0098196 ], [ 38.8283048, 9.0092346 ], [ 38.8281197, 9.0087531 ], [ 38.8273888, 9.0077074 ], [ 38.8257701, 9.0075272 ], [ 38.8247448, 9.0081683 ], [ 38.8246644, 9.0088591 ], [ 38.8242781, 9.0101598 ], [ 38.8233315, 9.0101612 ], [ 38.8229602, 9.0115936 ], [ 38.8220379, 9.012678 ], [ 38.8221802, 9.0130811 ], [ 38.8210587, 9.0144765 ], [ 38.8214604, 9.0156608 ] ] ] } },
{ "type": "Feature", "properties": { "threshold_s": 900, "time_label": "15 min walk" }, "geometry": { "type": "Polygon", "coordinates": [ [ [ 38.8194273, 9.0176486 ], [ 38.8199606, 9.0189684 ], [ 38.82083, 9.0188161 ], [ 38.8212509, 9.0187748 ], [ 38.8215588, 9.0187509 ], [ 38.82342, 9.0190943 ], [ 38.8251564, 9.01968 ], [ 38.8251359, 9.0211669 ], [ 38.8263137, 9.0225126 ], [ 38.8268289, 9.0218945 ], [ 38.8285495, 9.0210826 ], [ 38.8287024, 9.0208684 ], [ 38.828601, 9.0198933 ], [ 38.8285623, 9.019297 ], [ 38.8299657, 9.0172269 ], [ 38.83083, 9.0160427 ], [ 38.8314384, 9.0144364 ], [ 38.8328078, 9.0141226 ], [ 38.8328451, 9.0137957 ], [ 38.8320277, 9.0123599 ], [ 38.831097, 9.0101996 ], [ 38.8305226, 9.0082114 ], [ 38.829868, 9.0058812 ], [ 38.8289659, 9.0055265 ], [ 38.827472, 9.0052887 ], [ 38.8254516, 9.0040688 ], [ 38.8241735, 9.0051152 ], [ 38.8227761, 9.0063589 ], [ 38.8222351, 9.0086855 ], [ 38.821716, 9.0089211 ], [ 38.821277, 9.0091683 ], [ 38.8206102, 9.0095273 ], [ 38.8205452, 9.0095604 ], [ 38.8198282, 9.0115553 ], [ 38.8186794, 9.0137801 ], [ 38.8193771, 9.0158641 ], [ 38.819362, 9.0164901 ], [ 38.8194273, 9.0176486 ] ] ] } },
{ "type": "Feature", "properties": { "threshold_s": 300, "time_label": "5 min walk" }, "geometry": { "type": "Polygon", "coordinates": [ [ [ 38.7802939, 8.9890597 ], [ 38.7796594, 8.9901999 ], [ 38.78009, 8.9905694 ], [ 38.7807344, 8.9904417 ], [ 38.7811683, 8.9898306 ], [ 38.7818342, 8.9898611 ], [ 38.7822305, 8.9904055 ], [ 38.7817577, 8.9913003 ], [ 38.7817056, 8.9917114 ], [ 38.7816045, 8.9919559 ], [ 38.7815785, 8.992024 ], [ 38.7819521, 8.99183 ], [ 38.7819035, 8.9916806 ], [ 38.7818819, 8.9916106 ], [ 38.7825916, 8.9905884 ], [ 38.7826636, 8.9897776 ], [ 38.7829238, 8.9893312 ], [ 38.7831639, 8.9889418 ], [ 38.7820635, 8.9884861 ], [ 38.7820682, 8.9882728 ], [ 38.7812904, 8.9882357 ], [ 38.7807861, 8.9879986 ], [ 38.780698, 8.9868079 ], [ 38.7805548, 8.9870377 ], [ 38.7804589, 8.9880543 ], [ 38.780833, 8.9883192 ], [ 38.7802939, 8.9890597 ] ] ] } },
{ "type": "Feature", "properties": { "threshold_s": 600, "time_label": "10 min walk" }, "geometry": { "type": "Polygon", "coordinates": [ [ [ 38.777074, 8.9920119 ], [ 38.7770756, 8.992736 ], [ 38.7780153, 8.9925672 ], [ 38.7785955, 8.9926542 ], [ 38.7792901, 8.9935064 ], [ 38.7792163, 8.9939508 ], [ 38.7800358, 8.9938575 ], [ 38.7805353, 8.9943244 ], [ 38.7807734, 8.9938303 ], [ 38.7809926, 8.9933249 ], [ 38.7821728, 8.9934872 ], [ 38.7821735, 8.9939806 ], [ 38.7821738, 8.9945403 ], [ 38.7831055, 8.9938415 ], [ 38.7831059, 8.9933946 ], [ 38.7834713, 8.9922552 ], [ 38.7843922, 8.9918375 ], [ 38.7847998, 8.9918231 ], [ 38.7852648, 8.9915358 ], [ 38.7852007, 8.9903643 ], [ 38.7860818, 8.9902517 ], [ 38.7862242, 8.9899738 ], [ 38.7861874, 8.9898988 ], [ 38.7859198, 8.9895569 ], [ 38.7863435, 8.9883604 ], [ 38.7860875, 8.9884662 ], [ 38.7852267, 8.987993 ], [ 38.7854196, 8.9872595 ], [ 38.7844232, 8.9867945 ], [ 38.7848684, 8.9861044 ], [ 38.7837473, 8.9863137 ], [ 38.7829011, 8.9860035 ], [ 38.7825952, 8.9848691 ], [ 38.7824454, 8.9839019 ], [ 38.7820984, 8.9844963 ], [ 38.7810323, 8.9840708 ], [ 38.7807425, 8.9839147 ], [ 38.7798604, 8.9844213 ], [ 38.779193, 8.9844972 ], [ 38.7786341, 8.9849464 ], [ 38.7785182, 8.9856781 ], [ 38.7780281, 8.986051 ], [ 38.778144, 8.9861994 ], [ 38.7781568, 8.9873024 ], [ 38.777445299999989, 8.9880264 ], [ 38.7785309, 8.9876317 ], [ 38.7784041, 8.9888346 ], [ 38.7779312, 8.9897209 ], [ 38.778172499999989, 8.9898978 ], [ 38.7784117, 8.9902173 ], [ 38.7778173, 8.9911325 ], [ 38.777074, 8.9920119 ] ] ] } },
{ "type": "Feature", "properties": { "threshold_s": 900, "time_label": "15 min walk" }, "geometry": { "type": "Polygon", "coordinates": [ [ [ 38.7741154, 8.9932832 ], [ 38.7741321, 8.9942223 ], [ 38.7741547, 8.9942423 ], [ 38.7745281, 8.9942727 ], [ 38.7746717, 8.9942237 ], [ 38.7748349, 8.9941601 ], [ 38.7772892, 8.9944502 ], [ 38.7777683, 8.9954023 ], [ 38.7781307, 8.9965431 ], [ 38.7783876, 8.9974996 ], [ 38.7791942, 8.9979054 ], [ 38.7792988, 8.9978577 ], [ 38.7799647, 8.9973783 ], [ 38.7822124, 8.9978322 ], [ 38.7837104, 8.996249 ], [ 38.7845103, 8.9958517 ], [ 38.7854666, 8.9953642 ], [ 38.7856102, 8.9952923 ], [ 38.786585, 8.9945701 ], [ 38.7872777, 8.9926361 ], [ 38.7882387, 8.9913539 ], [ 38.7891498, 8.9890196 ], [ 38.7894425, 8.9886955 ], [ 38.7895095, 8.988615 ], [ 38.7886316, 8.987331 ], [ 38.7884371, 8.9870932 ], [ 38.7865849, 8.9852329 ], [ 38.7864894, 8.985204 ], [ 38.7855757, 8.9849273 ], [ 38.7842988, 8.9845215 ], [ 38.7833636, 8.9842113 ], [ 38.7824454, 8.9839019 ], [ 38.781234, 8.9834683 ], [ 38.7810382, 8.9833915 ], [ 38.779409, 8.9827553 ], [ 38.7782876, 8.982047 ], [ 38.7762706, 8.9827382 ], [ 38.776095, 8.9835302 ], [ 38.7755186, 8.9855138 ], [ 38.7748084, 8.9863444 ], [ 38.7750361, 8.9888151 ], [ 38.7745701, 8.9912135 ], [ 38.7741154, 8.9932832 ] ] ] } },
{ "type": "Feature", "properties": { "threshold_s": 300, "time_label": "5 min walk" }, "geometry": { "type": "Polygon", "coordinates": [ [ [ 38.7805977, 9.0074831 ], [ 38.7807083, 9.0082001 ], [ 38.7808102, 9.0082564 ], [ 38.7813303, 9.0080928 ], [ 38.7820528, 9.0077623 ], [ 38.7822264, 9.0073517 ], [ 38.7830203, 9.0068467 ], [ 38.7836044, 9.0063722 ], [ 38.7831223, 9.0055476 ], [ 38.7824663, 9.0048444 ], [ 38.7824927, 9.004531 ], [ 38.782213, 9.0034965 ], [ 38.7822238, 9.0039933 ], [ 38.781468, 9.0045317 ], [ 38.7808784, 9.0045309 ], [ 38.7803663, 9.0037078 ], [ 38.7806882, 9.0033184 ], [ 38.7810322, 9.0029607 ], [ 38.7802617, 9.0027226 ], [ 38.780006899999989, 9.0025548 ], [ 38.7799164, 9.0025541 ], [ 38.7798272, 9.0026634 ], [ 38.7799647, 9.0034833 ], [ 38.779138, 9.0039362 ], [ 38.7791347, 9.0046913 ], [ 38.7792143, 9.0046443 ], [ 38.7800604, 9.0045554 ], [ 38.7801361, 9.0051451 ], [ 38.7794724, 9.0056821 ], [ 38.7796256, 9.0059179 ], [ 38.7805417, 9.0063265 ], [ 38.7808687, 9.0065461 ], [ 38.7805977, 9.0074831 ] ] ] } },
{ "type": "Feature", "properties": { "threshold_s": 600, "time_label": "10 min walk" }, "geometry": { "type": "Polygon", "coordinates": [ [ [ 38.7781482, 9.0088664 ], [ 38.7790936, 9.010173 ], [ 38.7806296, 9.0112613 ], [ 38.7810649, 9.011236 ], [ 38.7811587, 9.0112123 ], [ 38.7818241, 9.010273 ], [ 38.7828936, 9.0091551 ], [ 38.78388, 9.0099154 ], [ 38.7839428, 9.0099255 ], [ 38.7848943, 9.008467 ], [ 38.7856355, 9.0081908 ], [ 38.7869069, 9.0073067 ], [ 38.7867191, 9.0066497 ], [ 38.7860788, 9.0059955 ], [ 38.7858608, 9.0048218 ], [ 38.7859473, 9.0044728 ], [ 38.7860801, 9.0039297 ], [ 38.7856484, 9.0032226 ], [ 38.7855785, 9.0032038 ], [ 38.7842169, 9.0026576 ], [ 38.7839846, 9.0025018 ], [ 38.7831923, 9.0024359 ], [ 38.783090799999989, 9.0006189 ], [ 38.7834549, 9.0004129 ], [ 38.7835287, 9.0002109 ], [ 38.7828391, 9.0003345 ], [ 38.7812856, 8.9996232 ], [ 38.7794906, 8.9991652 ], [ 38.7795597, 9.0006527 ], [ 38.7797689, 9.0015699 ], [ 38.7792411, 9.0026554 ], [ 38.7787355, 9.0030202 ], [ 38.7770202, 9.0034039 ], [ 38.7761237, 9.004792 ], [ 38.7768298, 9.0066669 ], [ 38.7765026, 9.0069991 ], [ 38.776632, 9.0070636 ], [ 38.7767099, 9.0071045 ], [ 38.7767849, 9.0069623 ], [ 38.7785178, 9.006465 ], [ 38.7790846, 9.007266 ], [ 38.7785454, 9.0085995 ], [ 38.7781482, 9.0088664 ] ] ] } },
{ "type": "Feature", "properties": { "threshold_s": 900, "time_label": "15 min walk" }, "geometry": { "type": "Polygon", "coordinates": [ [ [ 38.773689, 9.0090041 ], [ 38.7747961, 9.0104276 ], [ 38.7759849, 9.0099015 ], [ 38.7778365, 9.0113481 ], [ 38.7778035, 9.0124771 ], [ 38.7793668, 9.0132882 ], [ 38.7812692, 9.0141888 ], [ 38.782059, 9.014438 ], [ 38.7835138, 9.0134781 ], [ 38.7844334, 9.0118889 ], [ 38.7865018, 9.0107454 ], [ 38.7866333, 9.0102849 ], [ 38.7884709, 9.0091113 ], [ 38.7895234, 9.0088889 ], [ 38.7901014, 9.0077425 ], [ 38.7896529, 9.005535 ], [ 38.788482, 9.003886 ], [ 38.7879201, 9.0024097 ], [ 38.787735, 9.001911 ], [ 38.7864798, 9.0004639 ], [ 38.7862813, 8.9984227 ], [ 38.7860298, 8.998377 ], [ 38.7856127, 8.9987552 ], [ 38.7837318, 8.9974862 ], [ 38.7821989, 8.9967544 ], [ 38.7806037, 8.9964146 ], [ 38.7786997, 8.9959215 ], [ 38.7785756, 8.9959215 ], [ 38.7781307, 8.9965431 ], [ 38.777362, 8.9984848 ], [ 38.7779966, 8.9994625 ], [ 38.7768014, 9.00144 ], [ 38.7762056, 9.001101 ], [ 38.7755679, 9.0008639 ], [ 38.7762203, 9.001462 ], [ 38.7757771, 9.0033548 ], [ 38.7753379, 9.0044741 ], [ 38.77382510000001, 9.0059662 ], [ 38.773414, 9.0061278 ], [ 38.773443, 9.0062162 ], [ 38.7739673, 9.0082511 ], [ 38.773689, 9.0090041 ] ] ] } },
{ "type": "Feature", "properties": { "threshold_s": 300, "time_label": "5 min walk" }, "geometry": { "type": "Polygon", "coordinates": [ [ [ 38.7845344, 8.9902803 ], [ 38.7847848, 8.990799 ], [ 38.7849754, 8.9907174 ], [ 38.7852007, 8.9903643 ], [ 38.7858171, 8.9901332 ], [ 38.7860818, 8.9902517 ], [ 38.7863289, 8.990156 ], [ 38.7862157, 8.9911515 ], [ 38.7864352, 8.991668 ], [ 38.7871316, 8.9907792 ], [ 38.7879873, 8.9904466 ], [ 38.7879109, 8.9901953 ], [ 38.7878561, 8.9895616 ], [ 38.7878362, 8.9895168 ], [ 38.7877684, 8.9893527 ], [ 38.7882802, 8.9889543 ], [ 38.788588, 8.989031 ], [ 38.7890729, 8.9888406 ], [ 38.7890604, 8.9888117 ], [ 38.788579, 8.9890066 ], [ 38.7879864, 8.9885749 ], [ 38.7874097, 8.9888361 ], [ 38.7871414, 8.9880545 ], [ 38.7872168, 8.9880216 ], [ 38.7878494, 8.9877103 ], [ 38.7883132, 8.9874833 ], [ 38.7886316, 8.987331 ], [ 38.7876418, 8.9868276 ], [ 38.7873733, 8.9867546 ], [ 38.7868774, 8.9866064 ], [ 38.786632, 8.9870718 ], [ 38.7859409, 8.9868074 ], [ 38.7854196, 8.9872595 ], [ 38.7863919, 8.9875443 ], [ 38.7858793, 8.9879902 ], [ 38.7860875, 8.9884662 ], [ 38.7863435, 8.9883604 ], [ 38.7865421, 8.9882794 ], [ 38.7867261, 8.9892235 ], [ 38.7864794, 8.9893409 ], [ 38.7858167, 8.9892732 ], [ 38.7854196, 8.989612 ], [ 38.7850903, 8.9893134 ], [ 38.7852551, 8.9888688 ], [ 38.7847764, 8.9890768 ], [ 38.78467, 8.9891226 ], [ 38.7844916, 8.9891908 ], [ 38.7846518, 8.9895544 ], [ 38.7849383, 8.9897562 ], [ 38.7845344, 8.9902803 ] ] ] } },
{ "type": "Feature", "properties": { "threshold_s": 600, "time_label": "10 min walk" }, "geometry": { "type": "Polygon", "coordinates": [ [ [ 38.7817577, 8.9913003 ], [ 38.7815785, 8.992024 ], [ 38.7821482, 8.9918317 ], [ 38.783090799999989, 8.9925567 ], [ 38.7836621, 8.9932839 ], [ 38.7849207, 8.99408 ], [ 38.7858836, 8.9938217 ], [ 38.7860621, 8.9936699 ], [ 38.7860104, 8.9923858 ], [ 38.7872777, 8.9926361 ], [ 38.7880334, 8.9933872 ], [ 38.7887993, 8.9927548 ], [ 38.790229, 8.9920772 ], [ 38.7897353, 8.991741 ], [ 38.7886027, 8.9912301 ], [ 38.7885388, 8.9899385 ], [ 38.7892605, 8.9895906 ], [ 38.7898357, 8.9893544 ], [ 38.7908511, 8.9885033 ], [ 38.7915243, 8.9889524 ], [ 38.7916591, 8.9890332 ], [ 38.7920807, 8.9883178 ], [ 38.7915198, 8.9870829 ], [ 38.7904086, 8.9868038 ], [ 38.7899319, 8.9864302 ], [ 38.7899034, 8.9864138 ], [ 38.789819799999989, 8.986366 ], [ 38.7888132, 8.9859297 ], [ 38.7879749, 8.9856538 ], [ 38.7865849, 8.9852329 ], [ 38.7855757, 8.9849273 ], [ 38.784115, 8.9851798 ], [ 38.7831475, 8.985593 ], [ 38.7825301, 8.9865812 ], [ 38.7822559, 8.9870661 ], [ 38.7825948, 8.9877176 ], [ 38.7831639, 8.9889418 ], [ 38.7822512, 8.9894542 ], [ 38.7822305, 8.9904055 ], [ 38.7817577, 8.9913003 ] ] ] } },
{ "type": "Feature", "properties": { "threshold_s": 900, "time_label": "15 min walk" }, "geometry": { "type": "Polygon", "coordinates": [ [ [ 38.7780153, 8.9925672 ], [ 38.7792163, 8.9939508 ], [ 38.7805353, 8.9943244 ], [ 38.7822003, 8.9957636 ], [ 38.7831231, 8.996349 ], [ 38.7845103, 8.9958517 ], [ 38.7862862, 8.9969378 ], [ 38.7863228, 8.9970027 ], [ 38.7863671, 8.9970815 ], [ 38.7865017, 8.9973294 ], [ 38.7893081, 8.9963076 ], [ 38.7911253, 8.9962245 ], [ 38.7915133, 8.995741 ], [ 38.79196, 8.9931645 ], [ 38.7932241, 8.9911744 ], [ 38.7941063, 8.9906088 ], [ 38.7942992, 8.9887271 ], [ 38.7920728, 8.9872025 ], [ 38.7922301, 8.9863968 ], [ 38.7925236, 8.9859406 ], [ 38.7930244, 8.9851688 ], [ 38.7928901, 8.9846423 ], [ 38.7925899, 8.9843608 ], [ 38.7912949, 8.9845058 ], [ 38.7898734, 8.9852407 ], [ 38.7879749, 8.9856538 ], [ 38.7865849, 8.9852329 ], [ 38.7864894, 8.985204 ], [ 38.7855757, 8.9849273 ], [ 38.7842988, 8.9845215 ], [ 38.7833636, 8.9842113 ], [ 38.7829895, 8.9840922 ], [ 38.7824454, 8.9839019 ], [ 38.7810323, 8.9840708 ], [ 38.7802336, 8.9860819 ], [ 38.7800309, 8.9868338 ], [ 38.7799814, 8.9879032 ], [ 38.7791637, 8.9898442 ], [ 38.7779963, 8.9924391 ], [ 38.7780153, 8.9925672 ] ] ] } }
]
}
