{
"type": "FeatureCollection",
"name": "isochrone_amenity_pub_drive",
"crs": { "type": "name", "properties": { "name": "urn:ogc:def:crs:OGC:1.3:CRS84" } },
"features": [
{ "type": "Feature", "properties": { "threshold_s": 300, "time_label": "5 min drive" }, "geometry": { "type": "Polygon", "coordinates": [ [ [ 38.7460263, 9.0241043 ], [ 38.7463807, 9.0263647 ], [ 38.748782, 9.0262905 ], [ 38.7501642, 9.0276345 ], [ 38.7501956, 9.027699 ], [ 38.7516948, 9.0287486 ], [ 38.7526328, 9.0285574 ], [ 38.7552246, 9.0265647 ], [ 38.7572955, 9.0263761 ], [ 38.7573693, 9.0258112 ], [ 38.7576048, 9.024946 ], [ 38.7575279, 9.0235574 ], [ 38.7602254, 9.0222978 ], [ 38.7605536, 9.0224021 ], [ 38.7602755, 9.0220911 ], [ 38.7600956, 9.0220791 ], [ 38.7587366, 9.0212076 ], [ 38.7603636, 9.0186068 ], [ 38.7605842, 9.0185252 ], [ 38.76068, 9.0184747 ], [ 38.7638073, 9.0191651 ], [ 38.7657801, 9.0168339 ], [ 38.7649382, 9.0162277 ], [ 38.7632994, 9.0143168 ], [ 38.7658891, 9.0123181 ], [ 38.7683696, 9.0132238 ], [ 38.7695735, 9.0120323 ], [ 38.7706225, 9.010122 ], [ 38.7706413, 9.0092666 ], [ 38.7688528, 9.0085028 ], [ 38.7680934, 9.008144 ], [ 38.7678266, 9.0080481 ], [ 38.7674965, 9.0079313 ], [ 38.7665786, 9.007126 ], [ 38.767867, 9.0044714 ], [ 38.7680657, 9.0039884 ], [ 38.767328, 9.0017712 ], [ 38.7673828, 8.9998628 ], [ 38.7668332, 8.9995569 ], [ 38.7656343, 8.9994049 ], [ 38.7636747, 8.9996135 ], [ 38.7604745, 8.9999085 ], [ 38.7588115, 8.9971097 ], [ 38.759535, 8.9958867 ], [ 38.7595939, 8.9955921 ], [ 38.7596548, 8.9944049 ], [ 38.7595485, 8.9939777 ], [ 38.7593972, 8.993556 ], [ 38.7591808, 8.9929533 ], [ 38.757013, 8.9912123 ], [ 38.753855, 8.9904583 ], [ 38.7519884, 8.9898262 ], [ 38.7504898, 8.990246 ], [ 38.7479952, 8.9924244 ], [ 38.7449813, 8.9932408 ], [ 38.7446667, 8.9949007 ], [ 38.7448465, 8.9951276 ], [ 38.7453434, 8.9957544 ], [ 38.7458811, 8.998566 ], [ 38.7456058, 8.9999417 ], [ 38.743207, 9.0023614 ], [ 38.7406738, 9.0016086 ], [ 38.7405517, 9.0016754 ], [ 38.7394138, 9.0033881 ], [ 38.7381765, 9.0059311 ], [ 38.7377773, 9.008472 ], [ 38.7371388, 9.0095967 ], [ 38.7359091, 9.0114509 ], [ 38.7376246, 9.0128814 ], [ 38.7392, 9.0135461 ], [ 38.7381084, 9.016537 ], [ 38.7395934, 9.0180534 ], [ 38.7399206, 9.0183454 ], [ 38.7400752, 9.0184858 ], [ 38.7403048, 9.0186944 ], [ 38.742114, 9.0213713 ], [ 38.7431634, 9.0219375 ], [ 38.7441473, 9.022135 ], [ 38.7460263, 9.0241043 ] ] ] } },
{ "type": "Feature", "properties": { "threshold_s": 600, "time_label": "10 min drive" }, "geometry": { "type": "Polygon", "coordinates": [ [ [ 38.729176, 9.0338489 ], [ 38.7327739, 9.0382572 ], [ 38.7359305, 9.0415209 ], [ 38.7418223, 9.0449198 ], [ 38.7463626, 9.0482666 ], [ 38.7519653, 9.0479608 ], [ 38.7554499, 9.04807 ], [ 38.7568986, 9.0481555 ], [ 38.7611413, 9.0435941 ], [ 38.7643159, 9.0387298 ], [ 38.7689507, 9.0342088 ], [ 38.7725072, 9.0345694 ], [ 38.7777275, 9.0282723 ], [ 38.7818747, 9.0258742 ], [ 38.7873343, 9.0195722 ], [ 38.7878468, 9.0195093 ], [ 38.7883749, 9.0194457 ], [ 38.7890406, 9.0193886 ], [ 38.7896598, 9.0192439 ], [ 38.791997, 9.0167392 ], [ 38.7917102, 9.0153279 ], [ 38.7901039, 9.0104895 ], [ 38.7898343, 9.0055715 ], [ 38.7883566, 9.0003414 ], [ 38.788114299999989, 8.9962622 ], [ 38.7858171, 8.9901332 ], [ 38.7856251, 8.9896706 ], [ 38.7840738, 8.987376 ], [ 38.7813853, 8.9856571 ], [ 38.7793551, 8.9859527 ], [ 38.7736506, 8.9816522 ], [ 38.7725521, 8.9809154 ], [ 38.7725092, 8.9808906 ], [ 38.7712984, 8.9803752 ], [ 38.7708268, 8.9803929 ], [ 38.7646558, 8.9779692 ], [ 38.7637936, 8.9749856 ], [ 38.7635992, 8.9740943 ], [ 38.7632888, 8.9736929 ], [ 38.7613593, 8.9707294 ], [ 38.7570116, 8.9719198 ], [ 38.7512788, 8.9696611 ], [ 38.7493646, 8.9693139 ], [ 38.7474878, 8.9693645 ], [ 38.7437968, 8.9708306 ], [ 38.7418548, 8.9716482 ], [ 38.7394351, 8.9738229 ], [ 38.7379177, 8.975337 ], [ 38.7362261, 8.9786975 ], [ 38.7315103, 8.982519 ], [ 38.730893, 8.9833279 ], [ 38.730087, 8.9846804 ], [ 38.7255622, 8.9913882 ], [ 38.7242852, 8.9953717 ], [ 38.7235325, 8.9981853 ], [ 38.7236724, 8.9987142 ], [ 38.7268985, 8.9991841 ], [ 38.7292146, 9.0052443 ], [ 38.7285474, 9.0064755 ], [ 38.7284978, 9.0065722 ], [ 38.726517, 9.0109459 ], [ 38.7201735, 9.0095651 ], [ 38.7197471, 9.0087074 ], [ 38.7190564, 9.0070821 ], [ 38.7185884, 9.0057496 ], [ 38.7164148, 9.0078491 ], [ 38.7151706, 9.0127228 ], [ 38.7151935, 9.0129759 ], [ 38.7152307, 9.0130989 ], [ 38.7184063, 9.0183003 ], [ 38.7180035, 9.0215475 ], [ 38.719203, 9.0235899 ], [ 38.7214541, 9.0248725 ], [ 38.7266973, 9.0299611 ], [ 38.7279331, 9.0322825 ], [ 38.729176, 9.0338489 ] ] ] } },
{ "type": "Feature", "properties": { "threshold_s": 900, "time_label": "15 min drive" }, "geometry": { "type": "Polygon", "coordinates": [ [ [ 38.7195439, 9.0541978 ], [ 38.72183, 9.0575985 ], [ 38.7327332, 9.0653255 ], [ 38.7419737, 9.0678634 ], [ 38.74749, 9.0692545 ], [ 38.7608059, 9.0681608 ], [ 38.7630828, 9.0677903 ], [ 38.7702477, 9.0634388 ], [ 38.7759614, 9.0573235 ], [ 38.7831179, 9.0509048 ], [ 38.7879583, 9.0472925 ], [ 38.7889132, 9.046568 ], [ 38.7893323, 9.046174 ], [ 38.7888638, 9.0443872 ], [ 38.7898711, 9.0353037 ], [ 38.7988474, 9.0307862 ], [ 38.8011234, 9.0303124 ], [ 38.8048161, 9.0292985 ], [ 38.8133654, 9.0199396 ], [ 38.8133688, 9.0197109 ], [ 38.8107811, 9.013385 ], [ 38.8095595, 9.005847 ], [ 38.8090955, 8.9957152 ], [ 38.8090572, 8.99479 ], [ 38.8035562, 8.9852867 ], [ 38.8021619, 8.9853275 ], [ 38.7996331, 8.9854045 ], [ 38.7971379, 8.9861223 ], [ 38.7899075, 8.9859732 ], [ 38.7880106, 8.9854871 ], [ 38.7855757, 8.9849273 ], [ 38.7842988, 8.9845215 ], [ 38.7787516, 8.9794447 ], [ 38.7804589, 8.9680504 ], [ 38.7804395, 8.9665631 ], [ 38.7745996, 8.9593655 ], [ 38.7708053, 8.9542429 ], [ 38.759338, 8.9508307 ], [ 38.751213, 8.9483818 ], [ 38.7499384, 8.9484345 ], [ 38.7480074, 8.9501081 ], [ 38.7426528, 8.9535119 ], [ 38.732454, 8.9546242 ], [ 38.7296147, 8.9564213 ], [ 38.7270542, 8.9595824 ], [ 38.7258243, 8.9612139 ], [ 38.7211067, 8.9678238 ], [ 38.7148428, 8.9757077 ], [ 38.7134582, 8.9786635 ], [ 38.7065338, 8.9882529 ], [ 38.6995291, 8.9988778 ], [ 38.6959505, 9.003682 ], [ 38.6947051, 9.0111096 ], [ 38.6959451, 9.0198971 ], [ 38.7003976, 9.02517 ], [ 38.7057124, 9.0336308 ], [ 38.7101023, 9.0394256 ], [ 38.7133836, 9.0469083 ], [ 38.7134311, 9.0469746 ], [ 38.7195439, 9.0541978 ] ] ] } },
{ "type": "Feature", "properties": { "threshold_s": 300, "time_label": "5 min drive" }, "geometry": { "type": "Polygon", "coordinates": [ [ [ 38.7601513, 9.0005071 ], [ 38.76146, 9.0035082 ], [ 38.7629613, 9.0049758 ], [ 38.7661556, 9.0073141 ], [ 38.7699708, 9.0073954 ], [ 38.7717272, 9.0079713 ], [ 38.7721322, 9.008018 ], [ 38.7763593, 9.0077319 ], [ 38.778296, 9.0051979 ], [ 38.7782481, 9.0051158 ], [ 38.7772268, 9.0028263 ], [ 38.7788891, 8.9997858 ], [ 38.7809611, 8.999987 ], [ 38.782378, 8.9997652 ], [ 38.783416, 8.9991267 ], [ 38.7839102, 8.9987704 ], [ 38.7849841, 8.9979637 ], [ 38.7855356, 8.9969067 ], [ 38.7854666, 8.9953642 ], [ 38.7885437, 8.9923131 ], [ 38.7893008, 8.9887511 ], [ 38.7890151, 8.9881152 ], [ 38.7886316, 8.987331 ], [ 38.7884371, 8.9870932 ], [ 38.7855757, 8.9849273 ], [ 38.7842988, 8.9845215 ], [ 38.7829895, 8.9840922 ], [ 38.7824454, 8.9839019 ], [ 38.7782876, 8.982047 ], [ 38.7767255, 8.9817067 ], [ 38.7738427, 8.980634 ], [ 38.7718879, 8.979752 ], [ 38.7708268, 8.9803929 ], [ 38.7695651, 8.9811775 ], [ 38.7659251, 8.9808102 ], [ 38.7650426, 8.9787808 ], [ 38.7646558, 8.9779692 ], [ 38.764073, 8.9772204 ], [ 38.7638058, 8.9768236 ], [ 38.7623526, 8.9769294 ], [ 38.760112, 8.9782971 ], [ 38.7579608, 8.9816198 ], [ 38.7566514, 8.9847435 ], [ 38.7564533, 8.9867181 ], [ 38.7567562, 8.9884636 ], [ 38.7591509, 8.9921947 ], [ 38.7594068, 8.9930156 ], [ 38.7593601, 8.9973697 ], [ 38.7601513, 9.0005071 ] ] ] } },
{ "type": "Feature", "properties": { "threshold_s": 600, "time_label": "10 min drive" }, "geometry": { "type": "Polygon", "coordinates": [ [ [ 38.7461799, 9.0166689 ], [ 38.7503751, 9.0212789 ], [ 38.752181899999989, 9.0217133 ], [ 38.7616201, 9.0233396 ], [ 38.7673037, 9.0253571 ], [ 38.7725207, 9.0260996 ], [ 38.7764432, 9.0256874 ], [ 38.7811059, 9.0234327 ], [ 38.788878, 9.0207199 ], [ 38.7910475, 9.0204121 ], [ 38.7934182, 9.0170489 ], [ 38.7961516, 9.0125743 ], [ 38.7978778, 9.008977 ], [ 38.8016061, 9.0039712 ], [ 38.8021788, 9.0022232 ], [ 38.8024677, 9.0009613 ], [ 38.8052055, 8.9923599 ], [ 38.8066987, 8.9893138 ], [ 38.8035562, 8.9852867 ], [ 38.8021619, 8.9853275 ], [ 38.7996331, 8.9854045 ], [ 38.7971379, 8.9861223 ], [ 38.7899075, 8.9859732 ], [ 38.7880106, 8.9854871 ], [ 38.7855757, 8.9849273 ], [ 38.7842988, 8.9845215 ], [ 38.7787516, 8.9794447 ], [ 38.7777914, 8.9763594 ], [ 38.7804589, 8.9680504 ], [ 38.7804395, 8.9665631 ], [ 38.7775834, 8.9635925 ], [ 38.7686284, 8.9592369 ], [ 38.7667072, 8.9588799 ], [ 38.7607164, 8.9597051 ], [ 38.7562884, 8.9598503 ], [ 38.7547546, 8.9598338 ], [ 38.7526631, 8.9617102 ], [ 38.748662, 8.9659893 ], [ 38.7422511, 8.9720595 ], [ 38.739083, 8.9786417 ], [ 38.7388001, 8.9807726 ], [ 38.7382566, 8.9884032 ], [ 38.7391173, 8.9940268 ], [ 38.7394057, 9.0002786 ], [ 38.7450837, 9.0051057 ], [ 38.7440647, 9.0101702 ], [ 38.7441169, 9.0104975 ], [ 38.7451623, 9.0154851 ], [ 38.7461799, 9.0166689 ] ] ] } },
{ "type": "Feature", "properties": { "threshold_s": 900, "time_label": "15 min drive" }, "geometry": { "type": "Polygon", "coordinates": [ [ [ 38.7248057, 9.0196475 ], [ 38.7357049, 9.0343764 ], [ 38.7425705, 9.0386271 ], [ 38.7496724, 9.0424795 ], [ 38.7611534, 9.0441026 ], [ 38.7732972, 9.0454662 ], [ 38.7745291, 9.0452189 ], [ 38.7769984, 9.0446767 ], [ 38.782942, 9.0416807 ], [ 38.788646, 9.0371199 ], [ 38.8048161, 9.0292985 ], [ 38.8137814, 9.0214542 ], [ 38.8183136, 9.0119977 ], [ 38.8235615, 9.000845 ], [ 38.8289452, 8.9842814 ], [ 38.8289297, 8.9840815 ], [ 38.8277744, 8.9773 ], [ 38.8264856, 8.9760522 ], [ 38.825117, 8.9752283 ], [ 38.8220191, 8.9769747 ], [ 38.8218902, 8.9771681 ], [ 38.8066972, 8.9860036 ], [ 38.8035562, 8.9852867 ], [ 38.8021619, 8.9853275 ], [ 38.7919347, 8.9698281 ], [ 38.7983287, 8.9653657 ], [ 38.7995121, 8.9644203 ], [ 38.8001909, 8.9634762 ], [ 38.7966031, 8.9573121 ], [ 38.7954142, 8.9556839 ], [ 38.792459, 8.9534385 ], [ 38.7920306, 8.9531866 ], [ 38.7915709, 8.952915 ], [ 38.7908254, 8.9525403 ], [ 38.7867438, 8.9511765 ], [ 38.7743569, 8.9402565 ], [ 38.7724535, 8.9380532 ], [ 38.771988, 8.9379385 ], [ 38.7629749, 8.9379093 ], [ 38.7522889, 8.9418676 ], [ 38.7493332, 8.9432814 ], [ 38.7426053, 8.948739 ], [ 38.732454, 8.9546242 ], [ 38.7297839, 8.9566203 ], [ 38.7270542, 8.9595824 ], [ 38.7258243, 8.9612139 ], [ 38.7248217, 8.964564 ], [ 38.7238605, 8.9678774 ], [ 38.721735099999989, 8.9873103 ], [ 38.7210349, 8.9901775 ], [ 38.720356099999989, 8.9927377 ], [ 38.7190194, 9.0001837 ], [ 38.721633, 9.0119422 ], [ 38.7248057, 9.0196475 ] ] ] } },
{ "type": "Feature", "properties": { "threshold_s": 300, "time_label": "5 min drive" }, "geometry": { "type": "Polygon", "coordinates": [ [ [ 38.7783258, 8.9985267 ], [ 38.7780823, 9.0053305 ], [ 38.7837833, 9.0077407 ], [ 38.7884384, 9.0091028 ], [ 38.7884709, 9.0091113 ], [ 38.7913185, 9.007363 ], [ 38.7917664, 9.0063258 ], [ 38.7984222, 9.003494 ], [ 38.7993101, 9.0037383 ], [ 38.8012192, 9.004282 ], [ 38.8013844, 9.0027679 ], [ 38.8012889, 9.0015944 ], [ 38.8013238, 8.9997042 ], [ 38.8038621, 8.9932965 ], [ 38.8048338, 8.9919389 ], [ 38.8058082, 8.9901794 ], [ 38.8058456, 8.9893081 ], [ 38.8035562, 8.9852867 ], [ 38.8021619, 8.9853275 ], [ 38.7996331, 8.9854045 ], [ 38.7971379, 8.9861223 ], [ 38.789819799999989, 8.986366 ], [ 38.788826, 8.985809 ], [ 38.7855757, 8.9849273 ], [ 38.7842988, 8.9845215 ], [ 38.7829895, 8.9840922 ], [ 38.7790937, 8.9824536 ], [ 38.7789774, 8.9838548 ], [ 38.7796594, 8.9901999 ], [ 38.7766295, 8.9930188 ], [ 38.7783258, 8.9985267 ] ] ] } },
{ "type": "Feature", "properties": { "threshold_s": 600, "time_label": "10 min drive" }, "geometry": { "type": "Polygon", "coordinates": [ [ [ 38.7623666, 9.0174082 ], [ 38.7650922, 9.0223314 ], [ 38.778014, 9.025166 ], [ 38.7845473, 9.0282398 ], [ 38.7874505, 9.0295787 ], [ 38.7884042, 9.0291921 ], [ 38.8013113, 9.0240498 ], [ 38.8110194, 9.0199451 ], [ 38.817654, 9.0119948 ], [ 38.8228749, 9.0001999 ], [ 38.8256615, 8.9912976 ], [ 38.8277737, 8.9844115 ], [ 38.8268919, 8.9778041 ], [ 38.8268535, 8.977765 ], [ 38.823827799999989, 8.9768259 ], [ 38.8232755, 8.9774733 ], [ 38.8208006, 8.9803978 ], [ 38.8079529, 8.9863615 ], [ 38.8066972, 8.9860036 ], [ 38.8035562, 8.9852867 ], [ 38.8021619, 8.9853275 ], [ 38.7996331, 8.9854045 ], [ 38.7971379, 8.9861223 ], [ 38.7899075, 8.9859732 ], [ 38.7880106, 8.9854871 ], [ 38.7855757, 8.9849273 ], [ 38.7842988, 8.9845215 ], [ 38.7787516, 8.9794447 ], [ 38.7804589, 8.9680504 ], [ 38.7804395, 8.9665631 ], [ 38.7775834, 8.9635925 ], [ 38.7726275, 8.964449 ], [ 38.7609422, 8.9727954 ], [ 38.7606675, 8.9737722 ], [ 38.7597825, 8.986384 ], [ 38.7596757, 8.9879482 ], [ 38.7593601, 8.9973697 ], [ 38.7594056, 9.011551 ], [ 38.7623666, 9.0174082 ] ] ] } },
{ "type": "Feature", "properties": { "threshold_s": 900, "time_label": "15 min drive" }, "geometry": { "type": "Polygon", "coordinates": [ [ [ 38.742114, 9.0213713 ], [ 38.7452193, 9.0273356 ], [ 38.7584061, 9.0370047 ], [ 38.7678945, 9.0410057 ], [ 38.7745828, 9.0428996 ], [ 38.7841617, 9.0449933 ], [ 38.7869235, 9.0434758 ], [ 38.8042312, 9.0365115 ], [ 38.814948, 9.0379766 ], [ 38.8176145, 9.0370062 ], [ 38.8185347, 9.0364926 ], [ 38.8228783, 9.0335362 ], [ 38.8303388, 9.027232 ], [ 38.8339238, 9.0216463 ], [ 38.8391718, 9.008167 ], [ 38.8408287, 9.0013282 ], [ 38.8436814, 8.9895324 ], [ 38.8431447, 8.9802188 ], [ 38.8376764, 8.9692227 ], [ 38.8309743, 8.9575601 ], [ 38.8180145, 8.9621375 ], [ 38.8114894, 8.9641966 ], [ 38.7954142, 8.9556839 ], [ 38.7908994, 8.9530451 ], [ 38.787465, 8.9521653 ], [ 38.7869571, 8.9521051 ], [ 38.7688543, 8.9481925 ], [ 38.7598615, 8.9518502 ], [ 38.7500526, 8.9667886 ], [ 38.7443585, 8.9744539 ], [ 38.7410338, 8.9804994 ], [ 38.7400326, 8.9914265 ], [ 38.7399769, 8.9927976 ], [ 38.7373792, 9.0111042 ], [ 38.7374018, 9.0112675 ], [ 38.7395645, 9.0164008 ], [ 38.742114, 9.0213713 ] ] ] } },
{ "type": "Feature", "properties": { "threshold_s": 300, "time_label": "5 min drive" }, "geometry": { "type": "Polygon", "coordinates": [ [ [ 38.7474743, 8.9625299 ], [ 38.7486493, 8.9654003 ], [ 38.7500526, 8.9667886 ], [ 38.754786, 8.9704253 ], [ 38.7570116, 8.9719198 ], [ 38.759932, 8.9764989 ], [ 38.7671367, 8.976797 ], [ 38.770035, 8.9725261 ], [ 38.7715801, 8.967035 ], [ 38.7737249, 8.9605879 ], [ 38.7746049, 8.9599046 ], [ 38.775242, 8.9583361 ], [ 38.779052, 8.9539221 ], [ 38.7807335, 8.9505511 ], [ 38.779634, 8.9483289 ], [ 38.7756973, 8.9448818 ], [ 38.7743569, 8.9402565 ], [ 38.7724535, 8.9380532 ], [ 38.771988, 8.9379385 ], [ 38.7710331, 8.9386429 ], [ 38.7649015, 8.9419151 ], [ 38.7633346, 8.9403366 ], [ 38.7600285, 8.9419964 ], [ 38.7537296, 8.9430502 ], [ 38.7523361, 8.949291 ], [ 38.7517645, 8.9508566 ], [ 38.7514167, 8.9524664 ], [ 38.7476609, 8.9574208 ], [ 38.7464974, 8.9584282 ], [ 38.746077, 8.9588322 ], [ 38.7474743, 8.9625299 ] ] ] } },
{ "type": "Feature", "properties": { "threshold_s": 600, "time_label": "10 min drive" }, "geometry": { "type": "Polygon", "coordinates": [ [ [ 38.7339346, 8.9746786 ], [ 38.7341784, 8.9766996 ], [ 38.7383627, 8.9785833 ], [ 38.7410338, 8.9804994 ], [ 38.743529, 8.9827014 ], [ 38.7456711, 8.9851227 ], [ 38.7484661, 8.9879114 ], [ 38.7516388, 8.9938777 ], [ 38.7520486, 8.9949625 ], [ 38.7541654, 8.9959883 ], [ 38.7555328, 8.9966276 ], [ 38.759032, 8.998066 ], [ 38.7604752, 8.9976293 ], [ 38.7656003, 8.9952358 ], [ 38.770249, 8.9931077 ], [ 38.7740155, 8.9912685 ], [ 38.779415899999989, 8.9911439 ], [ 38.7818342, 8.9898611 ], [ 38.7838559, 8.9877536 ], [ 38.7844232, 8.9867945 ], [ 38.7842988, 8.9845215 ], [ 38.7787516, 8.9794447 ], [ 38.7777914, 8.9763594 ], [ 38.7773623, 8.9752898 ], [ 38.7759295, 8.9724099 ], [ 38.7804589, 8.9680504 ], [ 38.7828796, 8.9680649 ], [ 38.7902771, 8.9669999 ], [ 38.7909604, 8.9677523 ], [ 38.7919347, 8.9698281 ], [ 38.7930217, 8.9659361 ], [ 38.7962545, 8.9594646 ], [ 38.7965468, 8.9561463 ], [ 38.797655399999989, 8.9502162 ], [ 38.7988172, 8.9457455 ], [ 38.7984793, 8.9453468 ], [ 38.7931886, 8.9442637 ], [ 38.7923188, 8.9370136 ], [ 38.7915686, 8.9302001 ], [ 38.7896334, 8.9318244 ], [ 38.788127, 8.933209 ], [ 38.7819461, 8.9291482 ], [ 38.7830064, 8.9257519 ], [ 38.7849435, 8.9241203 ], [ 38.7847035, 8.922135 ], [ 38.7844674, 8.9214944 ], [ 38.7840289, 8.9212838 ], [ 38.7764568, 8.9209443 ], [ 38.7741182, 8.9218004 ], [ 38.7667828, 8.9219933 ], [ 38.7637316, 8.9213882 ], [ 38.7589558, 8.9240405 ], [ 38.7589171, 8.9271134 ], [ 38.7550425, 8.9308073 ], [ 38.7489306, 8.9280234 ], [ 38.7449507, 8.9256387 ], [ 38.7403308, 8.9267875 ], [ 38.7393851, 8.9289103 ], [ 38.7391904, 8.9306984 ], [ 38.7382661, 8.934166 ], [ 38.7342534, 8.9379186 ], [ 38.7353253, 8.9424163 ], [ 38.7350102, 8.9443899 ], [ 38.7310857, 8.949344 ], [ 38.7311058, 8.9497706 ], [ 38.7320356, 8.9508781 ], [ 38.7327489, 8.9519115 ], [ 38.7388181, 8.9533071 ], [ 38.7403759, 8.9568763 ], [ 38.7404933, 8.9609058 ], [ 38.7372129, 8.9662997 ], [ 38.7338521, 8.9650684 ], [ 38.7328751, 8.963896 ], [ 38.7313496, 8.9646863 ], [ 38.7340753, 8.9706794 ], [ 38.73397, 8.9732129 ], [ 38.7339346, 8.9746786 ] ] ] } },
{ "type": "Feature", "properties": { "threshold_s": 900, "time_label": "15 min drive" }, "geometry": { "type": "Polygon", "coordinates": [ [ [ 38.7289264, 8.9982376 ], [ 38.733824, 9.0047681 ], [ 38.7441169, 9.0104975 ], [ 38.7471465, 9.0144456 ], [ 38.7524126, 9.0191699 ], [ 38.7554835, 9.0175438 ], [ 38.7632994, 9.0143168 ], [ 38.7746465, 9.0115406 ], [ 38.7816516, 9.0130261 ], [ 38.7870385, 9.0084513 ], [ 38.7875245, 9.008059 ], [ 38.7880361, 9.0076636 ], [ 38.7898343, 9.0055715 ], [ 38.7997424, 9.0025671 ], [ 38.8001074, 9.0025819 ], [ 38.8004373, 9.0013812 ], [ 38.8007767, 9.0000299 ], [ 38.8036215, 8.9901698 ], [ 38.8036297, 8.9892932 ], [ 38.8035562, 8.9852867 ], [ 38.8021619, 8.9853275 ], [ 38.7996331, 8.9854045 ], [ 38.7971379, 8.9861223 ], [ 38.7899075, 8.9859732 ], [ 38.7880106, 8.9854871 ], [ 38.7855757, 8.9849273 ], [ 38.7842988, 8.9845215 ], [ 38.7787516, 8.9794447 ], [ 38.7828796, 8.9680649 ], [ 38.7919347, 8.9698281 ], [ 38.8034373, 8.9661348 ], [ 38.8078771, 8.9656652 ], [ 38.8136212, 8.9654861 ], [ 38.8148527, 8.9648424 ], [ 38.8124115, 8.9554505 ], [ 38.8081755, 8.9500842 ], [ 38.8078523, 8.9424627 ], [ 38.8129992, 8.9368379 ], [ 38.8035004, 8.9353497 ], [ 38.801578, 8.9259007 ], [ 38.8039064, 8.9229931 ], [ 38.8033019, 8.9175257 ], [ 38.7994757, 8.917382 ], [ 38.789882, 8.9100642 ], [ 38.7888639, 8.9069062 ], [ 38.7849782, 8.9059148 ], [ 38.7750904, 8.9057028 ], [ 38.771328, 8.9031716 ], [ 38.7692432, 8.9014565 ], [ 38.7676192, 8.9004608 ], [ 38.7658714, 8.8994813 ], [ 38.763595, 8.9005269 ], [ 38.7613018, 8.9018089 ], [ 38.7599354, 8.9027256 ], [ 38.7562308, 8.9052813 ], [ 38.7469514, 8.9077075 ], [ 38.7414475, 8.9063163 ], [ 38.73353, 8.9082675 ], [ 38.7295807, 8.9119588 ], [ 38.7226438, 8.9196104 ], [ 38.7202896, 8.9240603 ], [ 38.7173143, 8.9328074 ], [ 38.7171735, 8.933495 ], [ 38.714205, 8.9436252 ], [ 38.7111602, 8.9483774 ], [ 38.7103955, 8.9506878 ], [ 38.7111095, 8.9555165 ], [ 38.7128595, 8.9667916 ], [ 38.7125853, 8.9693348 ], [ 38.7125092, 8.9702443 ], [ 38.7129884, 8.9721294 ], [ 38.7140299, 8.9732737 ], [ 38.7191693, 8.9798759 ], [ 38.721735099999989, 8.9873103 ], [ 38.7234061, 8.9902196 ], [ 38.7289264, 8.9982376 ] ] ] } },
{ "type": "Feature", "properties": { "threshold_s": 300, "time_label": "5 min drive" }, "geometry": { "type": "Polygon", "coordinates": [ [ [ 38.7766007, 9.0235376 ], [ 38.777128, 9.0248365 ], [ 38.7806417, 9.0258586 ], [ 38.7845473, 9.0282398 ], [ 38.7874505, 9.0295787 ], [ 38.7884042, 9.0291921 ], [ 38.7898626, 9.0285236 ], [ 38.7926964, 9.0264009 ], [ 38.7959445, 9.0257353 ], [ 38.796299, 9.025302 ], [ 38.7963524, 9.0252368 ], [ 38.7974667, 9.0235442 ], [ 38.7992964, 9.0204626 ], [ 38.8016899, 9.0200113 ], [ 38.8019774, 9.0198821 ], [ 38.802462, 9.0194301 ], [ 38.8030907, 9.0146854 ], [ 38.8034284, 9.0138029 ], [ 38.8030966, 9.0136281 ], [ 38.8010811, 9.011184 ], [ 38.8028004, 9.0086231 ], [ 38.8033146, 9.0081789 ], [ 38.805089, 9.0074997 ], [ 38.805683, 9.007259 ], [ 38.8059445, 9.0070212 ], [ 38.8034796, 9.0044801 ], [ 38.8038473, 9.0011438 ], [ 38.8044385, 8.9996268 ], [ 38.8007558, 8.9987956 ], [ 38.7965052, 8.9969379 ], [ 38.7949314, 8.9948251 ], [ 38.7945392, 8.9945138 ], [ 38.7918435, 8.9923162 ], [ 38.7917543, 8.9922639 ], [ 38.788291, 8.9915527 ], [ 38.7847861, 8.9907155 ], [ 38.783081, 8.9918757 ], [ 38.7821735, 8.9939806 ], [ 38.7784264, 8.9944714 ], [ 38.7778293, 8.9946797 ], [ 38.7770092, 8.9949946 ], [ 38.777362, 8.9984848 ], [ 38.7779966, 8.9994625 ], [ 38.7757771, 9.0033548 ], [ 38.7734655, 9.0030482 ], [ 38.7727683, 9.0030296 ], [ 38.7716451, 9.0039323 ], [ 38.771041, 9.0056867 ], [ 38.7717272, 9.0079713 ], [ 38.7725128, 9.0102701 ], [ 38.7742634, 9.0124589 ], [ 38.7743465, 9.0124832 ], [ 38.776373, 9.0129175 ], [ 38.7790322, 9.0148252 ], [ 38.7807383, 9.0166185 ], [ 38.7800908, 9.0202484 ], [ 38.7766472, 9.0235001 ], [ 38.7766007, 9.0235376 ] ] ] } },
{ "type": "Feature", "properties": { "threshold_s": 600, "time_label": "10 min drive" }, "geometry": { "type": "Polygon", "coordinates": [ [ [ 38.7575971, 9.0292881 ], [ 38.7590509, 9.0331043 ], [ 38.7629161, 9.0365657 ], [ 38.7681748, 9.0407239 ], [ 38.7740028, 9.0422343 ], [ 38.7809485, 9.0447399 ], [ 38.7828359, 9.0453659 ], [ 38.7841617, 9.0449933 ], [ 38.7852225, 9.0446915 ], [ 38.7864529, 9.0441642 ], [ 38.7869235, 9.0434758 ], [ 38.788646, 9.0371199 ], [ 38.7997189, 9.0335465 ], [ 38.805898, 9.0343795 ], [ 38.8097365, 9.0345983 ], [ 38.8130282, 9.033534 ], [ 38.8219882, 9.0245452 ], [ 38.8250399, 9.0194069 ], [ 38.8251244, 9.0174136 ], [ 38.8255294, 9.0054258 ], [ 38.8251413, 9.0002383 ], [ 38.8250396, 8.9995291 ], [ 38.8233186, 8.9915543 ], [ 38.8196305, 8.9867349 ], [ 38.8066972, 8.9860036 ], [ 38.8035562, 8.9852867 ], [ 38.8021619, 8.9853275 ], [ 38.7996331, 8.9854045 ], [ 38.788826, 8.985809 ], [ 38.7879749, 8.9856538 ], [ 38.7855757, 8.9849273 ], [ 38.7777914, 8.9763594 ], [ 38.7774548, 8.9759568 ], [ 38.7773636, 8.975878 ], [ 38.7758686, 8.9759305 ], [ 38.7746144, 8.9760208 ], [ 38.7680454, 8.9777212 ], [ 38.763834, 8.9819059 ], [ 38.7591453, 8.9913732 ], [ 38.7563394, 8.9938597 ], [ 38.7558825, 8.9942136 ], [ 38.7542658, 8.9957781 ], [ 38.7544001, 9.0055835 ], [ 38.7503444, 9.0116155 ], [ 38.7536536, 9.0182268 ], [ 38.7573454, 9.0285605 ], [ 38.7575971, 9.0292881 ] ] ] } },
{ "type": "Feature", "properties": { "threshold_s": 900, "time_label": "15 min drive" }, "geometry": { "type": "Polygon", "coordinates": [ [ [ 38.7434116, 9.0452264 ], [ 38.7462735, 9.0484102 ], [ 38.7502585, 9.0521908 ], [ 38.7549576, 9.0551301 ], [ 38.7576104, 9.056615 ], [ 38.7604952, 9.0577625 ], [ 38.7678422, 9.0606812 ], [ 38.772508, 9.061296 ], [ 38.7783858, 9.0620343 ], [ 38.780483, 9.0621365 ], [ 38.7898372, 9.0603259 ], [ 38.8041133, 9.0526841 ], [ 38.8141581, 9.0514736 ], [ 38.8272134, 9.0481608 ], [ 38.8283408, 9.0473664 ], [ 38.832886, 9.0432387 ], [ 38.8430924, 9.0319006 ], [ 38.8447501, 9.0186726 ], [ 38.8441673, 9.0105137 ], [ 38.8432065, 9.0076345 ], [ 38.8391599, 8.9968789 ], [ 38.8424526, 8.9893469 ], [ 38.8426673, 8.9877079 ], [ 38.8418466, 8.9843307 ], [ 38.8404383, 8.9813659 ], [ 38.8290883, 8.9699325 ], [ 38.8261664, 8.9692642 ], [ 38.825781, 8.9692864 ], [ 38.8237234, 8.9695357 ], [ 38.8199978, 8.9720193 ], [ 38.8199384, 8.9723781 ], [ 38.8201026, 8.9728771 ], [ 38.8201199, 8.9729298 ], [ 38.8202709, 8.9734246 ], [ 38.8079529, 8.9863615 ], [ 38.8066972, 8.9860036 ], [ 38.8035562, 8.9852867 ], [ 38.8021619, 8.9853275 ], [ 38.7996331, 8.9854045 ], [ 38.7971379, 8.9861223 ], [ 38.7899075, 8.9859732 ], [ 38.7880106, 8.9854871 ], [ 38.7855757, 8.9849273 ], [ 38.7828796, 8.9680649 ], [ 38.7865958, 8.9662315 ], [ 38.7872891, 8.965332 ], [ 38.787733, 8.9640842 ], [ 38.787617, 8.9637437 ], [ 38.7826837, 8.9639596 ], [ 38.7694941, 8.958712 ], [ 38.7685282, 8.9579152 ], [ 38.7673693, 8.9570893 ], [ 38.7668882, 8.9573459 ], [ 38.7547968, 8.9678955 ], [ 38.7442385, 8.9779779 ], [ 38.7412755, 8.9806774 ], [ 38.7388376, 8.9858469 ], [ 38.7375073, 8.9892226 ], [ 38.7371454, 8.9903463 ], [ 38.7329596, 9.0055351 ], [ 38.7308762, 9.0087034 ], [ 38.7281463, 9.0122149 ], [ 38.730614, 9.0164454 ], [ 38.7311444, 9.017462 ], [ 38.7357245, 9.0251981 ], [ 38.7366399, 9.0346148 ], [ 38.7399562, 9.0406862 ], [ 38.742112, 9.0437179 ], [ 38.7434116, 9.0452264 ] ] ] } },
{ "type": "Feature", "properties": { "threshold_s": 300, "time_label": "5 min drive" }, "geometry": { "type": "Polygon", "coordinates": [ [ [ 38.7530085, 9.0043225 ], [ 38.7535663, 9.009591 ], [ 38.7543717, 9.010126 ], [ 38.7586435, 9.0127141 ], [ 38.7632994, 9.0143168 ], [ 38.767167, 9.0123421 ], [ 38.7706225, 9.010122 ], [ 38.7745506, 9.0111448 ], [ 38.7747322, 9.0111996 ], [ 38.7747681, 9.0111909 ], [ 38.774881, 9.0108722 ], [ 38.7751447, 9.0097636 ], [ 38.7747095, 9.005959 ], [ 38.7766126, 8.999646 ], [ 38.7763041, 8.9957546 ], [ 38.7809926, 8.9933249 ], [ 38.7836118, 8.9910161 ], [ 38.7816779, 8.9891378 ], [ 38.7809162, 8.9889418 ], [ 38.7784041, 8.9888346 ], [ 38.7769009, 8.9885584 ], [ 38.7732505, 8.9832664 ], [ 38.7729625, 8.9812058 ], [ 38.771043, 8.9807541 ], [ 38.7650426, 8.9787808 ], [ 38.7634805, 8.9783721 ], [ 38.759488, 8.9783088 ], [ 38.7553965, 8.9820855 ], [ 38.7531757, 8.9836321 ], [ 38.7524498, 8.9849586 ], [ 38.7500986, 8.9892798 ], [ 38.747121, 8.9917451 ], [ 38.7458342, 8.9949273 ], [ 38.7487378, 8.9988017 ], [ 38.7490623, 8.9992276 ], [ 38.7530085, 9.0043225 ] ] ] } },
{ "type": "Feature", "properties": { "threshold_s": 600, "time_label": "10 min drive" }, "geometry": { "type": "Polygon", "coordinates": [ [ [ 38.7369093, 9.0181657 ], [ 38.7406737, 9.0233965 ], [ 38.7461541, 9.0283428 ], [ 38.7462285, 9.0283971 ], [ 38.7499859, 9.0310799 ], [ 38.7527272, 9.0324999 ], [ 38.7529134, 9.0324932 ], [ 38.75534, 9.028952 ], [ 38.7631958, 9.029803 ], [ 38.7637138, 9.0300983 ], [ 38.7711865, 9.0300653 ], [ 38.7777821, 9.0276153 ], [ 38.7863054, 9.0242298 ], [ 38.7933946, 9.0212397 ], [ 38.7935093, 9.021133 ], [ 38.796247, 9.0179322 ], [ 38.7952426, 9.0151258 ], [ 38.7938008, 9.0089054 ], [ 38.7917389, 9.0056483 ], [ 38.7946719, 8.9978068 ], [ 38.7965052, 8.9969379 ], [ 38.797957, 8.9920335 ], [ 38.8021619, 8.9853275 ], [ 38.7996331, 8.9854045 ], [ 38.7899075, 8.9859732 ], [ 38.7880106, 8.9854871 ], [ 38.7855757, 8.9849273 ], [ 38.7842988, 8.9845215 ], [ 38.7787516, 8.9794447 ], [ 38.7777914, 8.9763594 ], [ 38.7804589, 8.9680504 ], [ 38.7798232, 8.9672529 ], [ 38.7764513, 8.9654406 ], [ 38.7679227, 8.9609839 ], [ 38.7651249, 8.9573814 ], [ 38.7555053, 8.9575243 ], [ 38.7529791, 8.9589019 ], [ 38.7516577, 8.9600086 ], [ 38.7497783, 8.9619784 ], [ 38.748536799999989, 8.9634967 ], [ 38.7436925, 8.9691386 ], [ 38.740063, 8.9708467 ], [ 38.7399331, 8.9709491 ], [ 38.7377591, 8.9745786 ], [ 38.7347285, 8.9804375 ], [ 38.7324125, 8.9841916 ], [ 38.7309319, 8.9868939 ], [ 38.7303544, 8.9902604 ], [ 38.728349, 8.997969 ], [ 38.7284978, 9.0065722 ], [ 38.7316869, 9.0097061 ], [ 38.7369093, 9.0181657 ] ] ] } },
{ "type": "Feature", "properties": { "threshold_s": 900, "time_label": "15 min drive" }, "geometry": { "type": "Polygon", "coordinates": [ [ [ 38.7315959, 9.0404924 ], [ 38.7341995, 9.043839 ], [ 38.736129, 9.0447854 ], [ 38.7446104, 9.0506486 ], [ 38.7446992, 9.0507129 ], [ 38.7528293, 9.0508645 ], [ 38.7572064, 9.0511602 ], [ 38.7616272, 9.0514887 ], [ 38.7686014, 9.0480309 ], [ 38.7788629, 9.0478173 ], [ 38.7841617, 9.0449933 ], [ 38.7843072, 9.0447727 ], [ 38.7846968, 9.0439655 ], [ 38.788646, 9.0371199 ], [ 38.788999, 9.0366321 ], [ 38.7997189, 9.0335465 ], [ 38.808201, 9.0306966 ], [ 38.8147871, 9.0225069 ], [ 38.8171751, 9.0194641 ], [ 38.8171611, 9.0191599 ], [ 38.8127388, 9.0105059 ], [ 38.8138041, 9.0035608 ], [ 38.8188793, 8.9961121 ], [ 38.8212003, 8.990373 ], [ 38.8219132, 8.9872206 ], [ 38.8215003, 8.9841883 ], [ 38.8208006, 8.9803978 ], [ 38.8200144, 8.9840292 ], [ 38.8097735, 8.9869675 ], [ 38.8079529, 8.9863615 ], [ 38.8066972, 8.9860036 ], [ 38.8035562, 8.9852867 ], [ 38.8021619, 8.9853275 ], [ 38.7996331, 8.9854045 ], [ 38.7971379, 8.9861223 ], [ 38.7899075, 8.9859732 ], [ 38.7880106, 8.9854871 ], [ 38.7855757, 8.9849273 ], [ 38.7842988, 8.9845215 ], [ 38.7787516, 8.9794447 ], [ 38.7777914, 8.9763594 ], [ 38.7828796, 8.9680649 ], [ 38.7919347, 8.9698281 ], [ 38.7983287, 8.9653657 ], [ 38.798847, 8.9645032 ], [ 38.7962545, 8.9594646 ], [ 38.7930639, 8.955268 ], [ 38.7906385, 8.9538492 ], [ 38.7863126, 8.9521586 ], [ 38.7788314, 8.9489111 ], [ 38.7759608, 8.9454448 ], [ 38.7737989, 8.941475 ], [ 38.7716901, 8.9383666 ], [ 38.7622802, 8.9371356 ], [ 38.7619592, 8.9372218 ], [ 38.7541265, 8.9406319 ], [ 38.7506712, 8.9409716 ], [ 38.7483571, 8.9415918 ], [ 38.7413709, 8.9472904 ], [ 38.7369977, 8.9494311 ], [ 38.7324205, 8.9523999 ], [ 38.7283475, 8.9555789 ], [ 38.7272319, 8.9565097 ], [ 38.7236738, 8.9611234 ], [ 38.7215828, 8.9686573 ], [ 38.7214819, 8.9692843 ], [ 38.7189332, 8.9793883 ], [ 38.7173092, 8.9803274 ], [ 38.7103656, 8.988313 ], [ 38.7129289, 8.9956126 ], [ 38.7143934, 8.9963353 ], [ 38.7139414, 9.0071815 ], [ 38.7117546, 9.0140297 ], [ 38.7165528, 9.0230948 ], [ 38.7179031, 9.0252248 ], [ 38.71952, 9.0266081 ], [ 38.727008, 9.0346826 ], [ 38.7315959, 9.0404924 ] ] ] } },
{ "type": "Feature", "properties": { "threshold_s": 300, "time_label": "5 min drive" }, "geometry": { "type": "Polygon", "coordinates": [ [ [ 38.8467644, 9.0021269 ], [ 38.847133, 9.0027615 ], [ 38.8491053, 9.0047841 ], [ 38.8495311, 9.0051875 ], [ 38.850382, 9.0058106 ], [ 38.8511537, 9.0058402 ], [ 38.8520834, 9.0059043 ], [ 38.8557418, 9.0078428 ], [ 38.8563341, 9.0081527 ], [ 38.856694, 9.0081418 ], [ 38.8571605, 9.007807 ], [ 38.8588436, 9.0055906 ], [ 38.8629958, 9.0045807 ], [ 38.8653346, 9.0071711 ], [ 38.8655183, 9.0078997 ], [ 38.8662327, 9.0095132 ], [ 38.8664424, 9.009777 ], [ 38.8698051, 9.0088234 ], [ 38.869645, 9.0062027 ], [ 38.8686443, 9.0028691 ], [ 38.868548, 9.0025283 ], [ 38.8679659, 9.0000301 ], [ 38.8685319, 8.9965702 ], [ 38.8683298, 8.9954969 ], [ 38.8658631, 8.9953807 ], [ 38.8647621, 8.9947766 ], [ 38.8638084, 8.9931033 ], [ 38.8659556, 8.990281 ], [ 38.8637757, 8.988145 ], [ 38.8644268, 8.9854301 ], [ 38.8656975, 8.9832292 ], [ 38.8659543, 8.9825954 ], [ 38.8653253, 8.9813012 ], [ 38.8639602, 8.9815304 ], [ 38.8617671, 8.9787642 ], [ 38.861662699999989, 8.9784161 ], [ 38.8598227, 8.9823993 ], [ 38.8556372, 8.9814877 ], [ 38.855432, 8.9797845 ], [ 38.8558564, 8.9770674 ], [ 38.8558424, 8.9770318 ], [ 38.8555617, 8.9771388 ], [ 38.8518164, 8.9790824 ], [ 38.8497531, 8.9811687 ], [ 38.8480453, 8.9831795 ], [ 38.848377, 8.9841832 ], [ 38.8487394, 8.9873422 ], [ 38.8473916, 8.9889473 ], [ 38.8460724, 8.9898733 ], [ 38.8446074, 8.9909144 ], [ 38.8437107, 8.9917778 ], [ 38.8437048, 8.9918238 ], [ 38.844038, 8.9928216 ], [ 38.8442396, 8.9933847 ], [ 38.8449759, 8.9945539 ], [ 38.8459019, 8.9984841 ], [ 38.8467644, 9.0021269 ] ] ] } },
{ "type": "Feature", "properties": { "threshold_s": 600, "time_label": "10 min drive" }, "geometry": { "type": "Polygon", "coordinates": [ [ [ 38.8313069, 9.0109771 ], [ 38.8321835, 9.0136455 ], [ 38.8337796, 9.0143884 ], [ 38.84081, 9.0189657 ], [ 38.8417624, 9.0199167 ], [ 38.8422608, 9.0203345 ], [ 38.8464848, 9.0233332 ], [ 38.8504599, 9.0269378 ], [ 38.8528683, 9.0293401 ], [ 38.8552804, 9.0279713 ], [ 38.8565317, 9.0269289 ], [ 38.8659618, 9.0262401 ], [ 38.866942, 9.026511 ], [ 38.8758455, 9.0273522 ], [ 38.876997, 9.0278429 ], [ 38.8785121, 9.0284637 ], [ 38.8806896, 9.0262677 ], [ 38.8846283, 9.0216266 ], [ 38.8851911, 9.0178172 ], [ 38.8906346, 9.0106492 ], [ 38.8906373, 9.0105711 ], [ 38.8899062, 9.0094528 ], [ 38.8883573, 9.0060092 ], [ 38.8892267, 8.9979795 ], [ 38.8892529, 8.9977453 ], [ 38.8884264, 8.9963947 ], [ 38.8851288, 8.9925201 ], [ 38.8801338, 8.9867283 ], [ 38.8781248, 8.9776941 ], [ 38.8776728, 8.9723689 ], [ 38.876211, 8.9690147 ], [ 38.875120699999989, 8.9666992 ], [ 38.8744924, 8.9694135 ], [ 38.8683575, 8.973622 ], [ 38.8619397, 8.9685915 ], [ 38.8627933, 8.9648805 ], [ 38.8656345, 8.9620021 ], [ 38.8594177, 8.9601153 ], [ 38.8594042, 8.9603425 ], [ 38.8596511, 8.9619301 ], [ 38.8617231, 8.9654777 ], [ 38.8542589, 8.9723237 ], [ 38.8539979, 8.9723627 ], [ 38.8470313, 8.9708627 ], [ 38.8396512, 8.9764807 ], [ 38.8360577, 8.9830829 ], [ 38.8302205, 8.9854434 ], [ 38.8273051, 8.9870493 ], [ 38.8265017, 8.9924918 ], [ 38.8280299, 9.0004248 ], [ 38.8306437, 9.0067716 ], [ 38.8313069, 9.0109771 ] ] ] } },
{ "type": "Feature", "properties": { "threshold_s": 900, "time_label": "15 min drive" }, "geometry": { "type": "Polygon", "coordinates": [ [ [ 38.8122518, 9.0124888 ], [ 38.8177388, 9.023521 ], [ 38.8180627, 9.0238603 ], [ 38.8182977, 9.0240359 ], [ 38.8249282, 9.0291742 ], [ 38.8322014, 9.0374386 ], [ 38.8335921, 9.0382181 ], [ 38.8443743, 9.0425485 ], [ 38.8458558, 9.0444514 ], [ 38.8472252, 9.0465877 ], [ 38.8482138, 9.0469712 ], [ 38.8520965, 9.0478705 ], [ 38.8627419, 9.0445929 ], [ 38.8733882, 9.04726 ], [ 38.8765038, 9.0495396 ], [ 38.8779517, 9.0505224 ], [ 38.8839143, 9.0463164 ], [ 38.8856135, 9.0444979 ], [ 38.8905635, 9.0372148 ], [ 38.8926476, 9.0338109 ], [ 38.8930339, 9.0330507 ], [ 38.9002302, 9.0222733 ], [ 38.9008565, 9.0197236 ], [ 38.9004207, 9.0112823 ], [ 38.9028293, 9.006449 ], [ 38.9025959, 9.0057496 ], [ 38.9016357, 9.00318 ], [ 38.8939867, 8.994115 ], [ 38.8931308, 8.9911646 ], [ 38.8960601, 8.9799898 ], [ 38.8962032, 8.979302 ], [ 38.8961332, 8.9791791 ], [ 38.8956906, 8.9784412 ], [ 38.8953285, 8.9777763 ], [ 38.8960915, 8.9652311 ], [ 38.8960594, 8.9639172 ], [ 38.8921675, 8.9590396 ], [ 38.8871238, 8.954024 ], [ 38.88041, 8.9488349 ], [ 38.8737598, 8.9489221 ], [ 38.8662735, 8.9506035 ], [ 38.8622153, 8.9511149 ], [ 38.8575174, 8.9513017 ], [ 38.8454729, 8.949174 ], [ 38.8438287, 8.9496894 ], [ 38.8354938, 8.959531 ], [ 38.829171, 8.9683279 ], [ 38.8250407, 8.9682187 ], [ 38.819654, 8.9719953 ], [ 38.8194468, 8.9728782 ], [ 38.8208006, 8.9803978 ], [ 38.817983, 8.985495 ], [ 38.8095916, 8.9871104 ], [ 38.8094608, 8.9871787 ], [ 38.8079563, 8.9919144 ], [ 38.8081755, 8.9953317 ], [ 38.8087829, 9.0056212 ], [ 38.8090353, 9.0061352 ], [ 38.8122518, 9.0124888 ] ] ] } },
{ "type": "Feature", "properties": { "threshold_s": 300, "time_label": "5 min drive" }, "geometry": { "type": "Polygon", "coordinates": [ [ [ 38.760377, 8.984903 ], [ 38.7610306, 8.9868202 ], [ 38.7660614, 8.9911266 ], [ 38.76804, 8.9900825 ], [ 38.7748148, 8.9924547 ], [ 38.7749201, 8.9927977 ], [ 38.7777683, 8.9954023 ], [ 38.7788648, 8.9968111 ], [ 38.7789746, 8.9967504 ], [ 38.7821738, 8.9945403 ], [ 38.7834713, 8.9922552 ], [ 38.7866521, 8.9898008 ], [ 38.7930034, 8.9904073 ], [ 38.793088, 8.9904577 ], [ 38.7941338, 8.9900363 ], [ 38.7942992, 8.9887271 ], [ 38.7899075, 8.9859732 ], [ 38.7880106, 8.9854871 ], [ 38.7855757, 8.9849273 ], [ 38.7842988, 8.9845215 ], [ 38.7829895, 8.9840922 ], [ 38.7787516, 8.9794447 ], [ 38.7777914, 8.9763594 ], [ 38.7773623, 8.9752898 ], [ 38.7759295, 8.9724099 ], [ 38.7804589, 8.9680504 ], [ 38.7828796, 8.9680649 ], [ 38.7828581, 8.9679775 ], [ 38.7775834, 8.9635925 ], [ 38.7726275, 8.964449 ], [ 38.7662108, 8.9676225 ], [ 38.7640962, 8.9718863 ], [ 38.7609422, 8.9727954 ], [ 38.7606675, 8.9737722 ], [ 38.7604122, 8.974693 ], [ 38.7606946, 8.9807142 ], [ 38.7598998, 8.9823002 ], [ 38.7598874, 8.9826072 ], [ 38.760037, 8.9838182 ], [ 38.760377, 8.984903 ] ] ] } },
{ "type": "Feature", "properties": { "threshold_s": 600, "time_label": "10 min drive" }, "geometry": { "type": "Polygon", "coordinates": [ [ [ 38.7438853, 8.9969221 ], [ 38.7439552, 8.9970066 ], [ 38.7494772, 9.0018314 ], [ 38.7517324, 9.0049461 ], [ 38.7545489, 9.0064747 ], [ 38.7625799, 9.011047 ], [ 38.7627631, 9.0110202 ], [ 38.7654659, 9.0106243 ], [ 38.7720471, 9.0162575 ], [ 38.7721413, 9.0163029 ], [ 38.7741335, 9.0152535 ], [ 38.7823501, 9.0188421 ], [ 38.7857985, 9.0153244 ], [ 38.7890943, 9.0121969 ], [ 38.7895938, 9.0117179 ], [ 38.789982, 9.0113729 ], [ 38.7976317, 9.0084889 ], [ 38.7994633, 9.0088444 ], [ 38.800421, 9.0090292 ], [ 38.8016036, 9.0093457 ], [ 38.8042796, 9.0101637 ], [ 38.805683, 9.007259 ], [ 38.807631, 9.0004119 ], [ 38.8107579, 8.9937651 ], [ 38.8133334, 8.9910933 ], [ 38.8138819, 8.9902571 ], [ 38.8141627, 8.9895817 ], [ 38.8097735, 8.9869675 ], [ 38.8079529, 8.9863615 ], [ 38.8066972, 8.9860036 ], [ 38.8035562, 8.9852867 ], [ 38.8021619, 8.9853275 ], [ 38.7996331, 8.9854045 ], [ 38.7971379, 8.9861223 ], [ 38.7899075, 8.9859732 ], [ 38.7880106, 8.9854871 ], [ 38.7855757, 8.9849273 ], [ 38.7842988, 8.9845215 ], [ 38.7787516, 8.9794447 ], [ 38.7777914, 8.9763594 ], [ 38.7773623, 8.9752898 ], [ 38.7828796, 8.9680649 ], [ 38.7919347, 8.9698281 ], [ 38.7983287, 8.9653657 ], [ 38.7995121, 8.9644203 ], [ 38.8001909, 8.9634762 ], [ 38.7993037, 8.961362 ], [ 38.7965468, 8.9561463 ], [ 38.791476, 8.9524333 ], [ 38.7907567, 8.9521758 ], [ 38.7866357, 8.9509082 ], [ 38.7853505, 8.9510851 ], [ 38.7806977, 8.9518347 ], [ 38.772551, 8.9498245 ], [ 38.7713354, 8.9483864 ], [ 38.7690681, 8.9462568 ], [ 38.7689279, 8.9463738 ], [ 38.7678722, 8.9487095 ], [ 38.7601136, 8.9511388 ], [ 38.7590387, 8.9516911 ], [ 38.7588606, 8.9517941 ], [ 38.7553668, 8.9577102 ], [ 38.7502526, 8.965364 ], [ 38.7495117, 8.9659999 ], [ 38.7487426, 8.9668007 ], [ 38.7439171, 8.9739495 ], [ 38.7410277, 8.9791287 ], [ 38.7399049, 8.9885387 ], [ 38.7397446, 8.9917148 ], [ 38.7438853, 8.9969221 ] ] ] } },
{ "type": "Feature", "properties": { "threshold_s": 900, "time_label": "15 min drive" }, "geometry": { "type": "Polygon", "coordinates": [ [ [ 38.7220337, 8.9992215 ], [ 38.7286855, 9.0089895 ], [ 38.7321181, 9.0117201 ], [ 38.7403048, 9.0186944 ], [ 38.7471945, 9.025634 ], [ 38.7515928, 9.0286338 ], [ 38.76348, 9.0308291 ], [ 38.7725176, 9.0347448 ], [ 38.7798841, 9.0348649 ], [ 38.7868405, 9.0345218 ], [ 38.7913411, 9.0328014 ], [ 38.7982351, 9.0299678 ], [ 38.8048161, 9.0292985 ], [ 38.8147871, 9.0225069 ], [ 38.8222845, 9.0130474 ], [ 38.8236767, 9.0112191 ], [ 38.8242781, 9.0101598 ], [ 38.8283831, 9.0019614 ], [ 38.8304562, 8.9940288 ], [ 38.8324087, 8.9861425 ], [ 38.8324275, 8.9859891 ], [ 38.8304619, 8.9779273 ], [ 38.8300543, 8.9713237 ], [ 38.8219684, 8.9629321 ], [ 38.8179071, 8.9512987 ], [ 38.8052773, 8.9471922 ], [ 38.7984793, 8.9453468 ], [ 38.7925422, 8.9440127 ], [ 38.7905252, 8.9433251 ], [ 38.7823833, 8.9380657 ], [ 38.7801692, 8.9332949 ], [ 38.7795516, 8.9301325 ], [ 38.7788053, 8.9279041 ], [ 38.7779498, 8.9273943 ], [ 38.7776961, 8.9273287 ], [ 38.7743514, 8.9265391 ], [ 38.7741834, 8.9266102 ], [ 38.765921, 8.9299404 ], [ 38.7592359, 8.9312294 ], [ 38.7502612, 8.9345416 ], [ 38.7451406, 8.9357844 ], [ 38.7449622, 8.9358972 ], [ 38.7445986, 8.9365715 ], [ 38.7421122, 8.9465398 ], [ 38.7386657, 8.9520516 ], [ 38.7300231, 8.9593826 ], [ 38.7295306, 8.9596922 ], [ 38.7286976, 8.9605895 ], [ 38.7281076, 8.9614448 ], [ 38.7272519, 8.9627353 ], [ 38.7265871, 8.9639592 ], [ 38.7260745, 8.9664712 ], [ 38.7263055, 8.9668598 ], [ 38.7270547, 8.9798003 ], [ 38.722532, 8.9843766 ], [ 38.7218671, 8.9944618 ], [ 38.7218685, 8.9986844 ], [ 38.7220337, 8.9992215 ] ] ] } },
{ "type": "Feature", "properties": { "threshold_s": 300, "time_label": "5 min drive" }, "geometry": { "type": "Polygon", "coordinates": [ [ [ 38.858625, 9.0261033 ], [ 38.8603472, 9.0290309 ], [ 38.8627145, 9.030028 ], [ 38.8636881, 9.0301716 ], [ 38.8648603, 9.0291935 ], [ 38.8684198, 9.0290747 ], [ 38.8699011, 9.0331262 ], [ 38.8719335, 9.0373811 ], [ 38.8714937, 9.0387469 ], [ 38.8730906, 9.0419826 ], [ 38.8774289, 9.0406527 ], [ 38.8821253, 9.0386812 ], [ 38.8830869, 9.0366493 ], [ 38.8845447, 9.0336838 ], [ 38.8880637, 9.0329037 ], [ 38.8903664, 9.0312348 ], [ 38.8906735, 9.0305845 ], [ 38.8908049, 9.0292706 ], [ 38.8920079, 9.0251462 ], [ 38.8923896, 9.0232173 ], [ 38.8944717, 9.0201679 ], [ 38.8907373, 9.0178612 ], [ 38.8906634, 9.0178602 ], [ 38.8856355, 9.0184126 ], [ 38.8855438, 9.0154758 ], [ 38.8850811, 9.0130612 ], [ 38.8850949, 9.0125743 ], [ 38.8850894, 9.0113146 ], [ 38.8850489, 9.0106787 ], [ 38.880597, 9.0078746 ], [ 38.8799545, 9.0073398 ], [ 38.8770559, 9.0051536 ], [ 38.8758087, 9.0071199 ], [ 38.8732047, 9.0109346 ], [ 38.8698051, 9.0088234 ], [ 38.8697952, 9.0060093 ], [ 38.8692713, 9.0054074 ], [ 38.8687659, 9.0047204 ], [ 38.8682853, 9.0044867 ], [ 38.8638241, 9.0055364 ], [ 38.8616097, 9.0100496 ], [ 38.8616108, 9.0101591 ], [ 38.8611169, 9.0150647 ], [ 38.8598804, 9.016562 ], [ 38.8595053, 9.0170777 ], [ 38.8564735, 9.0208085 ], [ 38.855161, 9.0208735 ], [ 38.8552666, 9.0216244 ], [ 38.8566874, 9.0233589 ], [ 38.858625, 9.0261033 ] ] ] } },
{ "type": "Feature", "properties": { "threshold_s": 600, "time_label": "10 min drive" }, "geometry": { "type": "Polygon", "coordinates": [ [ [ 38.8449881, 9.0393953 ], [ 38.8480992, 9.0434675 ], [ 38.8499786, 9.0441545 ], [ 38.8515897, 9.0446953 ], [ 38.857696, 9.0470056 ], [ 38.8611813, 9.0496817 ], [ 38.8659955, 9.0479541 ], [ 38.8688096, 9.0567234 ], [ 38.8688933, 9.0572155 ], [ 38.8722576, 9.0591727 ], [ 38.8760152, 9.059212 ], [ 38.8834613, 9.0625903 ], [ 38.883107, 9.0574433 ], [ 38.8853084, 9.0482034 ], [ 38.8891501, 9.0421339 ], [ 38.8924666, 9.0374161 ], [ 38.8990593, 9.0337165 ], [ 38.8953325, 9.027668 ], [ 38.9002302, 9.0222733 ], [ 38.9008565, 9.0197236 ], [ 38.9004207, 9.0112823 ], [ 38.9028293, 9.006449 ], [ 38.9025959, 9.0057496 ], [ 38.9010751, 9.0044171 ], [ 38.8946532, 8.9977653 ], [ 38.8907205, 8.9948174 ], [ 38.8843801, 8.9888615 ], [ 38.8811449, 8.9901061 ], [ 38.8758785, 8.9921645 ], [ 38.8753474, 8.9924335 ], [ 38.8710961, 8.9968484 ], [ 38.8638527, 8.9950823 ], [ 38.8612711, 8.9935263 ], [ 38.8557287, 8.989534 ], [ 38.8536167, 8.9909155 ], [ 38.8484567, 8.9952019 ], [ 38.8426452, 9.0020958 ], [ 38.8396092, 9.010981 ], [ 38.8389535, 9.0149045 ], [ 38.8337107, 9.0218852 ], [ 38.8337666, 9.0238721 ], [ 38.8380725, 9.0302644 ], [ 38.8434252, 9.0367004 ], [ 38.8449881, 9.0393953 ] ] ] } },
{ "type": "Feature", "properties": { "threshold_s": 900, "time_label": "15 min drive" }, "geometry": { "type": "Polygon", "coordinates": [ [ [ 38.8271413, 9.0476369 ], [ 38.8332729, 9.0541741 ], [ 38.84366510000001, 9.0608013 ], [ 38.8534793, 9.0604848 ], [ 38.8571325, 9.0684653 ], [ 38.8634445, 9.0736813 ], [ 38.8684273, 9.0755187 ], [ 38.8765591, 9.0815835 ], [ 38.877988, 9.0814979 ], [ 38.8791772, 9.0796541 ], [ 38.882759, 9.0736045 ], [ 38.8837609, 9.0705344 ], [ 38.8847653, 9.0665697 ], [ 38.8851718, 9.0638571 ], [ 38.8852997, 9.0623257 ], [ 38.885408, 9.0601564 ], [ 38.885576, 9.0574365 ], [ 38.8855746, 9.0542708 ], [ 38.8858157, 9.0510063 ], [ 38.8891501, 9.0421339 ], [ 38.8990593, 9.0337165 ], [ 38.9002302, 9.0222733 ], [ 38.9008565, 9.0197236 ], [ 38.9028293, 9.006449 ], [ 38.9025959, 9.0057496 ], [ 38.9023653, 8.9955715 ], [ 38.9043886, 8.9908277 ], [ 38.905657, 8.9885185 ], [ 38.9051987, 8.9870392 ], [ 38.8962032, 8.979302 ], [ 38.8968989, 8.9759151 ], [ 38.8942999, 8.9723278 ], [ 38.8924418, 8.9712768 ], [ 38.8846413, 8.9671894 ], [ 38.8836824, 8.9672 ], [ 38.8774127, 8.9720695 ], [ 38.8755459, 8.9737519 ], [ 38.8632211, 8.9748911 ], [ 38.8542589, 8.9723237 ], [ 38.8539979, 8.9723627 ], [ 38.8431447, 8.9802188 ], [ 38.8347897, 8.9853533 ], [ 38.8278117, 8.9874168 ], [ 38.8274901, 8.9878807 ], [ 38.8252145, 8.9922357 ], [ 38.823985, 8.9986596 ], [ 38.8194488, 9.0060318 ], [ 38.8161168, 9.0114963 ], [ 38.811054, 9.0201534 ], [ 38.813034, 9.0242168 ], [ 38.8208636, 9.0339018 ], [ 38.8211943, 9.0358559 ], [ 38.8213236, 9.0364826 ], [ 38.8224251, 9.0414342 ], [ 38.8229235, 9.0422621 ], [ 38.8235377, 9.0431763 ], [ 38.8266221, 9.0470695 ], [ 38.8271413, 9.0476369 ] ] ] } },
{ "type": "Feature", "properties": { "threshold_s": 300, "time_label": "5 min drive" }, "geometry": { "type": "Polygon", "coordinates": [ [ [ 38.7611244, 9.0293966 ], [ 38.763464, 9.0326464 ], [ 38.7663647, 9.032801 ], [ 38.7675585, 9.0358251 ], [ 38.7694764, 9.0373855 ], [ 38.7734143, 9.0388789 ], [ 38.7772388, 9.038123 ], [ 38.7780224, 9.0381513 ], [ 38.7784962, 9.0381963 ], [ 38.7791536, 9.0381632 ], [ 38.7799358, 9.0345924 ], [ 38.7804737, 9.033912 ], [ 38.7847393, 9.0337449 ], [ 38.785141, 9.0334743 ], [ 38.7867588, 9.0301967 ], [ 38.7895501, 9.0295027 ], [ 38.7905778, 9.0297413 ], [ 38.7916626, 9.0285942 ], [ 38.7926964, 9.0264009 ], [ 38.7924283, 9.0251427 ], [ 38.7948623, 9.021823 ], [ 38.7958715, 9.0208691 ], [ 38.7948915, 9.0201822 ], [ 38.7926043, 9.0182931 ], [ 38.7917798, 9.0168777 ], [ 38.7904882, 9.0158742 ], [ 38.7882279, 9.0132665 ], [ 38.7878286, 9.0118477 ], [ 38.7859647, 9.0127606 ], [ 38.782751, 9.0114268 ], [ 38.7811817, 9.009175 ], [ 38.7793008, 9.0087445 ], [ 38.778296, 9.0051979 ], [ 38.7782481, 9.0051158 ], [ 38.7775795, 9.0043913 ], [ 38.7767098, 9.0045986 ], [ 38.7761237, 9.004792 ], [ 38.773414, 9.0061278 ], [ 38.7706413, 9.0092666 ], [ 38.7705514, 9.0092813 ], [ 38.7672577, 9.0104737 ], [ 38.7636057, 9.0109899 ], [ 38.7627136, 9.0143638 ], [ 38.7623398, 9.017288 ], [ 38.7606025, 9.0183832 ], [ 38.7603349, 9.0184885 ], [ 38.7603636, 9.0186068 ], [ 38.7633195, 9.0193691 ], [ 38.7645123, 9.0221623 ], [ 38.7650922, 9.0223314 ], [ 38.7673037, 9.0253571 ], [ 38.7664952, 9.0274613 ], [ 38.7633917, 9.0291295 ], [ 38.7611664, 9.0293214 ], [ 38.7611244, 9.0293966 ] ] ] } },
{ "type": "Feature", "properties": { "threshold_s": 600, "time_label": "10 min drive" }, "geometry": { "type": "Polygon", "coordinates": [ [ [ 38.7460287, 9.0423927 ], [ 38.7483059, 9.0449257 ], [ 38.7536851, 9.0492766 ], [ 38.7542311, 9.0499549 ], [ 38.7573345, 9.0528887 ], [ 38.7584018, 9.0533192 ], [ 38.7621709, 9.053994 ], [ 38.7677326, 9.0562897 ], [ 38.7732366, 9.0571025 ], [ 38.7775886, 9.0569537 ], [ 38.7813867, 9.0571314 ], [ 38.786404, 9.0539052 ], [ 38.792129, 9.0494167 ], [ 38.7906995, 9.0454025 ], [ 38.7918929, 9.0415089 ], [ 38.7898711, 9.0353037 ], [ 38.7947311, 9.0312946 ], [ 38.7997189, 9.0335465 ], [ 38.8042312, 9.0365115 ], [ 38.8081541, 9.0338291 ], [ 38.8116564, 9.0325841 ], [ 38.809383, 9.0265432 ], [ 38.81506, 9.0219887 ], [ 38.8151143, 9.0219123 ], [ 38.8171751, 9.0194641 ], [ 38.8171611, 9.0191599 ], [ 38.812003, 9.0146785 ], [ 38.8122518, 9.0124888 ], [ 38.8122967, 9.0119373 ], [ 38.8123052, 9.0114074 ], [ 38.8107187, 9.0075809 ], [ 38.8105954, 9.007522 ], [ 38.8102325, 9.0073943 ], [ 38.8070616, 9.0064311 ], [ 38.8036877, 9.0002622 ], [ 38.8034868, 9.0000001 ], [ 38.8002204, 8.9990832 ], [ 38.7952264, 8.9934812 ], [ 38.7949535, 8.9927309 ], [ 38.7948242, 8.9923398 ], [ 38.7942992, 8.9887271 ], [ 38.7916591, 8.9890332 ], [ 38.7848684, 8.9861044 ], [ 38.7795407, 8.9848849 ], [ 38.7749007, 8.9846708 ], [ 38.7690569, 8.9864664 ], [ 38.7647662, 8.9896255 ], [ 38.7617313, 8.9913884 ], [ 38.760814, 8.9921772 ], [ 38.7562131, 8.9949711 ], [ 38.7537851, 8.9956625 ], [ 38.748930799999989, 8.9998262 ], [ 38.7467176, 9.0045045 ], [ 38.7432431, 9.0074962 ], [ 38.7390854, 9.0126496 ], [ 38.7367647, 9.0164284 ], [ 38.7367628, 9.0165193 ], [ 38.737064, 9.0170587 ], [ 38.7398328, 9.0227395 ], [ 38.7414596, 9.0288964 ], [ 38.7413187, 9.0321096 ], [ 38.7415025, 9.0344947 ], [ 38.7434531, 9.038981 ], [ 38.7447332, 9.040759 ], [ 38.7460287, 9.0423927 ] ] ] } },
{ "type": "Feature", "properties": { "threshold_s": 900, "time_label": "15 min drive" }, "geometry": { "type": "Polygon", "coordinates": [ [ [ 38.7292111, 9.05423 ], [ 38.7349275, 9.0625017 ], [ 38.74749, 9.0692545 ], [ 38.7551147, 9.072882 ], [ 38.7603186, 9.074817 ], [ 38.76155, 9.0748989 ], [ 38.7744675, 9.0748804 ], [ 38.7769619, 9.0750951 ], [ 38.7827689, 9.0753935 ], [ 38.7930049, 9.0729548 ], [ 38.7936787, 9.0720771 ], [ 38.8022129, 9.060408 ], [ 38.8101988, 9.0532069 ], [ 38.815809, 9.0492235 ], [ 38.8244997, 9.0463006 ], [ 38.8272199, 9.0453962 ], [ 38.8306918, 9.0428053 ], [ 38.835766, 9.029362 ], [ 38.8392593, 9.0214433 ], [ 38.8365469, 9.0105999 ], [ 38.8360342, 9.0100916 ], [ 38.8316254, 9.0055647 ], [ 38.8267846, 8.9937998 ], [ 38.81948950000001, 8.9876739 ], [ 38.8186485, 8.9871878 ], [ 38.8172293, 8.987135 ], [ 38.8066972, 8.9860036 ], [ 38.8035562, 8.9852867 ], [ 38.8021619, 8.9853275 ], [ 38.7996331, 8.9854045 ], [ 38.7971379, 8.9861223 ], [ 38.7899075, 8.9859732 ], [ 38.7880106, 8.9854871 ], [ 38.7777914, 8.9763594 ], [ 38.7784204, 8.9681007 ], [ 38.7767244, 8.9667629 ], [ 38.7748485, 8.9657708 ], [ 38.7613593, 8.9707294 ], [ 38.7570116, 8.9719198 ], [ 38.7552445, 8.9725333 ], [ 38.7466216, 8.976282 ], [ 38.7438287, 8.9779165 ], [ 38.7387747, 8.9814628 ], [ 38.737333, 8.9829332 ], [ 38.7334344, 8.9873191 ], [ 38.7286778, 8.9951034 ], [ 38.728349, 8.997969 ], [ 38.7201735, 9.0095651 ], [ 38.7196137, 9.0097611 ], [ 38.7194323, 9.0098246 ], [ 38.7164264, 9.0211177 ], [ 38.7171121, 9.0223881 ], [ 38.7203707, 9.0350718 ], [ 38.7203447, 9.0372676 ], [ 38.723537, 9.0461376 ], [ 38.7243229, 9.0475746 ], [ 38.7255087, 9.0494864 ], [ 38.7292111, 9.05423 ] ] ] } },
{ "type": "Feature", "properties": { "threshold_s": 300, "time_label": "5 min drive" }, "geometry": { "type": "Polygon", "coordinates": [ [ [ 38.7717547, 9.0348206 ], [ 38.7735888, 9.0383887 ], [ 38.7777758, 9.0401384 ], [ 38.781978, 9.0408806 ], [ 38.7832034, 9.0412485 ], [ 38.7836839, 9.0406005 ], [ 38.7866579, 9.0379459 ], [ 38.7884075, 9.037232 ], [ 38.788646, 9.0371199 ], [ 38.788999, 9.0366321 ], [ 38.7898711, 9.0353037 ], [ 38.7913411, 9.0328014 ], [ 38.7947311, 9.0312946 ], [ 38.7968678, 9.0306899 ], [ 38.7997189, 9.0335465 ], [ 38.8011234, 9.0303124 ], [ 38.8048161, 9.0292985 ], [ 38.8049448, 9.0287289 ], [ 38.8060612, 9.0246606 ], [ 38.8073051, 9.0235674 ], [ 38.8075376, 9.0232629 ], [ 38.8074967, 9.0222318 ], [ 38.8062572, 9.017411 ], [ 38.8034284, 9.0138029 ], [ 38.8006163, 9.0142076 ], [ 38.797051, 9.0117309 ], [ 38.7967788, 9.0112606 ], [ 38.7966076, 9.0109225 ], [ 38.7953645, 9.0109659 ], [ 38.7945046, 9.0111732 ], [ 38.7931859, 9.0116294 ], [ 38.7890337, 9.0094553 ], [ 38.7884709, 9.0091113 ], [ 38.7884384, 9.0091028 ], [ 38.7874114, 9.0096416 ], [ 38.7835543, 9.0118734 ], [ 38.7802996, 9.0139608 ], [ 38.776591, 9.0179189 ], [ 38.7740967, 9.0193713 ], [ 38.7723687, 9.02177 ], [ 38.7717222, 9.0232818 ], [ 38.7722297, 9.0251154 ], [ 38.7686882, 9.0283996 ], [ 38.7701755, 9.0299115 ], [ 38.7717547, 9.0348206 ] ] ] } },
{ "type": "Feature", "properties": { "threshold_s": 600, "time_label": "10 min drive" }, "geometry": { "type": "Polygon", "coordinates": [ [ [ 38.754349, 9.0462826 ], [ 38.7586062, 9.0517882 ], [ 38.7664598, 9.0555799 ], [ 38.7680342, 9.0562984 ], [ 38.7765009, 9.0571022 ], [ 38.7805495, 9.0584415 ], [ 38.7811896, 9.0585373 ], [ 38.7876136, 9.0553217 ], [ 38.792129, 9.0494167 ], [ 38.7967241, 9.0428703 ], [ 38.8041703, 9.044401 ], [ 38.8069644, 9.0447637 ], [ 38.8165711, 9.0438703 ], [ 38.8175564, 9.0435695 ], [ 38.8240961, 9.0403013 ], [ 38.8265521, 9.038531 ], [ 38.8259559, 9.0354638 ], [ 38.8296675, 9.0268584 ], [ 38.829729, 9.026768 ], [ 38.8299201, 9.0249443 ], [ 38.8288702, 9.0160176 ], [ 38.8231836, 9.0082056 ], [ 38.8183511, 9.0019382 ], [ 38.8142578, 8.9983516 ], [ 38.811874, 8.9971013 ], [ 38.8066425, 8.9964116 ], [ 38.8049999, 8.9960434 ], [ 38.7948242, 8.9923398 ], [ 38.7932496, 8.9902193 ], [ 38.7931797, 8.9901665 ], [ 38.7876549, 8.9893973 ], [ 38.7850578, 8.9900299 ], [ 38.7779248, 8.992709 ], [ 38.7715868, 8.9980293 ], [ 38.7699423, 8.9998955 ], [ 38.7627101, 9.0070834 ], [ 38.7576903, 9.0118964 ], [ 38.752169, 9.0172379 ], [ 38.7494022, 9.027615 ], [ 38.748161, 9.0290428 ], [ 38.7469049, 9.0323628 ], [ 38.7488438, 9.0349332 ], [ 38.7494822, 9.0357729 ], [ 38.754349, 9.0462826 ] ] ] } },
{ "type": "Feature", "properties": { "threshold_s": 900, "time_label": "15 min drive" }, "geometry": { "type": "Polygon", "coordinates": [ [ [ 38.7383485, 9.0586007 ], [ 38.7383953, 9.0586644 ], [ 38.7437745, 9.063142 ], [ 38.7493982, 9.0677495 ], [ 38.7599415, 9.0743207 ], [ 38.7744675, 9.0748804 ], [ 38.7836453, 9.0772787 ], [ 38.7930049, 9.0729548 ], [ 38.7950405, 9.0717919 ], [ 38.808213, 9.0647413 ], [ 38.8096212, 9.0645625 ], [ 38.811484, 9.0642857 ], [ 38.8147441, 9.0635101 ], [ 38.8222301, 9.0602234 ], [ 38.8326533, 9.0575407 ], [ 38.837249, 9.052063 ], [ 38.8386682, 9.0500221 ], [ 38.841565, 9.0447535 ], [ 38.8501981, 9.0349503 ], [ 38.850374, 9.0342937 ], [ 38.8490351, 9.0259991 ], [ 38.8486883, 9.0184892 ], [ 38.8485229, 9.0107288 ], [ 38.8484112, 9.0095145 ], [ 38.8454944, 9.0056296 ], [ 38.8396599, 9.0013672 ], [ 38.8353929, 8.9895272 ], [ 38.8352095, 8.987341 ], [ 38.8351725, 8.9872849 ], [ 38.8331527, 8.9862615 ], [ 38.828566, 8.9843696 ], [ 38.8236563, 8.9829914 ], [ 38.8211882, 8.9830776 ], [ 38.8066972, 8.9860036 ], [ 38.8035562, 8.9852867 ], [ 38.8021619, 8.9853275 ], [ 38.7996331, 8.9854045 ], [ 38.788826, 8.985809 ], [ 38.7777914, 8.9763594 ], [ 38.7774548, 8.9759568 ], [ 38.7773636, 8.975878 ], [ 38.7758334, 8.9749255 ], [ 38.77469210000001, 8.9744785 ], [ 38.77070650000001, 8.9754968 ], [ 38.766807300000011, 8.9766861 ], [ 38.7619338, 8.9808051 ], [ 38.7521468, 8.9901247 ], [ 38.7460858, 8.9943357 ], [ 38.7397509, 8.9999673 ], [ 38.7358336, 9.0072133 ], [ 38.7298473, 9.016481 ], [ 38.7271126, 9.0285291 ], [ 38.7260588, 9.0338561 ], [ 38.7260874, 9.0339391 ], [ 38.7261374, 9.0340745 ], [ 38.7262253, 9.0343121 ], [ 38.7297705, 9.0436907 ], [ 38.7318606, 9.0469547 ], [ 38.7383485, 9.0586007 ] ] ] } },
{ "type": "Feature", "properties": { "threshold_s": 300, "time_label": "5 min drive" }, "geometry": { "type": "Polygon", "coordinates": [ [ [ 38.8541842, 9.0136705 ], [ 38.8567371, 9.0177538 ], [ 38.8586889, 9.0196529 ], [ 38.8596607, 9.0204593 ], [ 38.8622165, 9.0206089 ], [ 38.8626257, 9.0206366 ], [ 38.8631122, 9.0206697 ], [ 38.86369, 9.0207089 ], [ 38.8670985, 9.0210156 ], [ 38.8750795, 9.0224152 ], [ 38.8752333, 9.0224214 ], [ 38.8779101, 9.0212599 ], [ 38.8832516, 9.0147137 ], [ 38.8834823, 9.0143769 ], [ 38.8850894, 9.0113146 ], [ 38.8850489, 9.0106787 ], [ 38.8850409, 9.0106075 ], [ 38.8844776, 9.0058689 ], [ 38.88569, 8.9989386 ], [ 38.8872403, 8.9974902 ], [ 38.8839747, 8.9949569 ], [ 38.8806877, 8.9956404 ], [ 38.8735718, 8.9973809 ], [ 38.8710961, 8.9968484 ], [ 38.8658068, 8.9993625 ], [ 38.8636212, 9.0018483 ], [ 38.8566548, 8.9988859 ], [ 38.8556806, 8.9973701 ], [ 38.854874, 8.9974818 ], [ 38.8516225, 9.0013292 ], [ 38.8515895, 9.0016543 ], [ 38.8519377, 9.0100389 ], [ 38.8541842, 9.0136705 ] ] ] } },
{ "type": "Feature", "properties": { "threshold_s": 600, "time_label": "10 min drive" }, "geometry": { "type": "Polygon", "coordinates": [ [ [ 38.8314384, 9.0144364 ], [ 38.831858, 9.0152179 ], [ 38.8334669, 9.0159958 ], [ 38.8390236, 9.0214427 ], [ 38.8415376, 9.0240819 ], [ 38.844009, 9.0263363 ], [ 38.8459702, 9.0280977 ], [ 38.8502039, 9.0314322 ], [ 38.8553086, 9.0347063 ], [ 38.8608396, 9.0380676 ], [ 38.8624567, 9.0380977 ], [ 38.8633748, 9.0381606 ], [ 38.8714937, 9.0387469 ], [ 38.8727129, 9.0409997 ], [ 38.8764706, 9.0435772 ], [ 38.8778334, 9.0429907 ], [ 38.8833068, 9.0404809 ], [ 38.8862076, 9.0374491 ], [ 38.8898581, 9.033852 ], [ 38.8919623, 9.0286336 ], [ 38.8956209, 9.0252058 ], [ 38.8965147, 9.0225137 ], [ 38.8978806, 9.0159447 ], [ 38.8991091, 9.0134851 ], [ 38.9004207, 9.0112823 ], [ 38.9028293, 9.006449 ], [ 38.9025959, 9.0057496 ], [ 38.9010751, 9.0044171 ], [ 38.8969538, 9.0017334 ], [ 38.8945421, 8.9960927 ], [ 38.8941662, 8.9947574 ], [ 38.8939867, 8.994115 ], [ 38.8931308, 8.9911646 ], [ 38.8915171, 8.9892954 ], [ 38.8917946, 8.9821334 ], [ 38.8961332, 8.9791791 ], [ 38.8887209, 8.9751494 ], [ 38.885517, 8.9736993 ], [ 38.8845031, 8.9736856 ], [ 38.8781248, 8.9776941 ], [ 38.8740466, 8.9777405 ], [ 38.8740943, 8.978438 ], [ 38.8659543, 8.9825954 ], [ 38.8639602, 8.9815304 ], [ 38.855432, 8.9797845 ], [ 38.8543832, 8.9793539 ], [ 38.8507998, 8.9808265 ], [ 38.8471413, 8.9824911 ], [ 38.8459571, 8.9837018 ], [ 38.8395069, 8.9877675 ], [ 38.8381179, 8.9886036 ], [ 38.8309199, 8.9942596 ], [ 38.8306094, 8.9952029 ], [ 38.8301526, 8.9982171 ], [ 38.8302327, 8.9984222 ], [ 38.8303562, 8.9987384 ], [ 38.832777, 9.0062461 ], [ 38.8324142, 9.0077897 ], [ 38.8313069, 9.0109771 ], [ 38.8314384, 9.0144364 ] ] ] } },
{ "type": "Feature", "properties": { "threshold_s": 900, "time_label": "15 min drive" }, "geometry": { "type": "Polygon", "coordinates": [ [ [ 38.8266465, 9.0345977 ], [ 38.829196, 9.0409139 ], [ 38.8444564, 9.0491097 ], [ 38.8457277, 9.0501837 ], [ 38.8549321, 9.0509168 ], [ 38.8688933, 9.0572155 ], [ 38.8728605, 9.0613278 ], [ 38.8827927, 9.0641001 ], [ 38.8851718, 9.0638571 ], [ 38.8852997, 9.0623257 ], [ 38.885408, 9.0601564 ], [ 38.8854719, 9.0564243 ], [ 38.8891501, 9.0421339 ], [ 38.8990593, 9.0337165 ], [ 38.9008565, 9.0197236 ], [ 38.9028293, 9.006449 ], [ 38.9043886, 8.9908277 ], [ 38.905657, 8.9885185 ], [ 38.9061706, 8.985985 ], [ 38.9061452, 8.9847142 ], [ 38.899451, 8.9690174 ], [ 38.899498, 8.9608478 ], [ 38.8871238, 8.954024 ], [ 38.885494199999989, 8.9535485 ], [ 38.8825312, 8.9527245 ], [ 38.8800211, 8.9543552 ], [ 38.8759776, 8.9566599 ], [ 38.8596511, 8.9619301 ], [ 38.8470313, 8.9708627 ], [ 38.843456, 8.9712955 ], [ 38.8303922, 8.9744672 ], [ 38.8267913, 8.9748659 ], [ 38.8254918, 8.9759866 ], [ 38.8151393, 8.9891745 ], [ 38.814689799999989, 8.9903523 ], [ 38.814289, 8.9914978 ], [ 38.8130973, 9.0037555 ], [ 38.813209, 9.0199514 ], [ 38.8133974, 9.0214247 ], [ 38.8141146, 9.0226814 ], [ 38.8168929, 9.0242509 ], [ 38.8266465, 9.0345977 ] ] ] } },
{ "type": "Feature", "properties": { "threshold_s": 300, "time_label": "5 min drive" }, "geometry": { "type": "Polygon", "coordinates": [ [ [ 38.736129, 9.0447854 ], [ 38.7378963, 9.0490839 ], [ 38.7399537, 9.051018 ], [ 38.7409075, 9.0514123 ], [ 38.7415314, 9.0514829 ], [ 38.7441805, 9.0514772 ], [ 38.7448042, 9.0514297 ], [ 38.7488178, 9.0510707 ], [ 38.7531123, 9.0510492 ], [ 38.7572076, 9.0502389 ], [ 38.7580652, 9.0488412 ], [ 38.7600057, 9.0440359 ], [ 38.7613074, 9.0440921 ], [ 38.7614694, 9.0439155 ], [ 38.7614471, 9.0437227 ], [ 38.7625107, 9.0387169 ], [ 38.763485, 9.0378991 ], [ 38.7634966, 9.0378188 ], [ 38.7632315, 9.0343164 ], [ 38.7654192, 9.0307943 ], [ 38.7625209, 9.0267749 ], [ 38.7616201, 9.0233396 ], [ 38.7587366, 9.0212076 ], [ 38.7576248, 9.0176281 ], [ 38.7566767, 9.0148583 ], [ 38.7565754, 9.0147817 ], [ 38.7529074, 9.012924 ], [ 38.7504561, 9.013546 ], [ 38.7498254, 9.0140209 ], [ 38.7497617, 9.0140877 ], [ 38.7474466, 9.0166921 ], [ 38.7431444, 9.0173755 ], [ 38.7421281, 9.0175937 ], [ 38.7399206, 9.0183454 ], [ 38.7384167, 9.0189047 ], [ 38.7332006, 9.0206959 ], [ 38.7335879, 9.0225953 ], [ 38.7336241, 9.0231117 ], [ 38.7335966, 9.0242952 ], [ 38.7310806, 9.0287863 ], [ 38.7300508, 9.033799 ], [ 38.7312052, 9.0355354 ], [ 38.7320365, 9.0365238 ], [ 38.7324735, 9.0416034 ], [ 38.733706, 9.0442708 ], [ 38.736129, 9.0447854 ] ] ] } },
{ "type": "Feature", "properties": { "threshold_s": 600, "time_label": "10 min drive" }, "geometry": { "type": "Polygon", "coordinates": [ [ [ 38.7184821, 9.0586101 ], [ 38.7217762, 9.0625895 ], [ 38.7251694, 9.0654643 ], [ 38.7260131, 9.0660745 ], [ 38.7326431, 9.0690938 ], [ 38.7384101, 9.0692335 ], [ 38.7394818, 9.0691537 ], [ 38.7422269, 9.0690505 ], [ 38.7478419, 9.0712001 ], [ 38.7494679, 9.0716337 ], [ 38.7518597, 9.072002 ], [ 38.7524557, 9.071734 ], [ 38.7559113, 9.0701827 ], [ 38.7606559, 9.0701854 ], [ 38.7642475, 9.0693242 ], [ 38.764943, 9.0686465 ], [ 38.771422, 9.0646742 ], [ 38.7735316, 9.0617341 ], [ 38.7771909, 9.0569486 ], [ 38.7797532, 9.0510781 ], [ 38.7802148, 9.0457754 ], [ 38.782942, 9.0416807 ], [ 38.7832034, 9.0412485 ], [ 38.7835732, 9.0398786 ], [ 38.7838114, 9.0389039 ], [ 38.7835932, 9.0378847 ], [ 38.7845581, 9.0313118 ], [ 38.7820868, 9.0283447 ], [ 38.7791009, 9.0224574 ], [ 38.7781049, 9.0161217 ], [ 38.7768362, 9.0119613 ], [ 38.7763497, 9.0075451 ], [ 38.7726315, 9.0016759 ], [ 38.7699206, 8.9987492 ], [ 38.7667584, 8.998057 ], [ 38.765179, 8.9981909 ], [ 38.7595485, 8.9939777 ], [ 38.7593972, 8.993556 ], [ 38.7565699, 8.9926533 ], [ 38.7526832, 8.9921582 ], [ 38.7511804, 8.9924779 ], [ 38.7463845, 8.9937738 ], [ 38.7446667, 8.9949007 ], [ 38.7389611, 8.9967186 ], [ 38.7371778, 8.998569 ], [ 38.7325948, 9.0017547 ], [ 38.732501, 9.001813 ], [ 38.7292146, 9.0052443 ], [ 38.7285474, 9.0064755 ], [ 38.7284978, 9.0065722 ], [ 38.726517, 9.0109459 ], [ 38.7201735, 9.0095651 ], [ 38.7197471, 9.0087074 ], [ 38.7190403, 9.0111128 ], [ 38.7172717, 9.0182925 ], [ 38.7171452, 9.0185363 ], [ 38.716879, 9.0190493 ], [ 38.7160489, 9.0210002 ], [ 38.7156287, 9.0220832 ], [ 38.7153381, 9.0230401 ], [ 38.7152763, 9.0236018 ], [ 38.7152353, 9.0242892 ], [ 38.7152166, 9.0245608 ], [ 38.715158, 9.0253611 ], [ 38.7151311, 9.0261072 ], [ 38.7150762, 9.0272182 ], [ 38.7133465, 9.0335604 ], [ 38.7120818, 9.0391693 ], [ 38.7138321, 9.0453449 ], [ 38.7149365, 9.0471322 ], [ 38.7191489, 9.0506074 ], [ 38.7163179, 9.0556455 ], [ 38.7184821, 9.0586101 ] ] ] } },
{ "type": "Feature", "properties": { "threshold_s": 900, "time_label": "15 min drive" }, "geometry": { "type": "Polygon", "coordinates": [ [ [ 38.6987997, 9.0584836 ], [ 38.7013348, 9.0649709 ], [ 38.7047361, 9.0671463 ], [ 38.7051867, 9.0669423 ], [ 38.7146036, 9.0688953 ], [ 38.7151902, 9.0700342 ], [ 38.7157707, 9.0714928 ], [ 38.7160362, 9.0719192 ], [ 38.7182799, 9.0763662 ], [ 38.7190591, 9.077488 ], [ 38.7212082, 9.0809212 ], [ 38.7230509, 9.0843081 ], [ 38.7279962, 9.0819581 ], [ 38.7287586, 9.0812933 ], [ 38.7324589, 9.0764417 ], [ 38.7377219, 9.0759888 ], [ 38.7382369, 9.0758127 ], [ 38.7465249, 9.0792228 ], [ 38.7431292, 9.0876863 ], [ 38.7429193, 9.0877949 ], [ 38.7434601, 9.0878847 ], [ 38.7536985, 9.0820899 ], [ 38.7613576, 9.0810134 ], [ 38.7700425, 9.0798452 ], [ 38.773237, 9.081739 ], [ 38.7736219, 9.0787401 ], [ 38.7742804, 9.0774085 ], [ 38.7836453, 9.0772787 ], [ 38.7841657, 9.0771675 ], [ 38.7849784, 9.0751532 ], [ 38.7899282, 9.0669108 ], [ 38.7957475, 9.0620051 ], [ 38.7959567, 9.0614277 ], [ 38.7931769, 9.0568746 ], [ 38.792129, 9.0494167 ], [ 38.7967241, 9.0428703 ], [ 38.7975584, 9.0393973 ], [ 38.7997189, 9.0335465 ], [ 38.8048161, 9.0292985 ], [ 38.8034654, 9.021046 ], [ 38.802462, 9.0194301 ], [ 38.8018595, 9.0192341 ], [ 38.7959622, 9.0132559 ], [ 38.7956548, 9.0107686 ], [ 38.7953987, 9.0083641 ], [ 38.795201, 9.0056441 ], [ 38.7941482, 8.9979968 ], [ 38.7943467, 8.9950463 ], [ 38.7890151, 8.9881152 ], [ 38.7855757, 8.9849273 ], [ 38.7810382, 8.9833915 ], [ 38.7786342, 8.9830658 ], [ 38.7718453, 8.9814706 ], [ 38.7638058, 8.9768236 ], [ 38.7624457, 8.9749601 ], [ 38.7584311, 8.9727864 ], [ 38.7513166, 8.9717443 ], [ 38.7502858, 8.9715961 ], [ 38.746781, 8.971892 ], [ 38.7377591, 8.9745786 ], [ 38.7313138, 8.9771965 ], [ 38.7283872, 8.9787856 ], [ 38.7270547, 8.9798003 ], [ 38.7189652, 8.9832542 ], [ 38.7184726, 8.9834798 ], [ 38.7180908, 8.9841611 ], [ 38.7163385, 8.9880063 ], [ 38.710983400000011, 8.9917704 ], [ 38.7107695, 8.992065 ], [ 38.7103014, 8.9929009 ], [ 38.7098554, 8.9936617 ], [ 38.7030419, 9.0001151 ], [ 38.6988019, 9.0041466 ], [ 38.6999773, 9.0067923 ], [ 38.6996707, 9.0155123 ], [ 38.6994589, 9.0190576 ], [ 38.6963119, 9.0265084 ], [ 38.6923724, 9.0323236 ], [ 38.6923502, 9.0365186 ], [ 38.6937377, 9.0410938 ], [ 38.6950265, 9.0442973 ], [ 38.6951834, 9.0444092 ], [ 38.6955012, 9.0446396 ], [ 38.6966365, 9.0455237 ], [ 38.6970482, 9.0458839 ], [ 38.6987601, 9.0475573 ], [ 38.6993244, 9.0575051 ], [ 38.6988628, 9.0583438 ], [ 38.6987997, 9.0584836 ] ] ] } },
{ "type": "Feature", "properties": { "threshold_s": 300, "time_label": "5 min drive" }, "geometry": { "type": "Polygon", "coordinates": [ [ [ 38.77382510000001, 9.0059662 ], [ 38.7751776, 9.0098829 ], [ 38.7801527, 9.0119568 ], [ 38.7817494, 9.0139229 ], [ 38.7834846, 9.01484 ], [ 38.7872844, 9.0160666 ], [ 38.7874547, 9.016091 ], [ 38.7875045, 9.0160762 ], [ 38.7908548, 9.0142631 ], [ 38.7961516, 9.0125743 ], [ 38.7978778, 9.008977 ], [ 38.7990016, 9.0065682 ], [ 38.7991914, 9.0059044 ], [ 38.8001074, 9.0025819 ], [ 38.8001838, 9.0022144 ], [ 38.7987395, 8.9994411 ], [ 38.7984775, 8.9990207 ], [ 38.7965052, 8.9969379 ], [ 38.797341, 8.9927148 ], [ 38.797957, 8.9920335 ], [ 38.7992705, 8.9883311 ], [ 38.8035396, 8.9855276 ], [ 38.8035562, 8.9852867 ], [ 38.8021619, 8.9853275 ], [ 38.7996331, 8.9854045 ], [ 38.7971379, 8.9861223 ], [ 38.791375, 8.9871117 ], [ 38.789819799999989, 8.986366 ], [ 38.788826, 8.985809 ], [ 38.7855757, 8.9849273 ], [ 38.7842988, 8.9845215 ], [ 38.7829895, 8.9840922 ], [ 38.7824454, 8.9839019 ], [ 38.7795987, 8.9875419 ], [ 38.7766295, 8.9930188 ], [ 38.7765583, 8.9936071 ], [ 38.7770092, 8.9949946 ], [ 38.777362, 8.9984848 ], [ 38.7759407, 9.0043032 ], [ 38.77382510000001, 9.0059662 ] ] ] } },
{ "type": "Feature", "properties": { "threshold_s": 600, "time_label": "10 min drive" }, "geometry": { "type": "Polygon", "coordinates": [ [ [ 38.7561231, 9.0153091 ], [ 38.7575894, 9.0177418 ], [ 38.7673037, 9.0253571 ], [ 38.7736071, 9.0317865 ], [ 38.7853003, 9.0340705 ], [ 38.7913411, 9.0328014 ], [ 38.8005564, 9.0303732 ], [ 38.8022468, 9.0290022 ], [ 38.8116947, 9.0198284 ], [ 38.8161268, 9.0119246 ], [ 38.8164575, 9.011285 ], [ 38.8178348, 9.0041654 ], [ 38.8203452, 8.9967397 ], [ 38.822578, 8.9917316 ], [ 38.8234221, 8.9885048 ], [ 38.8234502, 8.9879556 ], [ 38.8231915, 8.9866537 ], [ 38.8208006, 8.9803978 ], [ 38.8079529, 8.9863615 ], [ 38.8066972, 8.9860036 ], [ 38.8035562, 8.9852867 ], [ 38.8021619, 8.9853275 ], [ 38.7996331, 8.9854045 ], [ 38.7971379, 8.9861223 ], [ 38.7899075, 8.9859732 ], [ 38.7880106, 8.9854871 ], [ 38.7777914, 8.9763594 ], [ 38.7784204, 8.9681007 ], [ 38.7767244, 8.9667629 ], [ 38.7748945, 8.9656073 ], [ 38.7640962, 8.9718863 ], [ 38.7634898, 8.9729395 ], [ 38.7606946, 8.9807142 ], [ 38.7590372, 8.9856273 ], [ 38.7586171, 8.9869071 ], [ 38.7586621, 8.999279 ], [ 38.7542984, 9.0119961 ], [ 38.7561231, 9.0153091 ] ] ] } },
{ "type": "Feature", "properties": { "threshold_s": 900, "time_label": "15 min drive" }, "geometry": { "type": "Polygon", "coordinates": [ [ [ 38.738609, 9.0251772 ], [ 38.7413266, 9.0305818 ], [ 38.7500595, 9.0344758 ], [ 38.7570809, 9.04219 ], [ 38.7612864, 9.0448542 ], [ 38.767836, 9.0485087 ], [ 38.7703055, 9.0488674 ], [ 38.7783756, 9.049188 ], [ 38.7850186, 9.049336 ], [ 38.7892183, 9.0480524 ], [ 38.7906995, 9.0454025 ], [ 38.7975584, 9.0393973 ], [ 38.8042312, 9.0365115 ], [ 38.8144658, 9.0377323 ], [ 38.8163683, 9.0394796 ], [ 38.8178167, 9.0395693 ], [ 38.8218842, 9.037652 ], [ 38.8257238, 9.0344096 ], [ 38.8307496, 9.0279156 ], [ 38.8316044, 9.0267239 ], [ 38.8339238, 9.0216463 ], [ 38.8339249, 9.0209136 ], [ 38.8322389, 9.0134539 ], [ 38.8350763, 9.0076814 ], [ 38.8362824, 8.9983072 ], [ 38.8396552, 8.9890861 ], [ 38.8398832, 8.9864554 ], [ 38.8396366, 8.984055 ], [ 38.8395408, 8.9838301 ], [ 38.8387189, 8.9821844 ], [ 38.8303922, 8.9744672 ], [ 38.8300543, 8.9713237 ], [ 38.8289182, 8.9663006 ], [ 38.8282921, 8.9652772 ], [ 38.8249257, 8.9633665 ], [ 38.816784, 8.9651618 ], [ 38.8154449, 8.9653373 ], [ 38.8137183, 8.9668177 ], [ 38.8124616, 8.9711806 ], [ 38.8150683, 8.9737532 ], [ 38.8208006, 8.9803978 ], [ 38.817983, 8.985495 ], [ 38.8097735, 8.9869675 ], [ 38.8079529, 8.9863615 ], [ 38.8066972, 8.9860036 ], [ 38.8035562, 8.9852867 ], [ 38.8021619, 8.9853275 ], [ 38.7996331, 8.9854045 ], [ 38.7971379, 8.9861223 ], [ 38.7899075, 8.9859732 ], [ 38.7880106, 8.9854871 ], [ 38.7855757, 8.9849273 ], [ 38.7842988, 8.9845215 ], [ 38.7787516, 8.9794447 ], [ 38.7777914, 8.9763594 ], [ 38.7828796, 8.9680649 ], [ 38.7919347, 8.9698281 ], [ 38.796996, 8.9651492 ], [ 38.7962328, 8.9642272 ], [ 38.7939906, 8.9591515 ], [ 38.7930313, 8.9566416 ], [ 38.7862791, 8.9539931 ], [ 38.7839082, 8.9534344 ], [ 38.7833272, 8.9536024 ], [ 38.7743879, 8.9540411 ], [ 38.770731, 8.9523427 ], [ 38.762583, 8.9530152 ], [ 38.7615662, 8.9541587 ], [ 38.7546019, 8.9637399 ], [ 38.7507722, 8.9674012 ], [ 38.7439171, 8.9739495 ], [ 38.7410338, 8.9804994 ], [ 38.7388337, 8.9881324 ], [ 38.737991, 8.9991543 ], [ 38.7352382, 9.0066159 ], [ 38.7333509, 9.0103889 ], [ 38.7328906, 9.0112949 ], [ 38.7329321, 9.0116426 ], [ 38.7345098, 9.0165098 ], [ 38.738609, 9.0251772 ] ] ] } },
{ "type": "Feature", "properties": { "threshold_s": 300, "time_label": "5 min drive" }, "geometry": { "type": "Polygon", "coordinates": [ [ [ 38.7261992, 8.958587 ], [ 38.7263131, 8.9595443 ], [ 38.7276544, 8.9604039 ], [ 38.7294334, 8.9609553 ], [ 38.7330546, 8.9628478 ], [ 38.7337236, 8.9625548 ], [ 38.7347155, 8.9619706 ], [ 38.7352396, 8.9611247 ], [ 38.7351846, 8.9609923 ], [ 38.7348681, 8.9596248 ], [ 38.7364709, 8.9560006 ], [ 38.741532, 8.9558019 ], [ 38.7429693, 8.9567245 ], [ 38.7436067, 8.9570909 ], [ 38.746077, 8.9588322 ], [ 38.7506098, 8.9584779 ], [ 38.7514364, 8.9545396 ], [ 38.75506750000001, 8.953034 ], [ 38.7560588, 8.9495278 ], [ 38.7581194, 8.9458735 ], [ 38.7588309, 8.9448533 ], [ 38.7588805, 8.9447122 ], [ 38.7586706, 8.943708 ], [ 38.7585063, 8.9432019 ], [ 38.7579483, 8.9420892 ], [ 38.7568782, 8.9405762 ], [ 38.7547673, 8.9374875 ], [ 38.7538567, 8.9369382 ], [ 38.750846, 8.9350628 ], [ 38.7481308, 8.9315917 ], [ 38.7475412, 8.9310741 ], [ 38.7457665, 8.9302213 ], [ 38.7424849, 8.9301141 ], [ 38.7415334, 8.9319128 ], [ 38.7409971, 8.9326751 ], [ 38.7382661, 8.934166 ], [ 38.7339035, 8.9321621 ], [ 38.7337568, 8.9308869 ], [ 38.7331916, 8.9297496 ], [ 38.732701, 8.9291721 ], [ 38.7321191, 8.9298927 ], [ 38.731033, 8.9313573 ], [ 38.7289767, 8.934023 ], [ 38.7272335, 8.9357127 ], [ 38.724478499999989, 8.9399352 ], [ 38.7231369, 8.9413597 ], [ 38.7222447, 8.9423215 ], [ 38.7217744, 8.9435857 ], [ 38.7207708, 8.9466268 ], [ 38.7189076, 8.9495119 ], [ 38.7218002, 8.9533475 ], [ 38.7227686, 8.9541923 ], [ 38.7233466, 8.954489 ], [ 38.7261992, 8.958587 ] ] ] } },
{ "type": "Feature", "properties": { "threshold_s": 600, "time_label": "10 min drive" }, "geometry": { "type": "Polygon", "coordinates": [ [ [ 38.7096177, 8.971245 ], [ 38.7097841, 8.9715518 ], [ 38.7120216, 8.9728206 ], [ 38.7137725, 8.9724536 ], [ 38.7206829, 8.9750566 ], [ 38.7214795, 8.9768647 ], [ 38.7218581, 8.9783907 ], [ 38.7219483, 8.9785817 ], [ 38.7219907, 8.9786054 ], [ 38.7222442, 8.9787412 ], [ 38.7303941, 8.9798149 ], [ 38.7311625, 8.9804746 ], [ 38.7340973, 8.982902 ], [ 38.7363511, 8.9832506 ], [ 38.7387921, 8.9816575 ], [ 38.7449528, 8.9790733 ], [ 38.7495639, 8.9802349 ], [ 38.753462399999989, 8.977608 ], [ 38.7576654, 8.9743967 ], [ 38.7613593, 8.9707294 ], [ 38.76242, 8.9685074 ], [ 38.7670012, 8.9625263 ], [ 38.7699681, 8.9602233 ], [ 38.7711362, 8.9595053 ], [ 38.7718731, 8.9576325 ], [ 38.7711537, 8.9564496 ], [ 38.7704701, 8.9553357 ], [ 38.7688543, 8.9481925 ], [ 38.7690681, 8.9462568 ], [ 38.769171299999989, 8.9448794 ], [ 38.7664135, 8.943651 ], [ 38.7681933, 8.9357829 ], [ 38.7682445, 8.9295578 ], [ 38.7681373, 8.9288881 ], [ 38.7675151, 8.9277337 ], [ 38.7648154, 8.9231575 ], [ 38.7586467, 8.918293 ], [ 38.7583174, 8.9184418 ], [ 38.7582381, 8.9184763 ], [ 38.7497851, 8.9178583 ], [ 38.7478888, 8.9135013 ], [ 38.7476487, 8.9130972 ], [ 38.7474892, 8.9129184 ], [ 38.7468897, 8.9124308 ], [ 38.7450259, 8.9111061 ], [ 38.7388934, 8.9077171 ], [ 38.73353, 8.9082675 ], [ 38.727289399999989, 8.9135477 ], [ 38.7226438, 8.9196104 ], [ 38.7199563, 8.9207989 ], [ 38.7202896, 8.9240603 ], [ 38.7163543, 8.9307024 ], [ 38.7116689, 8.9264898 ], [ 38.71039, 8.9284051 ], [ 38.7082048, 8.9329563 ], [ 38.7055528, 8.9393189 ], [ 38.706592, 8.9420225 ], [ 38.7025123, 8.9486786 ], [ 38.7023901, 8.9487493 ], [ 38.7008689, 8.9508498 ], [ 38.7001079, 8.9539976 ], [ 38.7039602, 8.9610498 ], [ 38.7050701, 8.9632029 ], [ 38.7068908, 8.9659896 ], [ 38.7096177, 8.971245 ] ] ] } },
{ "type": "Feature", "properties": { "threshold_s": 900, "time_label": "15 min drive" }, "geometry": { "type": "Polygon", "coordinates": [ [ [ 38.6909566, 8.9762645 ], [ 38.69472, 8.9823438 ], [ 38.6961552, 8.9838323 ], [ 38.6962468, 8.9838996 ], [ 38.7065338, 8.9882529 ], [ 38.7184146, 8.9954572 ], [ 38.7258428, 8.9978506 ], [ 38.7370366, 9.0028356 ], [ 38.7380223, 9.0030952 ], [ 38.7415638, 9.0038567 ], [ 38.7556243, 9.0006326 ], [ 38.7561147, 9.0004421 ], [ 38.757309, 8.9996997 ], [ 38.7665236, 8.99355 ], [ 38.7729816, 8.9907565 ], [ 38.7730707, 8.9907022 ], [ 38.7751147, 8.9849595 ], [ 38.7752924, 8.9841592 ], [ 38.7754878, 8.9822921 ], [ 38.775347, 8.9808268 ], [ 38.7730915, 8.9754844 ], [ 38.7728932, 8.9750057 ], [ 38.7715801, 8.967035 ], [ 38.7811453, 8.9594805 ], [ 38.7816508, 8.9591492 ], [ 38.7822418, 8.9587006 ], [ 38.7854666, 8.9514846 ], [ 38.7880415, 8.9438762 ], [ 38.7909088, 8.9328273 ], [ 38.7896334, 8.9318244 ], [ 38.7847035, 8.922135 ], [ 38.7852056, 8.9169781 ], [ 38.784734, 8.914188 ], [ 38.7736715, 8.90742 ], [ 38.7714292, 8.9048853 ], [ 38.769152, 8.901621 ], [ 38.7676192, 8.9004608 ], [ 38.766732, 8.9000977 ], [ 38.7661347, 8.9000796 ], [ 38.7656774, 8.9001627 ], [ 38.763595, 8.9005269 ], [ 38.7553749, 8.9011266 ], [ 38.7512575, 8.8913813 ], [ 38.7433773, 8.8943519 ], [ 38.7362117, 8.9011704 ], [ 38.7350826, 8.9022633 ], [ 38.7337589, 8.9040162 ], [ 38.7313695, 8.9071775 ], [ 38.7312216, 8.9075352 ], [ 38.727289399999989, 8.9135477 ], [ 38.7226438, 8.9196104 ], [ 38.714174, 8.9207268 ], [ 38.7113597, 8.9196049 ], [ 38.7030194, 8.9214373 ], [ 38.7007337, 8.9274804 ], [ 38.69870250000001, 8.9321675 ], [ 38.6884219, 8.9413436 ], [ 38.6819407, 8.9493727 ], [ 38.6810593, 8.9510858 ], [ 38.6810714, 8.9512916 ], [ 38.6838296, 8.9638537 ], [ 38.684987, 8.9667601 ], [ 38.6909566, 8.9762645 ] ] ] } },
{ "type": "Feature", "properties": { "threshold_s": 300, "time_label": "5 min drive" }, "geometry": { "type": "Polygon", "coordinates": [ [ [ 38.7168079, 8.9640889 ], [ 38.7165685, 8.9653121 ], [ 38.7210374, 8.9695813 ], [ 38.7266294, 8.9728033 ], [ 38.727952, 8.9738983 ], [ 38.7296868, 8.9752961 ], [ 38.7346587, 8.9739573 ], [ 38.7375861, 8.9741636 ], [ 38.7429767, 8.9727105 ], [ 38.7432844, 8.9712271 ], [ 38.7425491, 8.9703814 ], [ 38.7372129, 8.9662997 ], [ 38.7355458, 8.9629714 ], [ 38.7352396, 8.9611247 ], [ 38.7364709, 8.9560006 ], [ 38.741538, 8.9531417 ], [ 38.7421294, 8.9527569 ], [ 38.7428664, 8.9476614 ], [ 38.742462, 8.9458879 ], [ 38.7409015, 8.9435192 ], [ 38.737807, 8.9407308 ], [ 38.7343578, 8.9379562 ], [ 38.7321951, 8.9402901 ], [ 38.7258961, 8.9415389 ], [ 38.7257027, 8.9416899 ], [ 38.7243715, 8.943773 ], [ 38.7237417, 8.9448268 ], [ 38.7198445, 8.9505415 ], [ 38.7195469, 8.9528554 ], [ 38.7195277, 8.9534771 ], [ 38.7195767, 8.9541353 ], [ 38.7196263, 8.9606677 ], [ 38.7168079, 8.9640889 ] ] ] } },
{ "type": "Feature", "properties": { "threshold_s": 600, "time_label": "10 min drive" }, "geometry": { "type": "Polygon", "coordinates": [ [ [ 38.7011701, 8.9781948 ], [ 38.701437, 8.9785459 ], [ 38.7038942, 8.979798 ], [ 38.7056345, 8.9807402 ], [ 38.7096251, 8.9827231 ], [ 38.7129021, 8.9832206 ], [ 38.7179174, 8.9892139 ], [ 38.7255622, 8.9913882 ], [ 38.7306756, 8.9935185 ], [ 38.7376045, 8.9950873 ], [ 38.7383237, 8.9951094 ], [ 38.7387317, 8.9950244 ], [ 38.7438145, 8.9928309 ], [ 38.7481062, 8.9924875 ], [ 38.751011, 8.9919451 ], [ 38.7532448, 8.9890109 ], [ 38.7552246, 8.9863426 ], [ 38.7581101, 8.9811642 ], [ 38.7598425, 8.9769483 ], [ 38.7613593, 8.9707294 ], [ 38.7596895, 8.9645419 ], [ 38.7606216, 8.9589706 ], [ 38.7603619, 8.9570516 ], [ 38.7595374, 8.9509795 ], [ 38.7594397, 8.944691 ], [ 38.758741, 8.9406331 ], [ 38.757121, 8.9354319 ], [ 38.7557982, 8.9306579 ], [ 38.7545112, 8.9295589 ], [ 38.748503, 8.9257618 ], [ 38.7461199, 8.9243734 ], [ 38.7404671, 8.9206655 ], [ 38.7352683, 8.9173866 ], [ 38.7344959, 8.9170885 ], [ 38.7332205, 8.9172147 ], [ 38.7311911, 8.9177063 ], [ 38.7302774, 8.9184498 ], [ 38.7293324, 8.9195194 ], [ 38.7225024, 8.9240636 ], [ 38.7222866, 8.9253297 ], [ 38.7163543, 8.9307024 ], [ 38.7156326, 8.9307128 ], [ 38.7151672, 8.9307128 ], [ 38.71189420000001, 8.9305843 ], [ 38.7105538, 8.9315806 ], [ 38.7106329, 8.9335387 ], [ 38.7107509, 8.9337387 ], [ 38.7070978, 8.9412372 ], [ 38.706592, 8.9420225 ], [ 38.7051688, 8.9476046 ], [ 38.7020458, 8.9504067 ], [ 38.6968465, 8.9551229 ], [ 38.6963781, 8.9556121 ], [ 38.6968257, 8.9572693 ], [ 38.6984839, 8.9604146 ], [ 38.6991355, 8.967266 ], [ 38.7006018, 8.9743566 ], [ 38.7011701, 8.9781948 ] ] ] } },
{ "type": "Feature", "properties": { "threshold_s": 900, "time_label": "15 min drive" }, "geometry": { "type": "Polygon", "coordinates": [ [ [ 38.6862168, 8.9940667 ], [ 38.6863987, 8.9946011 ], [ 38.6886502, 8.9956161 ], [ 38.689041, 8.9956935 ], [ 38.6892435, 8.9957267 ], [ 38.7015789, 8.9996071 ], [ 38.7035358, 9.0008606 ], [ 38.7074485, 9.0020289 ], [ 38.7197143, 9.0079515 ], [ 38.7321181, 9.0117201 ], [ 38.7344752, 9.0132766 ], [ 38.735418, 9.0139591 ], [ 38.7427155, 9.0163732 ], [ 38.7446581, 9.0167997 ], [ 38.746222, 9.016833 ], [ 38.7497617, 9.0140877 ], [ 38.7588742, 9.0086394 ], [ 38.767328, 9.0017712 ], [ 38.7747749, 8.9936803 ], [ 38.7773605, 8.9852209 ], [ 38.7778215, 8.9835932 ], [ 38.777491, 8.9812854 ], [ 38.7772539, 8.9799482 ], [ 38.7767997, 8.9780852 ], [ 38.7696909, 8.9686206 ], [ 38.7726464, 8.9617668 ], [ 38.7728872, 8.9614966 ], [ 38.7746049, 8.9599046 ], [ 38.775242, 8.9583361 ], [ 38.7755169, 8.9575612 ], [ 38.7758695, 8.9518383 ], [ 38.7758509, 8.9494855 ], [ 38.7757356, 8.9358768 ], [ 38.7730272, 8.9253048 ], [ 38.7702032, 8.9199201 ], [ 38.7626269, 8.914082 ], [ 38.7580946, 8.9124759 ], [ 38.7488725, 8.9026402 ], [ 38.7461579, 8.9010112 ], [ 38.7362117, 8.9011704 ], [ 38.7350826, 8.9022633 ], [ 38.7337589, 8.9040162 ], [ 38.7313695, 8.9071775 ], [ 38.7312216, 8.9075352 ], [ 38.727289399999989, 8.9135477 ], [ 38.7226438, 8.9196104 ], [ 38.714174, 8.9207268 ], [ 38.7113597, 8.9196049 ], [ 38.7074294, 8.9215038 ], [ 38.69870250000001, 8.9321675 ], [ 38.6884219, 8.9413436 ], [ 38.6872833, 8.9418058 ], [ 38.6837543, 8.9430496 ], [ 38.6821188, 8.9435227 ], [ 38.6802028, 8.9447962 ], [ 38.6803134, 8.9557227 ], [ 38.6803973, 8.9570556 ], [ 38.6820781, 8.9677735 ], [ 38.6805524, 8.9714571 ], [ 38.681965, 8.9797933 ], [ 38.6827319, 8.983527 ], [ 38.6862168, 8.9940667 ] ] ] } }
]
}
