{
"type": "FeatureCollection",
"name": "isochrone_shop_beverages_drive",
"crs": { "type": "name", "properties": { "name": "urn:ogc:def:crs:OGC:1.3:CRS84" } },
"features": [
{ "type": "Feature", "properties": { "threshold_s": 300, "time_label": "5 min drive" }, "geometry": { "type": "Polygon", "coordinates": [ [ [ 38.8194273, 9.0176486 ], [ 38.8199606, 9.0189684 ], [ 38.8214779, 9.0198759 ], [ 38.8234308, 9.0217676 ], [ 38.8257265, 9.0233455 ], [ 38.8265798, 9.0254264 ], [ 38.826657, 9.0257235 ], [ 38.8296675, 9.0268584 ], [ 38.8320971, 9.0281925 ], [ 38.8339023, 9.0302265 ], [ 38.8348948, 9.0314908 ], [ 38.8362328, 9.0339547 ], [ 38.8363098, 9.0339963 ], [ 38.8368373, 9.0341313 ], [ 38.837967, 9.0342755 ], [ 38.8400357, 9.0328395 ], [ 38.8436427, 9.0326368 ], [ 38.8442592, 9.0324403 ], [ 38.8454603, 9.0319907 ], [ 38.8474679, 9.0308967 ], [ 38.8482548, 9.0297178 ], [ 38.8504599, 9.0269378 ], [ 38.8498255, 9.0257435 ], [ 38.8526943, 9.0237145 ], [ 38.8541256, 9.0206948 ], [ 38.8540747, 9.0196323 ], [ 38.8523727, 9.0163211 ], [ 38.8515265, 9.0152912 ], [ 38.8499168, 9.0136545 ], [ 38.8482646, 9.0120106 ], [ 38.8463331, 9.0104403 ], [ 38.8441673, 9.0105137 ], [ 38.8427397, 9.0085083 ], [ 38.8425356, 9.0081494 ], [ 38.8420216, 9.0072789 ], [ 38.8409735, 9.0065219 ], [ 38.8402205, 9.0060344 ], [ 38.8386856, 9.0051973 ], [ 38.8386027, 9.0052016 ], [ 38.8356071, 9.0049112 ], [ 38.8348145, 9.0040503 ], [ 38.8314611, 9.0054037 ], [ 38.8304789, 9.0046066 ], [ 38.8303265, 9.0044892 ], [ 38.8289485, 9.0034542 ], [ 38.8271347, 9.0043946 ], [ 38.8267102, 9.0063457 ], [ 38.8263032, 9.0074272 ], [ 38.8265068, 9.0084036 ], [ 38.8261094, 9.0101883 ], [ 38.8246822, 9.0117334 ], [ 38.8213333, 9.0110947 ], [ 38.8212563, 9.0111273 ], [ 38.8208147, 9.013098 ], [ 38.8193771, 9.0158641 ], [ 38.819362, 9.0164901 ], [ 38.8194273, 9.0176486 ] ] ] } },
{ "type": "Feature", "properties": { "threshold_s": 600, "time_label": "10 min drive" }, "geometry": { "type": "Polygon", "coordinates": [ [ [ 38.8196319, 9.0441961 ], [ 38.8198515, 9.0448987 ], [ 38.8198908, 9.0449265 ], [ 38.8256755, 9.0502843 ], [ 38.8264969, 9.0514454 ], [ 38.8286179, 9.0524749 ], [ 38.8351438, 9.0518843 ], [ 38.8423777, 9.0510737 ], [ 38.8438708, 9.050832 ], [ 38.851974, 9.0484036 ], [ 38.8532714, 9.0478562 ], [ 38.8567619, 9.046229 ], [ 38.8618921, 9.0423394 ], [ 38.8651948, 9.0408444 ], [ 38.8650485, 9.0390673 ], [ 38.8639924, 9.0378354 ], [ 38.8620956, 9.0352 ], [ 38.8636881, 9.0301716 ], [ 38.8699132, 9.0304839 ], [ 38.8725441, 9.0273659 ], [ 38.8779101, 9.0212599 ], [ 38.8730642, 9.015296 ], [ 38.8696938, 9.0094141 ], [ 38.8678904, 9.0067672 ], [ 38.8647982, 9.0065788 ], [ 38.8585561, 9.0016594 ], [ 38.8566548, 8.9988859 ], [ 38.8556806, 8.9973701 ], [ 38.8516466, 8.9940973 ], [ 38.8460724, 8.9898733 ], [ 38.8426673, 8.9877079 ], [ 38.8344786, 8.9850665 ], [ 38.8289297, 8.9840815 ], [ 38.8228863, 8.9850231 ], [ 38.8217833, 8.9870946 ], [ 38.8152255, 8.9912287 ], [ 38.8134731, 8.9919911 ], [ 38.8121283, 8.9937645 ], [ 38.8061508, 9.0000781 ], [ 38.8059748, 9.000749 ], [ 38.8038324, 9.0088005 ], [ 38.8040681, 9.0123412 ], [ 38.7986449, 9.01891 ], [ 38.7993138, 9.0205268 ], [ 38.8001377, 9.0221938 ], [ 38.8002208, 9.022295 ], [ 38.802675, 9.0247228 ], [ 38.8055937, 9.0257918 ], [ 38.8080317, 9.0267738 ], [ 38.8116564, 9.0325841 ], [ 38.8170256, 9.0357398 ], [ 38.818889, 9.0398497 ], [ 38.8191361, 9.0406866 ], [ 38.8196319, 9.0441961 ] ] ] } },
{ "type": "Feature", "properties": { "threshold_s": 900, "time_label": "15 min drive" }, "geometry": { "type": "Polygon", "coordinates": [ [ [ 38.801592, 9.0480461 ], [ 38.8027809, 9.0533596 ], [ 38.8079387, 9.0569742 ], [ 38.8124871, 9.0624673 ], [ 38.8147441, 9.0635101 ], [ 38.8255781, 9.06194 ], [ 38.8296586, 9.0626196 ], [ 38.8304083, 9.062813 ], [ 38.8371769, 9.0588359 ], [ 38.843521, 9.0630858 ], [ 38.8446374, 9.0675065 ], [ 38.8448721, 9.0682839 ], [ 38.8450371, 9.0690732 ], [ 38.8459278, 9.0684039 ], [ 38.8534793, 9.0604848 ], [ 38.853946, 9.0604914 ], [ 38.8594677, 9.0629057 ], [ 38.8605483, 9.0640102 ], [ 38.8606649, 9.0640526 ], [ 38.8628161, 9.058877 ], [ 38.8722576, 9.0591727 ], [ 38.875886, 9.05777 ], [ 38.87711130000001, 9.0571683 ], [ 38.8798952, 9.0495227 ], [ 38.87991, 9.0485734 ], [ 38.8844918, 9.0386993 ], [ 38.8862076, 9.0374491 ], [ 38.8898581, 9.033852 ], [ 38.8956209, 9.0252058 ], [ 38.8965147, 9.0225137 ], [ 38.8964858, 9.0171326 ], [ 38.892751, 9.010075 ], [ 38.8901349, 9.0055407 ], [ 38.8872403, 8.9974902 ], [ 38.883983, 8.9950377 ], [ 38.8806877, 8.9956404 ], [ 38.8735718, 8.9973809 ], [ 38.8659556, 8.990281 ], [ 38.8659543, 8.9825954 ], [ 38.8598661, 8.9766158 ], [ 38.8539979, 8.9723627 ], [ 38.8470313, 8.9708627 ], [ 38.8445342, 8.9704772 ], [ 38.8376764, 8.9692227 ], [ 38.8282921, 8.9652772 ], [ 38.8211426, 8.9666058 ], [ 38.8180051, 8.9696678 ], [ 38.8169054, 8.9714992 ], [ 38.8168311, 8.9739661 ], [ 38.8208006, 8.9803978 ], [ 38.817983, 8.985495 ], [ 38.8097735, 8.9869675 ], [ 38.8079529, 8.9863615 ], [ 38.8066972, 8.9860036 ], [ 38.8035562, 8.9852867 ], [ 38.8021619, 8.9853275 ], [ 38.7996331, 8.9854045 ], [ 38.7971379, 8.9861223 ], [ 38.7967554, 8.986409 ], [ 38.792569, 8.9896677 ], [ 38.7924159, 8.9898914 ], [ 38.7899619, 8.994329 ], [ 38.7852708, 9.0043406 ], [ 38.7815672, 9.0104227 ], [ 38.7790322, 9.0148252 ], [ 38.7763746, 9.0235218 ], [ 38.777128, 9.0248365 ], [ 38.7826556, 9.031201 ], [ 38.7847393, 9.0337449 ], [ 38.7853003, 9.0340705 ], [ 38.7894697, 9.0358202 ], [ 38.7997189, 9.0335465 ], [ 38.8031475, 9.0364072 ], [ 38.8041703, 9.044401 ], [ 38.8018119, 9.0478527 ], [ 38.801592, 9.0480461 ] ] ] } },
{ "type": "Feature", "properties": { "threshold_s": 300, "time_label": "5 min drive" }, "geometry": { "type": "Polygon", "coordinates": [ [ [ 38.7556919, 9.0394787 ], [ 38.7557028, 9.0397766 ], [ 38.7581499, 9.0417016 ], [ 38.7600057, 9.0440359 ], [ 38.7629946, 9.0462782 ], [ 38.7657775, 9.0471413 ], [ 38.7669492, 9.0499581 ], [ 38.7682121, 9.0503408 ], [ 38.7702489, 9.0500487 ], [ 38.7703563, 9.0500188 ], [ 38.7721319, 9.0480659 ], [ 38.7763681, 9.0494641 ], [ 38.7797534, 9.049189 ], [ 38.7803797, 9.0490786 ], [ 38.7827002, 9.0462063 ], [ 38.7858018, 9.0466865 ], [ 38.7870159, 9.0440162 ], [ 38.7869235, 9.0434758 ], [ 38.7853727, 9.0402983 ], [ 38.7878993, 9.0373684 ], [ 38.7884075, 9.037232 ], [ 38.788646, 9.0371199 ], [ 38.788999, 9.0366321 ], [ 38.7887482, 9.0361844 ], [ 38.7880696, 9.0351791 ], [ 38.7869981, 9.033897 ], [ 38.7863892, 9.0328944 ], [ 38.7895501, 9.0295027 ], [ 38.7905778, 9.0297413 ], [ 38.7908639, 9.0294185 ], [ 38.7916626, 9.0285942 ], [ 38.7916646, 9.028526 ], [ 38.7905104, 9.0269941 ], [ 38.7882379, 9.0254218 ], [ 38.7868398, 9.0221014 ], [ 38.7866543, 9.0211264 ], [ 38.7850674, 9.0190776 ], [ 38.7846256, 9.0187558 ], [ 38.782823, 9.0174736 ], [ 38.7795994, 9.0155365 ], [ 38.777837, 9.0134105 ], [ 38.7767513, 9.0132784 ], [ 38.7761538, 9.0139141 ], [ 38.7720935, 9.0161841 ], [ 38.7712012, 9.0155134 ], [ 38.7700074, 9.0148215 ], [ 38.7699191, 9.014831 ], [ 38.7687544, 9.0164593 ], [ 38.766175, 9.0194163 ], [ 38.7664473, 9.0226405 ], [ 38.7616201, 9.0233396 ], [ 38.7605536, 9.0224021 ], [ 38.7602755, 9.0220911 ], [ 38.7600956, 9.0220791 ], [ 38.7572491, 9.0250712 ], [ 38.7563315, 9.0257239 ], [ 38.7549855, 9.028112 ], [ 38.7531912, 9.0297342 ], [ 38.7547358, 9.0318906 ], [ 38.7570673, 9.0349685 ], [ 38.7556919, 9.0394787 ] ] ] } },
{ "type": "Feature", "properties": { "threshold_s": 600, "time_label": "10 min drive" }, "geometry": { "type": "Polygon", "coordinates": [ [ [ 38.7387, 9.0487814 ], [ 38.7416141, 9.0552411 ], [ 38.7455156, 9.0587202 ], [ 38.7515164, 9.0626236 ], [ 38.7546476, 9.0650034 ], [ 38.7608059, 9.0681608 ], [ 38.7672387, 9.068146 ], [ 38.7718461, 9.0693962 ], [ 38.7749684, 9.0694771 ], [ 38.7764986, 9.0674535 ], [ 38.7820199, 9.0676257 ], [ 38.7886496, 9.0651575 ], [ 38.7902039, 9.066195 ], [ 38.7957475, 9.0620051 ], [ 38.7959567, 9.0614277 ], [ 38.7931769, 9.0568746 ], [ 38.7916383, 9.0559051 ], [ 38.792129, 9.0494167 ], [ 38.7906995, 9.0454025 ], [ 38.7967241, 9.0428703 ], [ 38.7975584, 9.0393973 ], [ 38.8005483, 9.0376132 ], [ 38.8041703, 9.044401 ], [ 38.8069644, 9.0447637 ], [ 38.8042312, 9.0365115 ], [ 38.8081541, 9.0338291 ], [ 38.808871, 9.0334149 ], [ 38.8116564, 9.0325841 ], [ 38.810141, 9.0310664 ], [ 38.8093892, 9.0245806 ], [ 38.8104577, 9.0228264 ], [ 38.8116801, 9.0213311 ], [ 38.8117559, 9.021246 ], [ 38.8086752, 9.0161888 ], [ 38.8041047, 9.011598 ], [ 38.8009696, 9.008072 ], [ 38.7964382, 9.0039085 ], [ 38.7954807, 9.0043642 ], [ 38.7946308, 9.0046325 ], [ 38.7897293, 8.9996859 ], [ 38.7865356, 8.9978286 ], [ 38.7809383, 8.9959589 ], [ 38.7794371, 8.9957638 ], [ 38.7733094, 8.9967573 ], [ 38.7717799, 8.9976465 ], [ 38.7656343, 8.9994049 ], [ 38.7620078, 9.0019117 ], [ 38.7586541, 9.0031765 ], [ 38.757125, 9.0039735 ], [ 38.7544001, 9.0055835 ], [ 38.7530239, 9.0074473 ], [ 38.7526401, 9.0079989 ], [ 38.7462365, 9.010408 ], [ 38.7445199, 9.0100214 ], [ 38.7443043, 9.0100188 ], [ 38.7441227, 9.0100953 ], [ 38.7440647, 9.0101702 ], [ 38.7429415, 9.0127486 ], [ 38.7398939, 9.016366 ], [ 38.7383985, 9.0217793 ], [ 38.7352817, 9.0225768 ], [ 38.7344785, 9.0251051 ], [ 38.7343523, 9.0258096 ], [ 38.7338878, 9.0292468 ], [ 38.7339365, 9.0331668 ], [ 38.7341184, 9.0347785 ], [ 38.735273, 9.0415292 ], [ 38.7357076, 9.0426689 ], [ 38.7387, 9.0487814 ] ] ] } },
{ "type": "Feature", "properties": { "threshold_s": 900, "time_label": "15 min drive" }, "geometry": { "type": "Polygon", "coordinates": [ [ [ 38.7222944, 9.0623953 ], [ 38.7247636, 9.0681643 ], [ 38.727209, 9.0696877 ], [ 38.7294931, 9.0707704 ], [ 38.7345066, 9.0727726 ], [ 38.7382101, 9.0740408 ], [ 38.7445479, 9.0766414 ], [ 38.7510584, 9.0755627 ], [ 38.753382, 9.0790122 ], [ 38.7569319, 9.0781488 ], [ 38.7613576, 9.0810134 ], [ 38.7612186, 9.0800548 ], [ 38.7684722, 9.0768381 ], [ 38.7700425, 9.0798452 ], [ 38.773237, 9.081739 ], [ 38.7736219, 9.0787401 ], [ 38.7742804, 9.0774085 ], [ 38.775241, 9.0762624 ], [ 38.7769619, 9.0750951 ], [ 38.7836453, 9.0772787 ], [ 38.7845762, 9.0804395 ], [ 38.7856852, 9.0805299 ], [ 38.7896159, 9.0783315 ], [ 38.7946067, 9.076095 ], [ 38.7992678, 9.0741871 ], [ 38.7963618, 9.0678503 ], [ 38.8020828, 9.0621853 ], [ 38.8028473, 9.0628395 ], [ 38.8050477, 9.06282 ], [ 38.8077852, 9.0636738 ], [ 38.8140744, 9.0622185 ], [ 38.8149651, 9.0605226 ], [ 38.8191283, 9.0545648 ], [ 38.8193482, 9.0534377 ], [ 38.8192061, 9.0530285 ], [ 38.8189311, 9.0524815 ], [ 38.8198908, 9.0449265 ], [ 38.8253349, 9.0451058 ], [ 38.8272784, 9.0451089 ], [ 38.8311864, 9.0412218 ], [ 38.8306081, 9.037338 ], [ 38.8294184, 9.0340067 ], [ 38.8318788, 9.0284356 ], [ 38.8321702, 9.0282138 ], [ 38.832197, 9.0281362 ], [ 38.8325876, 9.0248256 ], [ 38.8299657, 9.0172269 ], [ 38.8303554, 9.0157136 ], [ 38.829668, 9.013391 ], [ 38.8294604, 9.0127888 ], [ 38.826138899999989, 9.006804 ], [ 38.8241735, 9.0051152 ], [ 38.8206135, 8.9996526 ], [ 38.8193013, 8.9977327 ], [ 38.815386599999989, 8.9941664 ], [ 38.8116965, 8.9905701 ], [ 38.8080025, 8.9884199 ], [ 38.8021619, 8.9853275 ], [ 38.7996331, 8.9854045 ], [ 38.7971379, 8.9861223 ], [ 38.789819799999989, 8.986366 ], [ 38.788826, 8.985809 ], [ 38.7879749, 8.9856538 ], [ 38.7855757, 8.9849273 ], [ 38.7842988, 8.9845215 ], [ 38.7787516, 8.9794447 ], [ 38.7777914, 8.9763594 ], [ 38.7734922, 8.9773172 ], [ 38.7727762, 8.9776034 ], [ 38.772052, 8.9778816 ], [ 38.7697098, 8.9786677 ], [ 38.7634462, 8.979985 ], [ 38.758982, 8.9801758 ], [ 38.7531529, 8.9835029 ], [ 38.7510832, 8.9837194 ], [ 38.7498189, 8.9837713 ], [ 38.749083, 8.9838288 ], [ 38.7428186, 8.9880963 ], [ 38.7386231, 8.9886543 ], [ 38.7375073, 8.9892226 ], [ 38.7352876, 8.9909264 ], [ 38.7326592, 8.9953344 ], [ 38.7324621, 8.9965338 ], [ 38.732501, 9.001813 ], [ 38.730182, 9.0046135 ], [ 38.7292146, 9.0052443 ], [ 38.7285474, 9.0064755 ], [ 38.7284978, 9.0065722 ], [ 38.726517, 9.0109459 ], [ 38.7215318, 9.0114593 ], [ 38.7212262, 9.0115404 ], [ 38.7202714, 9.0121817 ], [ 38.7188622, 9.016363 ], [ 38.7165147, 9.0199715 ], [ 38.7160489, 9.0210002 ], [ 38.7156287, 9.0220832 ], [ 38.7152763, 9.0236018 ], [ 38.715158, 9.0253611 ], [ 38.7149748, 9.0286311 ], [ 38.714946, 9.0291351 ], [ 38.7149185, 9.0297554 ], [ 38.7148404, 9.0311011 ], [ 38.7138967, 9.0380452 ], [ 38.716158299999989, 9.0446251 ], [ 38.7163641, 9.0449171 ], [ 38.7195756, 9.0512422 ], [ 38.719617, 9.0531285 ], [ 38.7195439, 9.0541978 ], [ 38.7201401, 9.0582833 ], [ 38.7222944, 9.0623953 ] ] ] } },
{ "type": "Feature", "properties": { "threshold_s": 300, "time_label": "5 min drive" }, "geometry": { "type": "Polygon", "coordinates": [ [ [ 38.8023704, 9.017401 ], [ 38.8018595, 9.0192341 ], [ 38.8019712, 9.0193152 ], [ 38.802462, 9.0194301 ], [ 38.8035447, 9.0196294 ], [ 38.8076165, 9.0203631 ], [ 38.8112028, 9.0213055 ], [ 38.8116801, 9.0213311 ], [ 38.8146516, 9.0217388 ], [ 38.8186367, 9.0229963 ], [ 38.8229044, 9.0260905 ], [ 38.8249282, 9.0291742 ], [ 38.8286482, 9.0286809 ], [ 38.8309072, 9.0275316 ], [ 38.8309401, 9.0274559 ], [ 38.8313044, 9.0245723 ], [ 38.8368236, 9.0215274 ], [ 38.8349853, 9.0153984 ], [ 38.8361872, 9.0116384 ], [ 38.8365469, 9.0105999 ], [ 38.8368286, 9.0074636 ], [ 38.8365865, 9.0065814 ], [ 38.8348794, 9.0020687 ], [ 38.8345014, 9.0010924 ], [ 38.8332387, 8.9997931 ], [ 38.8282243, 8.9959768 ], [ 38.8237725, 8.9943237 ], [ 38.8213344, 8.995094 ], [ 38.8138214, 8.9950904 ], [ 38.8127252, 8.9959884 ], [ 38.8111447, 8.9973356 ], [ 38.806023, 8.9999586 ], [ 38.804171599999989, 9.0040571 ], [ 38.8016497, 9.0094333 ], [ 38.8026099, 9.0167887 ], [ 38.8023704, 9.017401 ] ] ] } },
{ "type": "Feature", "properties": { "threshold_s": 600, "time_label": "10 min drive" }, "geometry": { "type": "Polygon", "coordinates": [ [ [ 38.7806577, 9.0238498 ], [ 38.7859405, 9.0306672 ], [ 38.7914952, 9.032615 ], [ 38.7988474, 9.0307862 ], [ 38.8096006, 9.0338482 ], [ 38.8144658, 9.0377323 ], [ 38.8163683, 9.0394796 ], [ 38.8177285, 9.0407432 ], [ 38.827102, 9.0468027 ], [ 38.8290187, 9.0477315 ], [ 38.8347495, 9.0457204 ], [ 38.8440577, 9.0396693 ], [ 38.8504317, 9.0363871 ], [ 38.8512269, 9.0351682 ], [ 38.8512101, 9.0336717 ], [ 38.8529791, 9.0264362 ], [ 38.8587926, 9.0204773 ], [ 38.8592334, 9.0096768 ], [ 38.8537518, 9.001211 ], [ 38.8515915, 8.9993897 ], [ 38.8439897, 8.9895789 ], [ 38.8419177, 8.9820854 ], [ 38.841629, 8.9808673 ], [ 38.8402788, 8.9799951 ], [ 38.8296479, 8.9770834 ], [ 38.8268535, 8.977765 ], [ 38.8211882, 8.9830776 ], [ 38.8079529, 8.9863615 ], [ 38.8066972, 8.9860036 ], [ 38.8035562, 8.9852867 ], [ 38.8021619, 8.9853275 ], [ 38.7996331, 8.9854045 ], [ 38.7920807, 8.9883178 ], [ 38.7916591, 8.9890332 ], [ 38.7899619, 8.994329 ], [ 38.7841033, 9.0045257 ], [ 38.7807076, 9.0141556 ], [ 38.7803283, 9.0233325 ], [ 38.7806577, 9.0238498 ] ] ] } },
{ "type": "Feature", "properties": { "threshold_s": 900, "time_label": "15 min drive" }, "geometry": { "type": "Polygon", "coordinates": [ [ [ 38.7673775, 9.0412689 ], [ 38.7674857, 9.0414061 ], [ 38.773845, 9.0443406 ], [ 38.7812536, 9.0465979 ], [ 38.7817818, 9.0466303 ], [ 38.7858018, 9.0466865 ], [ 38.7865041, 9.0461181 ], [ 38.7888638, 9.0443872 ], [ 38.8034749, 9.0503585 ], [ 38.8041133, 9.0526841 ], [ 38.8181224, 9.0611946 ], [ 38.819266399999989, 9.0618158 ], [ 38.8304083, 9.062813 ], [ 38.843521, 9.0630858 ], [ 38.8480478, 9.0588075 ], [ 38.8611813, 9.0496817 ], [ 38.8651161, 9.047613 ], [ 38.8687662, 9.0457312 ], [ 38.8683777, 9.0387989 ], [ 38.8746625, 9.0284588 ], [ 38.8778794, 9.0250328 ], [ 38.8807496, 9.021417 ], [ 38.8804452, 9.0115171 ], [ 38.8799232, 9.0097578 ], [ 38.8767718, 9.0020768 ], [ 38.8765597, 9.0017587 ], [ 38.8659556, 8.990281 ], [ 38.862619, 8.9826484 ], [ 38.8620903, 8.9818093 ], [ 38.8585998, 8.9765871 ], [ 38.8542589, 8.9723237 ], [ 38.8440675, 8.9591694 ], [ 38.8309743, 8.9575601 ], [ 38.8154065, 8.963706 ], [ 38.8145122, 8.9640577 ], [ 38.8139486, 8.9647046 ], [ 38.8136212, 8.9654861 ], [ 38.8123919, 8.9680239 ], [ 38.8124616, 8.9711806 ], [ 38.8035562, 8.9852867 ], [ 38.8021619, 8.9853275 ], [ 38.7996331, 8.9854045 ], [ 38.788826, 8.985809 ], [ 38.7777914, 8.9763594 ], [ 38.7774548, 8.9759568 ], [ 38.7773636, 8.975878 ], [ 38.7718879, 8.979752 ], [ 38.7721283, 8.980655 ], [ 38.7726907, 8.983662 ], [ 38.768846, 8.999063 ], [ 38.7672202, 9.0015599 ], [ 38.759196, 9.0116 ], [ 38.7593389, 9.0118938 ], [ 38.7623666, 9.0174082 ], [ 38.7611244, 9.0293966 ], [ 38.7616276, 9.0311284 ], [ 38.76732, 9.0411742 ], [ 38.7673775, 9.0412689 ] ] ] } },
{ "type": "Feature", "properties": { "threshold_s": 300, "time_label": "5 min drive" }, "geometry": { "type": "Polygon", "coordinates": [ [ [ 38.7434116, 9.0452264 ], [ 38.7462735, 9.0484102 ], [ 38.7465743, 9.0484181 ], [ 38.7482093, 9.0480917 ], [ 38.7519653, 9.0479608 ], [ 38.7554499, 9.04807 ], [ 38.7568986, 9.0481555 ], [ 38.7562092, 9.047044 ], [ 38.7573255, 9.0439475 ], [ 38.7600057, 9.0440359 ], [ 38.7609601, 9.0437661 ], [ 38.761383, 9.0436452 ], [ 38.7605296, 9.041151 ], [ 38.7625107, 9.0387169 ], [ 38.763485, 9.0378991 ], [ 38.7639577, 9.0366488 ], [ 38.7672949, 9.0333336 ], [ 38.768567, 9.0339854 ], [ 38.7684305, 9.0329237 ], [ 38.7683848, 9.0328415 ], [ 38.7664014, 9.0314507 ], [ 38.7654192, 9.0307943 ], [ 38.7633917, 9.0291295 ], [ 38.7625209, 9.0267749 ], [ 38.7616201, 9.0233396 ], [ 38.7633195, 9.0193691 ], [ 38.7606025, 9.0183832 ], [ 38.7587022, 9.0179263 ], [ 38.7566767, 9.0148583 ], [ 38.7565754, 9.0147817 ], [ 38.7530028, 9.0117021 ], [ 38.7501221, 9.0122852 ], [ 38.7484963, 9.0132162 ], [ 38.746012, 9.0163151 ], [ 38.7445428, 9.0193766 ], [ 38.7424225, 9.022066 ], [ 38.7406978, 9.022521 ], [ 38.7398328, 9.0227395 ], [ 38.7376964, 9.024566 ], [ 38.7376528, 9.0246336 ], [ 38.7374238, 9.0254659 ], [ 38.7363707, 9.0295812 ], [ 38.7370889, 9.0322481 ], [ 38.7366399, 9.0346148 ], [ 38.7378842, 9.0374214 ], [ 38.7399562, 9.0406862 ], [ 38.742112, 9.0437179 ], [ 38.7434116, 9.0452264 ] ] ] } },
{ "type": "Feature", "properties": { "threshold_s": 600, "time_label": "10 min drive" }, "geometry": { "type": "Polygon", "coordinates": [ [ [ 38.7283651, 9.0599226 ], [ 38.7327332, 9.0653255 ], [ 38.7395156, 9.0665593 ], [ 38.7419737, 9.0678634 ], [ 38.7474757, 9.0694771 ], [ 38.7514052, 9.0687163 ], [ 38.7528978, 9.0679661 ], [ 38.7580644, 9.0673463 ], [ 38.7608059, 9.0681608 ], [ 38.7632525, 9.0681766 ], [ 38.7644728, 9.0673727 ], [ 38.7702477, 9.0634388 ], [ 38.7717021, 9.0608999 ], [ 38.7758236, 9.05754 ], [ 38.7766787, 9.0570432 ], [ 38.7764625, 9.0559414 ], [ 38.7770176, 9.0520471 ], [ 38.7803797, 9.0490786 ], [ 38.7852225, 9.0446915 ], [ 38.7853727, 9.0402983 ], [ 38.7873533, 9.0350137 ], [ 38.7884871, 9.0289877 ], [ 38.7872952, 9.0282729 ], [ 38.7852437, 9.0267237 ], [ 38.7823931, 9.0205435 ], [ 38.7822697, 9.0199832 ], [ 38.7792254, 9.0132141 ], [ 38.7786358, 9.0111903 ], [ 38.776921, 9.0067186 ], [ 38.7734899, 9.0014308 ], [ 38.7714849, 8.997922 ], [ 38.766772, 8.9969781 ], [ 38.766689, 8.9969817 ], [ 38.7652306, 8.9972696 ], [ 38.7593972, 8.993556 ], [ 38.7591808, 8.9929533 ], [ 38.7568836, 8.9918736 ], [ 38.7523237, 8.9908358 ], [ 38.7449813, 8.9932408 ], [ 38.73815, 8.9949962 ], [ 38.7371778, 8.998569 ], [ 38.7335599, 9.0037188 ], [ 38.7324929, 9.0049655 ], [ 38.7307499, 9.0073471 ], [ 38.7270118, 9.0118618 ], [ 38.7214342, 9.0141765 ], [ 38.7211525, 9.0144043 ], [ 38.7201279, 9.0170163 ], [ 38.7168807, 9.0212489 ], [ 38.7160564, 9.0247204 ], [ 38.7160495, 9.0251233 ], [ 38.7160709, 9.0259345 ], [ 38.7164454, 9.030228 ], [ 38.7155935, 9.0377131 ], [ 38.7173233, 9.0421761 ], [ 38.7175617, 9.0424941 ], [ 38.7193635, 9.0446343 ], [ 38.7216669, 9.0517627 ], [ 38.7216944, 9.0518311 ], [ 38.7246494, 9.0548689 ], [ 38.7274217, 9.0590314 ], [ 38.7283651, 9.0599226 ] ] ] } },
{ "type": "Feature", "properties": { "threshold_s": 900, "time_label": "15 min drive" }, "geometry": { "type": "Polygon", "coordinates": [ [ [ 38.706267, 9.0595279 ], [ 38.7071273, 9.0631653 ], [ 38.7160362, 9.0719192 ], [ 38.722216, 9.0782878 ], [ 38.7279962, 9.0819581 ], [ 38.7377219, 9.0759888 ], [ 38.7465249, 9.0792228 ], [ 38.753382, 9.0790122 ], [ 38.7613576, 9.0810134 ], [ 38.773237, 9.081739 ], [ 38.7837049, 9.0770732 ], [ 38.7849784, 9.0751532 ], [ 38.7899282, 9.0669108 ], [ 38.7957475, 9.0620051 ], [ 38.7959567, 9.0614277 ], [ 38.7931769, 9.0568746 ], [ 38.792129, 9.0494167 ], [ 38.8041703, 9.044401 ], [ 38.7988168, 9.0377843 ], [ 38.808201, 9.0306966 ], [ 38.8074333, 9.0229306 ], [ 38.8066547, 9.0201329 ], [ 38.8055028, 9.0178143 ], [ 38.8030907, 9.0146854 ], [ 38.7967938, 9.004626 ], [ 38.7949314, 8.9948251 ], [ 38.7947403, 8.9944516 ], [ 38.7900922, 8.9876942 ], [ 38.7855757, 8.9849273 ], [ 38.779409, 8.9827553 ], [ 38.7765313, 8.9821841 ], [ 38.7729625, 8.9812058 ], [ 38.7630964, 8.9742431 ], [ 38.7570116, 8.9719198 ], [ 38.7487723, 8.9695472 ], [ 38.7487117, 8.9695541 ], [ 38.737625, 8.9739202 ], [ 38.7313138, 8.9771965 ], [ 38.7283872, 8.9787856 ], [ 38.7270547, 8.9798003 ], [ 38.7209886, 8.98606 ], [ 38.7138261, 8.9942438 ], [ 38.7135096, 8.9946206 ], [ 38.7129289, 8.9956126 ], [ 38.7038355, 9.0044118 ], [ 38.7038193, 9.0044451 ], [ 38.7009776, 9.0149772 ], [ 38.7014104, 9.0257572 ], [ 38.7002087, 9.0293874 ], [ 38.6973505, 9.0353842 ], [ 38.6974107, 9.0386302 ], [ 38.6981432, 9.044192 ], [ 38.6995795, 9.0473627 ], [ 38.7004472, 9.0486732 ], [ 38.706267, 9.0595279 ] ] ] } },
{ "type": "Feature", "properties": { "threshold_s": 300, "time_label": "5 min drive" }, "geometry": { "type": "Polygon", "coordinates": [ [ [ 38.8018595, 9.0192341 ], [ 38.8019774, 9.0198821 ], [ 38.8076165, 9.0203631 ], [ 38.8110784, 9.0214064 ], [ 38.81506, 9.0219887 ], [ 38.8186367, 9.0229963 ], [ 38.8208135, 9.0241331 ], [ 38.8249282, 9.0291742 ], [ 38.8281022, 9.0285546 ], [ 38.8309401, 9.0274559 ], [ 38.8348874, 9.0216123 ], [ 38.8352508, 9.020929 ], [ 38.8353704, 9.0205201 ], [ 38.8346937, 9.0148785 ], [ 38.8361948, 9.0112022 ], [ 38.8363087, 9.0083377 ], [ 38.8363426, 9.0071357 ], [ 38.8348794, 9.0020687 ], [ 38.8332387, 8.9997931 ], [ 38.8278431, 8.9956641 ], [ 38.8237725, 8.9943237 ], [ 38.821032, 8.9947257 ], [ 38.8138165, 8.9947463 ], [ 38.813348, 8.995177 ], [ 38.8129657, 8.9956049 ], [ 38.8111447, 8.9973356 ], [ 38.8056857, 8.9996652 ], [ 38.8034796, 9.0044801 ], [ 38.8016497, 9.0094333 ], [ 38.802971, 9.0155489 ], [ 38.8026099, 9.0167887 ], [ 38.8023704, 9.017401 ], [ 38.8018595, 9.0192341 ] ] ] } },
{ "type": "Feature", "properties": { "threshold_s": 600, "time_label": "10 min drive" }, "geometry": { "type": "Polygon", "coordinates": [ [ [ 38.7806577, 9.0238498 ], [ 38.7859405, 9.0306672 ], [ 38.7913411, 9.0328014 ], [ 38.7988474, 9.0307862 ], [ 38.8089459, 9.0335265 ], [ 38.8097365, 9.0345983 ], [ 38.8144658, 9.0377323 ], [ 38.8163683, 9.0394796 ], [ 38.8177285, 9.0407432 ], [ 38.8271353, 9.0463425 ], [ 38.8307492, 9.0467676 ], [ 38.8347495, 9.0457204 ], [ 38.8428727, 9.0402017 ], [ 38.8471676, 9.0376164 ], [ 38.8512269, 9.0351682 ], [ 38.8528286, 9.026353 ], [ 38.8583496, 9.0204867 ], [ 38.8589129, 9.0096859 ], [ 38.8562293, 9.0055649 ], [ 38.8516412, 8.9998021 ], [ 38.8467027, 8.9972898 ], [ 38.8453321, 8.9869998 ], [ 38.841629, 8.9808673 ], [ 38.8395023, 8.9789844 ], [ 38.8296479, 8.9770834 ], [ 38.8268535, 8.977765 ], [ 38.8259465, 8.978022 ], [ 38.8211882, 8.9830776 ], [ 38.8200144, 8.9840292 ], [ 38.817983, 8.985495 ], [ 38.8079529, 8.9863615 ], [ 38.8066972, 8.9860036 ], [ 38.8035562, 8.9852867 ], [ 38.8021619, 8.9853275 ], [ 38.7996331, 8.9854045 ], [ 38.7971379, 8.9861223 ], [ 38.7916494, 8.988039 ], [ 38.7899619, 8.994329 ], [ 38.7872522, 8.9999453 ], [ 38.7838566, 9.0045185 ], [ 38.7831612, 9.0062702 ], [ 38.7807076, 9.0141556 ], [ 38.7803283, 9.0233325 ], [ 38.7806577, 9.0238498 ] ] ] } },
{ "type": "Feature", "properties": { "threshold_s": 900, "time_label": "15 min drive" }, "geometry": { "type": "Polygon", "coordinates": [ [ [ 38.7673775, 9.0412689 ], [ 38.7674857, 9.0414061 ], [ 38.7733985, 9.0448605 ], [ 38.7807411, 9.0466873 ], [ 38.7813693, 9.0468437 ], [ 38.7820198, 9.0469094 ], [ 38.7858018, 9.0466865 ], [ 38.7866463, 9.0460558 ], [ 38.7888638, 9.0443872 ], [ 38.8034749, 9.0503585 ], [ 38.8041133, 9.0526841 ], [ 38.8181224, 9.0611946 ], [ 38.819266399999989, 9.0618158 ], [ 38.8304083, 9.062813 ], [ 38.843521, 9.0630858 ], [ 38.8495587, 9.0574223 ], [ 38.8611813, 9.0496817 ], [ 38.8687662, 9.0457312 ], [ 38.8683777, 9.0387989 ], [ 38.8740928, 9.02847 ], [ 38.8778794, 9.0250328 ], [ 38.8793022, 9.0216134 ], [ 38.880119, 9.0107253 ], [ 38.8766763, 9.002019 ], [ 38.8659556, 8.990281 ], [ 38.862619, 8.9826484 ], [ 38.8620903, 8.9818093 ], [ 38.8585998, 8.9765871 ], [ 38.8542589, 8.9723237 ], [ 38.8440675, 8.9591694 ], [ 38.8309743, 8.9575601 ], [ 38.8154065, 8.963706 ], [ 38.8145122, 8.9640577 ], [ 38.8139486, 8.9647046 ], [ 38.8136212, 8.9654861 ], [ 38.8123919, 8.9680239 ], [ 38.8124616, 8.9711806 ], [ 38.8035562, 8.9852867 ], [ 38.8021619, 8.9853275 ], [ 38.7996331, 8.9854045 ], [ 38.788826, 8.985809 ], [ 38.7777914, 8.9763594 ], [ 38.7774548, 8.9759568 ], [ 38.7773636, 8.975878 ], [ 38.7734221, 8.9784757 ], [ 38.7718879, 8.979752 ], [ 38.7716464, 8.9803346 ], [ 38.7719993, 8.9817749 ], [ 38.7722766, 8.9828001 ], [ 38.7683732, 8.9987024 ], [ 38.7663704, 9.0019672 ], [ 38.7591779, 9.0112723 ], [ 38.7588792, 9.0116653 ], [ 38.7623666, 9.0174082 ], [ 38.7611664, 9.0293214 ], [ 38.7611244, 9.0293966 ], [ 38.7616276, 9.0311284 ], [ 38.76732, 9.0411742 ], [ 38.7673775, 9.0412689 ] ] ] } },
{ "type": "Feature", "properties": { "threshold_s": 300, "time_label": "5 min drive" }, "geometry": { "type": "Polygon", "coordinates": [ [ [ 38.7705514, 9.0092813 ], [ 38.773148, 9.0145762 ], [ 38.7732235, 9.0146348 ], [ 38.776373, 9.0129175 ], [ 38.7793668, 9.0132882 ], [ 38.7819307, 9.0165447 ], [ 38.7874547, 9.016091 ], [ 38.7875045, 9.0160762 ], [ 38.7875552, 9.0160411 ], [ 38.7910495, 9.0135358 ], [ 38.7955817, 9.0122013 ], [ 38.7957154, 9.012016 ], [ 38.7976317, 9.0084889 ], [ 38.7984364, 9.006861 ], [ 38.8001838, 9.0022144 ], [ 38.7965052, 8.9969379 ], [ 38.797957, 8.9920335 ], [ 38.7997874, 8.9861208 ], [ 38.7996331, 8.9854045 ], [ 38.7965669, 8.9878238 ], [ 38.791375, 8.9871117 ], [ 38.789819799999989, 8.986366 ], [ 38.788826, 8.985809 ], [ 38.7855757, 8.9849273 ], [ 38.7842988, 8.9845215 ], [ 38.7829895, 8.9840922 ], [ 38.7782983, 8.982017 ], [ 38.7753103, 8.982628 ], [ 38.7738282, 8.9856895 ], [ 38.7719503, 8.9903067 ], [ 38.7713957, 8.9920023 ], [ 38.7708546, 8.9939276 ], [ 38.7710398, 8.9958541 ], [ 38.7712938, 8.9985856 ], [ 38.7692675, 9.0042938 ], [ 38.7695761, 9.0061032 ], [ 38.7705514, 9.0092813 ] ] ] } },
{ "type": "Feature", "properties": { "threshold_s": 600, "time_label": "10 min drive" }, "geometry": { "type": "Polygon", "coordinates": [ [ [ 38.7495149, 9.011528 ], [ 38.7523491, 9.0197223 ], [ 38.7546091, 9.0217117 ], [ 38.7657206, 9.0293019 ], [ 38.7723844, 9.0333248 ], [ 38.7804737, 9.033912 ], [ 38.7853003, 9.0340705 ], [ 38.7913411, 9.0328014 ], [ 38.7988474, 9.0307862 ], [ 38.8003041, 9.0301796 ], [ 38.802081, 9.0289241 ], [ 38.8116947, 9.0198284 ], [ 38.8161168, 9.0114963 ], [ 38.8178348, 9.0041654 ], [ 38.8188793, 8.9961121 ], [ 38.8208044, 8.9878433 ], [ 38.8208835, 8.9874248 ], [ 38.8201058, 8.985035 ], [ 38.8066972, 8.9860036 ], [ 38.8035562, 8.9852867 ], [ 38.8021619, 8.9853275 ], [ 38.7996331, 8.9854045 ], [ 38.7971379, 8.9861223 ], [ 38.7899075, 8.9859732 ], [ 38.7880106, 8.9854871 ], [ 38.7855757, 8.9849273 ], [ 38.7842988, 8.9845215 ], [ 38.7787516, 8.9794447 ], [ 38.7804589, 8.9680504 ], [ 38.7804395, 8.9665631 ], [ 38.7775834, 8.9635925 ], [ 38.7726275, 8.964449 ], [ 38.7660424, 8.9663201 ], [ 38.7647743, 8.9676345 ], [ 38.7609422, 8.9727954 ], [ 38.7545591, 8.9806549 ], [ 38.7537834, 8.9832472 ], [ 38.7534167, 8.9846957 ], [ 38.751323, 8.9950961 ], [ 38.7520489, 9.0075772 ], [ 38.7495149, 9.011528 ] ] ] } },
{ "type": "Feature", "properties": { "threshold_s": 900, "time_label": "15 min drive" }, "geometry": { "type": "Polygon", "coordinates": [ [ [ 38.7380256, 9.0328911 ], [ 38.739012, 9.0339387 ], [ 38.7519743, 9.0443664 ], [ 38.754349, 9.0462826 ], [ 38.7602034, 9.0500346 ], [ 38.77087, 9.051386 ], [ 38.7810889, 9.0506348 ], [ 38.7892183, 9.0480524 ], [ 38.7906995, 9.0454025 ], [ 38.8042312, 9.0365115 ], [ 38.8163683, 9.0394796 ], [ 38.8170342, 9.0393518 ], [ 38.8211545, 9.0371471 ], [ 38.8250372, 9.0343063 ], [ 38.8309072, 9.0275316 ], [ 38.8339238, 9.0216463 ], [ 38.8339877, 9.0075855 ], [ 38.8349131, 9.0008394 ], [ 38.837623, 8.9862396 ], [ 38.8375247, 8.9848294 ], [ 38.8300543, 8.9713237 ], [ 38.8289182, 8.9663006 ], [ 38.8282921, 8.9652772 ], [ 38.8249257, 8.9633665 ], [ 38.8203894, 8.9657676 ], [ 38.8188051, 8.9666899 ], [ 38.8184778, 8.966878 ], [ 38.8173366, 8.9680305 ], [ 38.816949, 8.9687279 ], [ 38.8001909, 8.9634762 ], [ 38.7988086, 8.9615794 ], [ 38.7966031, 8.9573121 ], [ 38.7954142, 8.9556839 ], [ 38.792459, 8.9534385 ], [ 38.7920306, 8.9531866 ], [ 38.7915709, 8.952915 ], [ 38.7908254, 8.9525403 ], [ 38.7867438, 8.9511765 ], [ 38.7859723, 8.9511163 ], [ 38.7735806, 8.9490822 ], [ 38.7692861, 8.9449012 ], [ 38.769171299999989, 8.9448794 ], [ 38.7688136, 8.944884 ], [ 38.7577295, 8.951171 ], [ 38.7495841, 8.9609017 ], [ 38.7390081, 8.970011 ], [ 38.7353698, 8.9798746 ], [ 38.7341961, 8.9893524 ], [ 38.7335164, 8.9958438 ], [ 38.7270118, 9.0118618 ], [ 38.7291375, 9.0170706 ], [ 38.7374792, 9.0316971 ], [ 38.7380256, 9.0328911 ] ] ] } },
{ "type": "Feature", "properties": { "threshold_s": 300, "time_label": "5 min drive" }, "geometry": { "type": "Polygon", "coordinates": [ [ [ 38.8194273, 9.0176486 ], [ 38.8199606, 9.0189684 ], [ 38.8214779, 9.0198759 ], [ 38.8234308, 9.0217676 ], [ 38.8257265, 9.0233455 ], [ 38.8265798, 9.0254264 ], [ 38.8296675, 9.0268584 ], [ 38.8320971, 9.0281925 ], [ 38.8336554, 9.0302421 ], [ 38.8353069, 9.0322908 ], [ 38.8360451, 9.0345061 ], [ 38.837967, 9.0342755 ], [ 38.8400357, 9.0328395 ], [ 38.8436427, 9.0326368 ], [ 38.8442592, 9.0324403 ], [ 38.8454603, 9.0319907 ], [ 38.8470943, 9.031215 ], [ 38.8477281, 9.0308761 ], [ 38.8495109, 9.0288525 ], [ 38.8504599, 9.0269378 ], [ 38.8526943, 9.0237145 ], [ 38.8537211, 9.0224795 ], [ 38.8541256, 9.0206948 ], [ 38.8540127, 9.0182575 ], [ 38.8539399, 9.0165809 ], [ 38.8520321, 9.0138164 ], [ 38.8495917, 9.0114717 ], [ 38.8489451, 9.0109631 ], [ 38.847826, 9.0102352 ], [ 38.8466544, 9.0103372 ], [ 38.8434183, 9.0086094 ], [ 38.8432065, 9.0076345 ], [ 38.8431904, 9.0075458 ], [ 38.8414704, 9.0058192 ], [ 38.8386052, 9.0043614 ], [ 38.8350485, 9.0029058 ], [ 38.833772, 9.0031353 ], [ 38.832365, 9.0038105 ], [ 38.8289485, 9.0034542 ], [ 38.827472, 9.0052887 ], [ 38.8267102, 9.0063457 ], [ 38.8266224, 9.0072861 ], [ 38.8265068, 9.0084036 ], [ 38.8260511, 9.0104564 ], [ 38.8249502, 9.0115923 ], [ 38.8213333, 9.0110947 ], [ 38.8212563, 9.0111273 ], [ 38.8208147, 9.013098 ], [ 38.8196501, 9.0156462 ], [ 38.819362, 9.0164901 ], [ 38.8194273, 9.0176486 ] ] ] } },
{ "type": "Feature", "properties": { "threshold_s": 600, "time_label": "10 min drive" }, "geometry": { "type": "Polygon", "coordinates": [ [ [ 38.8184291, 9.0400446 ], [ 38.8193777, 9.0445072 ], [ 38.8198515, 9.0448987 ], [ 38.8198908, 9.0449265 ], [ 38.8256755, 9.0502843 ], [ 38.8264969, 9.0514454 ], [ 38.8286179, 9.0524749 ], [ 38.8352088, 9.0519684 ], [ 38.8423777, 9.0510737 ], [ 38.8438708, 9.050832 ], [ 38.851974, 9.0484036 ], [ 38.8547519, 9.0475675 ], [ 38.8569897, 9.04618 ], [ 38.8618921, 9.0423394 ], [ 38.8654514, 9.0412319 ], [ 38.8655506, 9.0411729 ], [ 38.8655926, 9.0406232 ], [ 38.8650485, 9.0390673 ], [ 38.8639924, 9.0378354 ], [ 38.8632778, 9.0370633 ], [ 38.8636881, 9.0301716 ], [ 38.8699132, 9.0304839 ], [ 38.8705033, 9.029909 ], [ 38.8725441, 9.0273659 ], [ 38.8779101, 9.0212599 ], [ 38.8779246, 9.0205748 ], [ 38.8730642, 9.015296 ], [ 38.8696938, 9.0094141 ], [ 38.8678044, 9.006383 ], [ 38.8638241, 9.0055364 ], [ 38.8599305, 9.0005785 ], [ 38.8595914, 8.9994288 ], [ 38.8580862, 8.9971206 ], [ 38.8522949, 8.9930413 ], [ 38.8463621, 8.9879735 ], [ 38.8413437, 8.9870753 ], [ 38.8358854, 8.9856527 ], [ 38.8347897, 8.9853533 ], [ 38.8289297, 8.9840815 ], [ 38.8228863, 8.9850231 ], [ 38.8219132, 8.9872206 ], [ 38.8152255, 8.9912287 ], [ 38.813744, 8.9920134 ], [ 38.8129497, 8.9931101 ], [ 38.8126886, 8.9934589 ], [ 38.8118547, 8.9947661 ], [ 38.8064277, 9.0003381 ], [ 38.8058042, 9.0021666 ], [ 38.8038324, 9.0088005 ], [ 38.8040681, 9.0123412 ], [ 38.7986449, 9.01891 ], [ 38.7993138, 9.0205268 ], [ 38.8002208, 9.022295 ], [ 38.802675, 9.0247228 ], [ 38.8055937, 9.0257918 ], [ 38.8080317, 9.0267738 ], [ 38.8116564, 9.0325841 ], [ 38.8173741, 9.0360901 ], [ 38.8184291, 9.0400446 ] ] ] } },
{ "type": "Feature", "properties": { "threshold_s": 900, "time_label": "15 min drive" }, "geometry": { "type": "Polygon", "coordinates": [ [ [ 38.801592, 9.0480461 ], [ 38.8027809, 9.0533596 ], [ 38.8079387, 9.0569742 ], [ 38.8124871, 9.0624673 ], [ 38.8147441, 9.0635101 ], [ 38.8255781, 9.06194 ], [ 38.8296586, 9.0626196 ], [ 38.8304083, 9.062813 ], [ 38.8371769, 9.0588359 ], [ 38.843521, 9.0630858 ], [ 38.8446374, 9.0675065 ], [ 38.8448721, 9.0682839 ], [ 38.8450371, 9.0690732 ], [ 38.8459278, 9.0684039 ], [ 38.8534793, 9.0604848 ], [ 38.853946, 9.0604914 ], [ 38.8594677, 9.0629057 ], [ 38.8605483, 9.0640102 ], [ 38.8606649, 9.0640526 ], [ 38.8636623, 9.0593273 ], [ 38.8722576, 9.0591727 ], [ 38.875886, 9.05777 ], [ 38.87711130000001, 9.0571683 ], [ 38.8798952, 9.0495227 ], [ 38.8833068, 9.0404809 ], [ 38.8862076, 9.0374491 ], [ 38.8898581, 9.033852 ], [ 38.8956209, 9.0252058 ], [ 38.8965147, 9.0225137 ], [ 38.8964858, 9.0171326 ], [ 38.892746, 9.0096942 ], [ 38.8901453, 9.0048731 ], [ 38.8872403, 8.9974902 ], [ 38.8839747, 8.9949569 ], [ 38.8806877, 8.9956404 ], [ 38.8735718, 8.9973809 ], [ 38.8659556, 8.990281 ], [ 38.8659543, 8.9825954 ], [ 38.8653253, 8.9813012 ], [ 38.8598661, 8.9766158 ], [ 38.8542589, 8.9723237 ], [ 38.8470313, 8.9708627 ], [ 38.8445342, 8.9704772 ], [ 38.8376764, 8.9692227 ], [ 38.8282921, 8.9652772 ], [ 38.8210976, 8.9672378 ], [ 38.8180051, 8.9696678 ], [ 38.8169054, 8.9714992 ], [ 38.8168311, 8.9739661 ], [ 38.8208006, 8.9803978 ], [ 38.817983, 8.985495 ], [ 38.8097735, 8.9869675 ], [ 38.8079529, 8.9863615 ], [ 38.8066972, 8.9860036 ], [ 38.8035562, 8.9852867 ], [ 38.8021619, 8.9853275 ], [ 38.7996331, 8.9854045 ], [ 38.7971379, 8.9861223 ], [ 38.7967554, 8.986409 ], [ 38.792569, 8.9896677 ], [ 38.7924159, 8.9898914 ], [ 38.7899619, 8.994329 ], [ 38.7852708, 9.0043406 ], [ 38.7818241, 9.010273 ], [ 38.7790322, 9.0148252 ], [ 38.7766007, 9.0235376 ], [ 38.777128, 9.0248365 ], [ 38.7826556, 9.031201 ], [ 38.7847393, 9.0337449 ], [ 38.7853003, 9.0340705 ], [ 38.7894697, 9.0358202 ], [ 38.7997189, 9.0335465 ], [ 38.8031475, 9.0364072 ], [ 38.8041703, 9.044401 ], [ 38.8018119, 9.0478527 ], [ 38.801592, 9.0480461 ] ] ] } },
{ "type": "Feature", "properties": { "threshold_s": 300, "time_label": "5 min drive" }, "geometry": { "type": "Polygon", "coordinates": [ [ [ 38.7633917, 9.0291295 ], [ 38.7631958, 9.029803 ], [ 38.7637138, 9.0300983 ], [ 38.7684305, 9.0329237 ], [ 38.769884, 9.0342295 ], [ 38.771258, 9.0349868 ], [ 38.7722643, 9.0352881 ], [ 38.7779067, 9.0359559 ], [ 38.7828374, 9.0322795 ], [ 38.7859405, 9.0306672 ], [ 38.7867588, 9.0301967 ], [ 38.7884042, 9.0291921 ], [ 38.7891555, 9.0285121 ], [ 38.7901173, 9.0243729 ], [ 38.7929798, 9.0211669 ], [ 38.7895982, 9.0173518 ], [ 38.7872721, 9.0151271 ], [ 38.7866215, 9.0149869 ], [ 38.7834518, 9.0134488 ], [ 38.7823498, 9.0091425 ], [ 38.7807231, 9.0031349 ], [ 38.7802617, 9.0027226 ], [ 38.780006899999989, 9.0025548 ], [ 38.7772268, 9.0028263 ], [ 38.7727683, 9.0030296 ], [ 38.7715399, 9.004392 ], [ 38.771041, 9.0056867 ], [ 38.7700137, 9.0073279 ], [ 38.7699708, 9.0073954 ], [ 38.7672577, 9.0104737 ], [ 38.7636137, 9.009863 ], [ 38.76206, 9.0111118 ], [ 38.7627136, 9.0143638 ], [ 38.7576248, 9.0176281 ], [ 38.7570594, 9.0187168 ], [ 38.7600498, 9.0221853 ], [ 38.7602254, 9.0222978 ], [ 38.7605536, 9.0224021 ], [ 38.7645123, 9.0221623 ], [ 38.7664952, 9.0274613 ], [ 38.7633917, 9.0291295 ] ] ] } },
{ "type": "Feature", "properties": { "threshold_s": 600, "time_label": "10 min drive" }, "geometry": { "type": "Polygon", "coordinates": [ [ [ 38.7471727, 9.0405749 ], [ 38.7507784, 9.0448296 ], [ 38.7546235, 9.0476622 ], [ 38.7592765, 9.0510377 ], [ 38.7661342, 9.053286 ], [ 38.766855, 9.0535004 ], [ 38.7731861, 9.0546946 ], [ 38.7801124, 9.0545531 ], [ 38.7811055, 9.0542851 ], [ 38.7847826, 9.0523901 ], [ 38.7892183, 9.0480524 ], [ 38.7906995, 9.0454025 ], [ 38.7918929, 9.0415089 ], [ 38.7898711, 9.0353037 ], [ 38.7947311, 9.0312946 ], [ 38.7997189, 9.0335465 ], [ 38.805898, 9.0343795 ], [ 38.8093754, 9.0315008 ], [ 38.8094542, 9.0313608 ], [ 38.8104577, 9.0228264 ], [ 38.8133654, 9.0199396 ], [ 38.8133688, 9.0197109 ], [ 38.8107811, 9.013385 ], [ 38.8087619, 9.0094305 ], [ 38.8059445, 9.0070212 ], [ 38.8024677, 9.0009613 ], [ 38.7965052, 8.9969379 ], [ 38.7966211, 8.9916862 ], [ 38.7966919, 8.9912265 ], [ 38.7942992, 8.9887271 ], [ 38.791375, 8.9871117 ], [ 38.7888132, 8.9859297 ], [ 38.7855757, 8.9849273 ], [ 38.779409, 8.9827553 ], [ 38.7769699, 8.9823757 ], [ 38.7734041, 8.9824351 ], [ 38.7659047, 8.9839108 ], [ 38.7622024, 8.9876198 ], [ 38.756775, 8.9921858 ], [ 38.75289990000001, 8.992923 ], [ 38.7474963, 8.9973345 ], [ 38.7415638, 9.0038567 ], [ 38.7380894, 9.0087405 ], [ 38.7339308, 9.0164814 ], [ 38.7338799, 9.0168248 ], [ 38.7382824, 9.0249508 ], [ 38.7408745, 9.0306912 ], [ 38.7445018, 9.0369724 ], [ 38.7471727, 9.0405749 ] ] ] } },
{ "type": "Feature", "properties": { "threshold_s": 900, "time_label": "15 min drive" }, "geometry": { "type": "Polygon", "coordinates": [ [ [ 38.7319874, 9.0553044 ], [ 38.7360201, 9.0611151 ], [ 38.747436, 9.0671263 ], [ 38.7602142, 9.07337 ], [ 38.7606353, 9.0733806 ], [ 38.7732129, 9.073078 ], [ 38.7821725, 9.0738098 ], [ 38.7912866, 9.0708174 ], [ 38.7987955, 9.0602014 ], [ 38.7995495, 9.0593061 ], [ 38.8067417, 9.0509496 ], [ 38.8166174, 9.046587 ], [ 38.8167786, 9.0465382 ], [ 38.8253413, 9.0436966 ], [ 38.8267191, 9.0428673 ], [ 38.8288784, 9.0413308 ], [ 38.8290707, 9.0410743 ], [ 38.8328062, 9.0282913 ], [ 38.8352508, 9.020929 ], [ 38.8353704, 9.0205201 ], [ 38.8340004, 9.0119736 ], [ 38.8337425, 9.0114417 ], [ 38.829148, 9.00484 ], [ 38.8235284, 8.9954953 ], [ 38.8230317, 8.9945957 ], [ 38.822824, 8.994281 ], [ 38.8185425, 8.9890321 ], [ 38.8166645, 8.988021 ], [ 38.8079529, 8.9863615 ], [ 38.8066972, 8.9860036 ], [ 38.8035562, 8.9852867 ], [ 38.8021619, 8.9853275 ], [ 38.7996331, 8.9854045 ], [ 38.7971379, 8.9861223 ], [ 38.7899075, 8.9859732 ], [ 38.7880106, 8.9854871 ], [ 38.7855757, 8.9849273 ], [ 38.7842988, 8.9845215 ], [ 38.7787516, 8.9794447 ], [ 38.7804589, 8.9680504 ], [ 38.7804395, 8.9665631 ], [ 38.7764513, 8.9654406 ], [ 38.7726275, 8.964449 ], [ 38.7663539, 8.9652701 ], [ 38.7565422, 8.9679672 ], [ 38.7478308, 8.9722231 ], [ 38.7435445, 8.9750427 ], [ 38.7427163, 8.9755959 ], [ 38.7369735, 8.9800154 ], [ 38.7325033, 8.9848697 ], [ 38.7309319, 8.9868939 ], [ 38.7255468, 8.9955578 ], [ 38.7186849, 9.0064457 ], [ 38.7168986, 9.0089339 ], [ 38.7152307, 9.0130989 ], [ 38.7152763, 9.0236018 ], [ 38.7166768, 9.0262317 ], [ 38.7216635, 9.0355831 ], [ 38.7250096, 9.0457555 ], [ 38.7319874, 9.0553044 ] ] ] } },
{ "type": "Feature", "properties": { "threshold_s": 300, "time_label": "5 min drive" }, "geometry": { "type": "Polygon", "coordinates": [ [ [ 38.7069728, 8.9844382 ], [ 38.7070188, 8.9848127 ], [ 38.7075504, 8.9852546 ], [ 38.7079333, 8.9848878 ], [ 38.7111506, 8.982655 ], [ 38.7129021, 8.9832206 ], [ 38.7159783, 8.9847957 ], [ 38.7165458, 8.9869257 ], [ 38.7163385, 8.9880063 ], [ 38.7156765, 8.9901822 ], [ 38.7164894, 8.9911652 ], [ 38.7173352, 8.9916251 ], [ 38.7210613, 8.9911041 ], [ 38.7235233, 8.9913037 ], [ 38.7255622, 8.9913882 ], [ 38.7256426, 8.9913092 ], [ 38.7260596, 8.9887195 ], [ 38.7262524, 8.9869032 ], [ 38.7258375, 8.9863936 ], [ 38.7257884, 8.9863389 ], [ 38.7250746, 8.9859916 ], [ 38.7235008, 8.9856657 ], [ 38.7217467, 8.9856792 ], [ 38.7201629, 8.9848828 ], [ 38.7215909, 8.9811187 ], [ 38.7223984, 8.9810641 ], [ 38.7230837, 8.980366 ], [ 38.724079, 8.9771595 ], [ 38.7258704, 8.9763704 ], [ 38.727001, 8.9760068 ], [ 38.7282267, 8.9758101 ], [ 38.7315005, 8.9774815 ], [ 38.7315124, 8.9784199 ], [ 38.7312524, 8.9791888 ], [ 38.7318328, 8.9802179 ], [ 38.7343322, 8.9825996 ], [ 38.7357746, 8.982398 ], [ 38.7367037, 8.9803676 ], [ 38.7381248, 8.9779864 ], [ 38.7385499, 8.9759133 ], [ 38.7384252, 8.9736465 ], [ 38.7377431, 8.9730167 ], [ 38.7352703, 8.9721039 ], [ 38.7329476, 8.9698573 ], [ 38.7327157, 8.9682691 ], [ 38.7335819, 8.9654407 ], [ 38.7338065, 8.9651427 ], [ 38.7338521, 8.9650684 ], [ 38.7328483, 8.9624614 ], [ 38.7298586, 8.9615515 ], [ 38.7276544, 8.9604039 ], [ 38.7257525, 8.9603312 ], [ 38.7244731, 8.960367 ], [ 38.7216393, 8.9599861 ], [ 38.718778, 8.960086 ], [ 38.7184945, 8.9601974 ], [ 38.7183066, 8.96028 ], [ 38.7150158, 8.9614105 ], [ 38.7140259, 8.9603411 ], [ 38.7135471, 8.9609676 ], [ 38.7135092, 8.9614044 ], [ 38.7114121, 8.9645081 ], [ 38.7113571, 8.9645981 ], [ 38.710841, 8.9673156 ], [ 38.7089031, 8.9680852 ], [ 38.7086921, 8.9683717 ], [ 38.7086973, 8.9715818 ], [ 38.7078663, 8.9748684 ], [ 38.7060397, 8.9757687 ], [ 38.7058908, 8.9758363 ], [ 38.705359, 8.9760753 ], [ 38.7056878, 8.976874 ], [ 38.708349, 8.9791605 ], [ 38.70771, 8.9818356 ], [ 38.7069728, 8.9844382 ] ] ] } },
{ "type": "Feature", "properties": { "threshold_s": 600, "time_label": "10 min drive" }, "geometry": { "type": "Polygon", "coordinates": [ [ [ 38.6873807, 8.9851545 ], [ 38.6890973, 8.992021 ], [ 38.6928823, 8.9928412 ], [ 38.6962866, 8.9963875 ], [ 38.6973761, 8.9989706 ], [ 38.6980815, 9.0000592 ], [ 38.7016502, 9.0021601 ], [ 38.7066584, 9.0052028 ], [ 38.706717, 9.0051566 ], [ 38.7092635, 9.0035529 ], [ 38.709931, 9.0030246 ], [ 38.7156639, 8.999671 ], [ 38.7189773, 9.0029713 ], [ 38.7188894, 9.0059185 ], [ 38.7190919, 9.0068716 ], [ 38.7197143, 9.0079515 ], [ 38.7215318, 9.0114593 ], [ 38.721662, 9.0115463 ], [ 38.7284978, 9.0065722 ], [ 38.7308762, 9.0087034 ], [ 38.7316869, 9.0097061 ], [ 38.7341748, 9.0107132 ], [ 38.7345139, 9.0107208 ], [ 38.7347326, 9.010726 ], [ 38.7356693, 9.0105975 ], [ 38.7370996, 9.0099922 ], [ 38.7385513, 9.0066997 ], [ 38.7411363, 9.0026067 ], [ 38.7475747, 8.9974498 ], [ 38.7524202, 8.99088 ], [ 38.7532448, 8.9890109 ], [ 38.7556738, 8.9825708 ], [ 38.755698, 8.9743462 ], [ 38.7547968, 8.9678955 ], [ 38.7543439, 8.9669555 ], [ 38.7534762, 8.9657466 ], [ 38.7510211, 8.9587179 ], [ 38.7509096, 8.9586491 ], [ 38.750004, 8.9580909 ], [ 38.7499699, 8.9581265 ], [ 38.7490115, 8.9593292 ], [ 38.7457092, 8.9611077 ], [ 38.7404933, 8.9609058 ], [ 38.7364709, 8.9560006 ], [ 38.7398113, 8.9522853 ], [ 38.7400204, 8.951311 ], [ 38.7401567, 8.9507945 ], [ 38.7403698, 8.9493268 ], [ 38.7406715, 8.9482525 ], [ 38.7406519, 8.9464568 ], [ 38.7401139, 8.9454031 ], [ 38.7398111, 8.9449447 ], [ 38.7347721, 8.9401052 ], [ 38.7339869, 8.9411538 ], [ 38.7262831, 8.9441282 ], [ 38.7232838, 8.9435152 ], [ 38.7209065, 8.9430542 ], [ 38.7193868, 8.9430442 ], [ 38.7169259, 8.9451545 ], [ 38.7157618, 8.9461813 ], [ 38.7111602, 8.9483774 ], [ 38.7051688, 8.9476046 ], [ 38.7028572, 8.950524 ], [ 38.695662, 8.9509001 ], [ 38.6946783, 8.9514623 ], [ 38.6938589, 8.9524704 ], [ 38.6934614, 8.9533511 ], [ 38.6934453, 8.9582368 ], [ 38.693562, 8.9605524 ], [ 38.6949742, 8.9614784 ], [ 38.6973037, 8.9678437 ], [ 38.6917762, 8.9693422 ], [ 38.691251, 8.9697153 ], [ 38.6913687, 8.972751 ], [ 38.6871181, 8.9786314 ], [ 38.6859513, 8.9797952 ], [ 38.6873807, 8.9851545 ] ] ] } },
{ "type": "Feature", "properties": { "threshold_s": 900, "time_label": "15 min drive" }, "geometry": { "type": "Polygon", "coordinates": [ [ [ 38.6687962, 8.9941194 ], [ 38.6722693, 9.0052028 ], [ 38.6761584, 9.0071316 ], [ 38.6830021, 9.0093246 ], [ 38.6895534, 9.0148149 ], [ 38.6994589, 9.0190576 ], [ 38.7062953, 9.0214743 ], [ 38.7148158, 9.0314804 ], [ 38.7224694, 9.0296404 ], [ 38.7324849, 9.032256 ], [ 38.7370122, 9.0313842 ], [ 38.7389599, 9.0307779 ], [ 38.7403394, 9.0303188 ], [ 38.7437547, 9.0285225 ], [ 38.7492972, 9.0231819 ], [ 38.7554835, 9.0175438 ], [ 38.755531, 9.0174041 ], [ 38.7608665, 9.008176 ], [ 38.7674818, 9.0026334 ], [ 38.7680139, 9.0016855 ], [ 38.7734067, 8.9914327 ], [ 38.7755186, 8.9855138 ], [ 38.7757261, 8.9838273 ], [ 38.7757844, 8.9831065 ], [ 38.7754274, 8.9804185 ], [ 38.7752954, 8.9803589 ], [ 38.7664998, 8.9707517 ], [ 38.7711362, 8.9595053 ], [ 38.7718731, 8.9576325 ], [ 38.771221, 8.9559584 ], [ 38.7701501, 8.9545107 ], [ 38.7650031, 8.9478818 ], [ 38.7628957, 8.9451813 ], [ 38.7564452, 8.9367137 ], [ 38.753036, 8.9312932 ], [ 38.7491272, 8.9279567 ], [ 38.7487337, 8.9276538 ], [ 38.7453609, 8.9255676 ], [ 38.7340388, 8.9186463 ], [ 38.7230456, 8.9224806 ], [ 38.7212387, 8.92351 ], [ 38.7202896, 8.9240603 ], [ 38.71039, 8.9284051 ], [ 38.7062073, 8.9295602 ], [ 38.69870250000001, 8.9321675 ], [ 38.6985399, 8.9324667 ], [ 38.6905998, 8.941313 ], [ 38.6854427, 8.9402556 ], [ 38.6829914, 8.9401098 ], [ 38.6802779, 8.943664 ], [ 38.6801187, 8.9442031 ], [ 38.6802028, 8.9447962 ], [ 38.6804992, 8.9510846 ], [ 38.6803134, 8.9557227 ], [ 38.6736958, 8.9650176 ], [ 38.6723435, 8.9664456 ], [ 38.6707485, 8.9694542 ], [ 38.6678463, 8.9743978 ], [ 38.6672267, 8.9762979 ], [ 38.6667577, 8.9801682 ], [ 38.6667479, 8.9842529 ], [ 38.6671411, 8.9866618 ], [ 38.668474, 8.9928971 ], [ 38.6687962, 8.9941194 ] ] ] } },
{ "type": "Feature", "properties": { "threshold_s": 300, "time_label": "5 min drive" }, "geometry": { "type": "Polygon", "coordinates": [ [ [ 38.7006018, 8.9743566 ], [ 38.7011674, 8.9759992 ], [ 38.7025917, 8.9764794 ], [ 38.7039784, 8.9764145 ], [ 38.7057853, 8.9756135 ], [ 38.7065117, 8.9752925 ], [ 38.7076208, 8.974797 ], [ 38.7079365, 8.9746578 ], [ 38.7085293, 8.9743943 ], [ 38.7089684, 8.9741971 ], [ 38.7092046, 8.9740936 ], [ 38.7097858, 8.9738359 ], [ 38.7107423, 8.973403 ], [ 38.7110888, 8.9732445 ], [ 38.7120216, 8.9728206 ], [ 38.7131167, 8.9723742 ], [ 38.7195794, 8.9737333 ], [ 38.7203753, 8.9744772 ], [ 38.7210115, 8.9749255 ], [ 38.7215597, 8.9751549 ], [ 38.7233107, 8.975741 ], [ 38.7256413, 8.9758612 ], [ 38.7267113, 8.9749511 ], [ 38.7278244, 8.9733004 ], [ 38.7280208, 8.9705749 ], [ 38.728233, 8.9679219 ], [ 38.73053, 8.9629873 ], [ 38.7299066, 8.9609893 ], [ 38.7290285, 8.9599678 ], [ 38.7280874, 8.9583069 ], [ 38.7290916, 8.9523734 ], [ 38.7290636, 8.9519809 ], [ 38.7286462, 8.9516399 ], [ 38.7245224, 8.948293 ], [ 38.7227379, 8.9474424 ], [ 38.7207708, 8.9466268 ], [ 38.7168926, 8.9458755 ], [ 38.7157618, 8.9461813 ], [ 38.7097463, 8.9487392 ], [ 38.7053463, 8.9498908 ], [ 38.7026042, 8.9508445 ], [ 38.6967489, 8.9534902 ], [ 38.6957145, 8.9536041 ], [ 38.6952031, 8.9546876 ], [ 38.6953, 8.9566272 ], [ 38.69564, 8.9586806 ], [ 38.6965704, 8.959076 ], [ 38.6984839, 8.9604146 ], [ 38.6986901, 8.9671433 ], [ 38.6988325, 8.9684998 ], [ 38.7006018, 8.9743566 ] ] ] } },
{ "type": "Feature", "properties": { "threshold_s": 600, "time_label": "10 min drive" }, "geometry": { "type": "Polygon", "coordinates": [ [ [ 38.6865008, 8.9863457 ], [ 38.6884366, 8.9889081 ], [ 38.6922385, 8.9911052 ], [ 38.6939612, 8.9910182 ], [ 38.6950836, 8.990391 ], [ 38.6963622, 8.989759 ], [ 38.7024845, 8.9876965 ], [ 38.7080357, 8.9877014 ], [ 38.7151067, 8.9910933 ], [ 38.7165609, 8.992588 ], [ 38.7241982, 8.992522 ], [ 38.7266077, 8.9926198 ], [ 38.7266778, 8.9925634 ], [ 38.7322041, 8.9866337 ], [ 38.7331702, 8.9866157 ], [ 38.7393433, 8.9852712 ], [ 38.7429655, 8.9814508 ], [ 38.7467116, 8.976404 ], [ 38.7478912, 8.9685569 ], [ 38.7457092, 8.9611077 ], [ 38.7464627, 8.952713 ], [ 38.7473426, 8.9492528 ], [ 38.7466601, 8.9463566 ], [ 38.7440815, 8.9425881 ], [ 38.7424866, 8.9378158 ], [ 38.7390876, 8.9371395 ], [ 38.7341009, 8.9345072 ], [ 38.7312662, 8.9327812 ], [ 38.72956, 8.9316026 ], [ 38.722672, 8.9270298 ], [ 38.7151672, 8.9307128 ], [ 38.7084521, 8.9306944 ], [ 38.7009394, 8.9337282 ], [ 38.6983983, 8.9354585 ], [ 38.6943345, 8.9403947 ], [ 38.6905998, 8.941313 ], [ 38.6884219, 8.9413436 ], [ 38.6830033, 8.9418445 ], [ 38.6816088, 8.9424863 ], [ 38.6802779, 8.943664 ], [ 38.6801187, 8.9442031 ], [ 38.6804992, 8.9510846 ], [ 38.6803134, 8.9557227 ], [ 38.6803973, 8.9570556 ], [ 38.6829673, 8.9643809 ], [ 38.6812171, 8.967792 ], [ 38.6807735, 8.9695573 ], [ 38.6796791, 8.9728095 ], [ 38.6808617, 8.9763853 ], [ 38.6843073, 8.980957 ], [ 38.6865008, 8.9863457 ] ] ] } },
{ "type": "Feature", "properties": { "threshold_s": 900, "time_label": "15 min drive" }, "geometry": { "type": "Polygon", "coordinates": [ [ [ 38.6681177, 8.997492 ], [ 38.6733391, 9.0041897 ], [ 38.6773154, 9.0064993 ], [ 38.6800441, 9.0062928 ], [ 38.6885681, 9.007139 ], [ 38.6925106, 9.0083802 ], [ 38.695288, 9.0093657 ], [ 38.7043365, 9.0079227 ], [ 38.7051408, 9.007873 ], [ 38.7064876, 9.007812 ], [ 38.7078458, 9.0075895 ], [ 38.7103835, 9.0071457 ], [ 38.7190919, 9.0068716 ], [ 38.7197143, 9.0079515 ], [ 38.7210359, 9.0122983 ], [ 38.721633, 9.0119422 ], [ 38.7225071, 9.0114307 ], [ 38.7312537, 9.0104227 ], [ 38.7329321, 9.0116426 ], [ 38.7360117, 9.0122933 ], [ 38.7436921, 9.00817 ], [ 38.7467113, 9.0053251 ], [ 38.7513207, 9.0020037 ], [ 38.754885, 8.997454 ], [ 38.7591078, 8.9902103 ], [ 38.7599512, 8.986485 ], [ 38.7639286, 8.9812394 ], [ 38.7646558, 8.9779692 ], [ 38.7631592, 8.9740794 ], [ 38.7627127, 8.9666965 ], [ 38.7628423, 8.9658809 ], [ 38.7629064, 8.9653976 ], [ 38.7667474, 8.9571928 ], [ 38.7654828, 8.9559807 ], [ 38.7633968, 8.9532148 ], [ 38.7615139, 8.9475109 ], [ 38.758741, 8.9406331 ], [ 38.7574157, 8.9365091 ], [ 38.7604603, 8.9313766 ], [ 38.7588899, 8.9293005 ], [ 38.7541648, 8.9275505 ], [ 38.749187, 8.9225397 ], [ 38.7472001, 8.9203207 ], [ 38.7423762, 8.9175853 ], [ 38.7350249, 8.9129064 ], [ 38.7307687, 8.9115857 ], [ 38.7295807, 8.9119588 ], [ 38.727289399999989, 8.9135477 ], [ 38.7226438, 8.9196104 ], [ 38.714174, 8.9207268 ], [ 38.7113597, 8.9196049 ], [ 38.7074294, 8.9215038 ], [ 38.7061105, 8.9260876 ], [ 38.7023014, 8.9317601 ], [ 38.69870250000001, 8.9321675 ], [ 38.6985399, 8.9324667 ], [ 38.6983983, 8.9354585 ], [ 38.6943345, 8.9403947 ], [ 38.6875914, 8.9395825 ], [ 38.6866843, 8.9390464 ], [ 38.6859834, 8.9390791 ], [ 38.6829914, 8.9401098 ], [ 38.6802779, 8.943664 ], [ 38.6801187, 8.9442031 ], [ 38.6802028, 8.9447962 ], [ 38.6803925, 8.945542 ], [ 38.6804992, 8.9510846 ], [ 38.6803134, 8.9557227 ], [ 38.6748818, 8.9586978 ], [ 38.6726743, 8.9593681 ], [ 38.6665157, 8.9610838 ], [ 38.6636759, 8.9632288 ], [ 38.6631653, 8.9643388 ], [ 38.6627544, 8.9662012 ], [ 38.6628802, 8.969406 ], [ 38.6609834, 8.9755937 ], [ 38.6609702, 8.975805 ], [ 38.6605789, 8.9834432 ], [ 38.6644144, 8.9908082 ], [ 38.6671652, 8.9960218 ], [ 38.6681177, 8.997492 ] ] ] } },
{ "type": "Feature", "properties": { "threshold_s": 300, "time_label": "5 min drive" }, "geometry": { "type": "Polygon", "coordinates": [ [ [ 38.7709504, 9.0340645 ], [ 38.7734143, 9.0388789 ], [ 38.7777758, 9.0401384 ], [ 38.7818758, 9.0411522 ], [ 38.7828712, 9.0413032 ], [ 38.7832034, 9.0412485 ], [ 38.784006, 9.0409412 ], [ 38.788646, 9.0371199 ], [ 38.788999, 9.0366321 ], [ 38.7898711, 9.0353037 ], [ 38.7913411, 9.0328014 ], [ 38.7947311, 9.0312946 ], [ 38.7988474, 9.0307862 ], [ 38.8011234, 9.0303124 ], [ 38.8022468, 9.0290022 ], [ 38.8022679, 9.0289403 ], [ 38.8020118, 9.0282786 ], [ 38.8018846, 9.028053 ], [ 38.8006361, 9.0234734 ], [ 38.8014876, 9.0217608 ], [ 38.8016071, 9.0216033 ], [ 38.8020513, 9.0210223 ], [ 38.797182, 9.0184257 ], [ 38.7967567, 9.0182941 ], [ 38.7947434, 9.0176284 ], [ 38.7915556, 9.0156549 ], [ 38.7890701, 9.0126731 ], [ 38.7880908, 9.0106422 ], [ 38.7823498, 9.0091425 ], [ 38.7816411, 9.0083637 ], [ 38.7810148, 9.0078206 ], [ 38.7809236, 9.0077517 ], [ 38.7803711, 9.0080397 ], [ 38.7793008, 9.0087445 ], [ 38.775033, 9.0113597 ], [ 38.773148, 9.0145762 ], [ 38.7700074, 9.0148215 ], [ 38.7699191, 9.014831 ], [ 38.7692811, 9.0152555 ], [ 38.7682007, 9.0165141 ], [ 38.766175, 9.0194163 ], [ 38.7664473, 9.0226405 ], [ 38.7696171, 9.026581 ], [ 38.7673563, 9.028805 ], [ 38.7660695, 9.0292297 ], [ 38.7657206, 9.0293019 ], [ 38.7696665, 9.0317334 ], [ 38.7709504, 9.0340645 ] ] ] } },
{ "type": "Feature", "properties": { "threshold_s": 600, "time_label": "10 min drive" }, "geometry": { "type": "Polygon", "coordinates": [ [ [ 38.754349, 9.0462826 ], [ 38.7586062, 9.0517882 ], [ 38.7677326, 9.0562897 ], [ 38.7732366, 9.0571025 ], [ 38.7804636, 9.0589097 ], [ 38.7876136, 9.0553217 ], [ 38.792129, 9.0494167 ], [ 38.7967241, 9.0428703 ], [ 38.8041703, 9.044401 ], [ 38.8042312, 9.0365115 ], [ 38.8097365, 9.0345983 ], [ 38.8144658, 9.0377323 ], [ 38.8163683, 9.0394796 ], [ 38.8178167, 9.0395693 ], [ 38.8216329, 9.0373684 ], [ 38.8215724, 9.0355778 ], [ 38.8209959, 9.0334367 ], [ 38.8231243, 9.0247995 ], [ 38.8218961, 9.0181608 ], [ 38.8215656, 9.0176649 ], [ 38.817654, 9.0119948 ], [ 38.8139248, 9.0056053 ], [ 38.812179, 9.0038137 ], [ 38.8118464, 9.0035839 ], [ 38.8105224, 9.0026899 ], [ 38.8043088, 8.9993655 ], [ 38.8004776, 8.9984045 ], [ 38.7947403, 8.9944516 ], [ 38.7943037, 8.9941335 ], [ 38.7918435, 8.9923162 ], [ 38.7917543, 8.9922639 ], [ 38.7879873, 8.9904466 ], [ 38.7781568, 8.9873024 ], [ 38.7756031, 8.9871261 ], [ 38.7755492, 8.9871715 ], [ 38.7734938, 8.9926488 ], [ 38.769518, 8.9962843 ], [ 38.7649779, 8.9996025 ], [ 38.7576883, 9.0047943 ], [ 38.7545018, 9.0072532 ], [ 38.7498019, 9.0115651 ], [ 38.7484279, 9.0131606 ], [ 38.746012, 9.0163151 ], [ 38.7460695, 9.0165495 ], [ 38.7460997, 9.01666 ], [ 38.7465746, 9.0187454 ], [ 38.7462285, 9.0283971 ], [ 38.745241, 9.0302293 ], [ 38.7447562, 9.0333098 ], [ 38.7481119, 9.0381431 ], [ 38.754349, 9.0462826 ] ] ] } },
{ "type": "Feature", "properties": { "threshold_s": 900, "time_label": "15 min drive" }, "geometry": { "type": "Polygon", "coordinates": [ [ [ 38.733022, 9.0515466 ], [ 38.7383953, 9.0586644 ], [ 38.7410353, 9.0613288 ], [ 38.7433396, 9.063477 ], [ 38.7491736, 9.0683011 ], [ 38.7560065, 9.0722344 ], [ 38.7599415, 9.0743207 ], [ 38.7606709, 9.0746963 ], [ 38.7744675, 9.0748804 ], [ 38.7836453, 9.0772787 ], [ 38.7841657, 9.0771675 ], [ 38.7930049, 9.0729548 ], [ 38.7950405, 9.0717919 ], [ 38.795199, 9.071208 ], [ 38.8043252, 9.0623799 ], [ 38.8088579, 9.0622404 ], [ 38.8144933, 9.0607549 ], [ 38.8149651, 9.0605226 ], [ 38.8211697, 9.0564948 ], [ 38.8285455, 9.0551872 ], [ 38.832019, 9.0536483 ], [ 38.8348856, 9.0503233 ], [ 38.837142, 9.0464329 ], [ 38.8417882, 9.0380274 ], [ 38.8438302, 9.0322455 ], [ 38.843856, 9.0212365 ], [ 38.8422945, 9.0106625 ], [ 38.8391423, 9.0078459 ], [ 38.8387066, 9.0074123 ], [ 38.8369434, 9.0057327 ], [ 38.8325866, 9.000256 ], [ 38.8298823, 8.9926199 ], [ 38.8288815, 8.9916274 ], [ 38.828577, 8.9913473 ], [ 38.8196728, 8.9858488 ], [ 38.8066972, 8.9860036 ], [ 38.8035562, 8.9852867 ], [ 38.8021619, 8.9853275 ], [ 38.7996331, 8.9854045 ], [ 38.7899075, 8.9859732 ], [ 38.7880106, 8.9854871 ], [ 38.7777914, 8.9763594 ], [ 38.7759295, 8.9724099 ], [ 38.7750556, 8.9694476 ], [ 38.7664998, 8.9707517 ], [ 38.7655318, 8.9710292 ], [ 38.7645882, 8.9715171 ], [ 38.7640962, 8.9718863 ], [ 38.7639284, 8.9720178 ], [ 38.7628793, 8.9728562 ], [ 38.7596918, 8.9783251 ], [ 38.749979, 8.9842547 ], [ 38.7417482, 8.9901297 ], [ 38.738095199999989, 8.9942698 ], [ 38.7376045, 8.9950873 ], [ 38.7331656, 9.0029958 ], [ 38.7264951, 9.0122563 ], [ 38.7248057, 9.0196475 ], [ 38.7244628, 9.0281024 ], [ 38.7236852, 9.0351997 ], [ 38.7276385, 9.0441208 ], [ 38.7280317, 9.044982 ], [ 38.733022, 9.0515466 ] ] ] } },
{ "type": "Feature", "properties": { "threshold_s": 300, "time_label": "5 min drive" }, "geometry": { "type": "Polygon", "coordinates": [ [ [ 38.699436, 9.0474739 ], [ 38.7004472, 9.0486732 ], [ 38.7048393, 9.0511902 ], [ 38.7057278, 9.0517604 ], [ 38.7107317, 9.0522764 ], [ 38.7113584, 9.0518981 ], [ 38.7155816, 9.0502631 ], [ 38.7168157, 9.050139 ], [ 38.720305, 9.0477991 ], [ 38.7222077, 9.0479755 ], [ 38.7234043, 9.0472872 ], [ 38.7257449, 9.0446856 ], [ 38.7285066, 9.0402072 ], [ 38.7299865, 9.037071 ], [ 38.7296317, 9.0337325 ], [ 38.7298892, 9.0311468 ], [ 38.7292416, 9.0281443 ], [ 38.7267955, 9.0251324 ], [ 38.7249975, 9.0225726 ], [ 38.7225894, 9.0205489 ], [ 38.7185117, 9.0189136 ], [ 38.7192655, 9.0157897 ], [ 38.7197277, 9.0153199 ], [ 38.7199187, 9.0151687 ], [ 38.7206671, 9.0136904 ], [ 38.7200854, 9.0136355 ], [ 38.7168731, 9.0144546 ], [ 38.7151492, 9.0155415 ], [ 38.713527, 9.0174057 ], [ 38.7119277, 9.0185845 ], [ 38.7072292, 9.0183925 ], [ 38.7066431, 9.0181488 ], [ 38.7043753, 9.0177554 ], [ 38.7011198, 9.0221289 ], [ 38.7005485, 9.0237859 ], [ 38.7004533, 9.024713 ], [ 38.7003976, 9.02517 ], [ 38.6973673, 9.0297498 ], [ 38.6923724, 9.0323236 ], [ 38.693252, 9.037365 ], [ 38.6957587, 9.0420716 ], [ 38.6964928, 9.0427617 ], [ 38.699436, 9.0474739 ] ] ] } },
{ "type": "Feature", "properties": { "threshold_s": 600, "time_label": "10 min drive" }, "geometry": { "type": "Polygon", "coordinates": [ [ [ 38.686952, 9.0559641 ], [ 38.6880247, 9.058852 ], [ 38.6925396, 9.0625144 ], [ 38.6960287, 9.0661942 ], [ 38.6979246, 9.0672075 ], [ 38.7001384, 9.0673675 ], [ 38.7047361, 9.0671463 ], [ 38.7051867, 9.0669423 ], [ 38.7064393, 9.0656273 ], [ 38.7110449, 9.061498 ], [ 38.7154944, 9.0661054 ], [ 38.7157479, 9.0667755 ], [ 38.716975, 9.0684375 ], [ 38.7172258, 9.0686296 ], [ 38.7175758, 9.0688659 ], [ 38.717952, 9.0690613 ], [ 38.7194854, 9.0697505 ], [ 38.7213764, 9.0694621 ], [ 38.728312699999989, 9.0677475 ], [ 38.7294149, 9.0665366 ], [ 38.7347571, 9.0629951 ], [ 38.7368213, 9.0624667 ], [ 38.7393674, 9.0603152 ], [ 38.7404587, 9.0569122 ], [ 38.742959, 9.0532693 ], [ 38.7444476, 9.0484871 ], [ 38.7476865, 9.0442469 ], [ 38.7477969, 9.0432436 ], [ 38.7481119, 9.0381431 ], [ 38.7499915, 9.0355127 ], [ 38.75095, 9.0327385 ], [ 38.7504043, 9.0309179 ], [ 38.750154, 9.0302574 ], [ 38.747689, 9.0250316 ], [ 38.7467381, 9.0231753 ], [ 38.744642, 9.0193753 ], [ 38.7431896, 9.016309 ], [ 38.74049, 9.0107113 ], [ 38.7377467, 9.0068007 ], [ 38.7346404, 9.0011646 ], [ 38.7325948, 9.0017547 ], [ 38.732501, 9.001813 ], [ 38.730182, 9.0046135 ], [ 38.7292146, 9.0052443 ], [ 38.7285474, 9.0064755 ], [ 38.7284978, 9.0065722 ], [ 38.726517, 9.0109459 ], [ 38.7197143, 9.0079515 ], [ 38.7199702, 9.0042617 ], [ 38.7236724, 8.9987142 ], [ 38.7243548, 8.9985074 ], [ 38.7256919, 8.9982672 ], [ 38.7258428, 8.9978506 ], [ 38.7259, 8.9976253 ], [ 38.725977, 8.9973217 ], [ 38.7251719, 8.9968107 ], [ 38.7229228, 8.9956298 ], [ 38.7171828, 8.9925972 ], [ 38.71692, 8.9926857 ], [ 38.7153837, 8.9936301 ], [ 38.7141587, 8.9943481 ], [ 38.7133956, 8.995031 ], [ 38.7131599, 8.9953109 ], [ 38.7129289, 8.9956126 ], [ 38.7129463, 8.9959795 ], [ 38.7142567, 8.9991486 ], [ 38.7143733, 9.0001679 ], [ 38.7074202, 9.0028839 ], [ 38.7073459, 9.0028634 ], [ 38.7048085, 9.0054691 ], [ 38.6993092, 9.0050475 ], [ 38.6982272, 9.0041768 ], [ 38.6948684, 9.0022442 ], [ 38.6933233, 9.0010673 ], [ 38.687988, 9.0051991 ], [ 38.6869801, 9.0065293 ], [ 38.6866924, 9.0074711 ], [ 38.6841927, 9.0142831 ], [ 38.6808094, 9.0205157 ], [ 38.6801296, 9.0212648 ], [ 38.6759613, 9.0268217 ], [ 38.6747738, 9.0290243 ], [ 38.6738867, 9.0316746 ], [ 38.6743881, 9.0338632 ], [ 38.6749655, 9.0363216 ], [ 38.6756876, 9.0367404 ], [ 38.6764422, 9.0371439 ], [ 38.6829472, 9.0398664 ], [ 38.6808517, 9.0436993 ], [ 38.6794643, 9.0446396 ], [ 38.6806176, 9.0455197 ], [ 38.6814183, 9.0461415 ], [ 38.6852217, 9.0498367 ], [ 38.686952, 9.0559641 ] ] ] } },
{ "type": "Feature", "properties": { "threshold_s": 900, "time_label": "15 min drive" }, "geometry": { "type": "Polygon", "coordinates": [ [ [ 38.6847681, 9.0654203 ], [ 38.6848046, 9.0744871 ], [ 38.689663, 9.0762027 ], [ 38.6938391, 9.0730859 ], [ 38.7040883, 9.075675 ], [ 38.7066767, 9.0720331 ], [ 38.7182799, 9.0763662 ], [ 38.7190591, 9.077488 ], [ 38.7212082, 9.0809212 ], [ 38.7222228, 9.0847868 ], [ 38.7255473, 9.0871632 ], [ 38.7278259, 9.0858894 ], [ 38.7287586, 9.0812933 ], [ 38.7377219, 9.0759888 ], [ 38.7445479, 9.0766414 ], [ 38.7529652, 9.0738402 ], [ 38.7563378, 9.0707511 ], [ 38.7574651, 9.0693943 ], [ 38.7592323, 9.0643702 ], [ 38.7626772, 9.0557355 ], [ 38.7679604, 9.0463811 ], [ 38.7681748, 9.0407239 ], [ 38.7684305, 9.0329237 ], [ 38.7683848, 9.0328415 ], [ 38.7664014, 9.0314507 ], [ 38.7633195, 9.0193691 ], [ 38.7650242, 9.0169385 ], [ 38.7629096, 9.0108249 ], [ 38.7587141, 9.0041929 ], [ 38.7554826, 8.9950496 ], [ 38.7551761, 8.9935003 ], [ 38.754718, 8.9927916 ], [ 38.7478922, 8.9855711 ], [ 38.7405449, 8.9819251 ], [ 38.7314905, 8.9788451 ], [ 38.7235953, 8.9753351 ], [ 38.7215597, 8.9751549 ], [ 38.7156282, 8.9769945 ], [ 38.7153983, 8.977593 ], [ 38.7145168, 8.9799282 ], [ 38.7021218, 8.9840129 ], [ 38.700637, 8.9836709 ], [ 38.696998, 8.982828 ], [ 38.6884399, 8.9842379 ], [ 38.6795862, 8.9886155 ], [ 38.6707825, 8.9954887 ], [ 38.670602, 8.9957319 ], [ 38.6692264, 8.9976572 ], [ 38.6655396, 9.0069947 ], [ 38.6650166, 9.0084504 ], [ 38.6651185, 9.0087617 ], [ 38.6677046, 9.0206026 ], [ 38.6673797, 9.0328654 ], [ 38.6746724, 9.0409686 ], [ 38.676438, 9.042549 ], [ 38.6794643, 9.0446396 ], [ 38.6846724, 9.0563468 ], [ 38.6847206, 9.0589202 ], [ 38.684761, 9.0605151 ], [ 38.6847507, 9.0616361 ], [ 38.6847578, 9.0622835 ], [ 38.6847362, 9.0650724 ], [ 38.6847681, 9.0654203 ] ] ] } }
]
}
