{
"type": "FeatureCollection",
"name": "isochrone_shop_pastry_drive",
"crs": { "type": "name", "properties": { "name": "urn:ogc:def:crs:OGC:1.3:CRS84" } },
"features": [
{ "type": "Feature", "properties": { "threshold_s": 300, "time_label": "5 min drive" }, "geometry": { "type": "Polygon", "coordinates": [ [ [ 38.8710607, 9.0441727 ], [ 38.870777, 9.0456028 ], [ 38.8728059, 9.0466163 ], [ 38.877937, 9.0495294 ], [ 38.8809988, 9.0468097 ], [ 38.8837312, 9.0441548 ], [ 38.8876587, 9.0399895 ], [ 38.8888, 9.0376466 ], [ 38.8926476, 9.0338109 ], [ 38.8930339, 9.0330507 ], [ 38.8920039, 9.0280826 ], [ 38.8923896, 9.0232173 ], [ 38.8920209, 9.0220043 ], [ 38.890714, 9.0219205 ], [ 38.8862294, 9.0192266 ], [ 38.88512, 9.0154454 ], [ 38.8839477, 9.0141628 ], [ 38.8809083, 9.0114512 ], [ 38.8779021, 9.009779 ], [ 38.8732047, 9.0109346 ], [ 38.8693115, 9.0088141 ], [ 38.8693536, 9.0121893 ], [ 38.86567, 9.0153076 ], [ 38.8643358, 9.0184438 ], [ 38.8595536, 9.0206778 ], [ 38.8586709, 9.0216368 ], [ 38.8583437, 9.0224341 ], [ 38.8584412, 9.0263917 ], [ 38.8591683, 9.0276256 ], [ 38.8603472, 9.0290309 ], [ 38.8619642, 9.0306232 ], [ 38.8636881, 9.0301716 ], [ 38.8648603, 9.0291935 ], [ 38.8699011, 9.0331262 ], [ 38.8714937, 9.0387469 ], [ 38.8710607, 9.0441727 ] ] ] } },
{ "type": "Feature", "properties": { "threshold_s": 600, "time_label": "10 min drive" }, "geometry": { "type": "Polygon", "coordinates": [ [ [ 38.8447957, 9.040289 ], [ 38.8481989, 9.0440346 ], [ 38.8513202, 9.0454073 ], [ 38.8582787, 9.048186 ], [ 38.8646105, 9.0561064 ], [ 38.8654236, 9.0596011 ], [ 38.8700741, 9.0638828 ], [ 38.8739998, 9.0654237 ], [ 38.8815013, 9.0688276 ], [ 38.882339, 9.0684 ], [ 38.8847653, 9.0665697 ], [ 38.8851718, 9.0638571 ], [ 38.8852997, 9.0623257 ], [ 38.885408, 9.0601564 ], [ 38.885576, 9.0574365 ], [ 38.8855746, 9.0542708 ], [ 38.8875767, 9.0440816 ], [ 38.8879287, 9.0436653 ], [ 38.8891501, 9.0421339 ], [ 38.8924666, 9.0374161 ], [ 38.8990593, 9.0337165 ], [ 38.8953325, 9.027668 ], [ 38.9002302, 9.0222733 ], [ 38.9008565, 9.0197236 ], [ 38.9008968, 9.0095896 ], [ 38.9014466, 9.0057496 ], [ 38.8929816, 9.0000639 ], [ 38.8921996, 8.9993245 ], [ 38.8854734, 8.9943764 ], [ 38.8839117, 8.9937965 ], [ 38.8828737, 8.9938204 ], [ 38.8792041, 8.9943663 ], [ 38.8710961, 8.9968484 ], [ 38.8658068, 8.9993625 ], [ 38.8565035, 8.9972101 ], [ 38.8551516, 8.9957729 ], [ 38.8549742, 8.9957103 ], [ 38.851827, 8.9979681 ], [ 38.8492016, 9.001935 ], [ 38.8453276, 9.0105192 ], [ 38.8422804, 9.0171249 ], [ 38.8387245, 9.0216508 ], [ 38.8402567, 9.0286947 ], [ 38.8423128, 9.0348245 ], [ 38.8436571, 9.0384724 ], [ 38.8447957, 9.040289 ] ] ] } },
{ "type": "Feature", "properties": { "threshold_s": 900, "time_label": "15 min drive" }, "geometry": { "type": "Polygon", "coordinates": [ [ [ 38.827148, 9.0459125 ], [ 38.8332729, 9.0541741 ], [ 38.84366510000001, 9.0608013 ], [ 38.8549948, 9.0655465 ], [ 38.855002, 9.0691076 ], [ 38.8629375, 9.0771013 ], [ 38.8705891, 9.0805352 ], [ 38.8738547, 9.0845796 ], [ 38.87628, 9.0841529 ], [ 38.8767783, 9.0840009 ], [ 38.8778022, 9.0836743 ], [ 38.882759, 9.0736045 ], [ 38.8837609, 9.0705344 ], [ 38.8847653, 9.0665697 ], [ 38.8851718, 9.0638571 ], [ 38.8852997, 9.0623257 ], [ 38.885408, 9.0601564 ], [ 38.885576, 9.0574365 ], [ 38.8855746, 9.0542708 ], [ 38.8858157, 9.0510063 ], [ 38.8891501, 9.0421339 ], [ 38.8990593, 9.0337165 ], [ 38.9002302, 9.0222733 ], [ 38.9008565, 9.0197236 ], [ 38.9004207, 9.0112823 ], [ 38.9028293, 9.006449 ], [ 38.9025959, 9.0057496 ], [ 38.9023653, 8.9955715 ], [ 38.9043886, 8.9908277 ], [ 38.9044249, 8.9906443 ], [ 38.9043421, 8.9890477 ], [ 38.8961332, 8.9791791 ], [ 38.8953285, 8.9777763 ], [ 38.8897482, 8.973479 ], [ 38.8853843, 8.9718192 ], [ 38.8844567, 8.9718506 ], [ 38.8838646, 8.9718707 ], [ 38.8740466, 8.9777405 ], [ 38.8716175, 8.9785236 ], [ 38.8653253, 8.9813012 ], [ 38.8558424, 8.9770318 ], [ 38.8555617, 8.9771388 ], [ 38.8471693, 8.9813317 ], [ 38.837096099999989, 8.9882109 ], [ 38.8301281, 8.9940081 ], [ 38.8298776, 8.994334 ], [ 38.8297462, 8.994715 ], [ 38.8296141, 8.9951466 ], [ 38.8292455, 8.9982509 ], [ 38.8277885, 9.0030806 ], [ 38.8212563, 9.0111273 ], [ 38.8169497, 9.0197374 ], [ 38.8186367, 9.0229963 ], [ 38.822639, 9.033331 ], [ 38.823517699999989, 9.0370374 ], [ 38.8240961, 9.0403013 ], [ 38.8253413, 9.0436966 ], [ 38.827148, 9.0459125 ] ] ] } },
{ "type": "Feature", "properties": { "threshold_s": 300, "time_label": "5 min drive" }, "geometry": { "type": "Polygon", "coordinates": [ [ [ 38.7960927, 9.0209248 ], [ 38.7970364, 9.0240514 ], [ 38.799208, 9.0254482 ], [ 38.8020936, 9.0264203 ], [ 38.8055937, 9.0257918 ], [ 38.8075975, 9.0272945 ], [ 38.809383, 9.0265432 ], [ 38.8129946, 9.0250146 ], [ 38.8143496, 9.0279621 ], [ 38.8144997, 9.0290358 ], [ 38.8144722, 9.0294405 ], [ 38.8116564, 9.0325841 ], [ 38.8129082, 9.0334593 ], [ 38.8130282, 9.033534 ], [ 38.8167679, 9.0323597 ], [ 38.8201064, 9.0340822 ], [ 38.8245369, 9.0342374 ], [ 38.8279863, 9.0352506 ], [ 38.8292431, 9.0310917 ], [ 38.8305773, 9.0302009 ], [ 38.8323994, 9.0290547 ], [ 38.83358, 9.0284675 ], [ 38.8337897, 9.0245121 ], [ 38.8337666, 9.0238721 ], [ 38.8312004, 9.0234909 ], [ 38.8293744, 9.0218604 ], [ 38.8285495, 9.0210826 ], [ 38.8265759, 9.0200041 ], [ 38.8260162, 9.0169832 ], [ 38.8259322, 9.0165565 ], [ 38.8243533, 9.0146504 ], [ 38.8226905, 9.0141508 ], [ 38.8209495, 9.013644 ], [ 38.8174128, 9.0151084 ], [ 38.8149607, 9.0141972 ], [ 38.8128841, 9.0134943 ], [ 38.8125756, 9.0144427 ], [ 38.812659, 9.0157173 ], [ 38.811054, 9.0201534 ], [ 38.8096449, 9.0204194 ], [ 38.8089635, 9.0205448 ], [ 38.8055028, 9.0178143 ], [ 38.8048898, 9.0171913 ], [ 38.8030907, 9.0146854 ], [ 38.802571, 9.014448 ], [ 38.8006603, 9.0148448 ], [ 38.8007463, 9.0153373 ], [ 38.797182, 9.0184257 ], [ 38.7967567, 9.0182941 ], [ 38.7954471, 9.0178669 ], [ 38.7960927, 9.0209248 ] ] ] } },
{ "type": "Feature", "properties": { "threshold_s": 600, "time_label": "10 min drive" }, "geometry": { "type": "Polygon", "coordinates": [ [ [ 38.7752482, 9.0271537 ], [ 38.7771424, 9.0349296 ], [ 38.7795494, 9.0368103 ], [ 38.7866579, 9.0379459 ], [ 38.7884075, 9.037232 ], [ 38.788646, 9.0371199 ], [ 38.788999, 9.0366321 ], [ 38.7997189, 9.0335465 ], [ 38.8031475, 9.0364072 ], [ 38.8041703, 9.044401 ], [ 38.8111165, 9.0496857 ], [ 38.812258, 9.0504033 ], [ 38.8141581, 9.0514736 ], [ 38.8250117, 9.053549 ], [ 38.8277435, 9.0545674 ], [ 38.8283698, 9.054631 ], [ 38.8352993, 9.0528523 ], [ 38.8415927, 9.049032 ], [ 38.8441399, 9.0453328 ], [ 38.8506618, 9.0391287 ], [ 38.852754, 9.0378566 ], [ 38.8550878, 9.036132 ], [ 38.8529791, 9.0264362 ], [ 38.8500344, 9.0211574 ], [ 38.8486883, 9.0184892 ], [ 38.8466544, 9.0103372 ], [ 38.8401092, 9.0045006 ], [ 38.8398108, 9.0042449 ], [ 38.8349131, 9.0008394 ], [ 38.8282243, 8.9959768 ], [ 38.8254945, 8.9955529 ], [ 38.8147899, 8.9922479 ], [ 38.813744, 8.9920134 ], [ 38.8128091, 8.9918903 ], [ 38.8124356, 8.9918892 ], [ 38.8116711, 8.9918933 ], [ 38.8113809, 8.9918976 ], [ 38.8040898, 8.9947794 ], [ 38.7956395, 8.9945489 ], [ 38.7882698, 9.0017096 ], [ 38.7805977, 9.0074831 ], [ 38.7746289, 9.010785 ], [ 38.7745133, 9.0110996 ], [ 38.7743198, 9.0122732 ], [ 38.7739203, 9.0217859 ], [ 38.7752482, 9.0271537 ] ] ] } },
{ "type": "Feature", "properties": { "threshold_s": 900, "time_label": "15 min drive" }, "geometry": { "type": "Polygon", "coordinates": [ [ [ 38.7600057, 9.0440359 ], [ 38.7614698, 9.0465278 ], [ 38.7652991, 9.0499347 ], [ 38.7664616, 9.0508498 ], [ 38.7710611, 9.052157 ], [ 38.7795458, 9.0530105 ], [ 38.7803242, 9.0529142 ], [ 38.783424, 9.0521186 ], [ 38.7965722, 9.0568573 ], [ 38.7985679, 9.0600791 ], [ 38.8069985, 9.0664515 ], [ 38.8180608, 9.064728 ], [ 38.8304083, 9.062813 ], [ 38.8448721, 9.0682839 ], [ 38.8450371, 9.0690732 ], [ 38.8459278, 9.0684039 ], [ 38.853946, 9.0604914 ], [ 38.8543698, 9.0598689 ], [ 38.8553005, 9.0583366 ], [ 38.8611813, 9.0496817 ], [ 38.870313, 9.04973 ], [ 38.8709688, 9.0486776 ], [ 38.8683777, 9.0387989 ], [ 38.8698443, 9.0273614 ], [ 38.8728561, 9.0211404 ], [ 38.8728838, 9.0207276 ], [ 38.8722213, 9.0189084 ], [ 38.8669745, 9.0081191 ], [ 38.8661315, 9.0068727 ], [ 38.8580862, 8.9971206 ], [ 38.8522949, 8.9930413 ], [ 38.8473916, 8.9889473 ], [ 38.841754, 8.9816827 ], [ 38.8410306, 8.9806387 ], [ 38.8402788, 8.9799951 ], [ 38.8296479, 8.9770834 ], [ 38.8268535, 8.977765 ], [ 38.825469, 8.9781279 ], [ 38.8208006, 8.9803978 ], [ 38.8066972, 8.9860036 ], [ 38.8035562, 8.9852867 ], [ 38.8021619, 8.9853275 ], [ 38.7996331, 8.9854045 ], [ 38.7842988, 8.9845215 ], [ 38.7829895, 8.9840922 ], [ 38.7790937, 8.9824536 ], [ 38.7782412, 8.9822022 ], [ 38.7755492, 8.9871715 ], [ 38.7650467, 8.9975944 ], [ 38.7549917, 9.0080034 ], [ 38.7519181, 9.0117755 ], [ 38.7544893, 9.0173204 ], [ 38.7542995, 9.0292944 ], [ 38.7547358, 9.0318906 ], [ 38.7600057, 9.0440359 ] ] ] } },
{ "type": "Feature", "properties": { "threshold_s": 300, "time_label": "5 min drive" }, "geometry": { "type": "Polygon", "coordinates": [ [ [ 38.8311271, 9.0316043 ], [ 38.8347468, 9.0370347 ], [ 38.8375676, 9.0372689 ], [ 38.8400239, 9.0358904 ], [ 38.8413773, 9.0352855 ], [ 38.8467935, 9.034135 ], [ 38.84938, 9.0319473 ], [ 38.8506613, 9.0308591 ], [ 38.8541116, 9.025734 ], [ 38.8542502, 9.0254448 ], [ 38.8546904, 9.023507 ], [ 38.8596607, 9.0204593 ], [ 38.8567371, 9.0177538 ], [ 38.853243, 9.0137351 ], [ 38.8507949, 9.0115817 ], [ 38.849253, 9.0102303 ], [ 38.8484112, 9.0095145 ], [ 38.8431904, 9.0075458 ], [ 38.8414704, 9.0058192 ], [ 38.8399261, 9.0047959 ], [ 38.8350485, 9.0029058 ], [ 38.8336857, 9.0030785 ], [ 38.8303265, 9.0044892 ], [ 38.8302422, 9.0045291 ], [ 38.8289686, 9.0063636 ], [ 38.8288667, 9.0074564 ], [ 38.8288254, 9.0078165 ], [ 38.8285318, 9.0098196 ], [ 38.828155, 9.0107397 ], [ 38.8226905, 9.0141508 ], [ 38.8217664, 9.0166323 ], [ 38.8216767, 9.0168867 ], [ 38.8212509, 9.0187748 ], [ 38.8264118, 9.0231496 ], [ 38.8265137, 9.0234793 ], [ 38.8272819, 9.0259255 ], [ 38.8297083, 9.0294934 ], [ 38.8311271, 9.0316043 ] ] ] } },
{ "type": "Feature", "properties": { "threshold_s": 600, "time_label": "10 min drive" }, "geometry": { "type": "Polygon", "coordinates": [ [ [ 38.8159095, 9.0375103 ], [ 38.8167505, 9.045968 ], [ 38.8179354, 9.0457465 ], [ 38.8231803, 9.0462342 ], [ 38.8243626, 9.0528934 ], [ 38.8250117, 9.053549 ], [ 38.8274968, 9.0551727 ], [ 38.8285455, 9.0551872 ], [ 38.8340896, 9.0540959 ], [ 38.8341376, 9.0540813 ], [ 38.8423777, 9.0510737 ], [ 38.8438708, 9.050832 ], [ 38.8495097, 9.0495413 ], [ 38.854233, 9.0497003 ], [ 38.8573752, 9.0488562 ], [ 38.8586774, 9.0483878 ], [ 38.862001, 9.0454187 ], [ 38.8670635, 9.0429134 ], [ 38.8671264, 9.0428411 ], [ 38.8679901, 9.0413286 ], [ 38.8699011, 9.0331262 ], [ 38.8746351, 9.0291335 ], [ 38.8784334, 9.0250432 ], [ 38.8814904, 9.0214402 ], [ 38.8792539, 9.0188592 ], [ 38.8779373, 9.0177396 ], [ 38.8741303, 9.010825 ], [ 38.8702878, 9.0045169 ], [ 38.8678579, 9.004212 ], [ 38.8608837, 9.0010039 ], [ 38.8603692, 8.9981434 ], [ 38.8603087, 8.9980905 ], [ 38.8550658, 8.9945184 ], [ 38.8529482, 8.9932183 ], [ 38.8463621, 8.9879735 ], [ 38.8413437, 8.9870753 ], [ 38.832541, 8.985244 ], [ 38.8285222, 8.9841658 ], [ 38.8235769, 8.9858801 ], [ 38.8231915, 8.9866537 ], [ 38.8167976, 8.9923828 ], [ 38.8147618, 8.9943531 ], [ 38.8110562, 8.9994158 ], [ 38.8079408, 9.0028064 ], [ 38.8056402, 9.0071786 ], [ 38.8040681, 9.0123412 ], [ 38.8016899, 9.0200113 ], [ 38.8048199, 9.0234244 ], [ 38.8056971, 9.0244005 ], [ 38.808001, 9.0248414 ], [ 38.8144722, 9.0294405 ], [ 38.8149296, 9.0355508 ], [ 38.8152304, 9.0361549 ], [ 38.8159095, 9.0375103 ] ] ] } },
{ "type": "Feature", "properties": { "threshold_s": 900, "time_label": "15 min drive" }, "geometry": { "type": "Polygon", "coordinates": [ [ [ 38.8027809, 9.0533596 ], [ 38.8067847, 9.0595471 ], [ 38.811484, 9.0642857 ], [ 38.8180608, 9.064728 ], [ 38.8296586, 9.0626196 ], [ 38.8304083, 9.062813 ], [ 38.8371769, 9.0588359 ], [ 38.843521, 9.0630858 ], [ 38.8446374, 9.0675065 ], [ 38.8448721, 9.0682839 ], [ 38.8450371, 9.0690732 ], [ 38.848745, 9.0688438 ], [ 38.8597329, 9.0644142 ], [ 38.8633472, 9.0656047 ], [ 38.8729197, 9.0615186 ], [ 38.8786316, 9.0573527 ], [ 38.879104, 9.0568719 ], [ 38.8835496, 9.0483666 ], [ 38.8866864, 9.040869 ], [ 38.8926476, 9.0338109 ], [ 38.8953325, 9.027668 ], [ 38.9002302, 9.0222733 ], [ 38.8978592, 9.0154215 ], [ 38.8959829, 9.0106558 ], [ 38.8945544, 9.0083199 ], [ 38.8920372, 9.0041906 ], [ 38.8893945, 8.9971693 ], [ 38.8884313, 8.9956869 ], [ 38.8851288, 8.9925201 ], [ 38.8839546, 8.9924766 ], [ 38.8784871, 8.993191 ], [ 38.8683298, 8.9954969 ], [ 38.8659556, 8.990281 ], [ 38.8656975, 8.9832292 ], [ 38.8659543, 8.9825954 ], [ 38.8653253, 8.9813012 ], [ 38.8598661, 8.9766158 ], [ 38.8542589, 8.9723237 ], [ 38.8470313, 8.9708627 ], [ 38.8445342, 8.9704772 ], [ 38.8376764, 8.9692227 ], [ 38.8282921, 8.9652772 ], [ 38.8229629, 8.9668673 ], [ 38.8182219, 8.9708911 ], [ 38.8178267, 8.9713244 ], [ 38.8178583, 8.9717354 ], [ 38.8182654, 8.9741014 ], [ 38.817983, 8.985495 ], [ 38.8097735, 8.9869675 ], [ 38.8079529, 8.9863615 ], [ 38.8066972, 8.9860036 ], [ 38.8035562, 8.9852867 ], [ 38.8021619, 8.9853275 ], [ 38.7996331, 8.9854045 ], [ 38.7971379, 8.9861223 ], [ 38.792913, 8.9938197 ], [ 38.79154650000001, 8.9972637 ], [ 38.7879737, 9.0050655 ], [ 38.7802996, 9.0139608 ], [ 38.7802802, 9.0148098 ], [ 38.7803283, 9.0233325 ], [ 38.7806577, 9.0238498 ], [ 38.7851879, 9.0309389 ], [ 38.7913411, 9.0328014 ], [ 38.7997189, 9.0335465 ], [ 38.8031475, 9.0364072 ], [ 38.8007203, 9.0474898 ], [ 38.8027809, 9.0533596 ] ] ] } },
{ "type": "Feature", "properties": { "threshold_s": 300, "time_label": "5 min drive" }, "geometry": { "type": "Polygon", "coordinates": [ [ [ 38.7051292, 8.9522721 ], [ 38.7052918, 8.9583318 ], [ 38.7082998, 8.9591877 ], [ 38.7114208, 8.963849 ], [ 38.7174451, 8.9623531 ], [ 38.7225438, 8.9621765 ], [ 38.7231498, 8.9614414 ], [ 38.7244507, 8.9580179 ], [ 38.730846, 8.957169 ], [ 38.7313537, 8.9572644 ], [ 38.733176899999989, 8.9569398 ], [ 38.7335671, 8.9563225 ], [ 38.7381752, 8.9526622 ], [ 38.7397643, 8.9527963 ], [ 38.7415064, 8.9531372 ], [ 38.741538, 8.9531417 ], [ 38.7421294, 8.9527569 ], [ 38.7431185, 8.9484161 ], [ 38.743023, 8.9470266 ], [ 38.742462, 8.9458879 ], [ 38.7409481, 8.9433638 ], [ 38.7402286, 8.9424754 ], [ 38.737807, 8.9407308 ], [ 38.7340113, 8.9367007 ], [ 38.7290061, 8.9343217 ], [ 38.7258811, 8.9326871 ], [ 38.7221487, 8.9303299 ], [ 38.7215307, 8.9300636 ], [ 38.717384, 8.9306505 ], [ 38.7155239, 8.9336434 ], [ 38.7156875, 8.9360638 ], [ 38.7159936, 8.9364447 ], [ 38.7158471, 8.9413677 ], [ 38.713008, 8.9426952 ], [ 38.7128283, 8.942823 ], [ 38.7124716, 8.9435172 ], [ 38.7120129, 8.9455097 ], [ 38.7097463, 8.9487392 ], [ 38.7056469, 8.9493476 ], [ 38.7053463, 8.9498908 ], [ 38.7051292, 8.9522721 ] ] ] } },
{ "type": "Feature", "properties": { "threshold_s": 600, "time_label": "10 min drive" }, "geometry": { "type": "Polygon", "coordinates": [ [ [ 38.6941735, 8.9710323 ], [ 38.6966211, 8.9762442 ], [ 38.699342799999989, 8.9788114 ], [ 38.7004258, 8.9785816 ], [ 38.7039784, 8.9764145 ], [ 38.7057853, 8.9756135 ], [ 38.7065117, 8.9752925 ], [ 38.7076208, 8.974797 ], [ 38.7079365, 8.9746578 ], [ 38.7085293, 8.9743943 ], [ 38.7089684, 8.9741971 ], [ 38.7092046, 8.9740936 ], [ 38.7097858, 8.9738359 ], [ 38.7140299, 8.9732737 ], [ 38.7195794, 8.9737333 ], [ 38.7196929, 8.9792853 ], [ 38.7215909, 8.9811187 ], [ 38.7223984, 8.9810641 ], [ 38.7230837, 8.980366 ], [ 38.7282267, 8.9758101 ], [ 38.7340154, 8.9782922 ], [ 38.7352525, 8.9782991 ], [ 38.7377935, 8.9768912 ], [ 38.7409403, 8.9757425 ], [ 38.7450813, 8.9751633 ], [ 38.7452156, 8.9732083 ], [ 38.7487393, 8.9670398 ], [ 38.7502682, 8.9660419 ], [ 38.7551391, 8.964469 ], [ 38.7581032, 8.9600068 ], [ 38.7585868, 8.9583904 ], [ 38.7584536, 8.9539435 ], [ 38.7595374, 8.9509795 ], [ 38.7598007, 8.949731 ], [ 38.7594397, 8.944691 ], [ 38.758741, 8.9406331 ], [ 38.7568614, 8.9340678 ], [ 38.7557982, 8.9306579 ], [ 38.7547459, 8.9294065 ], [ 38.748503, 8.9257618 ], [ 38.7461506, 8.9242384 ], [ 38.7429972, 8.9217991 ], [ 38.740757, 8.9187259 ], [ 38.7355496, 8.9142195 ], [ 38.7303016, 8.9121989 ], [ 38.7295807, 8.9119588 ], [ 38.727289399999989, 8.9135477 ], [ 38.7270246, 8.9164573 ], [ 38.7226438, 8.9196104 ], [ 38.7199563, 8.9207989 ], [ 38.714174, 8.9207268 ], [ 38.7113597, 8.9196049 ], [ 38.7099993, 8.921143 ], [ 38.7089751, 8.9235579 ], [ 38.7062073, 8.9295602 ], [ 38.7023014, 8.9317601 ], [ 38.69870250000001, 8.9321675 ], [ 38.6985399, 8.9324667 ], [ 38.6983983, 8.9354585 ], [ 38.6943345, 8.9403947 ], [ 38.6918481, 8.9419168 ], [ 38.6915978, 8.9420717 ], [ 38.6882305, 8.9480621 ], [ 38.686305, 8.9498956 ], [ 38.6848025, 8.9510048 ], [ 38.684802, 8.9512162 ], [ 38.6858795, 8.9530148 ], [ 38.6869499, 8.9589574 ], [ 38.6873272, 8.9636669 ], [ 38.6885811, 8.9638234 ], [ 38.6902991, 8.9643054 ], [ 38.6906995, 8.9642386 ], [ 38.6935387, 8.9644877 ], [ 38.6941735, 8.9710323 ] ] ] } },
{ "type": "Feature", "properties": { "threshold_s": 900, "time_label": "15 min drive" }, "geometry": { "type": "Polygon", "coordinates": [ [ [ 38.6808109, 8.9854873 ], [ 38.6843813, 8.9901585 ], [ 38.6855958, 8.9914228 ], [ 38.6877165, 8.9936247 ], [ 38.6880434, 8.9939087 ], [ 38.6889008, 8.9942887 ], [ 38.6949407, 8.9939306 ], [ 38.6960672, 8.9936693 ], [ 38.7051069, 8.9925725 ], [ 38.7083559, 8.993551 ], [ 38.7188513, 8.9979545 ], [ 38.7259, 8.9976253 ], [ 38.7307139, 8.9976947 ], [ 38.7396376, 8.9994322 ], [ 38.7493234, 8.9946374 ], [ 38.7516388, 8.9938777 ], [ 38.7531048, 8.993258 ], [ 38.7552193, 8.9903365 ], [ 38.7578753, 8.9870874 ], [ 38.7639286, 8.9812394 ], [ 38.7641305, 8.9805476 ], [ 38.7646558, 8.9779692 ], [ 38.7670588, 8.9707017 ], [ 38.7726464, 8.9617668 ], [ 38.7746049, 8.9599046 ], [ 38.775242, 8.9583361 ], [ 38.7755169, 8.9575612 ], [ 38.7753178, 8.956777 ], [ 38.7742697, 8.9534014 ], [ 38.7735806, 8.9490822 ], [ 38.7749362, 8.9400979 ], [ 38.7757356, 8.9358768 ], [ 38.7750092, 8.9317584 ], [ 38.7730272, 8.9253048 ], [ 38.7710931, 8.9194227 ], [ 38.7626269, 8.914082 ], [ 38.7580946, 8.9124759 ], [ 38.7572819, 8.9122175 ], [ 38.7487525, 8.9058565 ], [ 38.749201, 8.9038159 ], [ 38.7500466, 8.9013292 ], [ 38.7480358, 8.9000706 ], [ 38.7472224, 8.8999782 ], [ 38.746419, 8.9000601 ], [ 38.7362117, 8.9011704 ], [ 38.7350826, 8.9022633 ], [ 38.7337589, 8.9040162 ], [ 38.7313695, 8.9071775 ], [ 38.7312216, 8.9075352 ], [ 38.727289399999989, 8.9135477 ], [ 38.7226438, 8.9196104 ], [ 38.714174, 8.9207268 ], [ 38.7113597, 8.9196049 ], [ 38.7030194, 8.9214373 ], [ 38.7007337, 8.9274804 ], [ 38.6950392, 8.9306287 ], [ 38.6943345, 8.9403947 ], [ 38.6875914, 8.9395825 ], [ 38.6866843, 8.9390464 ], [ 38.6859834, 8.9390791 ], [ 38.6829914, 8.9401098 ], [ 38.6802779, 8.943664 ], [ 38.6801187, 8.9442031 ], [ 38.6802028, 8.9447962 ], [ 38.6804992, 8.9510846 ], [ 38.6803134, 8.9557227 ], [ 38.6803973, 8.9570556 ], [ 38.6754108, 8.9670566 ], [ 38.6748281, 8.9687584 ], [ 38.6748706, 8.9784132 ], [ 38.6808109, 8.9854873 ] ] ] } },
{ "type": "Feature", "properties": { "threshold_s": 300, "time_label": "5 min drive" }, "geometry": { "type": "Polygon", "coordinates": [ [ [ 38.6688339, 9.0129433 ], [ 38.6725212, 9.018061 ], [ 38.673648, 9.0189493 ], [ 38.67532, 9.020087 ], [ 38.6780122, 9.0212638 ], [ 38.6787159, 9.0210077 ], [ 38.6797822, 9.020011 ], [ 38.6808536, 9.0191275 ], [ 38.681619, 9.0184816 ], [ 38.6822447, 9.0179944 ], [ 38.688608, 9.0170348 ], [ 38.6904861, 9.0172168 ], [ 38.6936581, 9.0168994 ], [ 38.6997398, 9.0155845 ], [ 38.700685, 9.0162201 ], [ 38.7011211, 9.0149513 ], [ 38.7016711, 9.0123241 ], [ 38.7034379, 9.0081763 ], [ 38.7048085, 9.0054691 ], [ 38.7050479, 9.0038899 ], [ 38.7049773, 9.0034573 ], [ 38.703571599999989, 8.9990169 ], [ 38.701132, 8.9966866 ], [ 38.69908, 8.992327 ], [ 38.6981352, 8.9929925 ], [ 38.697529, 8.9943118 ], [ 38.6954675, 8.9963489 ], [ 38.6953475, 8.9964028 ], [ 38.6951727, 8.9964815 ], [ 38.6894549, 8.9937426 ], [ 38.6893504, 8.9926156 ], [ 38.6890973, 8.992021 ], [ 38.6887749, 8.9918051 ], [ 38.6829237, 8.9906438 ], [ 38.6821121, 8.9905694 ], [ 38.6752038, 8.990748 ], [ 38.6739001, 8.9908453 ], [ 38.6700234, 8.9920211 ], [ 38.6673179, 8.9930501 ], [ 38.6662209, 8.9952576 ], [ 38.6656496, 8.9981478 ], [ 38.6657193, 9.0003546 ], [ 38.6659129, 9.001489 ], [ 38.6655396, 9.0069947 ], [ 38.6650166, 9.0084504 ], [ 38.6651185, 9.0087617 ], [ 38.6652766, 9.0092311 ], [ 38.6688339, 9.0129433 ] ] ] } },
{ "type": "Feature", "properties": { "threshold_s": 600, "time_label": "10 min drive" }, "geometry": { "type": "Polygon", "coordinates": [ [ [ 38.6683244, 9.0228418 ], [ 38.6673797, 9.0328654 ], [ 38.6731223, 9.0357486 ], [ 38.6740987, 9.0360543 ], [ 38.6751573, 9.035714 ], [ 38.6758116, 9.0354562 ], [ 38.6844006, 9.0335746 ], [ 38.6897313, 9.0338245 ], [ 38.6899053, 9.0338497 ], [ 38.7000958, 9.031511 ], [ 38.7103572, 9.0291169 ], [ 38.7118874, 9.0298873 ], [ 38.7135566, 9.0297946 ], [ 38.7147073, 9.0292698 ], [ 38.7147665, 9.0283196 ], [ 38.7148898, 9.0260835 ], [ 38.7149263, 9.0253368 ], [ 38.7158288, 9.0208711 ], [ 38.7199187, 9.0151687 ], [ 38.7221159, 9.0135872 ], [ 38.7225071, 9.0114307 ], [ 38.7187473, 9.0020037 ], [ 38.7188698, 8.9998109 ], [ 38.7189523, 8.995207 ], [ 38.7197207, 8.9902768 ], [ 38.719002, 8.9898601 ], [ 38.7120944, 8.9891864 ], [ 38.7086718, 8.9871707 ], [ 38.7052055, 8.9799858 ], [ 38.7039784, 8.9764145 ], [ 38.69884, 8.9750803 ], [ 38.6894407, 8.973113 ], [ 38.6847351, 8.9729732 ], [ 38.6813338, 8.9731048 ], [ 38.676643, 8.973353 ], [ 38.6676423, 8.9759802 ], [ 38.6591265, 8.9785552 ], [ 38.658583299999989, 8.9796983 ], [ 38.6588786, 8.9823213 ], [ 38.6591364, 8.9831608 ], [ 38.6599191, 8.9867243 ], [ 38.6597476, 8.9909745 ], [ 38.6556959, 8.9968087 ], [ 38.6536896, 8.9992141 ], [ 38.6571336, 9.0025919 ], [ 38.6628655, 9.0098147 ], [ 38.6677543, 9.0181673 ], [ 38.6677046, 9.0206026 ], [ 38.6683244, 9.0228418 ] ] ] } },
{ "type": "Feature", "properties": { "threshold_s": 900, "time_label": "15 min drive" }, "geometry": { "type": "Polygon", "coordinates": [ [ [ 38.6673797, 9.0328654 ], [ 38.6746724, 9.0409686 ], [ 38.676438, 9.042549 ], [ 38.6794643, 9.0446396 ], [ 38.6852217, 9.0498367 ], [ 38.6860787, 9.0498525 ], [ 38.6868841, 9.0494746 ], [ 38.692402, 9.0476951 ], [ 38.6991946, 9.0472064 ], [ 38.7085193, 9.0494539 ], [ 38.7090296, 9.0495393 ], [ 38.7098759, 9.0496572 ], [ 38.7106289, 9.0496049 ], [ 38.7126895, 9.0491096 ], [ 38.7150559, 9.0484142 ], [ 38.7214261, 9.0451098 ], [ 38.7251306, 9.042457 ], [ 38.726096, 9.0398349 ], [ 38.7263311, 9.0385136 ], [ 38.7268303, 9.0361726 ], [ 38.7310806, 9.0287863 ], [ 38.7335177, 9.02722 ], [ 38.7375777, 9.0256746 ], [ 38.7388719, 9.0253522 ], [ 38.7415028, 9.0197133 ], [ 38.7461556, 9.0104021 ], [ 38.7448514, 9.0085099 ], [ 38.7403566, 8.9997024 ], [ 38.7376133, 8.9892067 ], [ 38.7377916, 8.9841214 ], [ 38.7376715, 8.9833207 ], [ 38.7324017, 8.9766384 ], [ 38.7263844, 8.9731061 ], [ 38.7244618, 8.9672045 ], [ 38.7191646, 8.9638658 ], [ 38.7121692, 8.9580597 ], [ 38.7038314, 8.9579089 ], [ 38.6974043, 8.9566497 ], [ 38.6902852, 8.9539123 ], [ 38.6898505, 8.9545177 ], [ 38.6894388, 8.9551593 ], [ 38.6890337, 8.9557908 ], [ 38.6882389, 8.9569922 ], [ 38.6781537, 8.9580395 ], [ 38.6748818, 8.9586978 ], [ 38.6642035, 8.9613076 ], [ 38.6587322, 8.9645942 ], [ 38.6500995, 8.9655056 ], [ 38.648289, 8.9660699 ], [ 38.6432823, 8.9694817 ], [ 38.6463404, 8.9758661 ], [ 38.64685, 8.976788 ], [ 38.6470757, 8.9771918 ], [ 38.6552121, 8.9784327 ], [ 38.6591364, 8.9831608 ], [ 38.6599191, 8.9867243 ], [ 38.6597476, 8.9909745 ], [ 38.6556959, 8.9968087 ], [ 38.6536896, 8.9992141 ], [ 38.6571336, 9.0025919 ], [ 38.6628655, 9.0098147 ], [ 38.6677543, 9.0181673 ], [ 38.6677046, 9.0206026 ], [ 38.6683244, 9.0228418 ], [ 38.6673797, 9.0328654 ] ] ] } },
{ "type": "Feature", "properties": { "threshold_s": 300, "time_label": "5 min drive" }, "geometry": { "type": "Polygon", "coordinates": [ [ [ 38.7341184, 9.0347785 ], [ 38.7365762, 9.0379959 ], [ 38.7373638, 9.0386148 ], [ 38.7407971, 9.0398028 ], [ 38.7427859, 9.0405703 ], [ 38.7433966, 9.0401234 ], [ 38.7468527, 9.0386384 ], [ 38.7487256, 9.039186 ], [ 38.7522558, 9.037847 ], [ 38.7523917, 9.0377453 ], [ 38.7535757, 9.0366681 ], [ 38.7550527, 9.0350946 ], [ 38.7558521, 9.0318884 ], [ 38.7575971, 9.0292881 ], [ 38.76061210000001, 9.0274013 ], [ 38.7624111, 9.0266163 ], [ 38.7616201, 9.0233396 ], [ 38.7605536, 9.0224021 ], [ 38.76068, 9.0184747 ], [ 38.7636571, 9.0176742 ], [ 38.7645019, 9.0170063 ], [ 38.7636993, 9.017064 ], [ 38.7631065, 9.0171496 ], [ 38.7629355, 9.0171841 ], [ 38.7623398, 9.017288 ], [ 38.7587022, 9.0179263 ], [ 38.7586435, 9.0127141 ], [ 38.7593389, 9.0118938 ], [ 38.7601319, 9.011234 ], [ 38.7588742, 9.0086394 ], [ 38.7543417, 9.0064809 ], [ 38.7495799, 9.006002 ], [ 38.7485673, 9.004685 ], [ 38.7469735, 9.0027395 ], [ 38.7468904, 9.0027304 ], [ 38.7454619, 9.0025839 ], [ 38.7453268, 9.0025716 ], [ 38.7411363, 9.0026067 ], [ 38.7410113, 9.0026659 ], [ 38.7400744, 9.0044562 ], [ 38.7377773, 9.008472 ], [ 38.7359332, 9.0101339 ], [ 38.734345, 9.011761 ], [ 38.7310311, 9.0154679 ], [ 38.730106, 9.0164989 ], [ 38.7311444, 9.017462 ], [ 38.732933, 9.0204298 ], [ 38.7335879, 9.0225953 ], [ 38.7336241, 9.0231117 ], [ 38.7318434, 9.0277109 ], [ 38.7304595, 9.0287023 ], [ 38.7318257, 9.0314097 ], [ 38.7341184, 9.0347785 ] ] ] } },
{ "type": "Feature", "properties": { "threshold_s": 600, "time_label": "10 min drive" }, "geometry": { "type": "Polygon", "coordinates": [ [ [ 38.7188787, 9.0465369 ], [ 38.7216519, 9.0520151 ], [ 38.7249244, 9.0551343 ], [ 38.7252416, 9.0554096 ], [ 38.7268496, 9.0566972 ], [ 38.7279584, 9.0571229 ], [ 38.7293083, 9.0574194 ], [ 38.733105, 9.0579814 ], [ 38.7338878, 9.0580941 ], [ 38.739572, 9.0579534 ], [ 38.7436036, 9.0586689 ], [ 38.7438718, 9.0586511 ], [ 38.7487938, 9.0578297 ], [ 38.7513386, 9.0566671 ], [ 38.7576104, 9.056615 ], [ 38.7595319, 9.0570339 ], [ 38.7617909, 9.0550584 ], [ 38.7624706, 9.0535973 ], [ 38.7638493, 9.0498777 ], [ 38.7682416, 9.0468007 ], [ 38.7683814, 9.0466274 ], [ 38.768379, 9.0465061 ], [ 38.768355, 9.0464477 ], [ 38.7685836, 9.041233 ], [ 38.7706733, 9.0395278 ], [ 38.7734143, 9.0388789 ], [ 38.7752885, 9.0378956 ], [ 38.776467, 9.0339118 ], [ 38.776867, 9.0314201 ], [ 38.7792906, 9.0265435 ], [ 38.7811059, 9.0234327 ], [ 38.7814649, 9.022194 ], [ 38.781137, 9.0217766 ], [ 38.7804623, 9.0179874 ], [ 38.7834846, 9.01484 ], [ 38.7811817, 9.009175 ], [ 38.781468, 9.0045317 ], [ 38.7807231, 9.0031349 ], [ 38.7802617, 9.0027226 ], [ 38.780006899999989, 9.0025548 ], [ 38.7766126, 8.999646 ], [ 38.775132, 8.9958947 ], [ 38.7748685, 8.9939269 ], [ 38.7747749, 8.9936803 ], [ 38.7742053, 8.9932382 ], [ 38.7704442, 8.9929865 ], [ 38.7658954, 8.990874 ], [ 38.7647559, 8.9917076 ], [ 38.759938, 8.987608 ], [ 38.7599589, 8.9875207 ], [ 38.7595927, 8.986554 ], [ 38.7595277, 8.9865796 ], [ 38.757357, 8.987179 ], [ 38.752531, 8.9837868 ], [ 38.7519227, 8.9834229 ], [ 38.7503143, 8.9827169 ], [ 38.7464459, 8.9815467 ], [ 38.7405449, 8.9819251 ], [ 38.7387747, 8.9814628 ], [ 38.7340181, 8.9826562 ], [ 38.732214, 8.9834895 ], [ 38.7311813, 8.9840883 ], [ 38.729859, 8.9868761 ], [ 38.7256426, 8.9913092 ], [ 38.7255622, 8.9913882 ], [ 38.7242852, 8.9953717 ], [ 38.7235325, 8.9981853 ], [ 38.7236724, 8.9987142 ], [ 38.7268985, 8.9991841 ], [ 38.7292146, 9.0052443 ], [ 38.7285474, 9.0064755 ], [ 38.7284978, 9.0065722 ], [ 38.726517, 9.0109459 ], [ 38.7201735, 9.0095651 ], [ 38.7197471, 9.0087074 ], [ 38.7190564, 9.0070821 ], [ 38.7186309, 9.0047421 ], [ 38.7186681, 9.0042571 ], [ 38.7186832, 9.004024 ], [ 38.7179507, 9.0040545 ], [ 38.7153429, 9.006898 ], [ 38.7147152, 9.0075835 ], [ 38.7139125, 9.0117416 ], [ 38.7141997, 9.0124602 ], [ 38.7161105, 9.0154626 ], [ 38.7160489, 9.0210002 ], [ 38.7156287, 9.0220832 ], [ 38.7153381, 9.0230401 ], [ 38.7152763, 9.0236018 ], [ 38.7152353, 9.0242892 ], [ 38.7152166, 9.0245608 ], [ 38.715158, 9.0253611 ], [ 38.7151311, 9.0261072 ], [ 38.7150762, 9.0272182 ], [ 38.7131922, 9.0332514 ], [ 38.7141695, 9.0381303 ], [ 38.7155474, 9.0403332 ], [ 38.7166464, 9.044384 ], [ 38.7188787, 9.0465369 ] ] ] } },
{ "type": "Feature", "properties": { "threshold_s": 900, "time_label": "15 min drive" }, "geometry": { "type": "Polygon", "coordinates": [ [ [ 38.706267, 9.0595279 ], [ 38.7071273, 9.0631653 ], [ 38.7157479, 9.0667755 ], [ 38.7174121, 9.0707136 ], [ 38.7224755, 9.0745343 ], [ 38.7261845, 9.0750759 ], [ 38.7377219, 9.0759888 ], [ 38.7445479, 9.0766414 ], [ 38.7510584, 9.0755627 ], [ 38.7567401, 9.0780534 ], [ 38.7680067, 9.0755069 ], [ 38.7720796, 9.0723774 ], [ 38.7726656, 9.071885 ], [ 38.7749684, 9.0694771 ], [ 38.7796697, 9.0642273 ], [ 38.7838352, 9.0596051 ], [ 38.7873548, 9.0536933 ], [ 38.7906995, 9.0454025 ], [ 38.7918929, 9.0415089 ], [ 38.7947311, 9.0312946 ], [ 38.7988474, 9.0307862 ], [ 38.8000767, 9.0287239 ], [ 38.8045576, 9.0198433 ], [ 38.804643, 9.0191079 ], [ 38.8045262, 9.0183018 ], [ 38.8017743, 9.0076652 ], [ 38.8024677, 9.0009613 ], [ 38.7968687, 8.9908044 ], [ 38.7942992, 8.9887271 ], [ 38.791375, 8.9871117 ], [ 38.788826, 8.985809 ], [ 38.7855757, 8.9849273 ], [ 38.7787516, 8.9794447 ], [ 38.7771428, 8.9770548 ], [ 38.7754002, 8.9775296 ], [ 38.7664998, 8.9707517 ], [ 38.7629064, 8.9653976 ], [ 38.7547301, 8.9651931 ], [ 38.7514499, 8.962329 ], [ 38.7480406, 8.9604986 ], [ 38.74513, 8.9614496 ], [ 38.7421504, 8.9622474 ], [ 38.7328483, 8.9624614 ], [ 38.7274935, 8.9655921 ], [ 38.7226027, 8.9685875 ], [ 38.7222635, 8.9688038 ], [ 38.7148428, 8.9757077 ], [ 38.7143196, 8.9766075 ], [ 38.7139508, 8.977555 ], [ 38.7062938, 8.986216 ], [ 38.7007745, 8.9959755 ], [ 38.6988803, 8.9972705 ], [ 38.6977001, 8.9982411 ], [ 38.6939984, 9.0035187 ], [ 38.6938688, 9.0037587 ], [ 38.6931779, 9.010107 ], [ 38.6931953, 9.0107641 ], [ 38.6940448, 9.0208945 ], [ 38.6923724, 9.0323236 ], [ 38.6923502, 9.0365186 ], [ 38.696355, 9.0444169 ], [ 38.6966861, 9.0448662 ], [ 38.6987601, 9.0475573 ], [ 38.699713, 9.0483354 ], [ 38.7056118, 9.0559885 ], [ 38.706267, 9.0595279 ] ] ] } },
{ "type": "Feature", "properties": { "threshold_s": 300, "time_label": "5 min drive" }, "geometry": { "type": "Polygon", "coordinates": [ [ [ 38.7182799, 9.0763662 ], [ 38.7212082, 9.0809212 ], [ 38.7235789, 9.0781644 ], [ 38.7261845, 9.0750759 ], [ 38.7291224, 9.0709316 ], [ 38.732525099999989, 9.0719682 ], [ 38.7341311, 9.0707154 ], [ 38.7349307, 9.0690447 ], [ 38.7351005, 9.0682393 ], [ 38.738448, 9.0638539 ], [ 38.7397194, 9.0634177 ], [ 38.7389565, 9.0600866 ], [ 38.7381506, 9.0557988 ], [ 38.7373631, 9.0509343 ], [ 38.7336697, 9.0480785 ], [ 38.7288047, 9.0464712 ], [ 38.7249024, 9.0447279 ], [ 38.7229382, 9.0433447 ], [ 38.7214851, 9.0427656 ], [ 38.719755, 9.0431141 ], [ 38.7183244, 9.0449502 ], [ 38.7188249, 9.0478735 ], [ 38.7188915, 9.0484049 ], [ 38.7159088, 9.0528119 ], [ 38.7116659, 9.0510319 ], [ 38.7113763, 9.0510713 ], [ 38.7113176, 9.0510788 ], [ 38.7104662, 9.0512672 ], [ 38.7082739, 9.0547237 ], [ 38.7079286, 9.0570843 ], [ 38.7081281, 9.0588542 ], [ 38.7085404, 9.0593889 ], [ 38.7110449, 9.061498 ], [ 38.7146339, 9.062817 ], [ 38.7154944, 9.0661054 ], [ 38.714509, 9.0682505 ], [ 38.7146036, 9.0688953 ], [ 38.7157707, 9.0714928 ], [ 38.7182799, 9.0763662 ] ] ] } },
{ "type": "Feature", "properties": { "threshold_s": 600, "time_label": "10 min drive" }, "geometry": { "type": "Polygon", "coordinates": [ [ [ 38.7222228, 9.0847868 ], [ 38.7107912, 9.0885365 ], [ 38.7188042, 9.0925749 ], [ 38.7231521, 9.0851596 ], [ 38.7255473, 9.0871632 ], [ 38.7265894, 9.0880836 ], [ 38.730374, 9.0869792 ], [ 38.7356744, 9.0873049 ], [ 38.741257, 9.0875976 ], [ 38.7429193, 9.0877949 ], [ 38.7410451, 9.0866057 ], [ 38.7389972, 9.0871137 ], [ 38.7352261, 9.0871606 ], [ 38.7309526, 9.086197 ], [ 38.7287586, 9.0812933 ], [ 38.7324589, 9.0764417 ], [ 38.7377219, 9.0759888 ], [ 38.7382369, 9.0758127 ], [ 38.7445479, 9.0766414 ], [ 38.7465249, 9.0792228 ], [ 38.7500198, 9.0734554 ], [ 38.7529652, 9.0738402 ], [ 38.7563217, 9.071118 ], [ 38.7576066, 9.0694978 ], [ 38.7578218, 9.0690619 ], [ 38.7590602, 9.0651028 ], [ 38.7592323, 9.0643702 ], [ 38.7587301, 9.063014 ], [ 38.7572497, 9.0603656 ], [ 38.7580541, 9.0542928 ], [ 38.7584018, 9.0533192 ], [ 38.7554499, 9.04807 ], [ 38.7543042, 9.0447138 ], [ 38.7519203, 9.0397855 ], [ 38.749852, 9.0349057 ], [ 38.7473671, 9.0347685 ], [ 38.7455097, 9.0345712 ], [ 38.738425, 9.0304177 ], [ 38.7377078, 9.0295958 ], [ 38.7342412, 9.0266135 ], [ 38.733331, 9.0256763 ], [ 38.7325805, 9.0248504 ], [ 38.7317242, 9.024007 ], [ 38.7311787, 9.0234865 ], [ 38.7308515, 9.0235607 ], [ 38.7305063, 9.0236379 ], [ 38.7258457, 9.0243755 ], [ 38.7208675, 9.0239454 ], [ 38.7201727, 9.0239499 ], [ 38.7132615, 9.0265003 ], [ 38.7102871, 9.0290528 ], [ 38.7097773, 9.0296256 ], [ 38.7036635, 9.0346131 ], [ 38.6974107, 9.0386302 ], [ 38.6937377, 9.0410938 ], [ 38.6936284, 9.0447807 ], [ 38.692115, 9.0527345 ], [ 38.6884614, 9.056045 ], [ 38.688314, 9.0593476 ], [ 38.6886941, 9.0608337 ], [ 38.6904144, 9.0668404 ], [ 38.6918507, 9.0687102 ], [ 38.6928576, 9.0693699 ], [ 38.69319990000001, 9.0695697 ], [ 38.6951271, 9.0706887 ], [ 38.698357799999989, 9.0683166 ], [ 38.6992261, 9.0679087 ], [ 38.7049681, 9.0734342 ], [ 38.7040883, 9.075675 ], [ 38.7066767, 9.0720331 ], [ 38.7064393, 9.0656273 ], [ 38.707658, 9.0628554 ], [ 38.7110449, 9.061498 ], [ 38.714509, 9.0682505 ], [ 38.7146036, 9.0688953 ], [ 38.7151902, 9.0700342 ], [ 38.715507, 9.070681 ], [ 38.7157707, 9.0714928 ], [ 38.7160362, 9.0719192 ], [ 38.7182799, 9.0763662 ], [ 38.7190591, 9.077488 ], [ 38.7212082, 9.0809212 ], [ 38.7222228, 9.0847868 ] ] ] } },
{ "type": "Feature", "properties": { "threshold_s": 900, "time_label": "15 min drive" }, "geometry": { "type": "Polygon", "coordinates": [ [ [ 38.6847362, 9.0650724 ], [ 38.6848046, 9.0744871 ], [ 38.689663, 9.0762027 ], [ 38.6938391, 9.0730859 ], [ 38.7040883, 9.075675 ], [ 38.7066767, 9.0720331 ], [ 38.7182799, 9.0763662 ], [ 38.7190591, 9.077488 ], [ 38.7212082, 9.0809212 ], [ 38.7222228, 9.0847868 ], [ 38.7107912, 9.0885365 ], [ 38.7188042, 9.0925749 ], [ 38.7265894, 9.0880836 ], [ 38.7380585, 9.0909943 ], [ 38.7489573, 9.092251 ], [ 38.7610491, 9.095174 ], [ 38.7618139, 9.0950755 ], [ 38.762476, 9.0923676 ], [ 38.7613576, 9.0810134 ], [ 38.7700425, 9.0798452 ], [ 38.7736219, 9.0787401 ], [ 38.7737507, 9.0711988 ], [ 38.7752835, 9.0662165 ], [ 38.7753401, 9.0621326 ], [ 38.7750336, 9.0596606 ], [ 38.7745755, 9.0578462 ], [ 38.7742615, 9.0456581 ], [ 38.7747213, 9.0379721 ], [ 38.7696348, 9.0316607 ], [ 38.7616201, 9.0233396 ], [ 38.7562078, 9.0153727 ], [ 38.7561231, 9.0153091 ], [ 38.7529365, 9.0137445 ], [ 38.7441169, 9.0104975 ], [ 38.7351832, 9.0049966 ], [ 38.7336731, 9.0040462 ], [ 38.7313865, 9.0057152 ], [ 38.7311713, 9.0061244 ], [ 38.7186849, 9.0064457 ], [ 38.7168986, 9.0089339 ], [ 38.7142962, 9.0121102 ], [ 38.7040066, 9.0158739 ], [ 38.7000013, 9.0152659 ], [ 38.6998284, 9.0153872 ], [ 38.6996707, 9.0155123 ], [ 38.6978307, 9.017015 ], [ 38.6969228, 9.0188541 ], [ 38.6950466, 9.0235727 ], [ 38.6860719, 9.0261078 ], [ 38.6826813, 9.03015 ], [ 38.6813539, 9.0340427 ], [ 38.6794643, 9.0446396 ], [ 38.6806176, 9.0455197 ], [ 38.6846724, 9.0563468 ], [ 38.6847206, 9.0589202 ], [ 38.684761, 9.0605151 ], [ 38.6847507, 9.0616361 ], [ 38.6847578, 9.0622835 ], [ 38.6847362, 9.0650724 ] ] ] } },
{ "type": "Feature", "properties": { "threshold_s": 300, "time_label": "5 min drive" }, "geometry": { "type": "Polygon", "coordinates": [ [ [ 38.7047663, 8.9713588 ], [ 38.7052419, 8.973599 ], [ 38.709632, 8.973171 ], [ 38.7120216, 8.9728206 ], [ 38.713758, 8.9722018 ], [ 38.7191264, 8.972191 ], [ 38.7211726, 8.9728065 ], [ 38.7247432, 8.9730688 ], [ 38.7249227, 8.9730334 ], [ 38.7256696, 8.9721836 ], [ 38.7261173, 8.9689048 ], [ 38.7270441, 8.9655836 ], [ 38.7276622, 8.9634168 ], [ 38.7276637, 8.9629179 ], [ 38.727665, 8.9627193 ], [ 38.7276671, 8.9616568 ], [ 38.7276238, 8.9613825 ], [ 38.7271286, 8.9595814 ], [ 38.7261994, 8.9576376 ], [ 38.7285447, 8.9530967 ], [ 38.731062, 8.9531298 ], [ 38.7313974, 8.9515806 ], [ 38.7314631, 8.9511842 ], [ 38.7292342, 8.9479402 ], [ 38.7268938, 8.9447904 ], [ 38.7262831, 8.9441282 ], [ 38.7235168, 8.9427649 ], [ 38.7231504, 8.9426609 ], [ 38.72147, 8.9422049 ], [ 38.7193868, 8.9430442 ], [ 38.7178098, 8.9440724 ], [ 38.7157618, 8.9461813 ], [ 38.7111602, 8.9483774 ], [ 38.7097463, 8.9487392 ], [ 38.7051688, 8.9476046 ], [ 38.7028572, 8.950524 ], [ 38.7026042, 8.9508445 ], [ 38.701669, 8.95218 ], [ 38.6968465, 8.9551229 ], [ 38.6968257, 8.9572693 ], [ 38.6984839, 8.9604146 ], [ 38.7015584, 8.9642617 ], [ 38.7018271, 8.9669357 ], [ 38.7047663, 8.9713588 ] ] ] } },
{ "type": "Feature", "properties": { "threshold_s": 600, "time_label": "10 min drive" }, "geometry": { "type": "Polygon", "coordinates": [ [ [ 38.6883732, 8.9808699 ], [ 38.690928, 8.9848799 ], [ 38.693748, 8.98684 ], [ 38.6972678, 8.9870893 ], [ 38.6984945, 8.9856619 ], [ 38.7008104, 8.9835302 ], [ 38.7071132, 8.9854303 ], [ 38.7075504, 8.9852546 ], [ 38.7129021, 8.9832206 ], [ 38.7167642, 8.9883729 ], [ 38.7173929, 8.9902075 ], [ 38.7207096, 8.9903808 ], [ 38.7234061, 8.9902196 ], [ 38.7245401, 8.9900158 ], [ 38.724852, 8.9872973 ], [ 38.7323776, 8.9839147 ], [ 38.737172, 8.9846817 ], [ 38.7377916, 8.9841214 ], [ 38.7400372, 8.9805206 ], [ 38.7449038, 8.9739282 ], [ 38.7452156, 8.9732083 ], [ 38.7454986, 8.9683321 ], [ 38.7449837, 8.968007 ], [ 38.7438592, 8.967905 ], [ 38.7430934, 8.9678844 ], [ 38.7389436, 8.9670065 ], [ 38.7355458, 8.9629714 ], [ 38.7352973, 8.9619756 ], [ 38.7352396, 8.9611247 ], [ 38.741532, 8.9558019 ], [ 38.7429693, 8.9567245 ], [ 38.7436067, 8.9570909 ], [ 38.745216, 8.9570471 ], [ 38.7459107, 8.9567583 ], [ 38.7473767, 8.9545751 ], [ 38.7489388, 8.9514326 ], [ 38.7507918, 8.9464212 ], [ 38.7471013, 8.9420844 ], [ 38.74525460000001, 8.9365005 ], [ 38.7398979, 8.9332961 ], [ 38.7338218, 8.9279367 ], [ 38.7283047, 8.9264388 ], [ 38.7252697, 8.9234049 ], [ 38.7243812, 8.9217132 ], [ 38.722778, 8.9213381 ], [ 38.7206805, 8.9223582 ], [ 38.7202896, 8.9240603 ], [ 38.7163543, 8.9307024 ], [ 38.7116689, 8.9264898 ], [ 38.7062073, 8.9295602 ], [ 38.69870250000001, 8.9321675 ], [ 38.6985399, 8.9324667 ], [ 38.6983983, 8.9354585 ], [ 38.6943345, 8.9403947 ], [ 38.6905998, 8.941313 ], [ 38.6884219, 8.9413436 ], [ 38.6872833, 8.9418058 ], [ 38.6838244, 8.9433313 ], [ 38.6810802, 8.9444064 ], [ 38.6806098, 8.9449029 ], [ 38.6806364, 8.9463045 ], [ 38.6810593, 8.9510858 ], [ 38.6803134, 8.9557227 ], [ 38.6803973, 8.9570556 ], [ 38.6829673, 8.9643809 ], [ 38.6824067, 8.9665296 ], [ 38.6823463, 8.9666952 ], [ 38.6820781, 8.9677735 ], [ 38.681899799999989, 8.9686346 ], [ 38.6820728, 8.9695976 ], [ 38.6846044, 8.9742382 ], [ 38.6883732, 8.9808699 ] ] ] } },
{ "type": "Feature", "properties": { "threshold_s": 900, "time_label": "15 min drive" }, "geometry": { "type": "Polygon", "coordinates": [ [ [ 38.6708522, 8.9927879 ], [ 38.6772401, 9.0017206 ], [ 38.6810039, 9.0019786 ], [ 38.6915944, 9.0034361 ], [ 38.6942996, 9.0041178 ], [ 38.7068054, 9.0058914 ], [ 38.7190919, 9.0068716 ], [ 38.7197143, 9.0079515 ], [ 38.7321313, 9.0082453 ], [ 38.7329033, 9.0089663 ], [ 38.7339242, 9.0093103 ], [ 38.7357035, 9.0094809 ], [ 38.7367107, 9.0088253 ], [ 38.74219990000001, 9.0049176 ], [ 38.7498948, 8.9991614 ], [ 38.7528436, 8.9953831 ], [ 38.7578753, 8.9870874 ], [ 38.7619735, 8.9778795 ], [ 38.7623526, 8.9769294 ], [ 38.762356, 8.9764219 ], [ 38.762618, 8.9673329 ], [ 38.7662447, 8.9572923 ], [ 38.7628957, 8.9451813 ], [ 38.7620469, 8.9360386 ], [ 38.7636761, 8.9310452 ], [ 38.7630779, 8.9292229 ], [ 38.7599789, 8.9268163 ], [ 38.7504724, 8.9206262 ], [ 38.7494304, 8.9189728 ], [ 38.7470126, 8.9164625 ], [ 38.7403233, 8.9074114 ], [ 38.740217, 8.9072641 ], [ 38.7368502, 8.9073501 ], [ 38.73353, 8.9082675 ], [ 38.727289399999989, 8.9135477 ], [ 38.7226438, 8.9196104 ], [ 38.714174, 8.9207268 ], [ 38.7113597, 8.9196049 ], [ 38.7030194, 8.9214373 ], [ 38.69870250000001, 8.9321675 ], [ 38.6985399, 8.9324667 ], [ 38.6983983, 8.9354585 ], [ 38.6875914, 8.9395825 ], [ 38.6866843, 8.9390464 ], [ 38.6859834, 8.9390791 ], [ 38.6829914, 8.9401098 ], [ 38.6802779, 8.943664 ], [ 38.6801187, 8.9442031 ], [ 38.6802028, 8.9447962 ], [ 38.6803925, 8.945542 ], [ 38.6804992, 8.9510846 ], [ 38.6744597, 8.9588759 ], [ 38.6736308, 8.9592919 ], [ 38.6685213, 8.9620253 ], [ 38.6675135, 8.9643257 ], [ 38.6666499, 8.966833 ], [ 38.6649105, 8.9780391 ], [ 38.6647363, 8.9793725 ], [ 38.6646922, 8.9804166 ], [ 38.6651483, 8.9826103 ], [ 38.6708522, 8.9927879 ] ] ] } },
{ "type": "Feature", "properties": { "threshold_s": 300, "time_label": "5 min drive" }, "geometry": { "type": "Polygon", "coordinates": [ [ [ 38.8613194, 9.0743877 ], [ 38.863089, 9.0812146 ], [ 38.8629375, 9.0771013 ], [ 38.8674778, 9.0751387 ], [ 38.8684273, 9.0755187 ], [ 38.8705891, 9.0805352 ], [ 38.8735825, 9.0824846 ], [ 38.870738, 9.0802068 ], [ 38.8729669, 9.0765583 ], [ 38.8746352, 9.0764206 ], [ 38.8754292, 9.0759994 ], [ 38.8766274, 9.0742054 ], [ 38.8784769, 9.0711545 ], [ 38.879289, 9.0678581 ], [ 38.8811155, 9.0658656 ], [ 38.8808204, 9.0636752 ], [ 38.8810392, 9.0599895 ], [ 38.879104, 9.0568719 ], [ 38.8776465, 9.0534334 ], [ 38.8724546, 9.0544403 ], [ 38.8715816, 9.0526484 ], [ 38.8702163, 9.0497678 ], [ 38.8694711, 9.0482548 ], [ 38.8690706, 9.047307 ], [ 38.8667759, 9.0500706 ], [ 38.8662091, 9.0530629 ], [ 38.863311, 9.0560812 ], [ 38.8608728, 9.0584558 ], [ 38.8590181, 9.0612714 ], [ 38.8549022, 9.0577208 ], [ 38.8537543, 9.056705 ], [ 38.85267, 9.0580173 ], [ 38.8528946, 9.0591061 ], [ 38.8534793, 9.0604848 ], [ 38.8549948, 9.0655465 ], [ 38.855002, 9.0691076 ], [ 38.8586265, 9.0719033 ], [ 38.8592863, 9.0725469 ], [ 38.8613194, 9.0743877 ] ] ] } },
{ "type": "Feature", "properties": { "threshold_s": 600, "time_label": "10 min drive" }, "geometry": { "type": "Polygon", "coordinates": [ [ [ 38.8450371, 9.0690732 ], [ 38.8438261, 9.0795684 ], [ 38.8502835, 9.0694646 ], [ 38.855002, 9.0691076 ], [ 38.8586265, 9.0719033 ], [ 38.8592863, 9.0725469 ], [ 38.8613194, 9.0743877 ], [ 38.863089, 9.0812146 ], [ 38.8601499, 9.0875904 ], [ 38.8662304, 9.0863132 ], [ 38.8690026, 9.0852907 ], [ 38.8735825, 9.0824846 ], [ 38.8793607, 9.0781469 ], [ 38.8803195, 9.0771202 ], [ 38.8825057, 9.0739698 ], [ 38.882759, 9.0736045 ], [ 38.8837609, 9.0705344 ], [ 38.8847653, 9.0665697 ], [ 38.8851718, 9.0638571 ], [ 38.8852997, 9.0623257 ], [ 38.885408, 9.0601564 ], [ 38.885576, 9.0574365 ], [ 38.8855746, 9.0542708 ], [ 38.8858157, 9.0510063 ], [ 38.8879287, 9.0436653 ], [ 38.8891501, 9.0421339 ], [ 38.8888, 9.0376466 ], [ 38.8858561, 9.0369962 ], [ 38.8830869, 9.0366493 ], [ 38.8820375, 9.0366614 ], [ 38.8785021, 9.0300891 ], [ 38.8776201, 9.030072 ], [ 38.8769886, 9.0300841 ], [ 38.8758153, 9.0307601 ], [ 38.8746006, 9.0322828 ], [ 38.8721073, 9.0352308 ], [ 38.8681483, 9.0364148 ], [ 38.8620956, 9.0352 ], [ 38.8619642, 9.0306232 ], [ 38.8621616, 9.0290912 ], [ 38.8613248, 9.0292706 ], [ 38.8552805, 9.0335641 ], [ 38.8523622, 9.0357592 ], [ 38.8476797, 9.0408055 ], [ 38.8450292, 9.0410333 ], [ 38.844652, 9.0410964 ], [ 38.8396154, 9.0432269 ], [ 38.8394097, 9.0464862 ], [ 38.837249, 9.052063 ], [ 38.8358338, 9.0575279 ], [ 38.8371769, 9.0588359 ], [ 38.843521, 9.0630858 ], [ 38.8446374, 9.0675065 ], [ 38.8450371, 9.0690732 ] ] ] } },
{ "type": "Feature", "properties": { "threshold_s": 900, "time_label": "15 min drive" }, "geometry": { "type": "Polygon", "coordinates": [ [ [ 38.8149651, 9.0605226 ], [ 38.821016, 9.0692213 ], [ 38.8250561, 9.0709038 ], [ 38.8251595, 9.0708333 ], [ 38.8304083, 9.062813 ], [ 38.8446374, 9.0675065 ], [ 38.8448721, 9.0682839 ], [ 38.8450371, 9.0690732 ], [ 38.8366391, 9.0821031 ], [ 38.8438261, 9.0795684 ], [ 38.8502835, 9.0694646 ], [ 38.8586265, 9.0719033 ], [ 38.8592863, 9.0725469 ], [ 38.863089, 9.0812146 ], [ 38.8601499, 9.0875904 ], [ 38.8662304, 9.0863132 ], [ 38.87628, 9.0841529 ], [ 38.8767783, 9.0840009 ], [ 38.8778022, 9.0836743 ], [ 38.882759, 9.0736045 ], [ 38.8837609, 9.0705344 ], [ 38.8847653, 9.0665697 ], [ 38.8851718, 9.0638571 ], [ 38.8852997, 9.0623257 ], [ 38.885408, 9.0601564 ], [ 38.885576, 9.0574365 ], [ 38.8855746, 9.0542708 ], [ 38.8891501, 9.0421339 ], [ 38.8924666, 9.0374161 ], [ 38.8956209, 9.0252058 ], [ 38.8965147, 9.0225137 ], [ 38.8964322, 9.0214031 ], [ 38.8843891, 9.0141548 ], [ 38.8828553, 9.0126022 ], [ 38.8809438, 9.0107827 ], [ 38.8779021, 9.009779 ], [ 38.8696938, 9.0094141 ], [ 38.86567, 9.0153076 ], [ 38.853243, 9.0137351 ], [ 38.8530684, 9.0137468 ], [ 38.8523113, 9.0137905 ], [ 38.8508685, 9.0138902 ], [ 38.8505749, 9.0140988 ], [ 38.8418171, 9.0213402 ], [ 38.8313178, 9.0277853 ], [ 38.8274017, 9.0301952 ], [ 38.822639, 9.033331 ], [ 38.82228520000001, 9.033648 ], [ 38.8226616, 9.0363421 ], [ 38.8235107, 9.0398372 ], [ 38.8177121, 9.0534642 ], [ 38.8162308, 9.0542605 ], [ 38.81529, 9.0565302 ], [ 38.8149651, 9.0605226 ] ] ] } },
{ "type": "Feature", "properties": { "threshold_s": 300, "time_label": "5 min drive" }, "geometry": { "type": "Polygon", "coordinates": [ [ [ 38.7674265, 9.0166327 ], [ 38.7683061, 9.0191895 ], [ 38.7683945, 9.0192425 ], [ 38.7713573, 9.0204686 ], [ 38.774444, 9.0200616 ], [ 38.775059, 9.0189164 ], [ 38.7800908, 9.0202484 ], [ 38.7788296, 9.023438 ], [ 38.7787771, 9.0234759 ], [ 38.7812063, 9.0252209 ], [ 38.7812609, 9.0251757 ], [ 38.7828895, 9.0215465 ], [ 38.7863129, 9.0211792 ], [ 38.7866543, 9.0211264 ], [ 38.7874637, 9.0209639 ], [ 38.787837, 9.0208872 ], [ 38.7904462, 9.020033 ], [ 38.7934182, 9.0170489 ], [ 38.7949421, 9.0145161 ], [ 38.7975274, 9.0125425 ], [ 38.7990177, 9.0090624 ], [ 38.799906900000011, 9.0060768 ], [ 38.8009754, 9.0029979 ], [ 38.8012889, 9.0015944 ], [ 38.8002281, 9.0010613 ], [ 38.7993438, 9.0015425 ], [ 38.7977966, 9.0017538 ], [ 38.7965052, 8.9969379 ], [ 38.7956395, 8.9945489 ], [ 38.7952264, 8.9934812 ], [ 38.7949535, 8.9927309 ], [ 38.7935246, 8.9897445 ], [ 38.792569, 8.9896677 ], [ 38.7876549, 8.9893973 ], [ 38.7840738, 8.987376 ], [ 38.7793551, 8.9859527 ], [ 38.7780281, 8.986051 ], [ 38.7760235, 8.9862013 ], [ 38.775627, 8.9865062 ], [ 38.7729816, 8.9907565 ], [ 38.7719314, 8.9937078 ], [ 38.7698496, 8.9967179 ], [ 38.7663914, 9.0000105 ], [ 38.7653333, 9.0005965 ], [ 38.7654833, 9.001129 ], [ 38.7657918, 9.0013837 ], [ 38.7663704, 9.0019672 ], [ 38.7663964, 9.0070441 ], [ 38.7661556, 9.0073141 ], [ 38.764761, 9.0088177 ], [ 38.7658891, 9.0123181 ], [ 38.7674265, 9.0166327 ] ] ] } },
{ "type": "Feature", "properties": { "threshold_s": 600, "time_label": "10 min drive" }, "geometry": { "type": "Polygon", "coordinates": [ [ [ 38.7446581, 9.0167997 ], [ 38.748433, 9.0240763 ], [ 38.7517573, 9.0266441 ], [ 38.7601733, 9.0333871 ], [ 38.7619077, 9.0346996 ], [ 38.7679818, 9.0389659 ], [ 38.7690506, 9.0397158 ], [ 38.7728901, 9.0400549 ], [ 38.7813319, 9.0400888 ], [ 38.7821976, 9.0400112 ], [ 38.7835732, 9.0398786 ], [ 38.788646, 9.0371199 ], [ 38.7988474, 9.0307862 ], [ 38.8011234, 9.0303124 ], [ 38.8048161, 9.0292985 ], [ 38.8134627, 9.0213571 ], [ 38.8172691, 9.0119811 ], [ 38.819705399999989, 9.0040656 ], [ 38.8203452, 8.9967397 ], [ 38.8203182, 8.9958983 ], [ 38.8192158, 8.991556 ], [ 38.8188985, 8.9908752 ], [ 38.8158998, 8.9886047 ], [ 38.8079529, 8.9863615 ], [ 38.8066972, 8.9860036 ], [ 38.8035562, 8.9852867 ], [ 38.8021619, 8.9853275 ], [ 38.7996331, 8.9854045 ], [ 38.7899075, 8.9859732 ], [ 38.7880106, 8.9854871 ], [ 38.7855757, 8.9849273 ], [ 38.7777914, 8.9763594 ], [ 38.7770659, 8.9681153 ], [ 38.7751652, 8.9671492 ], [ 38.7655318, 8.9710292 ], [ 38.7609422, 8.9727954 ], [ 38.7553965, 8.9820855 ], [ 38.7482563, 8.9911526 ], [ 38.7475225, 8.9920818 ], [ 38.7460999, 8.9948206 ], [ 38.7467176, 9.0045045 ], [ 38.7447023, 9.0088719 ], [ 38.7440647, 9.0101702 ], [ 38.7445414, 9.0165448 ], [ 38.7446581, 9.0167997 ] ] ] } },
{ "type": "Feature", "properties": { "threshold_s": 900, "time_label": "15 min drive" }, "geometry": { "type": "Polygon", "coordinates": [ [ [ 38.7313107, 9.0313408 ], [ 38.7365276, 9.0382717 ], [ 38.7464971, 9.0480836 ], [ 38.7510974, 9.0515804 ], [ 38.7565047, 9.0554225 ], [ 38.7594231, 9.0566085 ], [ 38.7608191, 9.0571692 ], [ 38.7731371, 9.05917 ], [ 38.7752118, 9.0594034 ], [ 38.7802957, 9.0593364 ], [ 38.7876136, 9.0553217 ], [ 38.792129, 9.0494167 ], [ 38.8069644, 9.0447637 ], [ 38.8165711, 9.0438703 ], [ 38.8175564, 9.0435695 ], [ 38.8240961, 9.0403013 ], [ 38.8265521, 9.038531 ], [ 38.8343351, 9.0287157 ], [ 38.8368236, 9.0215274 ], [ 38.8367977, 9.0208988 ], [ 38.835943, 9.0084869 ], [ 38.8349131, 9.0008394 ], [ 38.8381241, 8.9890226 ], [ 38.8381179, 8.9886036 ], [ 38.837623, 8.9862396 ], [ 38.8371688, 8.9852844 ], [ 38.8285212, 8.9718029 ], [ 38.8252518, 8.970978 ], [ 38.8208093, 8.9733361 ], [ 38.8066972, 8.9860036 ], [ 38.8035562, 8.9852867 ], [ 38.8021619, 8.9853275 ], [ 38.7919347, 8.9698281 ], [ 38.7953746, 8.9657887 ], [ 38.7955637, 8.9646061 ], [ 38.7927417, 8.9586337 ], [ 38.7925974, 8.9584397 ], [ 38.7923846, 8.9582785 ], [ 38.7897956, 8.9567199 ], [ 38.7867668, 8.9555742 ], [ 38.7844464, 8.9549941 ], [ 38.7688543, 8.9481925 ], [ 38.7607238, 8.9522413 ], [ 38.7516577, 8.9600086 ], [ 38.7399331, 8.9709491 ], [ 38.7324125, 8.9841916 ], [ 38.7309319, 8.9868939 ], [ 38.7304649, 8.9897669 ], [ 38.7290869, 8.9955912 ], [ 38.7212262, 9.0115404 ], [ 38.7211895, 9.0115916 ], [ 38.7210359, 9.0122983 ], [ 38.7228298, 9.0203316 ], [ 38.7313107, 9.0313408 ] ] ] } }
]
}
