{
"type": "FeatureCollection",
"name": "isochrone_shop_wine_drive",
"crs": { "type": "name", "properties": { "name": "urn:ogc:def:crs:OGC:1.3:CRS84" } },
"features": [
{ "type": "Feature", "properties": { "threshold_s": 300, "time_label": "5 min drive" }, "geometry": { "type": "Polygon", "coordinates": [ [ [ 38.7626954, 9.0108388 ], [ 38.76206, 9.0111118 ], [ 38.7627294, 9.0115076 ], [ 38.7654659, 9.0106243 ], [ 38.7672657, 9.0106467 ], [ 38.7702843, 9.0101555 ], [ 38.7706225, 9.010122 ], [ 38.7724962, 9.0100703 ], [ 38.7742634, 9.0124589 ], [ 38.7743465, 9.0124832 ], [ 38.7778035, 9.0124771 ], [ 38.777605, 9.0085597 ], [ 38.7812226, 9.0070596 ], [ 38.7817273, 9.007227 ], [ 38.7827072, 9.0061669 ], [ 38.7838566, 9.0045185 ], [ 38.7832893, 9.0030005 ], [ 38.7852584, 9.0000068 ], [ 38.7869011, 8.9980859 ], [ 38.7891596, 8.9951631 ], [ 38.7900146, 8.9944088 ], [ 38.7907049, 8.9923927 ], [ 38.7905229, 8.9906157 ], [ 38.7920318, 8.9875297 ], [ 38.791375, 8.9871117 ], [ 38.789819799999989, 8.986366 ], [ 38.7888132, 8.9859297 ], [ 38.7879749, 8.9856538 ], [ 38.7855757, 8.9849273 ], [ 38.7842988, 8.9845215 ], [ 38.7829895, 8.9840922 ], [ 38.7824454, 8.9839019 ], [ 38.781234, 8.9834683 ], [ 38.7786772, 8.9809764 ], [ 38.7785874, 8.9809511 ], [ 38.7752954, 8.9803589 ], [ 38.7728924, 8.9803205 ], [ 38.771043, 8.9807541 ], [ 38.7709102, 8.9816138 ], [ 38.7705655, 8.9839412 ], [ 38.76691, 8.9832305 ], [ 38.7662418, 8.9812714 ], [ 38.7659251, 8.9808102 ], [ 38.7653106, 8.9799761 ], [ 38.7640365, 8.9799769 ], [ 38.7634462, 8.979985 ], [ 38.7606946, 8.9807142 ], [ 38.760037, 8.9838182 ], [ 38.7595277, 8.9865796 ], [ 38.7593683, 8.989876 ], [ 38.7594068, 8.9930156 ], [ 38.759554, 8.9967245 ], [ 38.7593601, 8.9973697 ], [ 38.7586856, 8.9999436 ], [ 38.7587711, 9.0014635 ], [ 38.7592483, 9.0043831 ], [ 38.7602373, 9.0063444 ], [ 38.7614091, 9.0067937 ], [ 38.7636137, 9.009863 ], [ 38.7626954, 9.0108388 ] ] ] } },
{ "type": "Feature", "properties": { "threshold_s": 600, "time_label": "10 min drive" }, "geometry": { "type": "Polygon", "coordinates": [ [ [ 38.7416949, 9.0162818 ], [ 38.746891, 9.025917 ], [ 38.7516948, 9.0287486 ], [ 38.7526328, 9.0285574 ], [ 38.757196, 9.0269709 ], [ 38.7657206, 9.0293019 ], [ 38.7668135, 9.0296198 ], [ 38.7722518, 9.0311573 ], [ 38.7741301, 9.0305373 ], [ 38.7785546, 9.0285409 ], [ 38.7871475, 9.0271371 ], [ 38.7931306, 9.0235175 ], [ 38.7963185, 9.0208165 ], [ 38.7986357, 9.0187146 ], [ 38.8005309, 9.0128911 ], [ 38.8034796, 9.0044801 ], [ 38.804329, 9.0019673 ], [ 38.8079563, 8.9919144 ], [ 38.8103143, 8.9883096 ], [ 38.8097735, 8.9869675 ], [ 38.8079529, 8.9863615 ], [ 38.8035562, 8.9852867 ], [ 38.8021619, 8.9853275 ], [ 38.7996331, 8.9854045 ], [ 38.7971379, 8.9861223 ], [ 38.7899075, 8.9859732 ], [ 38.7880106, 8.9854871 ], [ 38.7855757, 8.9849273 ], [ 38.7842988, 8.9845215 ], [ 38.7787516, 8.9794447 ], [ 38.7777914, 8.9763594 ], [ 38.7828796, 8.9680649 ], [ 38.7828581, 8.9679775 ], [ 38.7775834, 8.9635925 ], [ 38.767042, 8.9623761 ], [ 38.7633621, 8.962338 ], [ 38.7570267, 8.9632491 ], [ 38.7562933, 8.9633645 ], [ 38.75565180000001, 8.9638035 ], [ 38.7549926, 8.9643066 ], [ 38.7518933, 8.9676702 ], [ 38.7445888, 8.9747177 ], [ 38.7421958, 8.9801527 ], [ 38.7399049, 8.9885387 ], [ 38.7397446, 8.9917148 ], [ 38.7385125, 9.0008076 ], [ 38.7407623, 9.0108375 ], [ 38.7416949, 9.0162818 ] ] ] } },
{ "type": "Feature", "properties": { "threshold_s": 900, "time_label": "15 min drive" }, "geometry": { "type": "Polygon", "coordinates": [ [ [ 38.7304484, 9.0337871 ], [ 38.7351866, 9.0401845 ], [ 38.7368394, 9.0418941 ], [ 38.7466643, 9.047819 ], [ 38.7564323, 9.0477457 ], [ 38.7618315, 9.0490932 ], [ 38.7703055, 9.0488674 ], [ 38.7801772, 9.0488867 ], [ 38.7864317, 9.0451248 ], [ 38.7870159, 9.0440162 ], [ 38.788646, 9.0371199 ], [ 38.7997189, 9.0335465 ], [ 38.8103267, 9.0327174 ], [ 38.8184062, 9.0239385 ], [ 38.8212509, 9.0187748 ], [ 38.8201494, 9.0114735 ], [ 38.8250951, 9.0029146 ], [ 38.8251673, 9.0028349 ], [ 38.8274438, 8.9940992 ], [ 38.829459, 8.9867615 ], [ 38.8282243, 8.9768688 ], [ 38.8269147, 8.9736538 ], [ 38.8249982, 8.9729882 ], [ 38.8241535, 8.9730398 ], [ 38.8211327, 8.9767138 ], [ 38.8208006, 8.9803978 ], [ 38.817983, 8.985495 ], [ 38.8097735, 8.9869675 ], [ 38.8079529, 8.9863615 ], [ 38.8066972, 8.9860036 ], [ 38.8035562, 8.9852867 ], [ 38.8021619, 8.9853275 ], [ 38.7996331, 8.9854045 ], [ 38.7971379, 8.9861223 ], [ 38.7899075, 8.9859732 ], [ 38.7880106, 8.9854871 ], [ 38.7855757, 8.9849273 ], [ 38.7842988, 8.9845215 ], [ 38.7787516, 8.9794447 ], [ 38.7828796, 8.9680649 ], [ 38.7919347, 8.9698281 ], [ 38.7983287, 8.9653657 ], [ 38.7995121, 8.9644203 ], [ 38.8001909, 8.9634762 ], [ 38.7993037, 8.961362 ], [ 38.7965468, 8.9561463 ], [ 38.7934553, 8.9528733 ], [ 38.7931194, 8.9525295 ], [ 38.7917278, 8.9515833 ], [ 38.785343, 8.9491504 ], [ 38.7752889, 8.9458118 ], [ 38.772123, 8.9424272 ], [ 38.7649015, 8.9419151 ], [ 38.7640495, 8.9420257 ], [ 38.7639706, 8.942036 ], [ 38.7550714, 8.9442285 ], [ 38.7492023, 8.947591 ], [ 38.7415064, 8.9531372 ], [ 38.7326381, 8.9587993 ], [ 38.7299066, 8.9609893 ], [ 38.7283591, 8.9631028 ], [ 38.7267258, 8.9660696 ], [ 38.7294153, 8.9690599 ], [ 38.7270547, 8.9798003 ], [ 38.7240083, 8.9841278 ], [ 38.7235008, 8.9856657 ], [ 38.7207351, 8.9932781 ], [ 38.7198317, 8.9993109 ], [ 38.7194323, 9.0098246 ], [ 38.7191591, 9.0121974 ], [ 38.7210699, 9.0215647 ], [ 38.7274235, 9.0285839 ], [ 38.7294115, 9.0318355 ], [ 38.7304484, 9.0337871 ] ] ] } }
]
}
