{
"type": "FeatureCollection",
"name": "isochrone_shop_deli_drive",
"crs": { "type": "name", "properties": { "name": "urn:ogc:def:crs:OGC:1.3:CRS84" } },
"features": [
{ "type": "Feature", "properties": { "threshold_s": 300, "time_label": "5 min drive" }, "geometry": { "type": "Polygon", "coordinates": [ [ [ 38.7365276, 9.0382717 ], [ 38.7381363, 9.0410531 ], [ 38.7398261, 9.0423338 ], [ 38.742112, 9.0437179 ], [ 38.7451544, 9.0450472 ], [ 38.7466643, 9.047819 ], [ 38.7506824, 9.0473136 ], [ 38.7516554, 9.0472512 ], [ 38.7564323, 9.0477457 ], [ 38.7563261, 9.047414 ], [ 38.7562666, 9.0472151 ], [ 38.7562092, 9.047044 ], [ 38.7573255, 9.0439475 ], [ 38.7600057, 9.0440359 ], [ 38.7600234, 9.0439033 ], [ 38.7595116, 9.0405678 ], [ 38.7625107, 9.0387169 ], [ 38.7653098, 9.039445 ], [ 38.7659895, 9.0381559 ], [ 38.7659922, 9.0380847 ], [ 38.7690897, 9.034443 ], [ 38.7694288, 9.034481 ], [ 38.769884, 9.0342295 ], [ 38.7696665, 9.0317334 ], [ 38.7696348, 9.0316607 ], [ 38.7654192, 9.0307943 ], [ 38.7633917, 9.0291295 ], [ 38.7625209, 9.0267749 ], [ 38.7624111, 9.0266163 ], [ 38.7616201, 9.0233396 ], [ 38.7638895, 9.0199177 ], [ 38.7638225, 9.0193203 ], [ 38.7638073, 9.0191651 ], [ 38.7631065, 9.0171496 ], [ 38.7629355, 9.0171841 ], [ 38.7623398, 9.017288 ], [ 38.7587022, 9.0179263 ], [ 38.7566767, 9.0148583 ], [ 38.7586435, 9.0127141 ], [ 38.7585196, 9.0125992 ], [ 38.755338, 9.0119598 ], [ 38.7533592, 9.010613 ], [ 38.7498135, 9.0113847 ], [ 38.7473376, 9.0123175 ], [ 38.7454169, 9.0141312 ], [ 38.7431896, 9.016309 ], [ 38.7410156, 9.0203514 ], [ 38.7383985, 9.0217793 ], [ 38.7352817, 9.0225768 ], [ 38.7344785, 9.0251051 ], [ 38.7343523, 9.0258096 ], [ 38.7338878, 9.0292468 ], [ 38.7339365, 9.0331668 ], [ 38.7341184, 9.0347785 ], [ 38.7365276, 9.0382717 ] ] ] } },
{ "type": "Feature", "properties": { "threshold_s": 600, "time_label": "10 min drive" }, "geometry": { "type": "Polygon", "coordinates": [ [ [ 38.7209953, 9.0524848 ], [ 38.7233575, 9.0564081 ], [ 38.72539050000001, 9.0577499 ], [ 38.7275999, 9.0587856 ], [ 38.7332008, 9.0640745 ], [ 38.7407942, 9.0663559 ], [ 38.7420905, 9.0670584 ], [ 38.7474764, 9.0687891 ], [ 38.751431, 9.0683141 ], [ 38.7556762, 9.0668793 ], [ 38.760820699999989, 9.0679321 ], [ 38.763821299999989, 9.0668916 ], [ 38.7699458, 9.0626987 ], [ 38.7717021, 9.0608999 ], [ 38.7758308, 9.0569625 ], [ 38.7758552, 9.0568886 ], [ 38.7800174, 9.0512875 ], [ 38.7816928, 9.0511698 ], [ 38.7823471, 9.0504218 ], [ 38.7864317, 9.0451248 ], [ 38.7870159, 9.0440162 ], [ 38.7882839, 9.036338 ], [ 38.7880696, 9.0351791 ], [ 38.7898626, 9.0285236 ], [ 38.7898506, 9.0284755 ], [ 38.7848897, 9.0225805 ], [ 38.7827905, 9.0187878 ], [ 38.7813332, 9.0121982 ], [ 38.778296, 9.0051979 ], [ 38.7782481, 9.0051158 ], [ 38.7739914, 8.9989883 ], [ 38.7724357, 8.9962689 ], [ 38.7665231, 8.9948114 ], [ 38.7656003, 8.9952358 ], [ 38.7591808, 8.9929533 ], [ 38.7590906, 8.9903639 ], [ 38.7571619, 8.989874 ], [ 38.7537741, 8.9893731 ], [ 38.7500986, 8.9892798 ], [ 38.745105, 8.9911751 ], [ 38.7381707, 8.9924364 ], [ 38.7376045, 8.9950873 ], [ 38.7371778, 8.998569 ], [ 38.7325948, 9.0017547 ], [ 38.732501, 9.001813 ], [ 38.730315, 9.0050548 ], [ 38.7287807, 9.0080888 ], [ 38.7215318, 9.0114593 ], [ 38.7212262, 9.0115404 ], [ 38.7202714, 9.0121817 ], [ 38.7188622, 9.016363 ], [ 38.7165147, 9.0199715 ], [ 38.7160489, 9.0210002 ], [ 38.7156287, 9.0220832 ], [ 38.7152763, 9.0236018 ], [ 38.715158, 9.0253611 ], [ 38.7149748, 9.0286311 ], [ 38.714946, 9.0291351 ], [ 38.7149185, 9.0297554 ], [ 38.7148404, 9.0311011 ], [ 38.7138967, 9.0380452 ], [ 38.716158299999989, 9.0446251 ], [ 38.7199456, 9.049349 ], [ 38.7209953, 9.0524848 ] ] ] } },
{ "type": "Feature", "properties": { "threshold_s": 900, "time_label": "15 min drive" }, "geometry": { "type": "Polygon", "coordinates": [ [ [ 38.7046811, 9.0605026 ], [ 38.7051728, 9.0634582 ], [ 38.7157707, 9.0714928 ], [ 38.7160362, 9.0719192 ], [ 38.7226465, 9.0780852 ], [ 38.7279962, 9.0819581 ], [ 38.7377219, 9.0759888 ], [ 38.7465249, 9.0792228 ], [ 38.753382, 9.0790122 ], [ 38.7613576, 9.0810134 ], [ 38.773237, 9.081739 ], [ 38.7827689, 9.0753935 ], [ 38.7899282, 9.0669108 ], [ 38.7957475, 9.0620051 ], [ 38.7959567, 9.0614277 ], [ 38.7931769, 9.0568746 ], [ 38.792129, 9.0494167 ], [ 38.8041703, 9.044401 ], [ 38.8069644, 9.0447637 ], [ 38.805898, 9.0343795 ], [ 38.8100499, 9.0316977 ], [ 38.8087057, 9.0226739 ], [ 38.8083148, 9.0203995 ], [ 38.8072567, 9.0169339 ], [ 38.8064846, 9.0163735 ], [ 38.8034284, 9.0138029 ], [ 38.7987573, 9.0041948 ], [ 38.7965052, 8.9969379 ], [ 38.7956395, 8.9945489 ], [ 38.7941338, 8.9900363 ], [ 38.7938117, 8.9895998 ], [ 38.7920318, 8.9875297 ], [ 38.791375, 8.9871117 ], [ 38.789819799999989, 8.986366 ], [ 38.7786772, 8.9809764 ], [ 38.7785874, 8.9809511 ], [ 38.7754274, 8.9804185 ], [ 38.7647163, 8.9741381 ], [ 38.7634898, 8.9729395 ], [ 38.7613593, 8.9707294 ], [ 38.7487393, 8.9670398 ], [ 38.7486735, 8.9670392 ], [ 38.7368561, 8.9722574 ], [ 38.7319405, 8.9736278 ], [ 38.731847, 8.9736912 ], [ 38.7317352, 8.9738671 ], [ 38.7270547, 8.9798003 ], [ 38.7193116, 8.9840635 ], [ 38.7136137, 8.9922004 ], [ 38.7127258, 8.993548 ], [ 38.7058385, 9.0008964 ], [ 38.7017383, 9.003689 ], [ 38.6996707, 9.0155123 ], [ 38.7003976, 9.02517 ], [ 38.6973673, 9.0297498 ], [ 38.6956601, 9.0321909 ], [ 38.6951821, 9.0328202 ], [ 38.6953462, 9.035712 ], [ 38.695634, 9.0396942 ], [ 38.696355, 9.0444169 ], [ 38.6966365, 9.0455237 ], [ 38.6970482, 9.0458839 ], [ 38.6987601, 9.0475573 ], [ 38.699713, 9.0483354 ], [ 38.7046811, 9.0605026 ] ] ] } }
]
}
