{
"type": "FeatureCollection",
"name": "isochrone_amenity_marketplace_drive",
"crs": { "type": "name", "properties": { "name": "urn:ogc:def:crs:OGC:1.3:CRS84" } },
"features": [
{ "type": "Feature", "properties": { "threshold_s": 300, "time_label": "5 min drive" }, "geometry": { "type": "Polygon", "coordinates": [ [ [ 38.7307241, 9.0417843 ], [ 38.7330246, 9.0449407 ], [ 38.7354401, 9.0470626 ], [ 38.739417, 9.0465899 ], [ 38.7397607, 9.0466531 ], [ 38.7411967, 9.0460409 ], [ 38.7445286, 9.0461045 ], [ 38.7471864, 9.046054 ], [ 38.7485637, 9.0452148 ], [ 38.7486606, 9.0444969 ], [ 38.751545, 9.04216 ], [ 38.7536837, 9.0411308 ], [ 38.7559159, 9.0397791 ], [ 38.7555497, 9.0379841 ], [ 38.7550527, 9.0350946 ], [ 38.7558521, 9.0318884 ], [ 38.7575971, 9.0292881 ], [ 38.76061210000001, 9.0274013 ], [ 38.76061330000001, 9.0273217 ], [ 38.7576048, 9.024946 ], [ 38.7575279, 9.0235574 ], [ 38.7564925, 9.0198092 ], [ 38.7565524, 9.0195638 ], [ 38.755531, 9.0174041 ], [ 38.7527738, 9.0154758 ], [ 38.7511127, 9.0142091 ], [ 38.748495, 9.0131042 ], [ 38.7473376, 9.0123175 ], [ 38.7443043, 9.0100188 ], [ 38.7441227, 9.0100953 ], [ 38.7440647, 9.0101702 ], [ 38.741383, 9.0126028 ], [ 38.7407528, 9.0125592 ], [ 38.7377172, 9.0106108 ], [ 38.7360117, 9.0122933 ], [ 38.7330361, 9.0140917 ], [ 38.7314063, 9.0144722 ], [ 38.7289514, 9.0141945 ], [ 38.728192, 9.0146268 ], [ 38.7269885, 9.0179453 ], [ 38.7258437, 9.0192984 ], [ 38.7255433, 9.0216256 ], [ 38.7225781, 9.0237289 ], [ 38.721402, 9.0259654 ], [ 38.7214765, 9.0293057 ], [ 38.7226369, 9.0322508 ], [ 38.7240786, 9.0347561 ], [ 38.7267482, 9.0376592 ], [ 38.7278053, 9.0391915 ], [ 38.7280387, 9.0395359 ], [ 38.7282668, 9.0398745 ], [ 38.7285066, 9.0402072 ], [ 38.7300345, 9.0414291 ], [ 38.7307241, 9.0417843 ] ] ] } },
{ "type": "Feature", "properties": { "threshold_s": 600, "time_label": "10 min drive" }, "geometry": { "type": "Polygon", "coordinates": [ [ [ 38.7180851, 9.0592393 ], [ 38.7182309, 9.0594176 ], [ 38.719293, 9.060405 ], [ 38.7204858, 9.0613356 ], [ 38.7266068, 9.0641406 ], [ 38.7283075, 9.0645247 ], [ 38.7336002, 9.0635295 ], [ 38.738375, 9.0641539 ], [ 38.7418311, 9.06565 ], [ 38.7459191, 9.0655661 ], [ 38.7511843, 9.0651055 ], [ 38.7548794, 9.0641379 ], [ 38.7554285, 9.0638122 ], [ 38.7603664, 9.0605291 ], [ 38.7658778, 9.055845 ], [ 38.7664334, 9.055275 ], [ 38.7665943, 9.0541103 ], [ 38.7701541, 9.0481491 ], [ 38.7712129, 9.0478766 ], [ 38.7720654, 9.0464541 ], [ 38.7709008, 9.045025 ], [ 38.7734143, 9.0388789 ], [ 38.7752885, 9.0378956 ], [ 38.776467, 9.0339118 ], [ 38.776867, 9.0314201 ], [ 38.7742804, 9.0292455 ], [ 38.7727188, 9.0282905 ], [ 38.772948, 9.0210846 ], [ 38.7745247, 9.0195546 ], [ 38.776659, 9.0179653 ], [ 38.7744038, 9.0122967 ], [ 38.774881, 9.0108722 ], [ 38.7748827, 9.0102991 ], [ 38.774444, 9.008267 ], [ 38.7708081, 9.0026107 ], [ 38.769688, 9.0011882 ], [ 38.7667722, 9.0000906 ], [ 38.7663914, 9.0000105 ], [ 38.7653333, 9.0005965 ], [ 38.7633803, 9.0013968 ], [ 38.759535, 8.9958867 ], [ 38.7562131, 8.9949711 ], [ 38.7540771, 8.9942781 ], [ 38.7497915, 8.9915564 ], [ 38.7482605, 8.9898488 ], [ 38.7445228, 8.9897713 ], [ 38.7384434, 8.9890888 ], [ 38.7376133, 8.9892067 ], [ 38.7375073, 8.9892226 ], [ 38.7352876, 8.9909264 ], [ 38.7306756, 8.9935185 ], [ 38.7271369, 8.9932141 ], [ 38.7258931, 8.995587 ], [ 38.7256877, 8.9968907 ], [ 38.7253797, 8.9978604 ], [ 38.7188698, 8.9998109 ], [ 38.7178476, 9.0006727 ], [ 38.716688, 9.0022051 ], [ 38.714215, 9.0056337 ], [ 38.7129074, 9.0075087 ], [ 38.7094326, 9.0134758 ], [ 38.709987, 9.0146449 ], [ 38.7108862, 9.0164398 ], [ 38.7127804, 9.0232168 ], [ 38.7120412, 9.0235873 ], [ 38.7114282, 9.0244084 ], [ 38.7075345, 9.0288485 ], [ 38.7063427, 9.0296269 ], [ 38.7059645, 9.0298706 ], [ 38.7045389, 9.0308971 ], [ 38.7035804, 9.0322421 ], [ 38.7036635, 9.0346131 ], [ 38.7061254, 9.0390185 ], [ 38.7079031, 9.042398 ], [ 38.7104224, 9.0431006 ], [ 38.7122999, 9.0485977 ], [ 38.7156266, 9.0545588 ], [ 38.7172968, 9.0576841 ], [ 38.7180851, 9.0592393 ] ] ] } },
{ "type": "Feature", "properties": { "threshold_s": 900, "time_label": "15 min drive" }, "geometry": { "type": "Polygon", "coordinates": [ [ [ 38.6982181, 9.0594512 ], [ 38.7004523, 9.0646666 ], [ 38.7047361, 9.0671463 ], [ 38.7051867, 9.0669423 ], [ 38.7157707, 9.0714928 ], [ 38.7160362, 9.0719192 ], [ 38.7182799, 9.0763662 ], [ 38.7279962, 9.0819581 ], [ 38.7287586, 9.0812933 ], [ 38.7377219, 9.0759888 ], [ 38.7465249, 9.0792228 ], [ 38.7478956, 9.0789074 ], [ 38.7569319, 9.0781488 ], [ 38.7613576, 9.0810134 ], [ 38.7719603, 9.0773158 ], [ 38.7760627, 9.0734872 ], [ 38.7820199, 9.0676257 ], [ 38.7863256, 9.061631 ], [ 38.7883978, 9.0566735 ], [ 38.7906995, 9.0454025 ], [ 38.7918929, 9.0415089 ], [ 38.7943505, 9.0307929 ], [ 38.7951178, 9.030151 ], [ 38.7964456, 9.0288702 ], [ 38.7964648, 9.0288238 ], [ 38.7966471, 9.0283529 ], [ 38.796247, 9.0179322 ], [ 38.7932745, 9.0089167 ], [ 38.7918951, 8.9981743 ], [ 38.791758, 8.9959929 ], [ 38.7876549, 8.9893973 ], [ 38.7848684, 8.9861044 ], [ 38.7820984, 8.9844963 ], [ 38.7805367, 8.9844949 ], [ 38.7749007, 8.9846708 ], [ 38.7650426, 8.9787808 ], [ 38.7646558, 8.9779692 ], [ 38.7623526, 8.9769294 ], [ 38.7556491, 8.9741679 ], [ 38.7519374, 8.9714592 ], [ 38.7469284, 8.9680825 ], [ 38.7385016, 8.9691304 ], [ 38.736105, 8.9695883 ], [ 38.7294433, 8.971329 ], [ 38.7216407, 8.9755521 ], [ 38.7158603, 8.9774068 ], [ 38.7156299, 8.9780071 ], [ 38.7151309, 8.9795853 ], [ 38.7053044, 8.9852953 ], [ 38.7047439, 8.9858227 ], [ 38.7047865, 8.9866304 ], [ 38.7038568, 8.9911203 ], [ 38.6969308, 8.9953562 ], [ 38.6951727, 8.9964815 ], [ 38.6905447, 9.0035003 ], [ 38.6903358, 9.0039241 ], [ 38.6898958, 9.0084161 ], [ 38.6913988, 9.0168719 ], [ 38.6907538, 9.0210812 ], [ 38.6860941, 9.0282729 ], [ 38.6843937, 9.03088 ], [ 38.6824527, 9.0358739 ], [ 38.6877134, 9.0447218 ], [ 38.6905687, 9.0493811 ], [ 38.6921047, 9.0503878 ], [ 38.6982181, 9.0594512 ] ] ] } },
{ "type": "Feature", "properties": { "threshold_s": 300, "time_label": "5 min drive" }, "geometry": { "type": "Polygon", "coordinates": [ [ [ 38.774781, 9.0284029 ], [ 38.777345, 9.035025 ], [ 38.7795494, 9.0368103 ], [ 38.7866579, 9.0379459 ], [ 38.7884075, 9.037232 ], [ 38.788646, 9.0371199 ], [ 38.7894697, 9.0358202 ], [ 38.7898711, 9.0353037 ], [ 38.7947311, 9.0312946 ], [ 38.7997189, 9.0335465 ], [ 38.8048161, 9.0292985 ], [ 38.808201, 9.0306966 ], [ 38.8101278, 9.0326481 ], [ 38.8103267, 9.0327174 ], [ 38.8105209, 9.0319502 ], [ 38.810141, 9.0310664 ], [ 38.809383, 9.0265432 ], [ 38.8119006, 9.0226128 ], [ 38.8136935, 9.0215161 ], [ 38.8137814, 9.0214542 ], [ 38.813926, 9.0209635 ], [ 38.8108201, 9.0148705 ], [ 38.8077063, 9.0111581 ], [ 38.8027111, 9.0071769 ], [ 38.799906900000011, 9.0060768 ], [ 38.7970275, 9.0050917 ], [ 38.7946308, 9.0046325 ], [ 38.7917389, 9.0056483 ], [ 38.7901946, 9.0062781 ], [ 38.7890131, 9.0068663 ], [ 38.7829445, 9.010364 ], [ 38.7790322, 9.0148252 ], [ 38.7800908, 9.0202484 ], [ 38.7764838, 9.0227621 ], [ 38.7754273, 9.0227795 ], [ 38.774781, 9.0284029 ] ] ] } },
{ "type": "Feature", "properties": { "threshold_s": 600, "time_label": "10 min drive" }, "geometry": { "type": "Polygon", "coordinates": [ [ [ 38.7600057, 9.0440359 ], [ 38.7614698, 9.0465278 ], [ 38.7652991, 9.0499347 ], [ 38.7710611, 9.052157 ], [ 38.7760199, 9.0520324 ], [ 38.7803242, 9.0529142 ], [ 38.783424, 9.0521186 ], [ 38.7843511, 9.051792 ], [ 38.7844326, 9.0517504 ], [ 38.7881461, 9.0481785 ], [ 38.792129, 9.0494167 ], [ 38.7906995, 9.0454025 ], [ 38.7967241, 9.0428703 ], [ 38.8041703, 9.044401 ], [ 38.8061678, 9.0500234 ], [ 38.8069644, 9.0447637 ], [ 38.8132402, 9.0466831 ], [ 38.8158342, 9.048226 ], [ 38.8172729, 9.0474726 ], [ 38.8198908, 9.0449265 ], [ 38.8261135, 9.0440023 ], [ 38.8274157, 9.0439226 ], [ 38.830456, 9.0411756 ], [ 38.830191, 9.037236 ], [ 38.8323298, 9.0308474 ], [ 38.8344597, 9.0293538 ], [ 38.8347538, 9.0284478 ], [ 38.8353941, 9.0233442 ], [ 38.8339249, 9.0209136 ], [ 38.8322389, 9.0134539 ], [ 38.8320595, 9.0124229 ], [ 38.8320277, 9.0123599 ], [ 38.8286575, 9.0057728 ], [ 38.8285737, 9.0053039 ], [ 38.8271347, 9.0043946 ], [ 38.8231349, 8.9985189 ], [ 38.8230047, 8.9972537 ], [ 38.8217005, 8.9954251 ], [ 38.8150432, 8.991404 ], [ 38.8131514, 8.9907937 ], [ 38.8077416, 8.9896339 ], [ 38.8047709, 8.9893009 ], [ 38.8019789, 8.9892908 ], [ 38.7942992, 8.9887271 ], [ 38.7916494, 8.988039 ], [ 38.7914167, 8.9880342 ], [ 38.7841757, 8.988441 ], [ 38.7817463, 8.9897697 ], [ 38.7766295, 8.9930188 ], [ 38.7717799, 8.9976465 ], [ 38.7683732, 8.9987024 ], [ 38.7663704, 9.0019672 ], [ 38.7632801, 9.0060954 ], [ 38.7627101, 9.0070834 ], [ 38.7576903, 9.0118964 ], [ 38.7570594, 9.0187168 ], [ 38.7553747, 9.0256906 ], [ 38.7541621, 9.0265885 ], [ 38.7523777, 9.0300754 ], [ 38.7540847, 9.0327214 ], [ 38.7579791, 9.0380662 ], [ 38.7586538, 9.0400002 ], [ 38.7600057, 9.0440359 ] ] ] } },
{ "type": "Feature", "properties": { "threshold_s": 900, "time_label": "15 min drive" }, "geometry": { "type": "Polygon", "coordinates": [ [ [ 38.7449682, 9.0581992 ], [ 38.7455443, 9.0590299 ], [ 38.7513596, 9.0630648 ], [ 38.7551117, 9.0655313 ], [ 38.76030990000001, 9.0681525 ], [ 38.7646897, 9.0694398 ], [ 38.7704703, 9.07082 ], [ 38.7724753, 9.0708734 ], [ 38.7834871, 9.0688441 ], [ 38.7911232, 9.0702536 ], [ 38.8028473, 9.0628395 ], [ 38.8069985, 9.0664515 ], [ 38.8180608, 9.064728 ], [ 38.8283095, 9.0615893 ], [ 38.8406691, 9.0567526 ], [ 38.8453908, 9.0487611 ], [ 38.8535847, 9.0383097 ], [ 38.85609, 9.0359884 ], [ 38.8559264, 9.0344905 ], [ 38.8568146, 9.020547 ], [ 38.8550183, 9.0097888 ], [ 38.8518003, 9.0056801 ], [ 38.8506675, 9.0046833 ], [ 38.8497845, 9.0039712 ], [ 38.8483708, 9.0026681 ], [ 38.8471104, 9.0021137 ], [ 38.8419995, 8.9884053 ], [ 38.8420799, 8.9878397 ], [ 38.8396664, 8.9822322 ], [ 38.8396248, 8.9821923 ], [ 38.8257039, 8.9764276 ], [ 38.8208006, 8.9803978 ], [ 38.8066972, 8.9860036 ], [ 38.8035562, 8.9852867 ], [ 38.8021619, 8.9853275 ], [ 38.7996331, 8.9854045 ], [ 38.7880106, 8.9854871 ], [ 38.7777914, 8.9763594 ], [ 38.7756114, 8.9726492 ], [ 38.774991, 8.9719637 ], [ 38.7654038, 8.974453 ], [ 38.7606946, 8.9807142 ], [ 38.7504898, 8.990246 ], [ 38.7460314, 8.9936245 ], [ 38.7448465, 8.9951276 ], [ 38.7405517, 9.0016754 ], [ 38.734345, 9.011761 ], [ 38.7335289, 9.0249806 ], [ 38.7328421, 9.0290223 ], [ 38.7318224, 9.0339149 ], [ 38.7348546, 9.0415398 ], [ 38.7425228, 9.0539333 ], [ 38.7449682, 9.0581992 ] ] ] } },
{ "type": "Feature", "properties": { "threshold_s": 300, "time_label": "5 min drive" }, "geometry": { "type": "Polygon", "coordinates": [ [ [ 38.7196749, 9.0666974 ], [ 38.7198517, 9.0699181 ], [ 38.7215124, 9.0716122 ], [ 38.7257969, 9.0726548 ], [ 38.7291224, 9.0709316 ], [ 38.7305483, 9.0709061 ], [ 38.732525099999989, 9.0719682 ], [ 38.7324589, 9.0764417 ], [ 38.7348948, 9.0733919 ], [ 38.7377219, 9.0759888 ], [ 38.7382369, 9.0758127 ], [ 38.7389919, 9.0740699 ], [ 38.7436485, 9.0747601 ], [ 38.7441498, 9.0752923 ], [ 38.7453353, 9.0750155 ], [ 38.7478419, 9.0712001 ], [ 38.7504163, 9.0706119 ], [ 38.7528978, 9.0679661 ], [ 38.7551117, 9.0655313 ], [ 38.7550935, 9.0655018 ], [ 38.7544176, 9.0643645 ], [ 38.7519973, 9.0609798 ], [ 38.7527865, 9.0560788 ], [ 38.7533629, 9.05423 ], [ 38.7518816, 9.0510309 ], [ 38.7516136, 9.0506008 ], [ 38.7496544, 9.0476597 ], [ 38.7486606, 9.0444969 ], [ 38.7485409, 9.0442839 ], [ 38.7474544, 9.0441901 ], [ 38.744017, 9.0442946 ], [ 38.7403545, 9.045184 ], [ 38.736129, 9.0447854 ], [ 38.7330246, 9.0449407 ], [ 38.7306895, 9.0442016 ], [ 38.7272066, 9.0467182 ], [ 38.7254709, 9.0461084 ], [ 38.7250096, 9.0457555 ], [ 38.7233144, 9.0470726 ], [ 38.7213459, 9.0513229 ], [ 38.7202065, 9.0528853 ], [ 38.7202049, 9.0529697 ], [ 38.720632, 9.0552255 ], [ 38.7189725, 9.0584989 ], [ 38.7190834, 9.0625462 ], [ 38.7189063, 9.0637102 ], [ 38.7196749, 9.0666974 ] ] ] } },
{ "type": "Feature", "properties": { "threshold_s": 600, "time_label": "10 min drive" }, "geometry": { "type": "Polygon", "coordinates": [ [ [ 38.7190591, 9.077488 ], [ 38.7222228, 9.0847868 ], [ 38.7265894, 9.0880836 ], [ 38.7309526, 9.086197 ], [ 38.7389972, 9.0871137 ], [ 38.7422991, 9.0892562 ], [ 38.7482871, 9.0888993 ], [ 38.7485714, 9.0882718 ], [ 38.7536985, 9.0820899 ], [ 38.7613576, 9.0810134 ], [ 38.7612186, 9.0800548 ], [ 38.7684722, 9.0768381 ], [ 38.7700245, 9.0696213 ], [ 38.7707251, 9.0675436 ], [ 38.7713372, 9.0650223 ], [ 38.7708109, 9.063256 ], [ 38.7697555, 9.0588061 ], [ 38.7680342, 9.0562984 ], [ 38.7686061, 9.05055 ], [ 38.768887, 9.0501242 ], [ 38.769049099999989, 9.0487588 ], [ 38.768379, 9.0465061 ], [ 38.7683965, 9.0402376 ], [ 38.7682429, 9.0399681 ], [ 38.7662282, 9.0381005 ], [ 38.76348, 9.0308291 ], [ 38.7611664, 9.0293214 ], [ 38.7582228, 9.0285769 ], [ 38.7518575, 9.0242085 ], [ 38.7508048, 9.0245939 ], [ 38.7473215, 9.0272216 ], [ 38.7401153, 9.0262136 ], [ 38.7361458, 9.0246827 ], [ 38.7335133, 9.0231482 ], [ 38.7329334, 9.0231004 ], [ 38.7328443, 9.0231038 ], [ 38.7321576, 9.0232058 ], [ 38.7283798, 9.0249713 ], [ 38.7222791, 9.0257475 ], [ 38.721402, 9.0259654 ], [ 38.7164523, 9.0313033 ], [ 38.7145042, 9.0321716 ], [ 38.7138071, 9.0324521 ], [ 38.7129217, 9.0328166 ], [ 38.7093907, 9.0382717 ], [ 38.7101023, 9.0394256 ], [ 38.7118681, 9.0413093 ], [ 38.709795, 9.0480195 ], [ 38.7062867, 9.0498699 ], [ 38.705703, 9.0502009 ], [ 38.7046228, 9.0561322 ], [ 38.7046811, 9.0605026 ], [ 38.7052263, 9.0638884 ], [ 38.7071273, 9.0631653 ], [ 38.707658, 9.0628554 ], [ 38.7110449, 9.061498 ], [ 38.714509, 9.0682505 ], [ 38.7146036, 9.0688953 ], [ 38.7151902, 9.0700342 ], [ 38.7157707, 9.0714928 ], [ 38.7160362, 9.0719192 ], [ 38.7182799, 9.0763662 ], [ 38.7190591, 9.077488 ] ] ] } },
{ "type": "Feature", "properties": { "threshold_s": 900, "time_label": "15 min drive" }, "geometry": { "type": "Polygon", "coordinates": [ [ [ 38.6848146, 9.0633976 ], [ 38.6889148, 9.0716127 ], [ 38.690748, 9.0729067 ], [ 38.6938391, 9.0730859 ], [ 38.7040883, 9.075675 ], [ 38.7066767, 9.0720331 ], [ 38.7182799, 9.0763662 ], [ 38.7190591, 9.077488 ], [ 38.7107912, 9.0885365 ], [ 38.7188042, 9.0925749 ], [ 38.7265894, 9.0880836 ], [ 38.7380585, 9.0909943 ], [ 38.7489573, 9.092251 ], [ 38.7538493, 9.0949401 ], [ 38.7646589, 9.0997976 ], [ 38.764725, 9.0951657 ], [ 38.7647814, 9.0943182 ], [ 38.7646413, 9.0925122 ], [ 38.773237, 9.081739 ], [ 38.7845762, 9.0804395 ], [ 38.7849784, 9.0751532 ], [ 38.7891358, 9.0623394 ], [ 38.7862726, 9.0545333 ], [ 38.7870704, 9.0471276 ], [ 38.7870159, 9.0440162 ], [ 38.7866855, 9.0341929 ], [ 38.7868009, 9.0299594 ], [ 38.7845473, 9.0282398 ], [ 38.7766172, 9.0204548 ], [ 38.7686282, 9.015342 ], [ 38.7647812, 9.0085945 ], [ 38.7587508, 9.0052114 ], [ 38.7545691, 9.0029082 ], [ 38.7525602, 9.0030854 ], [ 38.7467176, 9.0045045 ], [ 38.7359355, 9.0037336 ], [ 38.7325948, 9.0017547 ], [ 38.732501, 9.001813 ], [ 38.730182, 9.0046135 ], [ 38.7206414, 9.0105108 ], [ 38.7191591, 9.0121974 ], [ 38.7151492, 9.0155415 ], [ 38.7043753, 9.0177554 ], [ 38.7034214, 9.0186313 ], [ 38.6963119, 9.0265084 ], [ 38.6923724, 9.0323236 ], [ 38.6913411, 9.0383962 ], [ 38.691262, 9.0407352 ], [ 38.686551, 9.0531152 ], [ 38.6850052, 9.0546185 ], [ 38.6848619, 9.0553593 ], [ 38.684765, 9.0559001 ], [ 38.6847206, 9.0589202 ], [ 38.6847578, 9.0622835 ], [ 38.6848146, 9.0633976 ] ] ] } },
{ "type": "Feature", "properties": { "threshold_s": 300, "time_label": "5 min drive" }, "geometry": { "type": "Polygon", "coordinates": [ [ [ 38.6852767, 9.0690918 ], [ 38.6848046, 9.0744871 ], [ 38.689663, 9.0762027 ], [ 38.6938391, 9.0730859 ], [ 38.6945052, 9.0723955 ], [ 38.6946523, 9.0720662 ], [ 38.698357799999989, 9.0683166 ], [ 38.6992261, 9.0679087 ], [ 38.7001384, 9.0673675 ], [ 38.7047361, 9.0671463 ], [ 38.7051867, 9.0669423 ], [ 38.7064393, 9.0656273 ], [ 38.7057553, 9.0617894 ], [ 38.7066177, 9.0581016 ], [ 38.7078032, 9.0538893 ], [ 38.7077549, 9.0538172 ], [ 38.7064415, 9.0529447 ], [ 38.7011238, 9.0523895 ], [ 38.6999396, 9.0510697 ], [ 38.698911699999989, 9.049344 ], [ 38.697487700000011, 9.05022 ], [ 38.6936334, 9.0470007 ], [ 38.6941092, 9.0458687 ], [ 38.6955012, 9.0446396 ], [ 38.6951834, 9.0444092 ], [ 38.6950265, 9.0442973 ], [ 38.6937917, 9.0440089 ], [ 38.6926545, 9.0441374 ], [ 38.6922363, 9.0443981 ], [ 38.6911494, 9.0467124 ], [ 38.6905687, 9.0493811 ], [ 38.6872937, 9.0512525 ], [ 38.684895, 9.0518267 ], [ 38.6846724, 9.0563468 ], [ 38.6847206, 9.0589202 ], [ 38.6847507, 9.0616361 ], [ 38.6847362, 9.0650724 ], [ 38.6847681, 9.0654203 ], [ 38.6848503, 9.0662366 ], [ 38.6851587, 9.0687948 ], [ 38.6852767, 9.0690918 ] ] ] } },
{ "type": "Feature", "properties": { "threshold_s": 600, "time_label": "10 min drive" }, "geometry": { "type": "Polygon", "coordinates": [ [ [ 38.6847681, 9.0654203 ], [ 38.6848046, 9.0744871 ], [ 38.689663, 9.0762027 ], [ 38.6938391, 9.0730859 ], [ 38.6945052, 9.0723955 ], [ 38.6946523, 9.0720662 ], [ 38.6947811, 9.0717378 ], [ 38.698357799999989, 9.0683166 ], [ 38.7049681, 9.0734342 ], [ 38.7040883, 9.075675 ], [ 38.7066767, 9.0720331 ], [ 38.7157707, 9.0714928 ], [ 38.7162696, 9.0717788 ], [ 38.7166478, 9.0718531 ], [ 38.7172835, 9.071559 ], [ 38.7197974, 9.0680063 ], [ 38.7196749, 9.0666974 ], [ 38.7189063, 9.0637102 ], [ 38.7207408, 9.0572075 ], [ 38.7227342, 9.0541588 ], [ 38.723872299999989, 9.0504942 ], [ 38.7223578, 9.0492368 ], [ 38.7205437, 9.048989 ], [ 38.7164251, 9.0425477 ], [ 38.7176172, 9.0399652 ], [ 38.7172089, 9.0371942 ], [ 38.7145862, 9.033602 ], [ 38.7081495, 9.0307776 ], [ 38.7045389, 9.0308971 ], [ 38.6986415, 9.0299915 ], [ 38.6973673, 9.0297498 ], [ 38.6898751, 9.0293634 ], [ 38.6874882, 9.0281654 ], [ 38.6868763, 9.0279357 ], [ 38.6813539, 9.0340427 ], [ 38.6821318, 9.036787 ], [ 38.6794643, 9.0446396 ], [ 38.6806176, 9.0455197 ], [ 38.6814183, 9.0461415 ], [ 38.6848922, 9.0525543 ], [ 38.6848619, 9.0553593 ], [ 38.684765, 9.0559001 ], [ 38.6846724, 9.0563468 ], [ 38.6847206, 9.0589202 ], [ 38.684761, 9.0605151 ], [ 38.6847507, 9.0616361 ], [ 38.6847578, 9.0622835 ], [ 38.6847362, 9.0650724 ], [ 38.6847681, 9.0654203 ] ] ] } },
{ "type": "Feature", "properties": { "threshold_s": 900, "time_label": "15 min drive" }, "geometry": { "type": "Polygon", "coordinates": [ [ [ 38.6847681, 9.0654203 ], [ 38.6848046, 9.0744871 ], [ 38.689663, 9.0762027 ], [ 38.6938391, 9.0730859 ], [ 38.7040883, 9.075675 ], [ 38.7066767, 9.0720331 ], [ 38.7182799, 9.0763662 ], [ 38.7190591, 9.077488 ], [ 38.7212082, 9.0809212 ], [ 38.7107912, 9.0885365 ], [ 38.7222228, 9.0847868 ], [ 38.7255473, 9.0871632 ], [ 38.7278259, 9.0858894 ], [ 38.7287586, 9.0812933 ], [ 38.7344236, 9.0709081 ], [ 38.7394431, 9.0645151 ], [ 38.7398408, 9.0640486 ], [ 38.7410353, 9.0613288 ], [ 38.742959, 9.0532693 ], [ 38.7421502, 9.0477222 ], [ 38.7420698, 9.0389527 ], [ 38.7332755, 9.029074 ], [ 38.7321624, 9.0277533 ], [ 38.730796, 9.0261345 ], [ 38.7258377, 9.0206216 ], [ 38.7206671, 9.0136904 ], [ 38.7200854, 9.0136355 ], [ 38.7168731, 9.0144546 ], [ 38.7039792, 9.0154229 ], [ 38.7010816, 9.0148619 ], [ 38.6911346, 9.012899 ], [ 38.6891308, 9.013002 ], [ 38.6772665, 9.0138928 ], [ 38.6682785, 9.0219251 ], [ 38.6673797, 9.0328654 ], [ 38.6746724, 9.0409686 ], [ 38.676438, 9.042549 ], [ 38.6794643, 9.0446396 ], [ 38.6846724, 9.0563468 ], [ 38.6847206, 9.0589202 ], [ 38.684761, 9.0605151 ], [ 38.6847507, 9.0616361 ], [ 38.6847578, 9.0622835 ], [ 38.6847362, 9.0650724 ], [ 38.6847681, 9.0654203 ] ] ] } },
{ "type": "Feature", "properties": { "threshold_s": 300, "time_label": "5 min drive" }, "geometry": { "type": "Polygon", "coordinates": [ [ [ 38.6864601, 9.070055 ], [ 38.6866401, 9.0733579 ], [ 38.6884663, 9.0751061 ], [ 38.6892316, 9.0752247 ], [ 38.6894957, 9.0748463 ], [ 38.6900282, 9.0740514 ], [ 38.6938391, 9.0730859 ], [ 38.6945052, 9.0723955 ], [ 38.6946523, 9.0720662 ], [ 38.6947811, 9.0717378 ], [ 38.6951271, 9.0706887 ], [ 38.698357799999989, 9.0683166 ], [ 38.6992261, 9.0679087 ], [ 38.7001384, 9.0673675 ], [ 38.7043412, 9.0666829 ], [ 38.7047361, 9.0671463 ], [ 38.7049681, 9.0734342 ], [ 38.7040883, 9.075675 ], [ 38.7066767, 9.0720331 ], [ 38.7051867, 9.0669423 ], [ 38.7064393, 9.0656273 ], [ 38.707658, 9.0628554 ], [ 38.7110449, 9.061498 ], [ 38.7142127, 9.0594514 ], [ 38.7135377, 9.0568903 ], [ 38.7157332, 9.0546701 ], [ 38.7157554, 9.0546448 ], [ 38.7157822, 9.0546119 ], [ 38.7160095, 9.054288 ], [ 38.7159558, 9.0542542 ], [ 38.7122067, 9.0534927 ], [ 38.7119027, 9.0522056 ], [ 38.7108839, 9.0500878 ], [ 38.7098759, 9.0496572 ], [ 38.7068188, 9.0510816 ], [ 38.7056668, 9.0514471 ], [ 38.7056962, 9.0522748 ], [ 38.7013686, 9.0529159 ], [ 38.7011238, 9.0523895 ], [ 38.7005753, 9.0501161 ], [ 38.698911699999989, 9.049344 ], [ 38.6974378, 9.0491639 ], [ 38.6962332, 9.0505908 ], [ 38.6932593, 9.0510511 ], [ 38.692572, 9.0518929 ], [ 38.692115, 9.0527345 ], [ 38.691803299999989, 9.0533427 ], [ 38.6881036, 9.0557874 ], [ 38.6869192, 9.0588453 ], [ 38.6863645, 9.0617318 ], [ 38.6859844, 9.0657272 ], [ 38.6864601, 9.070055 ] ] ] } },
{ "type": "Feature", "properties": { "threshold_s": 600, "time_label": "10 min drive" }, "geometry": { "type": "Polygon", "coordinates": [ [ [ 38.6847681, 9.0654203 ], [ 38.6848046, 9.0744871 ], [ 38.689663, 9.0762027 ], [ 38.6938391, 9.0730859 ], [ 38.6945052, 9.0723955 ], [ 38.6946523, 9.0720662 ], [ 38.6947811, 9.0717378 ], [ 38.698357799999989, 9.0683166 ], [ 38.7049681, 9.0734342 ], [ 38.7040883, 9.075675 ], [ 38.7066767, 9.0720331 ], [ 38.7157707, 9.0714928 ], [ 38.7160362, 9.0719192 ], [ 38.7182799, 9.0763662 ], [ 38.7190591, 9.077488 ], [ 38.7107912, 9.0885365 ], [ 38.7212082, 9.0809212 ], [ 38.7235789, 9.0781644 ], [ 38.7247139, 9.0753918 ], [ 38.7239153, 9.0737729 ], [ 38.728247, 9.0658195 ], [ 38.7315575, 9.0611384 ], [ 38.733463, 9.0529987 ], [ 38.7336133, 9.0510537 ], [ 38.733706, 9.0442708 ], [ 38.7280387, 9.0395359 ], [ 38.7275301, 9.039367 ], [ 38.7196827, 9.0353353 ], [ 38.716929, 9.0317772 ], [ 38.7147073, 9.0292698 ], [ 38.7080116, 9.0313403 ], [ 38.7054589, 9.0326388 ], [ 38.7005121, 9.0357644 ], [ 38.6953846, 9.0356983 ], [ 38.6893093, 9.0365141 ], [ 38.6848435, 9.0386161 ], [ 38.6844009, 9.0388254 ], [ 38.6840039, 9.0392492 ], [ 38.6837143, 9.0395856 ], [ 38.6794643, 9.0446396 ], [ 38.6806176, 9.0455197 ], [ 38.6814183, 9.0461415 ], [ 38.6848922, 9.0525543 ], [ 38.6848619, 9.0553593 ], [ 38.684765, 9.0559001 ], [ 38.6846724, 9.0563468 ], [ 38.6847206, 9.0589202 ], [ 38.684761, 9.0605151 ], [ 38.6847507, 9.0616361 ], [ 38.6847578, 9.0622835 ], [ 38.6847362, 9.0650724 ], [ 38.6847681, 9.0654203 ] ] ] } },
{ "type": "Feature", "properties": { "threshold_s": 900, "time_label": "15 min drive" }, "geometry": { "type": "Polygon", "coordinates": [ [ [ 38.6847681, 9.0654203 ], [ 38.6848046, 9.0744871 ], [ 38.689663, 9.0762027 ], [ 38.6938391, 9.0730859 ], [ 38.7040883, 9.075675 ], [ 38.7066767, 9.0720331 ], [ 38.7160362, 9.0719192 ], [ 38.7182799, 9.0763662 ], [ 38.7190591, 9.077488 ], [ 38.7212082, 9.0809212 ], [ 38.7222228, 9.0847868 ], [ 38.7107912, 9.0885365 ], [ 38.7188042, 9.0925749 ], [ 38.7265894, 9.0880836 ], [ 38.7356744, 9.0873049 ], [ 38.741257, 9.0875976 ], [ 38.7382369, 9.0758127 ], [ 38.7433863, 9.0736866 ], [ 38.7489543, 9.0683146 ], [ 38.7505218, 9.0666661 ], [ 38.7512422, 9.0651452 ], [ 38.75452520000001, 9.0546328 ], [ 38.7529622, 9.0503793 ], [ 38.752203, 9.0399223 ], [ 38.7521516, 9.0356663 ], [ 38.7506356, 9.033264 ], [ 38.7414669, 9.0261991 ], [ 38.7327767, 9.0196665 ], [ 38.7309244, 9.0185133 ], [ 38.7225071, 9.0114307 ], [ 38.7201735, 9.0095651 ], [ 38.7190403, 9.0111128 ], [ 38.7151492, 9.0155415 ], [ 38.7043753, 9.0177554 ], [ 38.700878, 9.0168425 ], [ 38.69259370000001, 9.0193832 ], [ 38.6830219, 9.0193318 ], [ 38.6821558, 9.0192088 ], [ 38.6795545, 9.0212492 ], [ 38.6724021, 9.028068 ], [ 38.6714859, 9.0304482 ], [ 38.6722357, 9.035704 ], [ 38.6746724, 9.0409686 ], [ 38.6794643, 9.0446396 ], [ 38.6806176, 9.0455197 ], [ 38.6846724, 9.0563468 ], [ 38.6847206, 9.0589202 ], [ 38.684761, 9.0605151 ], [ 38.6847507, 9.0616361 ], [ 38.6847578, 9.0622835 ], [ 38.6847362, 9.0650724 ], [ 38.6847681, 9.0654203 ] ] ] } },
{ "type": "Feature", "properties": { "threshold_s": 300, "time_label": "5 min drive" }, "geometry": { "type": "Polygon", "coordinates": [ [ [ 38.7297705, 9.0436907 ], [ 38.7318606, 9.0469547 ], [ 38.7338927, 9.0488748 ], [ 38.735841, 9.0491314 ], [ 38.7401003, 9.0493725 ], [ 38.7411208, 9.0500081 ], [ 38.7427175, 9.0501644 ], [ 38.7473445, 9.0493374 ], [ 38.7492131, 9.048846 ], [ 38.7519653, 9.0479608 ], [ 38.7556493, 9.0456004 ], [ 38.7570809, 9.04219 ], [ 38.7565413, 9.0397014 ], [ 38.7586829, 9.0362997 ], [ 38.7620102, 9.0334911 ], [ 38.7634174, 9.031659 ], [ 38.7636394, 9.0308323 ], [ 38.7637138, 9.0300983 ], [ 38.7636532, 9.0296992 ], [ 38.7624111, 9.0266163 ], [ 38.76061330000001, 9.0273217 ], [ 38.7576048, 9.024946 ], [ 38.7575279, 9.0235574 ], [ 38.7562849, 9.0198801 ], [ 38.7562676, 9.0198411 ], [ 38.7548211, 9.0173518 ], [ 38.7526934, 9.0162866 ], [ 38.7514878, 9.0159781 ], [ 38.7507568, 9.0169852 ], [ 38.746012, 9.0163151 ], [ 38.7427584, 9.0162719 ], [ 38.7387877, 9.0168914 ], [ 38.7381812, 9.0170798 ], [ 38.7346511, 9.0189003 ], [ 38.7326105, 9.0193875 ], [ 38.732933, 9.0204298 ], [ 38.7319531, 9.0247548 ], [ 38.7312259, 9.0253617 ], [ 38.7301689, 9.0260456 ], [ 38.7285072, 9.0272322 ], [ 38.7279777, 9.0278929 ], [ 38.7274235, 9.0285839 ], [ 38.7264565, 9.0306668 ], [ 38.7240786, 9.0347561 ], [ 38.7265248, 9.0373437 ], [ 38.7275301, 9.039367 ], [ 38.7294442, 9.0424277 ], [ 38.7297705, 9.0436907 ] ] ] } },
{ "type": "Feature", "properties": { "threshold_s": 600, "time_label": "10 min drive" }, "geometry": { "type": "Polygon", "coordinates": [ [ [ 38.717968, 9.0611385 ], [ 38.7185513, 9.062359 ], [ 38.7202186, 9.0632794 ], [ 38.7248881, 9.0655464 ], [ 38.727808, 9.0669441 ], [ 38.7282699, 9.0670315 ], [ 38.7325948, 9.0664603 ], [ 38.7335783, 9.0663868 ], [ 38.7411393, 9.0688328 ], [ 38.7474757, 9.0694771 ], [ 38.7514052, 9.0687163 ], [ 38.7568419, 9.067117 ], [ 38.7623472, 9.0650128 ], [ 38.7688353, 9.0606191 ], [ 38.7726371, 9.0539929 ], [ 38.7739502, 9.0513606 ], [ 38.7745401, 9.0500413 ], [ 38.7761863, 9.0444292 ], [ 38.7801888, 9.0380316 ], [ 38.7804555, 9.037278 ], [ 38.7817318, 9.0329631 ], [ 38.7801866, 9.0281985 ], [ 38.7792906, 9.0265435 ], [ 38.7788843, 9.0258763 ], [ 38.7764838, 9.0227621 ], [ 38.7760797, 9.0175791 ], [ 38.7742127, 9.0105641 ], [ 38.7740014, 9.0088061 ], [ 38.7699389, 9.0030404 ], [ 38.7693006, 9.0019376 ], [ 38.7665433, 9.0010165 ], [ 38.7654833, 9.001129 ], [ 38.7587333, 8.9982551 ], [ 38.7581826, 8.9968559 ], [ 38.7560936, 8.995771 ], [ 38.7534454, 8.9946852 ], [ 38.7460858, 8.9943357 ], [ 38.7442241, 8.9943709 ], [ 38.7379878, 8.9946592 ], [ 38.7376045, 8.9950873 ], [ 38.7353683, 9.0005664 ], [ 38.7325948, 9.0017547 ], [ 38.732501, 9.001813 ], [ 38.7292146, 9.0052443 ], [ 38.7285474, 9.0064755 ], [ 38.7284978, 9.0065722 ], [ 38.726517, 9.0109459 ], [ 38.7201735, 9.0095651 ], [ 38.7197471, 9.0087074 ], [ 38.7190564, 9.0070821 ], [ 38.7188646, 9.006906 ], [ 38.7176161, 9.0089034 ], [ 38.7179274, 9.0103849 ], [ 38.7171452, 9.0185363 ], [ 38.716879, 9.0190493 ], [ 38.7165147, 9.0199715 ], [ 38.7160489, 9.0210002 ], [ 38.7156287, 9.0220832 ], [ 38.7153381, 9.0230401 ], [ 38.7102871, 9.0290528 ], [ 38.7097773, 9.0296256 ], [ 38.7078524, 9.0318588 ], [ 38.707201, 9.0325792 ], [ 38.7069918, 9.0329779 ], [ 38.7061644, 9.0379737 ], [ 38.7071957, 9.0399671 ], [ 38.7085965, 9.0415372 ], [ 38.7122999, 9.0485977 ], [ 38.7156266, 9.0545588 ], [ 38.717968, 9.0611385 ] ] ] } },
{ "type": "Feature", "properties": { "threshold_s": 900, "time_label": "15 min drive" }, "geometry": { "type": "Polygon", "coordinates": [ [ [ 38.6956333, 9.0590879 ], [ 38.6990926, 9.066344 ], [ 38.700320499999989, 9.0664126 ], [ 38.7047361, 9.0671463 ], [ 38.7160362, 9.0719192 ], [ 38.7182799, 9.0763662 ], [ 38.7190591, 9.077488 ], [ 38.7212082, 9.0809212 ], [ 38.7230509, 9.0843081 ], [ 38.7279962, 9.0819581 ], [ 38.7287586, 9.0812933 ], [ 38.7377219, 9.0759888 ], [ 38.7465249, 9.0792228 ], [ 38.7613576, 9.0810134 ], [ 38.773237, 9.081739 ], [ 38.7793328, 9.0738042 ], [ 38.7900783, 9.064246 ], [ 38.7921169, 9.0608802 ], [ 38.7923007, 9.0604109 ], [ 38.7923789, 9.0599606 ], [ 38.792129, 9.0494167 ], [ 38.7967241, 9.0428703 ], [ 38.8011234, 9.0303124 ], [ 38.8022468, 9.0290022 ], [ 38.8022679, 9.0289403 ], [ 38.8012379, 9.0212331 ], [ 38.7933255, 9.0131401 ], [ 38.7920814, 9.0086222 ], [ 38.7919719, 9.0077005 ], [ 38.7917389, 9.0056483 ], [ 38.7911253, 8.9962245 ], [ 38.7909826, 8.9959325 ], [ 38.7900146, 8.9944088 ], [ 38.7899619, 8.994329 ], [ 38.7866521, 8.9898008 ], [ 38.7844232, 8.9867945 ], [ 38.7815911, 8.9853045 ], [ 38.7808178, 8.9850623 ], [ 38.7755186, 8.9855138 ], [ 38.7650426, 8.9787808 ], [ 38.7598425, 8.9769483 ], [ 38.7488188, 8.9734192 ], [ 38.7467272, 8.9733494 ], [ 38.7376476, 8.9735123 ], [ 38.737411, 8.9735325 ], [ 38.734549, 8.9753057 ], [ 38.7313138, 8.9771965 ], [ 38.7204445, 8.9808492 ], [ 38.7184726, 8.9834798 ], [ 38.7090185, 8.992419 ], [ 38.7018995, 8.9987449 ], [ 38.6978676, 9.004141 ], [ 38.6958783, 9.0118463 ], [ 38.6950466, 9.0235727 ], [ 38.6877899, 9.030611 ], [ 38.687049, 9.0318246 ], [ 38.6860369, 9.0337034 ], [ 38.6861993, 9.0343527 ], [ 38.6915249, 9.0482858 ], [ 38.6956333, 9.0590879 ] ] ] } },
{ "type": "Feature", "properties": { "threshold_s": 300, "time_label": "5 min drive" }, "geometry": { "type": "Polygon", "coordinates": [ [ [ 38.726096, 9.0398349 ], [ 38.727266, 9.0414365 ], [ 38.7301347, 9.0436058 ], [ 38.7308733, 9.0439125 ], [ 38.7330246, 9.0449407 ], [ 38.735383, 9.0468779 ], [ 38.7356083, 9.0468011 ], [ 38.739417, 9.0465899 ], [ 38.7397607, 9.0466531 ], [ 38.7411967, 9.0460409 ], [ 38.7446032, 9.0460594 ], [ 38.7468321, 9.0460111 ], [ 38.7473114, 9.0458147 ], [ 38.7479803, 9.0455204 ], [ 38.7485637, 9.0452148 ], [ 38.7486606, 9.0444969 ], [ 38.751545, 9.04216 ], [ 38.7536837, 9.0411308 ], [ 38.7556919, 9.0394787 ], [ 38.7555497, 9.0379841 ], [ 38.7550527, 9.0350946 ], [ 38.7558521, 9.0318884 ], [ 38.7568262, 9.030107 ], [ 38.7582228, 9.0285769 ], [ 38.7581126, 9.0269965 ], [ 38.7576048, 9.024946 ], [ 38.7567715, 9.0239365 ], [ 38.755685, 9.0209076 ], [ 38.7547988, 9.0187984 ], [ 38.7540046, 9.0176558 ], [ 38.7526404, 9.0171476 ], [ 38.7518654, 9.0166783 ], [ 38.7498254, 9.0140209 ], [ 38.748495, 9.0131042 ], [ 38.7473376, 9.0123175 ], [ 38.7445255, 9.010739 ], [ 38.7440647, 9.0101702 ], [ 38.7441169, 9.0104975 ], [ 38.7429415, 9.0127486 ], [ 38.7407528, 9.0125592 ], [ 38.7403619, 9.0125466 ], [ 38.7374698, 9.0110916 ], [ 38.7374108, 9.0110446 ], [ 38.7373792, 9.0111042 ], [ 38.7363091, 9.0129335 ], [ 38.7344268, 9.0137251 ], [ 38.7330361, 9.0140917 ], [ 38.7314063, 9.0144722 ], [ 38.7286815, 9.0130056 ], [ 38.7275192, 9.0146994 ], [ 38.7266323, 9.0168388 ], [ 38.7255172, 9.019411 ], [ 38.723970199999989, 9.0211223 ], [ 38.7231347, 9.0217607 ], [ 38.7210158, 9.022924 ], [ 38.7208481, 9.0231084 ], [ 38.7203815, 9.0244886 ], [ 38.7202459, 9.0250154 ], [ 38.7200756, 9.0271793 ], [ 38.7199633, 9.0291598 ], [ 38.7200108, 9.0318025 ], [ 38.7211489, 9.0326361 ], [ 38.7223555, 9.0361142 ], [ 38.7250616, 9.0383272 ], [ 38.7252774, 9.0386562 ], [ 38.726096, 9.0398349 ] ] ] } },
{ "type": "Feature", "properties": { "threshold_s": 600, "time_label": "10 min drive" }, "geometry": { "type": "Polygon", "coordinates": [ [ [ 38.7122999, 9.0485977 ], [ 38.7122067, 9.0534927 ], [ 38.7172968, 9.0576841 ], [ 38.7180851, 9.0592393 ], [ 38.7182309, 9.0594176 ], [ 38.719293, 9.060405 ], [ 38.7204858, 9.0613356 ], [ 38.7266068, 9.0641406 ], [ 38.7283075, 9.0645247 ], [ 38.7336002, 9.0635295 ], [ 38.738375, 9.0641539 ], [ 38.7418311, 9.06565 ], [ 38.7484129, 9.065267 ], [ 38.7548794, 9.0641379 ], [ 38.7554285, 9.0638122 ], [ 38.7603664, 9.0605291 ], [ 38.7615053, 9.0588087 ], [ 38.7658778, 9.055845 ], [ 38.766419, 9.0551086 ], [ 38.7665943, 9.0541103 ], [ 38.7687422, 9.0485503 ], [ 38.7701541, 9.0481491 ], [ 38.7712129, 9.0478766 ], [ 38.7720654, 9.0464541 ], [ 38.7709008, 9.045025 ], [ 38.7721869, 9.0388821 ], [ 38.7735888, 9.0383887 ], [ 38.7737834, 9.0382137 ], [ 38.7748348, 9.0352869 ], [ 38.775375, 9.0328458 ], [ 38.7739974, 9.0298455 ], [ 38.7707329, 9.0240985 ], [ 38.7713573, 9.0204686 ], [ 38.7742102, 9.0174735 ], [ 38.7741335, 9.0152535 ], [ 38.7732789, 9.0121882 ], [ 38.772598, 9.0100844 ], [ 38.7692675, 9.0042938 ], [ 38.7673511, 9.0023432 ], [ 38.7663704, 9.0019672 ], [ 38.7632006, 9.0023557 ], [ 38.7587333, 8.9982551 ], [ 38.7560106, 8.9967932 ], [ 38.7541914, 8.9957085 ], [ 38.7497033, 8.9919146 ], [ 38.7482605, 8.9898488 ], [ 38.7446926, 8.9900121 ], [ 38.7401914, 8.9904123 ], [ 38.7375073, 8.9892226 ], [ 38.7358524, 8.9916612 ], [ 38.7312322, 8.9930786 ], [ 38.7291461, 8.9928174 ], [ 38.7266778, 8.9925634 ], [ 38.7266077, 8.9926198 ], [ 38.7255468, 8.9955578 ], [ 38.7253797, 8.9978604 ], [ 38.719909, 8.9998875 ], [ 38.7188698, 8.9998109 ], [ 38.715076, 9.0028237 ], [ 38.7129074, 9.0075087 ], [ 38.7099021, 9.0126961 ], [ 38.7094326, 9.0134758 ], [ 38.7094464, 9.014191 ], [ 38.7108862, 9.0164398 ], [ 38.7111993, 9.0218779 ], [ 38.7069757, 9.0271051 ], [ 38.704327, 9.0274757 ], [ 38.7032464, 9.0308579 ], [ 38.7009992, 9.0336077 ], [ 38.7028156, 9.0362996 ], [ 38.7045812, 9.0396081 ], [ 38.7053007, 9.0406213 ], [ 38.7082551, 9.0448741 ], [ 38.7122999, 9.0485977 ] ] ] } },
{ "type": "Feature", "properties": { "threshold_s": 900, "time_label": "15 min drive" }, "geometry": { "type": "Polygon", "coordinates": [ [ [ 38.6982181, 9.0594512 ], [ 38.7000362, 9.0648081 ], [ 38.7047361, 9.0671463 ], [ 38.7160362, 9.0719192 ], [ 38.7182799, 9.0763662 ], [ 38.7279962, 9.0819581 ], [ 38.7287586, 9.0812933 ], [ 38.7377219, 9.0759888 ], [ 38.7465249, 9.0792228 ], [ 38.7478956, 9.0789074 ], [ 38.7569319, 9.0781488 ], [ 38.7613576, 9.0810134 ], [ 38.7719603, 9.0773158 ], [ 38.7760627, 9.0734872 ], [ 38.7820199, 9.0676257 ], [ 38.7863256, 9.061631 ], [ 38.7883978, 9.0566735 ], [ 38.7906995, 9.0454025 ], [ 38.7898711, 9.0353037 ], [ 38.7914952, 9.032615 ], [ 38.7932669, 9.0305704 ], [ 38.7950368, 9.0283534 ], [ 38.7942433, 9.0173075 ], [ 38.7917389, 9.0056483 ], [ 38.790482, 8.9965207 ], [ 38.7858171, 8.9901332 ], [ 38.7838559, 8.9877536 ], [ 38.7809604, 8.9863534 ], [ 38.7802336, 8.9860819 ], [ 38.7760235, 8.9862013 ], [ 38.766037, 8.9816917 ], [ 38.764862, 8.9803677 ], [ 38.7638347, 8.9793818 ], [ 38.7633487, 8.979097 ], [ 38.7598425, 8.9769483 ], [ 38.7556491, 8.9741679 ], [ 38.7487723, 8.9695472 ], [ 38.747011, 8.9682797 ], [ 38.7469169, 8.9682709 ], [ 38.7385016, 8.9691304 ], [ 38.736105, 8.9695883 ], [ 38.7292314, 8.9716261 ], [ 38.7215597, 8.9751549 ], [ 38.7156282, 8.9769945 ], [ 38.7153983, 8.977593 ], [ 38.7145168, 8.9799282 ], [ 38.7053044, 8.9852953 ], [ 38.7047439, 8.9858227 ], [ 38.6975262, 8.9948409 ], [ 38.6944625, 8.9968365 ], [ 38.6908328, 9.0024757 ], [ 38.6899146, 9.0039463 ], [ 38.6894971, 9.008159 ], [ 38.689518, 9.0092792 ], [ 38.6908489, 9.0168353 ], [ 38.6860719, 9.0261078 ], [ 38.6836972, 9.0298809 ], [ 38.6813539, 9.0340427 ], [ 38.6821318, 9.036787 ], [ 38.6866004, 9.0482421 ], [ 38.6906552, 9.0515548 ], [ 38.6982181, 9.0594512 ] ] ] } },
{ "type": "Feature", "properties": { "threshold_s": 300, "time_label": "5 min drive" }, "geometry": { "type": "Polygon", "coordinates": [ [ [ 38.8135538, 9.0232472 ], [ 38.8137871, 9.0235202 ], [ 38.8168929, 9.0242509 ], [ 38.8187987, 9.0256022 ], [ 38.8193408, 9.0259309 ], [ 38.8201207, 9.0263461 ], [ 38.8228669, 9.0278268 ], [ 38.8249282, 9.0291742 ], [ 38.8269597, 9.0306289 ], [ 38.8291359, 9.0315013 ], [ 38.8298739, 9.0316458 ], [ 38.83234, 9.030435 ], [ 38.8344597, 9.0293538 ], [ 38.8347538, 9.0284478 ], [ 38.8340186, 9.0270336 ], [ 38.8353941, 9.0233442 ], [ 38.8392593, 9.0214433 ], [ 38.8408486, 9.021363 ], [ 38.8405569, 9.017096 ], [ 38.841055, 9.0162992 ], [ 38.8418507, 9.0153651 ], [ 38.8427934, 9.0123367 ], [ 38.8441724, 9.0106055 ], [ 38.8441673, 9.0105137 ], [ 38.8424648, 9.0086399 ], [ 38.8417219, 9.0079153 ], [ 38.8386856, 9.0051973 ], [ 38.835301, 9.0032933 ], [ 38.8349131, 9.0008394 ], [ 38.8332387, 8.9997931 ], [ 38.8312817, 8.9977512 ], [ 38.8304788, 8.9967932 ], [ 38.8279827, 8.995279 ], [ 38.825929, 8.9948165 ], [ 38.8236478, 8.9950741 ], [ 38.8200536, 8.995641 ], [ 38.8188793, 8.9961121 ], [ 38.8193013, 8.9977327 ], [ 38.8171664, 9.0016092 ], [ 38.8137598, 9.0020084 ], [ 38.812179, 9.0038137 ], [ 38.8121405, 9.0038958 ], [ 38.8102325, 9.0073943 ], [ 38.8080794, 9.0104469 ], [ 38.80839, 9.0144276 ], [ 38.809157, 9.014593 ], [ 38.8103853, 9.0150813 ], [ 38.811495, 9.0158517 ], [ 38.811567599999989, 9.0200756 ], [ 38.8135538, 9.0232472 ] ] ] } },
{ "type": "Feature", "properties": { "threshold_s": 600, "time_label": "10 min drive" }, "geometry": { "type": "Polygon", "coordinates": [ [ [ 38.7894992, 9.0215146 ], [ 38.7925247, 9.0267303 ], [ 38.7955746, 9.0285027 ], [ 38.79806640000001, 9.0286055 ], [ 38.805898, 9.0343795 ], [ 38.8097365, 9.0345983 ], [ 38.8144658, 9.0377323 ], [ 38.8153422, 9.0447787 ], [ 38.8157485, 9.0450567 ], [ 38.8256755, 9.0502843 ], [ 38.8289333, 9.0515703 ], [ 38.8346241, 9.0505553 ], [ 38.8348856, 9.0503233 ], [ 38.8443399, 9.0439901 ], [ 38.8535847, 9.0383097 ], [ 38.85609, 9.0359884 ], [ 38.8577773, 9.0275421 ], [ 38.8631122, 9.0206697 ], [ 38.8661167, 9.0116427 ], [ 38.8655243, 9.0100394 ], [ 38.8647487, 9.0087392 ], [ 38.8585561, 9.0016594 ], [ 38.8566548, 8.9988859 ], [ 38.8516466, 8.9940973 ], [ 38.8459679, 8.9870843 ], [ 38.840493, 8.9785199 ], [ 38.8303922, 8.9744672 ], [ 38.8267643, 8.9763371 ], [ 38.825469, 8.9781279 ], [ 38.8211882, 8.9830776 ], [ 38.8200144, 8.9840292 ], [ 38.8097735, 8.9869675 ], [ 38.8079529, 8.9863615 ], [ 38.8066972, 8.9860036 ], [ 38.8035396, 8.9855276 ], [ 38.8021619, 8.9853275 ], [ 38.8021714, 8.9855567 ], [ 38.8018267, 8.9898213 ], [ 38.7965052, 8.9969379 ], [ 38.7943165, 9.0036151 ], [ 38.7914546, 9.0085485 ], [ 38.7902737, 9.0165384 ], [ 38.7894992, 9.0215146 ] ] ] } },
{ "type": "Feature", "properties": { "threshold_s": 900, "time_label": "15 min drive" }, "geometry": { "type": "Polygon", "coordinates": [ [ [ 38.7725503, 9.0352767 ], [ 38.7747213, 9.0379721 ], [ 38.7773078, 9.0393449 ], [ 38.7813319, 9.0400888 ], [ 38.7821976, 9.0400112 ], [ 38.7835732, 9.0398786 ], [ 38.7967241, 9.0428703 ], [ 38.8007203, 9.0474898 ], [ 38.8027809, 9.0533596 ], [ 38.8050145, 9.0564183 ], [ 38.813297, 9.062242 ], [ 38.8140744, 9.0622185 ], [ 38.819266399999989, 9.0618158 ], [ 38.8304083, 9.062813 ], [ 38.8448721, 9.0682839 ], [ 38.8543698, 9.0598689 ], [ 38.8553005, 9.0583366 ], [ 38.8611813, 9.0496817 ], [ 38.870313, 9.04973 ], [ 38.8716368, 9.0494645 ], [ 38.8712664, 9.0479701 ], [ 38.8758048, 9.0322907 ], [ 38.878505, 9.0290182 ], [ 38.879569, 9.0279048 ], [ 38.8806787, 9.0268026 ], [ 38.8823091, 9.0252736 ], [ 38.8851239, 9.0216435 ], [ 38.8888068, 9.0105582 ], [ 38.8837421, 8.9985232 ], [ 38.8836563, 8.9984113 ], [ 38.8781288, 8.9979531 ], [ 38.8776031, 8.9979266 ], [ 38.8735718, 8.9973809 ], [ 38.8656975, 8.9832292 ], [ 38.8598661, 8.9766158 ], [ 38.8542589, 8.9723237 ], [ 38.8440675, 8.9591694 ], [ 38.8425344, 8.9581838 ], [ 38.8309743, 8.9575601 ], [ 38.8159096, 8.9632423 ], [ 38.81253, 8.9643776 ], [ 38.8123919, 8.9680239 ], [ 38.8124616, 8.9711806 ], [ 38.8035562, 8.9852867 ], [ 38.8021619, 8.9853275 ], [ 38.7996331, 8.9854045 ], [ 38.788826, 8.985809 ], [ 38.7855757, 8.9849273 ], [ 38.7842988, 8.9845215 ], [ 38.7829895, 8.9840922 ], [ 38.7824454, 8.9839019 ], [ 38.781234, 8.9834683 ], [ 38.7810382, 8.9833915 ], [ 38.7807425, 8.9839147 ], [ 38.7806801, 8.9840836 ], [ 38.7781307, 8.9965431 ], [ 38.7692515, 9.0104413 ], [ 38.7686595, 9.0207369 ], [ 38.7708632, 9.0299515 ], [ 38.7725503, 9.0352767 ] ] ] } },
{ "type": "Feature", "properties": { "threshold_s": 300, "time_label": "5 min drive" }, "geometry": { "type": "Polygon", "coordinates": [ [ [ 38.7658497, 8.9998495 ], [ 38.7665433, 9.0010165 ], [ 38.7672642, 9.0017771 ], [ 38.769043, 9.0027762 ], [ 38.7757529, 9.0073272 ], [ 38.7763593, 9.0077319 ], [ 38.780713, 9.0097015 ], [ 38.7808196, 9.0096836 ], [ 38.7825194, 9.0091421 ], [ 38.7894034, 9.0046542 ], [ 38.7941482, 8.9979968 ], [ 38.7946719, 8.9978068 ], [ 38.7951352, 8.9973643 ], [ 38.797957, 8.9920335 ], [ 38.7976136, 8.9913002 ], [ 38.7962973, 8.9896849 ], [ 38.7899075, 8.9859732 ], [ 38.7880106, 8.9854871 ], [ 38.7855757, 8.9849273 ], [ 38.7842988, 8.9845215 ], [ 38.7787516, 8.9794447 ], [ 38.7777914, 8.9763594 ], [ 38.7755072, 8.9716351 ], [ 38.7752672, 8.9716781 ], [ 38.774991, 8.9719637 ], [ 38.7710859, 8.9752898 ], [ 38.766807300000011, 8.9766861 ], [ 38.7664319, 8.9778719 ], [ 38.7652811, 8.9832833 ], [ 38.7650845, 8.9880264 ], [ 38.7646631, 8.9960887 ], [ 38.7649383, 8.997765 ], [ 38.7658497, 8.9998495 ] ] ] } },
{ "type": "Feature", "properties": { "threshold_s": 600, "time_label": "10 min drive" }, "geometry": { "type": "Polygon", "coordinates": [ [ [ 38.7497116, 9.011964 ], [ 38.7525227, 9.0172727 ], [ 38.7536536, 9.0182268 ], [ 38.7586505, 9.0180415 ], [ 38.7645123, 9.0221623 ], [ 38.7677974, 9.0236685 ], [ 38.7725207, 9.0260996 ], [ 38.7752165, 9.0276289 ], [ 38.7847756, 9.0284891 ], [ 38.7857026, 9.0282428 ], [ 38.7931306, 9.0235175 ], [ 38.7994298, 9.0188571 ], [ 38.8025814, 9.0160673 ], [ 38.8061391, 9.0126899 ], [ 38.8080794, 9.0104469 ], [ 38.8081708, 9.0103281 ], [ 38.8084584, 9.0098803 ], [ 38.8095595, 9.005847 ], [ 38.8109431, 9.0014762 ], [ 38.8153417, 8.9945278 ], [ 38.8179626, 8.9911075 ], [ 38.8178219, 8.987936 ], [ 38.8175372, 8.9873423 ], [ 38.8172293, 8.987135 ], [ 38.8079529, 8.9863615 ], [ 38.8066972, 8.9860036 ], [ 38.8035562, 8.9852867 ], [ 38.8021619, 8.9853275 ], [ 38.7996331, 8.9854045 ], [ 38.7971379, 8.9861223 ], [ 38.7899075, 8.9859732 ], [ 38.7880106, 8.9854871 ], [ 38.7855757, 8.9849273 ], [ 38.7842988, 8.9845215 ], [ 38.7787516, 8.9794447 ], [ 38.7777914, 8.9763594 ], [ 38.7828796, 8.9680649 ], [ 38.7902771, 8.9669999 ], [ 38.7907196, 8.9671217 ], [ 38.791118, 8.9670277 ], [ 38.7918006, 8.9634721 ], [ 38.7904327, 8.9615138 ], [ 38.7900803, 8.9610493 ], [ 38.7871447, 8.9596534 ], [ 38.7851057, 8.9591527 ], [ 38.7826918, 8.961395 ], [ 38.7730193, 8.9597407 ], [ 38.7702234, 8.9571824 ], [ 38.7701798, 8.9571566 ], [ 38.7673704, 8.9560994 ], [ 38.7650679, 8.956913 ], [ 38.7640562, 8.9583092 ], [ 38.7639042, 8.9599587 ], [ 38.7565252, 8.9685212 ], [ 38.7547878, 8.9702414 ], [ 38.749944, 8.9753297 ], [ 38.7492305, 8.9764174 ], [ 38.7481427, 8.978128 ], [ 38.7468322, 8.9817306 ], [ 38.7461868, 8.9836034 ], [ 38.7452303, 8.9877313 ], [ 38.7448209, 8.992834 ], [ 38.7446667, 8.9949007 ], [ 38.7458731, 8.9969173 ], [ 38.7473184, 8.9987266 ], [ 38.7502626, 9.0077974 ], [ 38.7495149, 9.011528 ], [ 38.7497116, 9.011964 ] ] ] } },
{ "type": "Feature", "properties": { "threshold_s": 900, "time_label": "15 min drive" }, "geometry": { "type": "Polygon", "coordinates": [ [ [ 38.7350913, 9.0251539 ], [ 38.7386519, 9.033309 ], [ 38.7402905, 9.0337396 ], [ 38.7428963, 9.0345213 ], [ 38.7517542, 9.038645 ], [ 38.7565413, 9.0397014 ], [ 38.7625945, 9.0433073 ], [ 38.7694638, 9.0449786 ], [ 38.774116, 9.0457377 ], [ 38.7841617, 9.0449933 ], [ 38.7852225, 9.0446915 ], [ 38.7869235, 9.0434758 ], [ 38.788646, 9.0371199 ], [ 38.788999, 9.0366321 ], [ 38.7898711, 9.0353037 ], [ 38.7997189, 9.0335465 ], [ 38.8103267, 9.0327174 ], [ 38.8105209, 9.0319502 ], [ 38.8147241, 9.0258773 ], [ 38.8193351, 9.0247139 ], [ 38.8203388, 9.0240147 ], [ 38.8253495, 9.0173691 ], [ 38.8259322, 9.0165565 ], [ 38.8299195, 9.0065331 ], [ 38.8321024, 8.9988139 ], [ 38.8344625, 8.991999 ], [ 38.8359825, 8.9866606 ], [ 38.8358854, 8.9856527 ], [ 38.8355139, 8.9853268 ], [ 38.8304619, 8.9779273 ], [ 38.8303922, 8.9744672 ], [ 38.8300543, 8.9713237 ], [ 38.8289182, 8.9663006 ], [ 38.8271273, 8.9664541 ], [ 38.8229629, 8.9668673 ], [ 38.812587, 8.9643801 ], [ 38.8092054, 8.9565742 ], [ 38.8024449, 8.9558072 ], [ 38.7980971, 8.946804 ], [ 38.7979241, 8.9466321 ], [ 38.7978771, 8.9465934 ], [ 38.7959191, 8.9457137 ], [ 38.7904421, 8.9442075 ], [ 38.7855926, 8.941632 ], [ 38.7829064, 8.9401681 ], [ 38.7739475, 8.9352246 ], [ 38.7725799, 8.9346882 ], [ 38.7671976, 8.9355964 ], [ 38.7585533, 8.9407457 ], [ 38.7522889, 8.9418676 ], [ 38.7504069, 8.9477452 ], [ 38.7504082, 8.9479861 ], [ 38.7438087, 8.9565566 ], [ 38.7436067, 8.9570909 ], [ 38.7413316, 8.9615622 ], [ 38.7328751, 8.963896 ], [ 38.73210550000001, 8.9646348 ], [ 38.7340753, 8.9706794 ], [ 38.7298778, 8.9785114 ], [ 38.7284709, 8.9799734 ], [ 38.7273034, 8.9824175 ], [ 38.7287786, 8.9907209 ], [ 38.7258428, 8.9978506 ], [ 38.7284978, 9.0065722 ], [ 38.7270118, 9.0118618 ], [ 38.7298512, 9.0165231 ], [ 38.7350913, 9.0251539 ] ] ] } },
{ "type": "Feature", "properties": { "threshold_s": 300, "time_label": "5 min drive" }, "geometry": { "type": "Polygon", "coordinates": [ [ [ 38.7674265, 9.0166327 ], [ 38.7683945, 9.0192425 ], [ 38.7713573, 9.0204686 ], [ 38.7745247, 9.0195546 ], [ 38.7778352, 9.0234959 ], [ 38.7806417, 9.0258586 ], [ 38.7818747, 9.0258742 ], [ 38.7848897, 9.0225805 ], [ 38.7862048, 9.0223421 ], [ 38.7876736, 9.021887 ], [ 38.7909671, 9.0208857 ], [ 38.7912801, 9.0205633 ], [ 38.7942433, 9.0173075 ], [ 38.7952426, 9.0151258 ], [ 38.7979855, 9.0132711 ], [ 38.7993051, 9.0096285 ], [ 38.8006423, 9.0056999 ], [ 38.8007464, 9.0019057 ], [ 38.7993438, 9.0015425 ], [ 38.7977966, 9.0017538 ], [ 38.7965052, 8.9969379 ], [ 38.7956395, 8.9945489 ], [ 38.7932496, 8.9902193 ], [ 38.7931797, 8.9901665 ], [ 38.7913071, 8.9904803 ], [ 38.7876549, 8.9893973 ], [ 38.7838559, 8.9877536 ], [ 38.7790112, 8.986333 ], [ 38.7760235, 8.9862013 ], [ 38.7755492, 8.9871715 ], [ 38.7750361, 8.9888151 ], [ 38.7725376, 8.9931435 ], [ 38.7719314, 8.9937078 ], [ 38.7699596, 8.9968619 ], [ 38.7663914, 9.0000105 ], [ 38.7663276, 9.0000911 ], [ 38.7657356, 9.0008423 ], [ 38.7657918, 9.0013837 ], [ 38.7663704, 9.0019672 ], [ 38.7663964, 9.0070441 ], [ 38.7661556, 9.0073141 ], [ 38.7658891, 9.0123181 ], [ 38.7674265, 9.0166327 ] ] ] } },
{ "type": "Feature", "properties": { "threshold_s": 600, "time_label": "10 min drive" }, "geometry": { "type": "Polygon", "coordinates": [ [ [ 38.7446581, 9.0167997 ], [ 38.7477265, 9.0217389 ], [ 38.7495868, 9.0236706 ], [ 38.751883, 9.0249976 ], [ 38.7601733, 9.0333871 ], [ 38.7682527, 9.0403707 ], [ 38.7743349, 9.0416088 ], [ 38.7832034, 9.0412485 ], [ 38.788646, 9.0371199 ], [ 38.7997189, 9.0335465 ], [ 38.8048161, 9.0292985 ], [ 38.8082555, 9.0263566 ], [ 38.8137814, 9.0214542 ], [ 38.8172691, 9.0119811 ], [ 38.819705399999989, 9.0040656 ], [ 38.8198478, 8.9965298 ], [ 38.8193455, 8.9939846 ], [ 38.8184968, 8.9915296 ], [ 38.8163915, 8.9896939 ], [ 38.8151393, 8.9891745 ], [ 38.8097735, 8.9869675 ], [ 38.8079529, 8.9863615 ], [ 38.8066972, 8.9860036 ], [ 38.8035562, 8.9852867 ], [ 38.8021619, 8.9853275 ], [ 38.7996331, 8.9854045 ], [ 38.7899075, 8.9859732 ], [ 38.7880106, 8.9854871 ], [ 38.7777914, 8.9763594 ], [ 38.7773623, 8.9752898 ], [ 38.7750556, 8.9694476 ], [ 38.7664998, 8.9707517 ], [ 38.7655318, 8.9710292 ], [ 38.7618748, 8.9727921 ], [ 38.7553965, 8.9820855 ], [ 38.7487069, 8.9911738 ], [ 38.7480194, 8.9921369 ], [ 38.7462509, 8.9950686 ], [ 38.7467176, 9.0045045 ], [ 38.7440647, 9.0101702 ], [ 38.7446581, 9.0167997 ] ] ] } },
{ "type": "Feature", "properties": { "threshold_s": 900, "time_label": "15 min drive" }, "geometry": { "type": "Polygon", "coordinates": [ [ [ 38.7341184, 9.0347785 ], [ 38.7365762, 9.0379959 ], [ 38.7466643, 9.047819 ], [ 38.7510974, 9.0515804 ], [ 38.7565047, 9.0554225 ], [ 38.7594231, 9.0566085 ], [ 38.7608191, 9.0571692 ], [ 38.7684838, 9.0593718 ], [ 38.7760159, 9.0599567 ], [ 38.7823807, 9.0592754 ], [ 38.7879067, 9.0567537 ], [ 38.7884297, 9.056281 ], [ 38.792129, 9.0494167 ], [ 38.8069644, 9.0447637 ], [ 38.81606, 9.0445909 ], [ 38.8168704, 9.044428 ], [ 38.8227438, 9.0419221 ], [ 38.8247839, 9.0409036 ], [ 38.8263999, 9.0398937 ], [ 38.827229, 9.0389825 ], [ 38.8344597, 9.0293538 ], [ 38.8375525, 9.0214989 ], [ 38.8375856, 9.0207761 ], [ 38.8361905, 9.0111168 ], [ 38.835943, 9.0084869 ], [ 38.8349131, 9.0008394 ], [ 38.837714, 8.9885367 ], [ 38.8361053, 8.9854182 ], [ 38.8284623, 8.9728147 ], [ 38.8252645, 8.9715198 ], [ 38.8232046, 8.9723026 ], [ 38.8211327, 8.9767138 ], [ 38.8066972, 8.9860036 ], [ 38.8035562, 8.9852867 ], [ 38.8021619, 8.9853275 ], [ 38.7919347, 8.9698281 ], [ 38.7943107, 8.9661168 ], [ 38.7949132, 8.9643434 ], [ 38.7928357, 8.9593159 ], [ 38.7926245, 8.9585043 ], [ 38.7894247, 8.9571384 ], [ 38.7869569, 8.9561829 ], [ 38.7838446, 8.9551348 ], [ 38.7688543, 8.9481925 ], [ 38.7678722, 8.9487095 ], [ 38.7543771, 8.958452 ], [ 38.7516732, 8.9604839 ], [ 38.7510136, 8.9609883 ], [ 38.7405424, 8.9714839 ], [ 38.739079, 8.9734757 ], [ 38.7347285, 8.9804375 ], [ 38.7309319, 8.9868939 ], [ 38.7289264, 8.9982376 ], [ 38.7212262, 9.0115404 ], [ 38.7211895, 9.0115916 ], [ 38.7210359, 9.0122983 ], [ 38.7234107, 9.0201196 ], [ 38.7341184, 9.0347785 ] ] ] } },
{ "type": "Feature", "properties": { "threshold_s": 300, "time_label": "5 min drive" }, "geometry": { "type": "Polygon", "coordinates": [ [ [ 38.7698496, 8.9967179 ], [ 38.7706407, 8.9997545 ], [ 38.7747263, 9.000099 ], [ 38.7791347, 9.0046913 ], [ 38.780947, 9.005392 ], [ 38.7867191, 9.0066497 ], [ 38.7894939, 9.0070331 ], [ 38.7901946, 9.0062781 ], [ 38.7898343, 9.0055715 ], [ 38.792624, 8.9985777 ], [ 38.798838, 9.0004149 ], [ 38.7991837, 8.9991818 ], [ 38.797957, 8.9920335 ], [ 38.8018267, 8.9898213 ], [ 38.8035396, 8.9855276 ], [ 38.8035562, 8.9852867 ], [ 38.8021619, 8.9853275 ], [ 38.7996331, 8.9854045 ], [ 38.7971379, 8.9861223 ], [ 38.788826, 8.985809 ], [ 38.7879749, 8.9856538 ], [ 38.7855757, 8.9849273 ], [ 38.7842988, 8.9845215 ], [ 38.7787516, 8.9794447 ], [ 38.7777914, 8.9763594 ], [ 38.7774548, 8.9759568 ], [ 38.7773636, 8.975878 ], [ 38.7725665, 8.9780968 ], [ 38.7708268, 8.9803929 ], [ 38.7709102, 8.9816138 ], [ 38.7711213, 8.982576 ], [ 38.7704844, 8.9906366 ], [ 38.770249, 8.9931077 ], [ 38.7700593, 8.9948012 ], [ 38.7698496, 8.9967179 ] ] ] } },
{ "type": "Feature", "properties": { "threshold_s": 600, "time_label": "10 min drive" }, "geometry": { "type": "Polygon", "coordinates": [ [ [ 38.7542984, 9.0119961 ], [ 38.7561231, 9.0153091 ], [ 38.7562078, 9.0153727 ], [ 38.7638225, 9.0193203 ], [ 38.7732625, 9.0224856 ], [ 38.7806417, 9.0258586 ], [ 38.7872952, 9.0282729 ], [ 38.7877832, 9.0281623 ], [ 38.7939776, 9.0253189 ], [ 38.801463, 9.0208665 ], [ 38.8051492, 9.0192078 ], [ 38.80939570000001, 9.0176023 ], [ 38.8115097, 9.0148216 ], [ 38.8132188, 9.0105012 ], [ 38.8138772, 9.0088346 ], [ 38.8158694, 9.0038171 ], [ 38.8209634, 8.9972946 ], [ 38.8232978, 8.991646 ], [ 38.8233186, 8.9915543 ], [ 38.8239984, 8.9864212 ], [ 38.8208006, 8.9803978 ], [ 38.8200144, 8.9840292 ], [ 38.8097735, 8.9869675 ], [ 38.8079529, 8.9863615 ], [ 38.8066972, 8.9860036 ], [ 38.8035562, 8.9852867 ], [ 38.8021619, 8.9853275 ], [ 38.7996331, 8.9854045 ], [ 38.7971379, 8.9861223 ], [ 38.7899075, 8.9859732 ], [ 38.7880106, 8.9854871 ], [ 38.7855757, 8.9849273 ], [ 38.7842988, 8.9845215 ], [ 38.7787516, 8.9794447 ], [ 38.7777914, 8.9763594 ], [ 38.7828796, 8.9680649 ], [ 38.7865958, 8.9662315 ], [ 38.7872891, 8.965332 ], [ 38.787733, 8.9640842 ], [ 38.7878293, 8.9633792 ], [ 38.7866773, 8.962713 ], [ 38.7775834, 8.9635925 ], [ 38.7671116, 8.9599743 ], [ 38.7644303, 8.961891 ], [ 38.7633086, 8.9638436 ], [ 38.7632587, 8.9641906 ], [ 38.7629765, 8.9659959 ], [ 38.7574417, 8.9741084 ], [ 38.7524505, 8.9800202 ], [ 38.7505389, 8.9848727 ], [ 38.7499626, 8.9956028 ], [ 38.7508894, 8.9967315 ], [ 38.7513274, 8.9971902 ], [ 38.7544636, 9.0003718 ], [ 38.7535663, 9.009591 ], [ 38.7542984, 9.0119961 ] ] ] } },
{ "type": "Feature", "properties": { "threshold_s": 900, "time_label": "15 min drive" }, "geometry": { "type": "Polygon", "coordinates": [ [ [ 38.7389638, 9.0239739 ], [ 38.7412699, 9.0295461 ], [ 38.7418619, 9.0299892 ], [ 38.7419312, 9.0300338 ], [ 38.7471559, 9.0325573 ], [ 38.7504699, 9.0328679 ], [ 38.7582831, 9.0359975 ], [ 38.7593513, 9.036622 ], [ 38.7624425, 9.0386823 ], [ 38.7625107, 9.0387169 ], [ 38.7682527, 9.0403707 ], [ 38.7743349, 9.0416088 ], [ 38.7835321, 9.0433722 ], [ 38.7846176, 9.0425431 ], [ 38.788646, 9.0371199 ], [ 38.788999, 9.0366321 ], [ 38.7898711, 9.0353037 ], [ 38.7997189, 9.0335465 ], [ 38.8097365, 9.0345983 ], [ 38.8153981, 9.0345482 ], [ 38.8208033, 9.0302269 ], [ 38.8254681, 9.0263115 ], [ 38.8299657, 9.0172269 ], [ 38.8350763, 9.0076814 ], [ 38.8370836, 8.9979453 ], [ 38.840835, 8.9880772 ], [ 38.8406231, 8.9842524 ], [ 38.8405136, 8.9836949 ], [ 38.8398591, 8.9823874 ], [ 38.8390681, 8.981432 ], [ 38.8304619, 8.9779273 ], [ 38.8303922, 8.9744672 ], [ 38.8300543, 8.9713237 ], [ 38.8289182, 8.9663006 ], [ 38.8282921, 8.9652772 ], [ 38.8249257, 8.9633665 ], [ 38.8171284, 8.964396 ], [ 38.8143277, 8.9647934 ], [ 38.8060082, 8.9605034 ], [ 38.8010904, 8.9585388 ], [ 38.7967291, 8.9514381 ], [ 38.7958543, 8.9499351 ], [ 38.7942333, 8.9473472 ], [ 38.7926088, 8.9462969 ], [ 38.7834087, 8.9428192 ], [ 38.773277899999989, 8.940861 ], [ 38.7716934, 8.9390288 ], [ 38.7711822, 8.9385798 ], [ 38.7711035, 8.938612 ], [ 38.7710331, 8.9386429 ], [ 38.7639706, 8.942036 ], [ 38.7564201, 8.9447894 ], [ 38.7557957, 8.9454045 ], [ 38.7517645, 8.9508566 ], [ 38.7479847, 8.9578427 ], [ 38.7428094, 8.9650467 ], [ 38.737573, 8.9679618 ], [ 38.736105, 8.9695883 ], [ 38.7352287, 8.970764 ], [ 38.734549, 8.9753057 ], [ 38.7330468, 8.9825133 ], [ 38.7325734, 8.9896107 ], [ 38.7324621, 8.9965338 ], [ 38.7321114, 9.0037694 ], [ 38.7320946, 9.0042953 ], [ 38.7328906, 9.0112949 ], [ 38.7345098, 9.0165098 ], [ 38.7389638, 9.0239739 ] ] ] } }
]
}
