{
"type": "FeatureCollection",
"name": "isochrone_shop_seafood_drive",
"crs": { "type": "name", "properties": { "name": "urn:ogc:def:crs:OGC:1.3:CRS84" } },
"features": [
{ "type": "Feature", "properties": { "threshold_s": 300, "time_label": "5 min drive" }, "geometry": { "type": "Polygon", "coordinates": [ [ [ 38.7566045, 8.959288 ], [ 38.7573119, 8.960343 ], [ 38.7580243, 8.9610853 ], [ 38.7597316, 8.9620983 ], [ 38.7632587, 8.9641906 ], [ 38.7642007, 8.9642484 ], [ 38.7682748, 8.9628075 ], [ 38.7696023, 8.9623863 ], [ 38.7723252, 8.9613283 ], [ 38.7746049, 8.9599046 ], [ 38.775242, 8.9583361 ], [ 38.7755169, 8.9575612 ], [ 38.7788795, 8.9553509 ], [ 38.7790044, 8.9553408 ], [ 38.7804985, 8.9526709 ], [ 38.7816307, 8.9503209 ], [ 38.7808579, 8.9485282 ], [ 38.7815572, 8.9456611 ], [ 38.781302599999989, 8.9447898 ], [ 38.7812714, 8.9447016 ], [ 38.781222, 8.9446248 ], [ 38.7795965, 8.943602 ], [ 38.7789381, 8.9431158 ], [ 38.7771423, 8.9412531 ], [ 38.7792063, 8.9382432 ], [ 38.7821319, 8.9398252 ], [ 38.7821202, 8.9395398 ], [ 38.7788342, 8.937519 ], [ 38.7786296, 8.9346516 ], [ 38.7787342, 8.9333201 ], [ 38.7786108, 8.930677 ], [ 38.7770201, 8.9287389 ], [ 38.7748735, 8.9298225 ], [ 38.7740136, 8.9302251 ], [ 38.770694, 8.9310142 ], [ 38.7682445, 8.9295578 ], [ 38.7667501, 8.9317034 ], [ 38.7664081, 8.9322098 ], [ 38.7621219, 8.9326265 ], [ 38.7599319, 8.9349152 ], [ 38.7573999, 8.9376337 ], [ 38.7588604, 8.9404185 ], [ 38.7593029, 8.9433821 ], [ 38.7601362, 8.9458737 ], [ 38.7599544, 8.9471517 ], [ 38.7597544, 8.9484631 ], [ 38.7560588, 8.9495278 ], [ 38.7555076, 8.9500644 ], [ 38.7550221, 8.9516792 ], [ 38.7551063, 8.952354 ], [ 38.7554647, 8.9537485 ], [ 38.7562482, 8.9578487 ], [ 38.7566045, 8.959288 ] ] ] } },
{ "type": "Feature", "properties": { "threshold_s": 600, "time_label": "10 min drive" }, "geometry": { "type": "Polygon", "coordinates": [ [ [ 38.7414488, 8.9644008 ], [ 38.7421094, 8.9706271 ], [ 38.7472535, 8.974342 ], [ 38.7480412, 8.9750508 ], [ 38.7513245, 8.9774483 ], [ 38.7566249, 8.980382 ], [ 38.7595277, 8.9865796 ], [ 38.7599512, 8.986485 ], [ 38.766002899999989, 8.9838101 ], [ 38.7660167, 8.9836272 ], [ 38.7714209, 8.9793042 ], [ 38.7719831, 8.9795407 ], [ 38.7722493, 8.9796533 ], [ 38.77319, 8.979958 ], [ 38.7739398, 8.9802494 ], [ 38.7737871, 8.9766173 ], [ 38.7736234, 8.9756236 ], [ 38.7734073, 8.9747456 ], [ 38.7705231, 8.9704184 ], [ 38.7710899, 8.9678887 ], [ 38.7715801, 8.967035 ], [ 38.7726464, 8.9617668 ], [ 38.7794812, 8.9623196 ], [ 38.7828581, 8.9679775 ], [ 38.7828796, 8.9680649 ], [ 38.7872891, 8.965332 ], [ 38.7902771, 8.9669999 ], [ 38.7909604, 8.9677523 ], [ 38.7919347, 8.9698281 ], [ 38.7939021, 8.9663229 ], [ 38.7949917, 8.9607146 ], [ 38.7962545, 8.9594646 ], [ 38.7968244, 8.958413 ], [ 38.7965468, 8.9561463 ], [ 38.797655399999989, 8.9502162 ], [ 38.798652, 8.9492024 ], [ 38.7988172, 8.9457455 ], [ 38.7992628, 8.943121 ], [ 38.8017419, 8.9370433 ], [ 38.7949871, 8.9386075 ], [ 38.7923188, 8.9370136 ], [ 38.7935413, 8.9307486 ], [ 38.7962834, 8.9296774 ], [ 38.7965722, 8.9284864 ], [ 38.7970081, 8.9256055 ], [ 38.7970939, 8.9247639 ], [ 38.7971791, 8.9239281 ], [ 38.7972658, 8.9230778 ], [ 38.7917979, 8.9235082 ], [ 38.7891434, 8.9175704 ], [ 38.7874544, 8.9162041 ], [ 38.7843466, 8.9146797 ], [ 38.7812642, 8.9140873 ], [ 38.7749335, 8.9137199 ], [ 38.7687258, 8.9130746 ], [ 38.7640379, 8.9107005 ], [ 38.758194, 8.914412 ], [ 38.7562388, 8.9170715 ], [ 38.7547821, 8.9190686 ], [ 38.7531437, 8.9246421 ], [ 38.753863, 8.9311467 ], [ 38.7525392, 8.9318241 ], [ 38.7479572, 8.9310957 ], [ 38.7474705, 8.9306537 ], [ 38.7457426, 8.9299017 ], [ 38.745157, 8.9297881 ], [ 38.742211, 8.9293805 ], [ 38.7399061, 8.9329132 ], [ 38.7390876, 8.9371395 ], [ 38.7392742, 8.938634 ], [ 38.7385976, 8.9455044 ], [ 38.738367, 8.9466013 ], [ 38.7386657, 8.9520516 ], [ 38.7403759, 8.9568763 ], [ 38.7404933, 8.9609058 ], [ 38.7414488, 8.9644008 ] ] ] } },
{ "type": "Feature", "properties": { "threshold_s": 900, "time_label": "15 min drive" }, "geometry": { "type": "Polygon", "coordinates": [ [ [ 38.7390187, 8.9918219 ], [ 38.7391173, 8.9940268 ], [ 38.7429701, 8.9977686 ], [ 38.7494905, 9.0028945 ], [ 38.7513134, 9.0049381 ], [ 38.7544449, 9.007789 ], [ 38.7596811, 9.0077021 ], [ 38.768307, 9.0047561 ], [ 38.7683759, 9.004727 ], [ 38.773622, 9.0018561 ], [ 38.7794906, 8.9991652 ], [ 38.7821989, 8.9967544 ], [ 38.7831297, 8.9956881 ], [ 38.788291, 8.9915527 ], [ 38.7935972, 8.9898297 ], [ 38.7938117, 8.9895998 ], [ 38.7937429, 8.9895272 ], [ 38.7933953, 8.9891541 ], [ 38.7920318, 8.9875297 ], [ 38.791375, 8.9871117 ], [ 38.7899075, 8.9859732 ], [ 38.7880106, 8.9854871 ], [ 38.7855757, 8.9849273 ], [ 38.7842988, 8.9845215 ], [ 38.7787516, 8.9794447 ], [ 38.7777914, 8.9763594 ], [ 38.7828796, 8.9680649 ], [ 38.7919347, 8.9698281 ], [ 38.7983287, 8.9653657 ], [ 38.8034373, 8.9661348 ], [ 38.8101965, 8.9693466 ], [ 38.8137183, 8.9668177 ], [ 38.8154449, 8.9653373 ], [ 38.8124115, 8.9554505 ], [ 38.8081755, 8.9500842 ], [ 38.8106579, 8.9427237 ], [ 38.8129992, 8.9368379 ], [ 38.8197251, 8.931782 ], [ 38.820639, 8.9295781 ], [ 38.8198895, 8.9293117 ], [ 38.8127031, 8.9220164 ], [ 38.812395, 8.9193001 ], [ 38.8103741, 8.9178407 ], [ 38.8103355, 8.9178129 ], [ 38.8085222, 8.9165215 ], [ 38.8056314, 8.916905 ], [ 38.8053149, 8.9170083 ], [ 38.8033019, 8.9175257 ], [ 38.7994757, 8.917382 ], [ 38.7990814, 8.917427 ], [ 38.7927932, 8.9116144 ], [ 38.796127, 8.9069258 ], [ 38.7956057, 8.9058949 ], [ 38.7875902, 8.9025621 ], [ 38.7862068, 8.8980859 ], [ 38.7861902, 8.8977823 ], [ 38.7855342, 8.8977795 ], [ 38.7852129, 8.8977781 ], [ 38.78492, 8.8977768 ], [ 38.7758468, 8.8928083 ], [ 38.7750131, 8.8912513 ], [ 38.7726803, 8.8920902 ], [ 38.7704194, 8.8941161 ], [ 38.761729, 8.8939637 ], [ 38.7608761, 8.8933582 ], [ 38.7572175, 8.8933423 ], [ 38.7555586, 8.8944897 ], [ 38.7479404, 8.8993934 ], [ 38.7472224, 8.8999782 ], [ 38.7465445, 8.9031009 ], [ 38.7424402, 8.9099629 ], [ 38.7368113, 8.911041 ], [ 38.7350517, 8.9116981 ], [ 38.731089, 8.9130767 ], [ 38.7302575, 8.9136783 ], [ 38.7295747, 8.9141837 ], [ 38.7276904, 8.9174058 ], [ 38.7240879, 8.9248003 ], [ 38.7210956, 8.9337412 ], [ 38.7205403, 8.9351504 ], [ 38.7184998, 8.9402052 ], [ 38.7178803, 8.9423822 ], [ 38.7178098, 8.9440724 ], [ 38.7179827, 8.950222 ], [ 38.718879, 8.9512586 ], [ 38.7199029, 8.9525868 ], [ 38.7212276, 8.9537459 ], [ 38.7236034, 8.9634096 ], [ 38.7218382, 8.969082 ], [ 38.7269127, 8.9718741 ], [ 38.7283872, 8.9787856 ], [ 38.7281638, 8.9797434 ], [ 38.7282642, 8.9799748 ], [ 38.7291629, 8.9813164 ], [ 38.7301493, 8.9825139 ], [ 38.7325033, 8.9848697 ], [ 38.7390187, 8.9918219 ] ] ] } },
{ "type": "Feature", "properties": { "threshold_s": 300, "time_label": "5 min drive" }, "geometry": { "type": "Polygon", "coordinates": [ [ [ 38.7195483, 9.0309808 ], [ 38.720165, 9.0329125 ], [ 38.7232152, 9.0356268 ], [ 38.726057, 9.0381212 ], [ 38.7277025, 9.039767 ], [ 38.7315959, 9.0404924 ], [ 38.7324587, 9.0402293 ], [ 38.7350135, 9.0386062 ], [ 38.7365276, 9.0382717 ], [ 38.736693, 9.0362823 ], [ 38.7398837, 9.0337646 ], [ 38.7417706, 9.0340836 ], [ 38.7428963, 9.0345213 ], [ 38.7439918, 9.0343989 ], [ 38.7475825, 9.0323943 ], [ 38.7491403, 9.0314182 ], [ 38.7501956, 9.027699 ], [ 38.7508772, 9.0273428 ], [ 38.7490247, 9.0251276 ], [ 38.7494123, 9.0211759 ], [ 38.7494138, 9.0211226 ], [ 38.750742, 9.0170997 ], [ 38.7515909, 9.0170547 ], [ 38.7520763, 9.0170797 ], [ 38.7518654, 9.0166783 ], [ 38.7506068, 9.0145586 ], [ 38.7498254, 9.0140209 ], [ 38.7485647, 9.0131598 ], [ 38.7462365, 9.010408 ], [ 38.7448514, 9.0085099 ], [ 38.7436921, 9.00817 ], [ 38.7405633, 9.0055545 ], [ 38.7394138, 9.0033881 ], [ 38.7368803, 9.0018037 ], [ 38.7353683, 9.0005664 ], [ 38.7325948, 9.0017547 ], [ 38.732501, 9.001813 ], [ 38.730182, 9.0046135 ], [ 38.7292146, 9.0052443 ], [ 38.7285474, 9.0064755 ], [ 38.7284978, 9.0065722 ], [ 38.7287807, 9.0080888 ], [ 38.726517, 9.0109459 ], [ 38.7225071, 9.0114307 ], [ 38.7201735, 9.0095651 ], [ 38.7197471, 9.0087074 ], [ 38.718933, 9.0094108 ], [ 38.7184912, 9.0101752 ], [ 38.7191591, 9.0121974 ], [ 38.7191807, 9.0122896 ], [ 38.7188622, 9.016363 ], [ 38.7172717, 9.0182925 ], [ 38.7171452, 9.0185363 ], [ 38.716879, 9.0190493 ], [ 38.7160489, 9.0210002 ], [ 38.7156287, 9.0220832 ], [ 38.7153381, 9.0230401 ], [ 38.7152763, 9.0236018 ], [ 38.715158, 9.0253611 ], [ 38.7151311, 9.0261072 ], [ 38.7154665, 9.027189 ], [ 38.7170336, 9.0285625 ], [ 38.7195483, 9.0309808 ] ] ] } },
{ "type": "Feature", "properties": { "threshold_s": 600, "time_label": "10 min drive" }, "geometry": { "type": "Polygon", "coordinates": [ [ [ 38.7163179, 9.0556455 ], [ 38.7171903, 9.0565867 ], [ 38.7181656, 9.0573015 ], [ 38.719053, 9.057589 ], [ 38.7251965, 9.0579106 ], [ 38.7275999, 9.0587856 ], [ 38.7332279, 9.0599864 ], [ 38.7386058, 9.0583466 ], [ 38.7391153, 9.0581553 ], [ 38.739572, 9.0579534 ], [ 38.7400067, 9.0575833 ], [ 38.7400846, 9.0574848 ], [ 38.74395, 9.0539549 ], [ 38.7499295, 9.0522723 ], [ 38.7530278, 9.0517838 ], [ 38.7574848, 9.0494308 ], [ 38.7576135, 9.0493058 ], [ 38.7580652, 9.0488412 ], [ 38.7614694, 9.0439155 ], [ 38.763485, 9.0378991 ], [ 38.7663647, 9.032801 ], [ 38.7664081, 9.0326913 ], [ 38.7664014, 9.0314507 ], [ 38.7654192, 9.0307943 ], [ 38.7633917, 9.0291295 ], [ 38.7625209, 9.0267749 ], [ 38.7677974, 9.0236685 ], [ 38.7681837, 9.0238363 ], [ 38.7708838, 9.0203264 ], [ 38.7727337, 9.0165182 ], [ 38.7721899, 9.0162346 ], [ 38.7706225, 9.010122 ], [ 38.7706413, 9.0092666 ], [ 38.7680657, 9.0039884 ], [ 38.7634095, 9.0027896 ], [ 38.7587333, 8.9982551 ], [ 38.7563798, 8.9932759 ], [ 38.7555597, 8.991011 ], [ 38.7501145, 8.9873647 ], [ 38.74802, 8.9855194 ], [ 38.7454584, 8.9850502 ], [ 38.7405449, 8.9819251 ], [ 38.7388001, 8.9807726 ], [ 38.7341706, 8.9825453 ], [ 38.7315756, 8.9815369 ], [ 38.729863, 8.9815396 ], [ 38.7273034, 8.9824175 ], [ 38.7239528, 8.9834432 ], [ 38.7189652, 8.9832542 ], [ 38.7184726, 8.9834798 ], [ 38.7180908, 8.9841611 ], [ 38.7163385, 8.9880063 ], [ 38.710983400000011, 8.9917704 ], [ 38.7099157, 8.993125 ], [ 38.7066624, 8.9982525 ], [ 38.7033457, 8.999167 ], [ 38.703306, 8.9992338 ], [ 38.7016502, 9.0021601 ], [ 38.6988019, 9.0041466 ], [ 38.6998264, 9.0069418 ], [ 38.7007834, 9.0102488 ], [ 38.6996707, 9.0155123 ], [ 38.6987843, 9.0174242 ], [ 38.6983706, 9.018354 ], [ 38.6990739, 9.0191753 ], [ 38.7013002, 9.0229515 ], [ 38.703514, 9.0261544 ], [ 38.7039354, 9.0279369 ], [ 38.700757, 9.032501 ], [ 38.6993368, 9.0329567 ], [ 38.6992764, 9.0336705 ], [ 38.7006426, 9.0376557 ], [ 38.7049641, 9.0423603 ], [ 38.7066227, 9.0445411 ], [ 38.7082963, 9.0455772 ], [ 38.7126895, 9.0491096 ], [ 38.7158673, 9.0528311 ], [ 38.7163179, 9.0556455 ] ] ] } },
{ "type": "Feature", "properties": { "threshold_s": 900, "time_label": "15 min drive" }, "geometry": { "type": "Polygon", "coordinates": [ [ [ 38.6849172, 9.0474487 ], [ 38.6850035, 9.0482596 ], [ 38.6863415, 9.0495539 ], [ 38.6909268, 9.0532329 ], [ 38.694016499999989, 9.0548691 ], [ 38.6982181, 9.0594512 ], [ 38.7010843, 9.0646618 ], [ 38.7013348, 9.0649709 ], [ 38.7047361, 9.0671463 ], [ 38.7051867, 9.0669423 ], [ 38.7064393, 9.0656273 ], [ 38.714509, 9.0682505 ], [ 38.7146036, 9.0688953 ], [ 38.7151902, 9.0700342 ], [ 38.7157707, 9.0714928 ], [ 38.7160362, 9.0719192 ], [ 38.7166478, 9.0718531 ], [ 38.7221517, 9.0746327 ], [ 38.7225567, 9.0782057 ], [ 38.7233493, 9.0781739 ], [ 38.7235789, 9.0781644 ], [ 38.7261845, 9.0750759 ], [ 38.7324589, 9.0764417 ], [ 38.7377219, 9.0759888 ], [ 38.7441498, 9.0752923 ], [ 38.7500198, 9.0734554 ], [ 38.7524057, 9.0727486 ], [ 38.7563217, 9.071118 ], [ 38.7606559, 9.0701854 ], [ 38.7642475, 9.0693242 ], [ 38.771422, 9.0646742 ], [ 38.7762365, 9.0578945 ], [ 38.7766787, 9.0570432 ], [ 38.7797532, 9.0510781 ], [ 38.7794967, 9.0481238 ], [ 38.7839795, 9.0426594 ], [ 38.7840276, 9.0412652 ], [ 38.7860937, 9.0336826 ], [ 38.7883272, 9.0290683 ], [ 38.788861, 9.027759 ], [ 38.7903417, 9.0214052 ], [ 38.7923031, 9.016046 ], [ 38.7901039, 9.0104895 ], [ 38.7898343, 9.0055715 ], [ 38.7883566, 9.0003414 ], [ 38.788114299999989, 8.9962622 ], [ 38.7840535, 8.99066 ], [ 38.7829238, 8.9893312 ], [ 38.7812904, 8.9882357 ], [ 38.7807861, 8.9879986 ], [ 38.7800061, 8.9878678 ], [ 38.7778063, 8.9876901 ], [ 38.7719993, 8.9817749 ], [ 38.7715463, 8.9817195 ], [ 38.7646558, 8.9779692 ], [ 38.7641158, 8.9752098 ], [ 38.7635992, 8.9740943 ], [ 38.7613593, 8.9707294 ], [ 38.7547973, 8.9695155 ], [ 38.7527791, 8.9679138 ], [ 38.7493173, 8.964993 ], [ 38.7443549, 8.9635153 ], [ 38.7428228, 8.9638509 ], [ 38.7355458, 8.9629714 ], [ 38.7328483, 8.9624614 ], [ 38.729296, 8.9648433 ], [ 38.7227297, 8.9653917 ], [ 38.72025, 8.9649267 ], [ 38.7163664, 8.9643061 ], [ 38.7161041, 8.9645011 ], [ 38.7148153, 8.9665411 ], [ 38.7141412, 8.9698228 ], [ 38.7078663, 8.9748684 ], [ 38.7060397, 8.9757687 ], [ 38.7058908, 8.9758363 ], [ 38.705359, 8.9760753 ], [ 38.6982185, 8.9783918 ], [ 38.6960377, 8.9787477 ], [ 38.6929341, 8.9804051 ], [ 38.6922684, 8.9813715 ], [ 38.6918145, 8.9826696 ], [ 38.6882405, 8.9902743 ], [ 38.6841185, 8.9932511 ], [ 38.6835708, 8.9945742 ], [ 38.678775, 9.0010818 ], [ 38.6777557, 9.001849 ], [ 38.6777148, 9.0018805 ], [ 38.6773104, 9.0035716 ], [ 38.6769037, 9.0067779 ], [ 38.6788072, 9.0104002 ], [ 38.6783409, 9.0166908 ], [ 38.6779673, 9.0186202 ], [ 38.6780122, 9.0212638 ], [ 38.6810741, 9.0265067 ], [ 38.6797614, 9.0331397 ], [ 38.6829472, 9.0398664 ], [ 38.6849172, 9.0474487 ] ] ] } }
]
}
