{
"type": "FeatureCollection",
"name": "isochrone_shop_alcohol_drive",
"crs": { "type": "name", "properties": { "name": "urn:ogc:def:crs:OGC:1.3:CRS84" } },
"features": [
{ "type": "Feature", "properties": { "threshold_s": 300, "time_label": "5 min drive" }, "geometry": { "type": "Polygon", "coordinates": [ [ [ 38.70414, 9.0449443 ], [ 38.7048997, 9.0457773 ], [ 38.7094447, 9.047556 ], [ 38.7106583, 9.048211 ], [ 38.7148292, 9.046613 ], [ 38.7166471, 9.0453283 ], [ 38.7219438, 9.0430709 ], [ 38.7233384, 9.0417695 ], [ 38.7245113, 9.039173 ], [ 38.7248237, 9.0379848 ], [ 38.7251353, 9.0367656 ], [ 38.7240786, 9.0347561 ], [ 38.7247843, 9.0293647 ], [ 38.722301, 9.0264528 ], [ 38.7209415, 9.0249966 ], [ 38.7203815, 9.0244886 ], [ 38.719249499999989, 9.0239831 ], [ 38.7158288, 9.0208711 ], [ 38.7178761, 9.0167999 ], [ 38.7181324, 9.016575 ], [ 38.7197277, 9.0153199 ], [ 38.7199187, 9.0151687 ], [ 38.7221159, 9.0135872 ], [ 38.7225071, 9.0114307 ], [ 38.7197471, 9.0087074 ], [ 38.7157746, 9.0132195 ], [ 38.7131209, 9.017169 ], [ 38.7072292, 9.0183925 ], [ 38.7066431, 9.0181488 ], [ 38.7043753, 9.0177554 ], [ 38.700878, 9.0168425 ], [ 38.6998216, 9.018001 ], [ 38.6998484, 9.0184646 ], [ 38.7005485, 9.0237859 ], [ 38.7004533, 9.024713 ], [ 38.7003976, 9.02517 ], [ 38.7002915, 9.0306907 ], [ 38.6997702, 9.0314941 ], [ 38.6980292, 9.0353288 ], [ 38.6980842, 9.035742 ], [ 38.6985512, 9.0387335 ], [ 38.7024897, 9.0420543 ], [ 38.70414, 9.0449443 ] ] ] } },
{ "type": "Feature", "properties": { "threshold_s": 600, "time_label": "10 min drive" }, "geometry": { "type": "Polygon", "coordinates": [ [ [ 38.6828291, 9.0468143 ], [ 38.6852217, 9.0498367 ], [ 38.6910516, 9.0555212 ], [ 38.6961776, 9.0596618 ], [ 38.7003902, 9.0629348 ], [ 38.7052263, 9.0638884 ], [ 38.7071273, 9.0631653 ], [ 38.707658, 9.0628554 ], [ 38.7110449, 9.061498 ], [ 38.7154944, 9.0661054 ], [ 38.7157479, 9.0667755 ], [ 38.7174961, 9.0671604 ], [ 38.7231835, 9.0622209 ], [ 38.7274115, 9.0624329 ], [ 38.7283916, 9.0619307 ], [ 38.732499, 9.0593583 ], [ 38.7347467, 9.0566287 ], [ 38.7371003, 9.0536817 ], [ 38.7395973, 9.048204 ], [ 38.7427163, 9.0408189 ], [ 38.7461888, 9.0344437 ], [ 38.745682, 9.0328467 ], [ 38.7437644, 9.0284562 ], [ 38.7433659, 9.024515 ], [ 38.7409572, 9.0194029 ], [ 38.7427155, 9.0163732 ], [ 38.7427584, 9.0162719 ], [ 38.7446729, 9.0128419 ], [ 38.7448784, 9.0105237 ], [ 38.7448739, 9.0102872 ], [ 38.7448159, 9.0088842 ], [ 38.7447405, 9.0084924 ], [ 38.7414856, 9.0033531 ], [ 38.7403566, 8.9997024 ], [ 38.7382993, 8.9982301 ], [ 38.7327133, 8.9962945 ], [ 38.7317139, 8.9959519 ], [ 38.7248948, 8.9919464 ], [ 38.7198822, 8.9892406 ], [ 38.7181131, 8.9889998 ], [ 38.7107695, 8.992065 ], [ 38.7104159, 8.9932371 ], [ 38.7102447, 8.9937147 ], [ 38.7067947, 8.9989506 ], [ 38.7037933, 9.0000275 ], [ 38.6969869, 8.9996543 ], [ 38.6945879, 8.9980906 ], [ 38.6924145, 8.9984971 ], [ 38.6922561, 8.9985884 ], [ 38.685999, 9.0023312 ], [ 38.6841822, 9.0043029 ], [ 38.6829286, 9.0056707 ], [ 38.6830343, 9.0067431 ], [ 38.683446, 9.0075338 ], [ 38.6840039, 9.008359 ], [ 38.6805747, 9.0155063 ], [ 38.6797692, 9.0167841 ], [ 38.6794226, 9.0182972 ], [ 38.6795545, 9.0212492 ], [ 38.6791261, 9.0289381 ], [ 38.6797614, 9.0331397 ], [ 38.6821318, 9.036787 ], [ 38.6826454, 9.0432424 ], [ 38.6825106, 9.0443324 ], [ 38.6828291, 9.0468143 ] ] ] } },
{ "type": "Feature", "properties": { "threshold_s": 900, "time_label": "15 min drive" }, "geometry": { "type": "Polygon", "coordinates": [ [ [ 38.6847681, 9.0654203 ], [ 38.6848046, 9.0744871 ], [ 38.689663, 9.0762027 ], [ 38.6938391, 9.0730859 ], [ 38.7040883, 9.075675 ], [ 38.7066767, 9.0720331 ], [ 38.7182799, 9.0763662 ], [ 38.7190591, 9.077488 ], [ 38.7212082, 9.0809212 ], [ 38.7230509, 9.0843081 ], [ 38.7279962, 9.0819581 ], [ 38.7377219, 9.0759888 ], [ 38.7433863, 9.0736866 ], [ 38.7478419, 9.0712001 ], [ 38.7497391, 9.0700994 ], [ 38.753808, 9.0660987 ], [ 38.7542638, 9.0656159 ], [ 38.758995, 9.0546066 ], [ 38.7630773, 9.0436988 ], [ 38.7631762, 9.0432434 ], [ 38.7654192, 9.0307943 ], [ 38.7625209, 9.0267749 ], [ 38.7645019, 9.0170063 ], [ 38.7672657, 9.0106467 ], [ 38.7672577, 9.0104737 ], [ 38.7663265, 9.0069713 ], [ 38.7595939, 8.9955921 ], [ 38.7596548, 8.9944049 ], [ 38.7595485, 8.9939777 ], [ 38.7587746, 8.9903001 ], [ 38.7578307, 8.9889704 ], [ 38.752531, 8.9837868 ], [ 38.7496029, 8.98177 ], [ 38.7464504, 8.9800703 ], [ 38.7395882, 8.9770966 ], [ 38.7271476, 8.9721707 ], [ 38.7238546, 8.9706921 ], [ 38.7200564, 8.9708235 ], [ 38.7184154, 8.9718832 ], [ 38.7135418, 8.9763191 ], [ 38.7001629, 8.9789049 ], [ 38.699342799999989, 8.9788114 ], [ 38.6971076, 8.9790953 ], [ 38.6883732, 8.9808699 ], [ 38.6782433, 8.9854148 ], [ 38.6673179, 8.9930501 ], [ 38.6656697, 8.9953244 ], [ 38.6624893, 9.006765 ], [ 38.6626831, 9.0085445 ], [ 38.6628655, 9.0098147 ], [ 38.6677046, 9.0206026 ], [ 38.6673797, 9.0328654 ], [ 38.6746724, 9.0409686 ], [ 38.676438, 9.042549 ], [ 38.6794643, 9.0446396 ], [ 38.6846724, 9.0563468 ], [ 38.6847206, 9.0589202 ], [ 38.684761, 9.0605151 ], [ 38.6847507, 9.0616361 ], [ 38.6847578, 9.0622835 ], [ 38.6847362, 9.0650724 ], [ 38.6847681, 9.0654203 ] ] ] } },
{ "type": "Feature", "properties": { "threshold_s": 300, "time_label": "5 min drive" }, "geometry": { "type": "Polygon", "coordinates": [ [ [ 38.7714755, 9.0087054 ], [ 38.7732789, 9.0121882 ], [ 38.7742634, 9.0124589 ], [ 38.7743465, 9.0124832 ], [ 38.776373, 9.0129175 ], [ 38.7793668, 9.0132882 ], [ 38.7819307, 9.0165447 ], [ 38.7861715, 9.0197125 ], [ 38.7870651, 9.0196171 ], [ 38.7890406, 9.0193886 ], [ 38.7896598, 9.0192439 ], [ 38.791997, 9.0167392 ], [ 38.7945459, 9.0160394 ], [ 38.7990194, 9.0130044 ], [ 38.8001053, 9.0112127 ], [ 38.8005325, 9.0104479 ], [ 38.8013695, 9.0078641 ], [ 38.8032226, 9.0026245 ], [ 38.8036877, 9.0002622 ], [ 38.8013238, 8.9997042 ], [ 38.79983, 8.9993158 ], [ 38.7991837, 8.9991818 ], [ 38.7965052, 8.9969379 ], [ 38.797341, 8.9927148 ], [ 38.797957, 8.9920335 ], [ 38.7980917, 8.9885152 ], [ 38.7996398, 8.9856334 ], [ 38.7996331, 8.9854045 ], [ 38.7965669, 8.9878238 ], [ 38.791375, 8.9871117 ], [ 38.789819799999989, 8.986366 ], [ 38.788826, 8.985809 ], [ 38.7855757, 8.9849273 ], [ 38.7842988, 8.9845215 ], [ 38.7829895, 8.9840922 ], [ 38.7807425, 8.9839147 ], [ 38.7787086, 8.9850559 ], [ 38.7777241, 8.9856661 ], [ 38.776481, 8.989139 ], [ 38.7741154, 8.9932832 ], [ 38.7741375, 8.9945623 ], [ 38.7743488, 8.9956238 ], [ 38.777362, 8.9984848 ], [ 38.7734899, 9.0014308 ], [ 38.7731666, 9.0015044 ], [ 38.7726315, 9.0016759 ], [ 38.7719972, 9.0020342 ], [ 38.7699232, 9.0043125 ], [ 38.7697441, 9.0055966 ], [ 38.7714755, 9.0087054 ] ] ] } },
{ "type": "Feature", "properties": { "threshold_s": 600, "time_label": "10 min drive" }, "geometry": { "type": "Polygon", "coordinates": [ [ [ 38.7495149, 9.011528 ], [ 38.7524033, 9.0192765 ], [ 38.7555976, 9.0217609 ], [ 38.7657206, 9.0293019 ], [ 38.7713409, 9.0329295 ], [ 38.7795494, 9.0368103 ], [ 38.7866579, 9.0379459 ], [ 38.7894697, 9.0358202 ], [ 38.8011234, 9.0303124 ], [ 38.8048161, 9.0292985 ], [ 38.8080317, 9.0267738 ], [ 38.8137814, 9.0214542 ], [ 38.8198282, 9.0115553 ], [ 38.821587, 9.0050755 ], [ 38.8223887, 8.9972021 ], [ 38.8223288, 8.9953086 ], [ 38.8221686, 8.9921195 ], [ 38.8196728, 8.9858488 ], [ 38.8066972, 8.9860036 ], [ 38.8035562, 8.9852867 ], [ 38.8021619, 8.9853275 ], [ 38.7996331, 8.9854045 ], [ 38.7971379, 8.9861223 ], [ 38.7899075, 8.9859732 ], [ 38.7880106, 8.9854871 ], [ 38.7777914, 8.9763594 ], [ 38.7784204, 8.9681007 ], [ 38.7767244, 8.9667629 ], [ 38.7748945, 8.9656073 ], [ 38.7655318, 8.9710292 ], [ 38.7618748, 8.9727921 ], [ 38.7579608, 8.9816198 ], [ 38.7566121, 8.9854758 ], [ 38.7533887, 8.9956298 ], [ 38.7534437, 9.0051707 ], [ 38.7495149, 9.011528 ] ] ] } },
{ "type": "Feature", "properties": { "threshold_s": 900, "time_label": "15 min drive" }, "geometry": { "type": "Polygon", "coordinates": [ [ [ 38.7380256, 9.0328911 ], [ 38.739012, 9.0339387 ], [ 38.7512411, 9.0430711 ], [ 38.7552401, 9.0458515 ], [ 38.7618315, 9.0490932 ], [ 38.7664616, 9.0508498 ], [ 38.7710611, 9.052157 ], [ 38.7803242, 9.0529142 ], [ 38.783424, 9.0521186 ], [ 38.792129, 9.0494167 ], [ 38.8069644, 9.0447637 ], [ 38.817694, 9.0433759 ], [ 38.8237207, 9.0400382 ], [ 38.8252095, 9.0390797 ], [ 38.8287561, 9.0357619 ], [ 38.8344597, 9.0293538 ], [ 38.8375525, 9.0214989 ], [ 38.8375856, 9.0207761 ], [ 38.8382619, 9.0082229 ], [ 38.8382109, 9.0077259 ], [ 38.8374275, 8.9986841 ], [ 38.8410986, 8.9880312 ], [ 38.839418, 8.9845124 ], [ 38.8384477, 8.9832219 ], [ 38.8383858, 8.9831673 ], [ 38.8300543, 8.9713237 ], [ 38.8289182, 8.9663006 ], [ 38.8282921, 8.9652772 ], [ 38.8249257, 8.9633665 ], [ 38.8203894, 8.9657676 ], [ 38.8173366, 8.9680305 ], [ 38.816949, 8.9687279 ], [ 38.8138352, 8.972147 ], [ 38.8035562, 8.9852867 ], [ 38.8021619, 8.9853275 ], [ 38.7996331, 8.9854045 ], [ 38.7971379, 8.9861223 ], [ 38.7919347, 8.9698281 ], [ 38.796996, 8.9651492 ], [ 38.7939906, 8.9591515 ], [ 38.7930313, 8.9566416 ], [ 38.7862791, 8.9539931 ], [ 38.7839082, 8.9534344 ], [ 38.7688543, 8.9481925 ], [ 38.7622293, 8.9528058 ], [ 38.7603281, 8.9543146 ], [ 38.7526631, 8.9617102 ], [ 38.7422511, 8.9720595 ], [ 38.7388001, 8.9807726 ], [ 38.7362266, 8.9892398 ], [ 38.7335599, 9.0037188 ], [ 38.7311713, 9.0061244 ], [ 38.7270118, 9.0118618 ], [ 38.7296718, 9.0166974 ], [ 38.7344785, 9.0251051 ], [ 38.7380256, 9.0328911 ] ] ] } },
{ "type": "Feature", "properties": { "threshold_s": 300, "time_label": "5 min drive" }, "geometry": { "type": "Polygon", "coordinates": [ [ [ 38.7933946, 9.0212397 ], [ 38.7953645, 9.0235105 ], [ 38.7970364, 9.0240514 ], [ 38.7995709, 9.0246374 ], [ 38.8008549, 9.0254157 ], [ 38.8013827, 9.0258346 ], [ 38.8020936, 9.0264203 ], [ 38.8055473, 9.0248504 ], [ 38.8069633, 9.0250958 ], [ 38.8092436, 9.0249536 ], [ 38.8129946, 9.0250146 ], [ 38.8143496, 9.0279621 ], [ 38.8144722, 9.0294405 ], [ 38.815206, 9.0292424 ], [ 38.8185783, 9.0276477 ], [ 38.8187664, 9.027768 ], [ 38.819542, 9.0282161 ], [ 38.8202976, 9.0275475 ], [ 38.8214323, 9.0264389 ], [ 38.8231243, 9.0247995 ], [ 38.822162, 9.0233834 ], [ 38.821077099999989, 9.0225039 ], [ 38.8203659, 9.020502 ], [ 38.8235368, 9.0189136 ], [ 38.8251564, 9.01968 ], [ 38.826303, 9.0218102 ], [ 38.8265759, 9.0200041 ], [ 38.827891, 9.0176995 ], [ 38.8288702, 9.0160176 ], [ 38.8287742, 9.0122387 ], [ 38.8283048, 9.0092346 ], [ 38.8302182, 9.0082471 ], [ 38.8302971, 9.0065708 ], [ 38.8302422, 9.0045291 ], [ 38.8286189, 9.0029518 ], [ 38.8282853, 9.0027117 ], [ 38.825101, 9.001087 ], [ 38.8224402, 8.9986618 ], [ 38.8202085, 8.9960205 ], [ 38.8183712, 8.9958642 ], [ 38.8163645, 8.9946122 ], [ 38.8154153, 8.9934574 ], [ 38.8119545, 8.9918937 ], [ 38.8116711, 8.9918933 ], [ 38.8102292, 8.9931253 ], [ 38.8097118, 8.993479 ], [ 38.8094328, 8.9937658 ], [ 38.8081144, 8.9947263 ], [ 38.8052265, 8.9951921 ], [ 38.8044103, 8.9953973 ], [ 38.8026126, 8.9969332 ], [ 38.8034011, 8.9988843 ], [ 38.8021955, 9.0011235 ], [ 38.8004373, 9.0013812 ], [ 38.7993438, 9.0015425 ], [ 38.7982943, 9.0031359 ], [ 38.79709230000001, 9.0065462 ], [ 38.7966599, 9.0077434 ], [ 38.7960673, 9.0097425 ], [ 38.7957932, 9.0106801 ], [ 38.7956285, 9.0113796 ], [ 38.7955817, 9.0122013 ], [ 38.7958668, 9.0132147 ], [ 38.7959622, 9.0132559 ], [ 38.7965579, 9.0132523 ], [ 38.7973233, 9.0133333 ], [ 38.7979855, 9.0132711 ], [ 38.8007463, 9.0153373 ], [ 38.8012821, 9.0163717 ], [ 38.7986449, 9.01891 ], [ 38.797182, 9.0184257 ], [ 38.7967567, 9.0182941 ], [ 38.7954471, 9.0178669 ], [ 38.7947434, 9.0176284 ], [ 38.7937514, 9.0173155 ], [ 38.794404299999989, 9.0203074 ], [ 38.7933801, 9.0211435 ], [ 38.7933946, 9.0212397 ] ] ] } },
{ "type": "Feature", "properties": { "threshold_s": 600, "time_label": "10 min drive" }, "geometry": { "type": "Polygon", "coordinates": [ [ [ 38.7743299, 9.0293061 ], [ 38.7775225, 9.0348571 ], [ 38.7797197, 9.0361348 ], [ 38.7866579, 9.0379459 ], [ 38.7884075, 9.037232 ], [ 38.788646, 9.0371199 ], [ 38.788999, 9.0366321 ], [ 38.7997189, 9.0335465 ], [ 38.8031475, 9.0364072 ], [ 38.8042312, 9.0365115 ], [ 38.8144658, 9.0377323 ], [ 38.8174096, 9.0417458 ], [ 38.8199731, 9.0426132 ], [ 38.821315, 9.0430851 ], [ 38.828462, 9.0432552 ], [ 38.832886, 9.0432387 ], [ 38.8351021, 9.0406214 ], [ 38.8436427, 9.0326368 ], [ 38.8438302, 9.0322455 ], [ 38.8450343, 9.0264826 ], [ 38.8475981, 9.0185385 ], [ 38.8497863, 9.0100939 ], [ 38.8484462, 9.005477 ], [ 38.8482327, 9.0048145 ], [ 38.8476213, 9.0045181 ], [ 38.846059, 9.0035846 ], [ 38.8448491, 9.0029023 ], [ 38.8434519, 9.0021879 ], [ 38.8426452, 9.0017116 ], [ 38.8396612, 8.9900797 ], [ 38.8410986, 8.9880312 ], [ 38.839418, 8.9845124 ], [ 38.8389108, 8.9837294 ], [ 38.8384477, 8.9832219 ], [ 38.8383858, 8.9831673 ], [ 38.8287239, 8.9794361 ], [ 38.8259465, 8.978022 ], [ 38.825469, 8.9781279 ], [ 38.8208006, 8.9803978 ], [ 38.817983, 8.985495 ], [ 38.8097735, 8.9869675 ], [ 38.8079529, 8.9863615 ], [ 38.8066972, 8.9860036 ], [ 38.8035562, 8.9852867 ], [ 38.8021619, 8.9853275 ], [ 38.7996331, 8.9854045 ], [ 38.788826, 8.985809 ], [ 38.7855757, 8.9849273 ], [ 38.7847861, 8.9907155 ], [ 38.7799883, 9.0014249 ], [ 38.7787355, 9.0030202 ], [ 38.7725128, 9.0102701 ], [ 38.7729915, 9.021206 ], [ 38.7726157, 9.0232898 ], [ 38.7743299, 9.0293061 ] ] ] } },
{ "type": "Feature", "properties": { "threshold_s": 900, "time_label": "15 min drive" }, "geometry": { "type": "Polygon", "coordinates": [ [ [ 38.7600057, 9.0440359 ], [ 38.7615926, 9.0465206 ], [ 38.7650777, 9.049683 ], [ 38.7675688, 9.0504832 ], [ 38.77087, 9.051386 ], [ 38.7798715, 9.0524987 ], [ 38.7811391, 9.0523363 ], [ 38.7841831, 9.0514087 ], [ 38.792129, 9.0494167 ], [ 38.8027809, 9.0533596 ], [ 38.8042744, 9.0593106 ], [ 38.8119963, 9.0575182 ], [ 38.8198472, 9.0606487 ], [ 38.8207706, 9.0610054 ], [ 38.8255781, 9.06194 ], [ 38.8277715, 9.0616619 ], [ 38.8283095, 9.0615893 ], [ 38.8300461, 9.0607963 ], [ 38.8371769, 9.0588359 ], [ 38.8434865, 9.0603961 ], [ 38.8437213, 9.0585415 ], [ 38.8495097, 9.0495413 ], [ 38.8531785, 9.0487206 ], [ 38.8569897, 9.04618 ], [ 38.8647708, 9.0406983 ], [ 38.864522, 9.0395358 ], [ 38.8648603, 9.0291935 ], [ 38.866942, 9.026511 ], [ 38.8714014, 9.0210496 ], [ 38.8714394, 9.0200441 ], [ 38.870214, 9.0110504 ], [ 38.8696938, 9.0094141 ], [ 38.8693115, 9.0088141 ], [ 38.8678044, 9.006383 ], [ 38.8641715, 8.9962063 ], [ 38.8638527, 8.9950823 ], [ 38.8589869, 8.9834581 ], [ 38.8542589, 8.9723237 ], [ 38.8470313, 8.9708627 ], [ 38.8445342, 8.9704772 ], [ 38.8376764, 8.9692227 ], [ 38.8282921, 8.9652772 ], [ 38.8249257, 8.9633665 ], [ 38.8172923, 8.9631277 ], [ 38.8154065, 8.963706 ], [ 38.8145122, 8.9640577 ], [ 38.8139486, 8.9647046 ], [ 38.8136212, 8.9654861 ], [ 38.8123919, 8.9680239 ], [ 38.8124616, 8.9711806 ], [ 38.8150683, 8.9737532 ], [ 38.817983, 8.985495 ], [ 38.8097735, 8.9869675 ], [ 38.8079529, 8.9863615 ], [ 38.8066972, 8.9860036 ], [ 38.8035562, 8.9852867 ], [ 38.8021619, 8.9853275 ], [ 38.7996331, 8.9854045 ], [ 38.7899075, 8.9859732 ], [ 38.7880106, 8.9854871 ], [ 38.7855757, 8.9849273 ], [ 38.7777914, 8.9763594 ], [ 38.7759295, 8.9724099 ], [ 38.7750556, 8.9694476 ], [ 38.7659511, 8.9761362 ], [ 38.7656192, 8.9764999 ], [ 38.7658419, 8.9839228 ], [ 38.7660614, 8.9911266 ], [ 38.762479, 8.9967163 ], [ 38.7544001, 9.0055835 ], [ 38.7503444, 9.0116155 ], [ 38.7526258, 9.0172874 ], [ 38.7541621, 9.0265885 ], [ 38.7518743, 9.0302856 ], [ 38.7540847, 9.0327214 ], [ 38.7579791, 9.0380662 ], [ 38.7600057, 9.0440359 ] ] ] } },
{ "type": "Feature", "properties": { "threshold_s": 300, "time_label": "5 min drive" }, "geometry": { "type": "Polygon", "coordinates": [ [ [ 38.8116801, 9.0213311 ], [ 38.8132756, 9.0242962 ], [ 38.8163343, 9.0250546 ], [ 38.8191069, 9.0273668 ], [ 38.8191392, 9.0273882 ], [ 38.8202976, 9.0275475 ], [ 38.8249282, 9.0291742 ], [ 38.8272859, 9.032712 ], [ 38.8297431, 9.0321474 ], [ 38.8323241, 9.0311502 ], [ 38.8344168, 9.0302342 ], [ 38.8357285, 9.0294508 ], [ 38.835766, 9.029362 ], [ 38.8346891, 9.0272203 ], [ 38.8361434, 9.0230967 ], [ 38.8392593, 9.0214433 ], [ 38.8408486, 9.021363 ], [ 38.8418171, 9.0213402 ], [ 38.8403292, 9.0199054 ], [ 38.8392847, 9.0189446 ], [ 38.8387464, 9.0183235 ], [ 38.838038, 9.0135597 ], [ 38.8397905, 9.0108774 ], [ 38.8393205, 9.0104231 ], [ 38.8384936, 9.0097235 ], [ 38.8380406, 9.0093957 ], [ 38.8367389, 9.0085532 ], [ 38.8363087, 9.0083377 ], [ 38.835086, 9.0077408 ], [ 38.8321938, 9.0047921 ], [ 38.8283839, 9.0019322 ], [ 38.8277234, 9.001664 ], [ 38.825101, 9.001087 ], [ 38.8239442, 9.0011858 ], [ 38.8202126, 9.0015063 ], [ 38.8189781, 9.0014169 ], [ 38.8178006, 9.0024879 ], [ 38.8143526, 9.0036469 ], [ 38.8122604, 9.0080583 ], [ 38.8102475, 9.0114704 ], [ 38.8106196, 9.0133539 ], [ 38.811043, 9.0138626 ], [ 38.8129994, 9.0138904 ], [ 38.8158358, 9.015769 ], [ 38.8133688, 9.0197109 ], [ 38.811567599999989, 9.0200756 ], [ 38.811054, 9.0201534 ], [ 38.8116801, 9.0213311 ] ] ] } },
{ "type": "Feature", "properties": { "threshold_s": 600, "time_label": "10 min drive" }, "geometry": { "type": "Polygon", "coordinates": [ [ [ 38.7893282, 9.0224159 ], [ 38.7914382, 9.0273642 ], [ 38.7964456, 9.0288702 ], [ 38.7976937, 9.0288451 ], [ 38.7980379, 9.0288077 ], [ 38.7981611, 9.0287943 ], [ 38.8015628, 9.0289204 ], [ 38.805898, 9.0343795 ], [ 38.8097365, 9.0345983 ], [ 38.8144658, 9.0377323 ], [ 38.8151065, 9.0452571 ], [ 38.8154301, 9.0454104 ], [ 38.8157876, 9.0455703 ], [ 38.8176182, 9.0455613 ], [ 38.8184054, 9.0454807 ], [ 38.8256755, 9.0502843 ], [ 38.8264969, 9.0514454 ], [ 38.8286179, 9.0524749 ], [ 38.835362, 9.0513862 ], [ 38.8400849, 9.0468261 ], [ 38.8424571, 9.0455983 ], [ 38.8453595, 9.044009 ], [ 38.8468139, 9.0431901 ], [ 38.8515215, 9.0406977 ], [ 38.856829, 9.0366198 ], [ 38.8581855, 9.0280834 ], [ 38.8584092, 9.0275515 ], [ 38.86369, 9.0207089 ], [ 38.8623575, 9.0189627 ], [ 38.8616108, 9.0101591 ], [ 38.8617346, 9.009599 ], [ 38.8598499, 9.007293 ], [ 38.8537518, 9.001211 ], [ 38.8518728, 8.9993868 ], [ 38.8450585, 8.9942628 ], [ 38.8437998, 8.993316 ], [ 38.837714, 8.9885367 ], [ 38.8361053, 8.9854182 ], [ 38.8344786, 8.9850665 ], [ 38.8289297, 8.9840815 ], [ 38.8224529, 8.9850778 ], [ 38.8196728, 8.9858488 ], [ 38.8190351, 8.9862093 ], [ 38.8172293, 8.987135 ], [ 38.8097735, 8.9869675 ], [ 38.8079529, 8.9863615 ], [ 38.8066972, 8.9860036 ], [ 38.8028242, 8.9908194 ], [ 38.8024711, 8.9914824 ], [ 38.7984775, 8.9990207 ], [ 38.7958042, 9.0028503 ], [ 38.794, 9.0077796 ], [ 38.7936352, 9.0089193 ], [ 38.7889856, 9.016248 ], [ 38.7890268, 9.0216181 ], [ 38.7893282, 9.0224159 ] ] ] } },
{ "type": "Feature", "properties": { "threshold_s": 900, "time_label": "15 min drive" }, "geometry": { "type": "Polygon", "coordinates": [ [ [ 38.7719675, 9.0350362 ], [ 38.7736243, 9.0381735 ], [ 38.7778774, 9.0397628 ], [ 38.7808546, 9.0405328 ], [ 38.7819394, 9.0405796 ], [ 38.7840646, 9.0399581 ], [ 38.7967241, 9.0428703 ], [ 38.8007203, 9.0474898 ], [ 38.8027809, 9.0533596 ], [ 38.8050145, 9.0564183 ], [ 38.8124871, 9.0624673 ], [ 38.8147441, 9.0635101 ], [ 38.8255781, 9.06194 ], [ 38.8296586, 9.0626196 ], [ 38.8304083, 9.062813 ], [ 38.843521, 9.0630858 ], [ 38.8446374, 9.0675065 ], [ 38.8448721, 9.0682839 ], [ 38.8450371, 9.0690732 ], [ 38.853946, 9.0604914 ], [ 38.8543698, 9.0598689 ], [ 38.8553005, 9.0583366 ], [ 38.8611813, 9.0496817 ], [ 38.870313, 9.04973 ], [ 38.8724271, 9.0495791 ], [ 38.8723083, 9.04933 ], [ 38.8710326, 9.0475432 ], [ 38.8679901, 9.0413286 ], [ 38.8745851, 9.0340029 ], [ 38.8757998, 9.0328566 ], [ 38.876965, 9.031774 ], [ 38.8806597, 9.0276787 ], [ 38.8828029, 9.0253122 ], [ 38.8860051, 9.0216916 ], [ 38.8835613, 9.010639 ], [ 38.8794391, 9.0011745 ], [ 38.879364, 9.0010116 ], [ 38.8767032, 8.9999374 ], [ 38.87197780000001, 8.9972456 ], [ 38.8659556, 8.990281 ], [ 38.8612232, 8.9843256 ], [ 38.855432, 8.9797845 ], [ 38.8470313, 8.9708627 ], [ 38.8445342, 8.9704772 ], [ 38.8376764, 8.9692227 ], [ 38.8282921, 8.9652772 ], [ 38.8211505, 8.9664894 ], [ 38.8202025, 8.9671469 ], [ 38.8180051, 8.9696678 ], [ 38.8169054, 8.9714992 ], [ 38.8168311, 8.9739661 ], [ 38.817983, 8.985495 ], [ 38.8097735, 8.9869675 ], [ 38.8079529, 8.9863615 ], [ 38.8066972, 8.9860036 ], [ 38.8035562, 8.9852867 ], [ 38.8021619, 8.9853275 ], [ 38.7996331, 8.9854045 ], [ 38.788826, 8.985809 ], [ 38.7855757, 8.9849273 ], [ 38.7842988, 8.9845215 ], [ 38.7829895, 8.9840922 ], [ 38.7824454, 8.9839019 ], [ 38.7816045, 8.9919559 ], [ 38.7787335, 8.9986333 ], [ 38.7747095, 9.005959 ], [ 38.7692515, 9.0104413 ], [ 38.768797, 9.0113452 ], [ 38.7677259, 9.0197702 ], [ 38.7686882, 9.0283996 ], [ 38.7719675, 9.0350362 ] ] ] } },
{ "type": "Feature", "properties": { "threshold_s": 300, "time_label": "5 min drive" }, "geometry": { "type": "Polygon", "coordinates": [ [ [ 38.6852767, 9.0690918 ], [ 38.6848046, 9.0744871 ], [ 38.689663, 9.0762027 ], [ 38.6938391, 9.0730859 ], [ 38.6945052, 9.0723955 ], [ 38.6946523, 9.0720662 ], [ 38.698357799999989, 9.0683166 ], [ 38.6992261, 9.0679087 ], [ 38.7001384, 9.0673675 ], [ 38.7047361, 9.0671463 ], [ 38.7051867, 9.0669423 ], [ 38.7064393, 9.0656273 ], [ 38.7078967, 9.0623726 ], [ 38.7066177, 9.0581016 ], [ 38.7065344, 9.0580365 ], [ 38.7039984, 9.0561381 ], [ 38.7019271, 9.0549932 ], [ 38.6991694, 9.0541126 ], [ 38.6943398, 9.0523358 ], [ 38.6937929, 9.0502591 ], [ 38.6937608, 9.0499517 ], [ 38.693727, 9.0496195 ], [ 38.6936392, 9.04931 ], [ 38.6934752, 9.0489497 ], [ 38.6929451, 9.0483917 ], [ 38.6926122, 9.0484916 ], [ 38.6910361, 9.048995 ], [ 38.6905687, 9.0493811 ], [ 38.6872937, 9.0512525 ], [ 38.684895, 9.0518267 ], [ 38.6846724, 9.0563468 ], [ 38.6847206, 9.0589202 ], [ 38.6847507, 9.0616361 ], [ 38.6847362, 9.0650724 ], [ 38.6847681, 9.0654203 ], [ 38.6848503, 9.0662366 ], [ 38.6851587, 9.0687948 ], [ 38.6852767, 9.0690918 ] ] ] } },
{ "type": "Feature", "properties": { "threshold_s": 600, "time_label": "10 min drive" }, "geometry": { "type": "Polygon", "coordinates": [ [ [ 38.6847681, 9.0654203 ], [ 38.6848046, 9.0744871 ], [ 38.689663, 9.0762027 ], [ 38.6938391, 9.0730859 ], [ 38.6945052, 9.0723955 ], [ 38.6946523, 9.0720662 ], [ 38.6947811, 9.0717378 ], [ 38.698357799999989, 9.0683166 ], [ 38.7049681, 9.0734342 ], [ 38.7040883, 9.075675 ], [ 38.7066767, 9.0720331 ], [ 38.7157707, 9.0714928 ], [ 38.7160362, 9.0719192 ], [ 38.7166478, 9.0718531 ], [ 38.7179151, 9.0712782 ], [ 38.7183063, 9.0704217 ], [ 38.7193774, 9.067844 ], [ 38.7193914, 9.0665966 ], [ 38.7188323, 9.0658022 ], [ 38.7207408, 9.0572075 ], [ 38.7223233, 9.0535926 ], [ 38.7232608, 9.0507909 ], [ 38.7217051, 9.0506091 ], [ 38.7191878, 9.0503161 ], [ 38.7158364, 9.0489645 ], [ 38.7134311, 9.0469746 ], [ 38.7144158, 9.0399663 ], [ 38.7111534, 9.038058 ], [ 38.7057124, 9.0336308 ], [ 38.705361, 9.0337421 ], [ 38.7041058, 9.0341606 ], [ 38.6951821, 9.0328202 ], [ 38.6883502, 9.0341476 ], [ 38.6848767, 9.0356841 ], [ 38.683847, 9.036928 ], [ 38.6794643, 9.0446396 ], [ 38.6806176, 9.0455197 ], [ 38.6814183, 9.0461415 ], [ 38.6848922, 9.0525543 ], [ 38.6848619, 9.0553593 ], [ 38.684765, 9.0559001 ], [ 38.6846724, 9.0563468 ], [ 38.6847206, 9.0589202 ], [ 38.684761, 9.0605151 ], [ 38.6847507, 9.0616361 ], [ 38.6847578, 9.0622835 ], [ 38.6847362, 9.0650724 ], [ 38.6847681, 9.0654203 ] ] ] } },
{ "type": "Feature", "properties": { "threshold_s": 900, "time_label": "15 min drive" }, "geometry": { "type": "Polygon", "coordinates": [ [ [ 38.6847681, 9.0654203 ], [ 38.6848046, 9.0744871 ], [ 38.689663, 9.0762027 ], [ 38.6938391, 9.0730859 ], [ 38.7040883, 9.075675 ], [ 38.7066767, 9.0720331 ], [ 38.7160362, 9.0719192 ], [ 38.7182799, 9.0763662 ], [ 38.7190591, 9.077488 ], [ 38.7212082, 9.0809212 ], [ 38.7107912, 9.0885365 ], [ 38.7222228, 9.0847868 ], [ 38.7255473, 9.0871632 ], [ 38.7265894, 9.0880836 ], [ 38.7278259, 9.0858894 ], [ 38.7287586, 9.0812933 ], [ 38.7341311, 9.0707154 ], [ 38.7398408, 9.0640486 ], [ 38.7407964, 9.0611644 ], [ 38.7412336, 9.0577602 ], [ 38.7420319, 9.0505302 ], [ 38.7421502, 9.0477222 ], [ 38.7416669, 9.0399542 ], [ 38.7409798, 9.0388558 ], [ 38.7382503, 9.0365404 ], [ 38.7313107, 9.0313408 ], [ 38.7242076, 9.0244733 ], [ 38.7178761, 9.0167999 ], [ 38.7119277, 9.0185845 ], [ 38.6998484, 9.0184646 ], [ 38.6959773, 9.0171002 ], [ 38.6936581, 9.0168994 ], [ 38.6819199, 9.0161169 ], [ 38.6799441, 9.0179315 ], [ 38.6716017, 9.0257756 ], [ 38.6714859, 9.0304482 ], [ 38.6722357, 9.035704 ], [ 38.6746724, 9.0409686 ], [ 38.676438, 9.042549 ], [ 38.6794643, 9.0446396 ], [ 38.6806176, 9.0455197 ], [ 38.6846724, 9.0563468 ], [ 38.6847206, 9.0589202 ], [ 38.684761, 9.0605151 ], [ 38.6847507, 9.0616361 ], [ 38.6847578, 9.0622835 ], [ 38.6847362, 9.0650724 ], [ 38.6847681, 9.0654203 ] ] ] } },
{ "type": "Feature", "properties": { "threshold_s": 300, "time_label": "5 min drive" }, "geometry": { "type": "Polygon", "coordinates": [ [ [ 38.7631958, 9.029803 ], [ 38.7636394, 9.0308323 ], [ 38.7672949, 9.0333336 ], [ 38.7681332, 9.0340919 ], [ 38.7703056, 9.0363681 ], [ 38.7707349, 9.0364693 ], [ 38.7752885, 9.0378956 ], [ 38.7765473, 9.0380698 ], [ 38.7772388, 9.038123 ], [ 38.7816332, 9.0394631 ], [ 38.7832014, 9.0393962 ], [ 38.7836258, 9.0393199 ], [ 38.7866579, 9.0379459 ], [ 38.7884075, 9.037232 ], [ 38.788646, 9.0371199 ], [ 38.788999, 9.0366321 ], [ 38.7898711, 9.0353037 ], [ 38.7913411, 9.0328014 ], [ 38.7947311, 9.0312946 ], [ 38.7988474, 9.0307862 ], [ 38.8000767, 9.0287239 ], [ 38.8000908, 9.0286678 ], [ 38.7988977, 9.0268528 ], [ 38.8002208, 9.022295 ], [ 38.8004962, 9.0219356 ], [ 38.7992964, 9.0204626 ], [ 38.797182, 9.0184257 ], [ 38.7939321, 9.0148977 ], [ 38.7933255, 9.0131401 ], [ 38.7929784, 9.012718 ], [ 38.7905071, 9.0089001 ], [ 38.7887931, 9.0078893 ], [ 38.7887402, 9.0078729 ], [ 38.7870385, 9.0084513 ], [ 38.7836044, 9.0063722 ], [ 38.7824663, 9.0048444 ], [ 38.7806044, 9.0049721 ], [ 38.7801361, 9.0051451 ], [ 38.7794724, 9.0056821 ], [ 38.7790846, 9.007266 ], [ 38.7781482, 9.0088664 ], [ 38.7740014, 9.0088061 ], [ 38.7725128, 9.0102701 ], [ 38.7694701, 9.0112646 ], [ 38.768895, 9.0121279 ], [ 38.766101, 9.0156017 ], [ 38.7649382, 9.0162277 ], [ 38.7640158, 9.0171291 ], [ 38.7638895, 9.0199177 ], [ 38.7650922, 9.0223314 ], [ 38.7673037, 9.0253571 ], [ 38.7664952, 9.0274613 ], [ 38.7633917, 9.0291295 ], [ 38.7631958, 9.029803 ] ] ] } },
{ "type": "Feature", "properties": { "threshold_s": 600, "time_label": "10 min drive" }, "geometry": { "type": "Polygon", "coordinates": [ [ [ 38.7471727, 9.0405749 ], [ 38.7507784, 9.0448296 ], [ 38.7588579, 9.0514815 ], [ 38.7675065, 9.0547701 ], [ 38.7777284, 9.0570087 ], [ 38.7813867, 9.0571314 ], [ 38.7862726, 9.0545333 ], [ 38.7873548, 9.0536933 ], [ 38.792129, 9.0494167 ], [ 38.7967241, 9.0428703 ], [ 38.8041703, 9.044401 ], [ 38.8097365, 9.0345983 ], [ 38.8144658, 9.0377323 ], [ 38.8157836, 9.0387644 ], [ 38.8173207, 9.0382299 ], [ 38.8209174, 9.0362103 ], [ 38.820139, 9.0298447 ], [ 38.8208135, 9.0241331 ], [ 38.8218961, 9.0181608 ], [ 38.8172691, 9.0119811 ], [ 38.8130859, 9.0036714 ], [ 38.8069363, 8.9967504 ], [ 38.8063582, 8.9967321 ], [ 38.8058382, 8.9967953 ], [ 38.8026126, 8.9969332 ], [ 38.7942992, 8.9887271 ], [ 38.7851306, 8.9856381 ], [ 38.778325, 8.9844791 ], [ 38.7731591, 8.9845459 ], [ 38.77311, 8.9846007 ], [ 38.7730621, 8.9846542 ], [ 38.7665231, 8.9948114 ], [ 38.7634031, 8.9964943 ], [ 38.7566735, 9.001497 ], [ 38.7545691, 9.0029082 ], [ 38.7531698, 9.0041116 ], [ 38.7451161, 9.01093 ], [ 38.7427584, 9.0162719 ], [ 38.7427155, 9.0163732 ], [ 38.7425301, 9.0168306 ], [ 38.7430758, 9.0287356 ], [ 38.7428963, 9.0345213 ], [ 38.7443637, 9.0371691 ], [ 38.7471727, 9.0405749 ] ] ] } },
{ "type": "Feature", "properties": { "threshold_s": 900, "time_label": "15 min drive" }, "geometry": { "type": "Polygon", "coordinates": [ [ [ 38.7319874, 9.0553044 ], [ 38.7360201, 9.0611151 ], [ 38.747436, 9.0671263 ], [ 38.7599415, 9.0743207 ], [ 38.7732129, 9.073078 ], [ 38.7760627, 9.0734872 ], [ 38.7827689, 9.0753935 ], [ 38.7930049, 9.0729548 ], [ 38.7947334, 9.0718726 ], [ 38.803131, 9.060955 ], [ 38.8053846, 9.0605377 ], [ 38.8116363, 9.059105 ], [ 38.8123195, 9.0588545 ], [ 38.8250117, 9.053549 ], [ 38.8278937, 9.0535318 ], [ 38.8294508, 9.053394 ], [ 38.8314134, 9.0521608 ], [ 38.8319772, 9.051801 ], [ 38.837142, 9.0464329 ], [ 38.8398001, 9.0376201 ], [ 38.842539, 9.0321265 ], [ 38.843856, 9.0212365 ], [ 38.8412687, 9.0103085 ], [ 38.8397357, 9.008867 ], [ 38.8381862, 9.0074305 ], [ 38.8367785, 9.0061027 ], [ 38.8318331, 8.9995941 ], [ 38.8302769, 8.9924475 ], [ 38.830056, 8.9908855 ], [ 38.8300302, 8.9907991 ], [ 38.8215003, 8.9841883 ], [ 38.8200144, 8.9840292 ], [ 38.8066972, 8.9860036 ], [ 38.8035562, 8.9852867 ], [ 38.8021619, 8.9853275 ], [ 38.7996331, 8.9854045 ], [ 38.7971379, 8.9861223 ], [ 38.7899075, 8.9859732 ], [ 38.7880106, 8.9854871 ], [ 38.7777914, 8.9763594 ], [ 38.7784204, 8.9681007 ], [ 38.7785706, 8.9675191 ], [ 38.7764736, 8.9663298 ], [ 38.7748945, 8.9656073 ], [ 38.7662108, 8.9676225 ], [ 38.7609422, 8.9727954 ], [ 38.7487456, 8.9815344 ], [ 38.7388766, 8.9880609 ], [ 38.7388337, 8.9881324 ], [ 38.7343846, 8.996604 ], [ 38.7292146, 9.0052443 ], [ 38.7285474, 9.0064755 ], [ 38.7284978, 9.0065722 ], [ 38.726517, 9.0109459 ], [ 38.7212833, 9.0199212 ], [ 38.7227833, 9.0297872 ], [ 38.7213857, 9.0358539 ], [ 38.7250096, 9.0457555 ], [ 38.7319874, 9.0553044 ] ] ] } },
{ "type": "Feature", "properties": { "threshold_s": 300, "time_label": "5 min drive" }, "geometry": { "type": "Polygon", "coordinates": [ [ [ 38.8629623, 9.0229316 ], [ 38.8641242, 9.0247925 ], [ 38.8656287, 9.0260738 ], [ 38.8682631, 9.0289126 ], [ 38.8684198, 9.0290747 ], [ 38.871983899999989, 9.0295753 ], [ 38.8745945, 9.0328456 ], [ 38.8745877, 9.0334639 ], [ 38.8745851, 9.0340029 ], [ 38.8757801, 9.0354669 ], [ 38.8769724, 9.0365074 ], [ 38.8778056, 9.037232 ], [ 38.878946, 9.0374277 ], [ 38.8803497, 9.0370691 ], [ 38.8828334, 9.0342109 ], [ 38.8861021, 9.03257 ], [ 38.889458500000011, 9.029954 ], [ 38.8906199, 9.0274217 ], [ 38.8910879, 9.0263395 ], [ 38.8920079, 9.0251462 ], [ 38.8955471, 9.0237263 ], [ 38.8944717, 9.0201679 ], [ 38.8944973, 9.0191105 ], [ 38.8946015, 9.0178817 ], [ 38.8926134, 9.0167035 ], [ 38.8907487, 9.0158764 ], [ 38.8906755, 9.015872 ], [ 38.8907445, 9.0166061 ], [ 38.8906634, 9.0178602 ], [ 38.89073, 9.0191277 ], [ 38.8862294, 9.0192266 ], [ 38.8856355, 9.0184126 ], [ 38.8855438, 9.0154758 ], [ 38.8850963, 9.0141426 ], [ 38.8850811, 9.0130612 ], [ 38.8884393, 9.0106306 ], [ 38.8888068, 9.0105582 ], [ 38.8876504, 9.0091286 ], [ 38.8859136, 9.0070369 ], [ 38.882456, 9.0063349 ], [ 38.8796872, 9.005045 ], [ 38.8767718, 9.0020768 ], [ 38.8765597, 9.0017587 ], [ 38.8764132, 9.002169 ], [ 38.8764657, 9.0023479 ], [ 38.8770401, 9.0050606 ], [ 38.8754976, 9.0070477 ], [ 38.8744783, 9.0078319 ], [ 38.8725588, 9.0109856 ], [ 38.8696938, 9.0094141 ], [ 38.8693115, 9.0088141 ], [ 38.8689723, 9.0085029 ], [ 38.8656089, 9.0113038 ], [ 38.8652095, 9.0115203 ], [ 38.86567, 9.0153076 ], [ 38.8643358, 9.0184438 ], [ 38.8610298, 9.020743 ], [ 38.8629623, 9.0229316 ] ] ] } },
{ "type": "Feature", "properties": { "threshold_s": 600, "time_label": "10 min drive" }, "geometry": { "type": "Polygon", "coordinates": [ [ [ 38.8492918, 9.0348539 ], [ 38.8504317, 9.0363871 ], [ 38.8527283, 9.038722 ], [ 38.857802, 9.0409784 ], [ 38.8621308, 9.0416981 ], [ 38.8621978, 9.041714 ], [ 38.8623722, 9.0417232 ], [ 38.8640561, 9.0416229 ], [ 38.8660026, 9.0417855 ], [ 38.8700261, 9.0491544 ], [ 38.870313, 9.04973 ], [ 38.8716953, 9.0526346 ], [ 38.8774207, 9.0571328 ], [ 38.8786316, 9.0573527 ], [ 38.8793251, 9.0570374 ], [ 38.8795356, 9.0552243 ], [ 38.8847783, 9.0489287 ], [ 38.8849151, 9.0488107 ], [ 38.8850064, 9.0486798 ], [ 38.8851867, 9.0484094 ], [ 38.8853084, 9.0482034 ], [ 38.8891501, 9.0421339 ], [ 38.8924666, 9.0374161 ], [ 38.8990593, 9.0337165 ], [ 38.8953325, 9.027668 ], [ 38.9002302, 9.0222733 ], [ 38.9008565, 9.0197236 ], [ 38.9004207, 9.0112823 ], [ 38.9028293, 9.006449 ], [ 38.9025959, 9.0057496 ], [ 38.9016357, 9.00318 ], [ 38.8947448, 8.9979451 ], [ 38.8945421, 8.9960927 ], [ 38.8941662, 8.9947574 ], [ 38.8939867, 8.994115 ], [ 38.8925672, 8.9923619 ], [ 38.88523, 8.987723 ], [ 38.8855004, 8.9846722 ], [ 38.8848376, 8.9848396 ], [ 38.8801338, 8.9867283 ], [ 38.8740063, 8.9906784 ], [ 38.8718391, 8.9914174 ], [ 38.869763, 8.9978869 ], [ 38.8658068, 8.9993625 ], [ 38.859155, 8.996546 ], [ 38.8587794, 8.9960986 ], [ 38.8548895, 8.9937717 ], [ 38.8537455, 8.9941806 ], [ 38.8509541, 8.9973215 ], [ 38.8467644, 9.0021269 ], [ 38.844109, 9.0106134 ], [ 38.8441922, 9.0115618 ], [ 38.844074, 9.0170032 ], [ 38.8388308, 9.0216465 ], [ 38.8409109, 9.0249687 ], [ 38.8442584, 9.0275216 ], [ 38.8492918, 9.0348539 ] ] ] } },
{ "type": "Feature", "properties": { "threshold_s": 900, "time_label": "15 min drive" }, "geometry": { "type": "Polygon", "coordinates": [ [ [ 38.8277616, 9.0400457 ], [ 38.8285472, 9.0410637 ], [ 38.8288784, 9.0413308 ], [ 38.8405245, 9.0490252 ], [ 38.8423777, 9.0510737 ], [ 38.8517761, 9.0552534 ], [ 38.8597329, 9.0644142 ], [ 38.8622698, 9.0670293 ], [ 38.8637897, 9.0684627 ], [ 38.8718176, 9.0731005 ], [ 38.8796444, 9.0774785 ], [ 38.8803195, 9.0771202 ], [ 38.8825057, 9.0739698 ], [ 38.882759, 9.0736045 ], [ 38.8837609, 9.0705344 ], [ 38.8847653, 9.0665697 ], [ 38.8851718, 9.0638571 ], [ 38.8852997, 9.0623257 ], [ 38.885408, 9.0601564 ], [ 38.885576, 9.0574365 ], [ 38.8855746, 9.0542708 ], [ 38.8858157, 9.0510063 ], [ 38.8891501, 9.0421339 ], [ 38.8990593, 9.0337165 ], [ 38.9008565, 9.0197236 ], [ 38.9028293, 9.006449 ], [ 38.9025959, 9.0057496 ], [ 38.9023653, 8.9955715 ], [ 38.9043886, 8.9908277 ], [ 38.905657, 8.9885185 ], [ 38.9061706, 8.985985 ], [ 38.9061452, 8.9847142 ], [ 38.8968989, 8.9759151 ], [ 38.8974582, 8.9717065 ], [ 38.8972463, 8.9695009 ], [ 38.8968788, 8.9689657 ], [ 38.8964295, 8.9683127 ], [ 38.8962512, 8.9680676 ], [ 38.8834973, 8.9624508 ], [ 38.8752698, 8.9683683 ], [ 38.8744924, 8.9694135 ], [ 38.8692842, 8.9776795 ], [ 38.861662699999989, 8.9784161 ], [ 38.8546712, 8.974416 ], [ 38.8462388, 8.9798864 ], [ 38.8358382, 8.9877337 ], [ 38.829735, 8.9909787 ], [ 38.8283877, 8.993701 ], [ 38.8279205, 8.9951468 ], [ 38.8270867, 9.0011027 ], [ 38.8220379, 9.012678 ], [ 38.8210587, 9.0144765 ], [ 38.8203587, 9.0159123 ], [ 38.8198219, 9.0171193 ], [ 38.8191282, 9.0218749 ], [ 38.8257238, 9.0344096 ], [ 38.8277616, 9.0400457 ] ] ] } },
{ "type": "Feature", "properties": { "threshold_s": 300, "time_label": "5 min drive" }, "geometry": { "type": "Polygon", "coordinates": [ [ [ 38.8487015, 8.9985398 ], [ 38.8492016, 9.001935 ], [ 38.8511864, 9.0038778 ], [ 38.8519758, 9.0039611 ], [ 38.8520229, 9.0038196 ], [ 38.8537604, 9.0014803 ], [ 38.8550829, 9.0014486 ], [ 38.8573183, 9.0035376 ], [ 38.8562293, 9.0055649 ], [ 38.8557418, 9.0078428 ], [ 38.8563341, 9.0081527 ], [ 38.856694, 9.0081418 ], [ 38.8569338, 9.0078125 ], [ 38.8588436, 9.0055906 ], [ 38.8590772, 9.005161 ], [ 38.859954, 9.0032962 ], [ 38.8629958, 9.0045807 ], [ 38.8653346, 9.0071711 ], [ 38.8655183, 9.0078997 ], [ 38.8662327, 9.0095132 ], [ 38.866467299999989, 9.009673 ], [ 38.8698051, 9.0088234 ], [ 38.8693955, 9.0060755 ], [ 38.8692713, 9.0054074 ], [ 38.868791, 9.003596 ], [ 38.8686443, 9.0028691 ], [ 38.868548, 9.0025283 ], [ 38.8680223, 9.0006733 ], [ 38.8675019, 9.000001 ], [ 38.8685319, 8.9965702 ], [ 38.8683298, 8.9954969 ], [ 38.8658631, 8.9953807 ], [ 38.8647621, 8.9947766 ], [ 38.8638084, 8.9931033 ], [ 38.8659556, 8.990281 ], [ 38.8637757, 8.988145 ], [ 38.8644268, 8.9854301 ], [ 38.862619, 8.9826484 ], [ 38.8598227, 8.9823993 ], [ 38.8580051, 8.9836492 ], [ 38.8556372, 8.9814877 ], [ 38.8553729, 8.9814377 ], [ 38.8542256, 8.9813634 ], [ 38.8535654, 8.9814008 ], [ 38.852094, 8.9832816 ], [ 38.8520521, 8.9846203 ], [ 38.8546241, 8.9872988 ], [ 38.8531815, 8.9890156 ], [ 38.8506281, 8.9896292 ], [ 38.8489683, 8.9909968 ], [ 38.8483633, 8.9914724 ], [ 38.8475934, 8.9925988 ], [ 38.8484516, 8.9939689 ], [ 38.8483224, 8.9976646 ], [ 38.8487015, 8.9985398 ] ] ] } },
{ "type": "Feature", "properties": { "threshold_s": 600, "time_label": "10 min drive" }, "geometry": { "type": "Polygon", "coordinates": [ [ [ 38.8324142, 9.0077897 ], [ 38.8337425, 9.0114417 ], [ 38.8343739, 9.0119166 ], [ 38.8372292, 9.0136215 ], [ 38.8431532, 9.018532 ], [ 38.8485809, 9.0219779 ], [ 38.8528376, 9.0264879 ], [ 38.8529791, 9.0264362 ], [ 38.8542502, 9.0254448 ], [ 38.8546904, 9.023507 ], [ 38.8629623, 9.0229316 ], [ 38.8641242, 9.0247925 ], [ 38.8656287, 9.0260738 ], [ 38.8659618, 9.0262401 ], [ 38.866942, 9.026511 ], [ 38.8727054, 9.0256309 ], [ 38.8758455, 9.0273522 ], [ 38.876997, 9.0278429 ], [ 38.8785318, 9.0278917 ], [ 38.8795715, 9.0273383 ], [ 38.8806896, 9.0262677 ], [ 38.8842706, 9.0213203 ], [ 38.8851911, 9.0178172 ], [ 38.8855438, 9.0154758 ], [ 38.8906346, 9.0106492 ], [ 38.8906373, 9.0105711 ], [ 38.8883573, 9.0060092 ], [ 38.8892267, 8.9979795 ], [ 38.8892529, 8.9977453 ], [ 38.8884264, 8.9963947 ], [ 38.8854734, 8.9943764 ], [ 38.8839117, 8.9937965 ], [ 38.8828737, 8.9938204 ], [ 38.8795879, 8.99408 ], [ 38.8792041, 8.9943663 ], [ 38.8735718, 8.9973809 ], [ 38.8710961, 8.9968484 ], [ 38.8659556, 8.990281 ], [ 38.8644268, 8.9854301 ], [ 38.8694492, 8.9826364 ], [ 38.8775994, 8.9815828 ], [ 38.8781248, 8.9776941 ], [ 38.8776728, 8.9723689 ], [ 38.8769052, 8.9712658 ], [ 38.8757913, 8.9712919 ], [ 38.8748431, 8.9713396 ], [ 38.8683575, 8.973622 ], [ 38.8619397, 8.9685915 ], [ 38.8627933, 8.9648805 ], [ 38.8631319, 8.9641831 ], [ 38.8617231, 8.9654777 ], [ 38.8542589, 8.9723237 ], [ 38.8539979, 8.9723627 ], [ 38.8470313, 8.9708627 ], [ 38.8475228, 8.9742559 ], [ 38.8436849, 8.9799373 ], [ 38.8402788, 8.9799951 ], [ 38.8388063, 8.9797725 ], [ 38.832541, 8.985244 ], [ 38.8314886, 8.9857273 ], [ 38.8299381, 8.9895392 ], [ 38.8296436, 8.990574 ], [ 38.8293569, 8.998524 ], [ 38.8294575, 8.9987558 ], [ 38.8296848, 8.9992771 ], [ 38.8298732, 8.9997122 ], [ 38.832777, 9.0062461 ], [ 38.8324142, 9.0077897 ] ] ] } },
{ "type": "Feature", "properties": { "threshold_s": 900, "time_label": "15 min drive" }, "geometry": { "type": "Polygon", "coordinates": [ [ [ 38.8174471, 9.017213 ], [ 38.8191282, 9.0218749 ], [ 38.8220186, 9.023904 ], [ 38.8257697, 9.0273442 ], [ 38.8265835, 9.0280044 ], [ 38.8311271, 9.0316043 ], [ 38.8349875, 9.0364101 ], [ 38.8392543, 9.0375006 ], [ 38.8447957, 9.040289 ], [ 38.8484878, 9.0440257 ], [ 38.8513202, 9.0454073 ], [ 38.8545097, 9.04353 ], [ 38.8618921, 9.0423394 ], [ 38.8660026, 9.0417855 ], [ 38.870777, 9.0456028 ], [ 38.8733882, 9.04726 ], [ 38.8765038, 9.0495396 ], [ 38.8779517, 9.0505224 ], [ 38.8839143, 9.0463164 ], [ 38.8856135, 9.0444979 ], [ 38.889201, 9.0390757 ], [ 38.8905635, 9.0372148 ], [ 38.8926476, 9.0338109 ], [ 38.8930339, 9.0330507 ], [ 38.8953325, 9.027668 ], [ 38.9002302, 9.0222733 ], [ 38.9008565, 9.0197236 ], [ 38.8991091, 9.0134851 ], [ 38.9004207, 9.0112823 ], [ 38.9028293, 9.006449 ], [ 38.9025959, 9.0057496 ], [ 38.9016357, 9.00318 ], [ 38.8969538, 9.0017334 ], [ 38.8947448, 8.9979451 ], [ 38.8945421, 8.9960927 ], [ 38.8941662, 8.9947574 ], [ 38.8939867, 8.994115 ], [ 38.8931308, 8.9911646 ], [ 38.8915171, 8.9892954 ], [ 38.8917946, 8.9821334 ], [ 38.8960601, 8.9799898 ], [ 38.8962032, 8.979302 ], [ 38.8961332, 8.9791791 ], [ 38.8953285, 8.9777763 ], [ 38.8926275, 8.9758899 ], [ 38.8894029, 8.9705882 ], [ 38.8911432, 8.9655489 ], [ 38.8920437, 8.9645001 ], [ 38.8915042, 8.9626249 ], [ 38.8914027, 8.9622882 ], [ 38.887783399999989, 8.9589918 ], [ 38.8854539, 8.9568798 ], [ 38.8800117, 8.9511785 ], [ 38.8737598, 8.9489221 ], [ 38.8662735, 8.9506035 ], [ 38.8622153, 8.9511149 ], [ 38.8599249, 8.9516508 ], [ 38.8612041, 8.9531577 ], [ 38.8594177, 8.9601153 ], [ 38.8594042, 8.9603425 ], [ 38.8596511, 8.9619301 ], [ 38.8617231, 8.9654777 ], [ 38.8619397, 8.9685915 ], [ 38.8616373, 8.9715118 ], [ 38.8542589, 8.9723237 ], [ 38.8539979, 8.9723627 ], [ 38.8470313, 8.9708627 ], [ 38.8445342, 8.9704772 ], [ 38.8465713, 8.9618096 ], [ 38.8466016, 8.9594007 ], [ 38.8470608, 8.9552296 ], [ 38.841809, 8.9560099 ], [ 38.8356002, 8.9602146 ], [ 38.8360649, 8.9601376 ], [ 38.842897, 8.9625338 ], [ 38.843456, 8.9712955 ], [ 38.8387037, 8.9756077 ], [ 38.8303922, 8.9744672 ], [ 38.8285251, 8.9717354 ], [ 38.8280129, 8.9717952 ], [ 38.8251351, 8.9723093 ], [ 38.8233374, 8.973018 ], [ 38.8218902, 8.9771681 ], [ 38.8208006, 8.9803978 ], [ 38.8172293, 8.987135 ], [ 38.8127633, 8.9897199 ], [ 38.8122946, 8.991897 ], [ 38.8122705, 8.9947536 ], [ 38.8138037, 8.9971025 ], [ 38.812179, 9.0038137 ], [ 38.8121405, 9.0038958 ], [ 38.8121472, 9.0039827 ], [ 38.8138772, 9.0088346 ], [ 38.8152355, 9.0119172 ], [ 38.8174471, 9.017213 ] ] ] } },
{ "type": "Feature", "properties": { "threshold_s": 300, "time_label": "5 min drive" }, "geometry": { "type": "Polygon", "coordinates": [ [ [ 38.7212082, 9.0809212 ], [ 38.7222228, 9.0847868 ], [ 38.7231521, 9.0851596 ], [ 38.7231448, 9.084217 ], [ 38.7235789, 9.0781644 ], [ 38.7247139, 9.0753918 ], [ 38.7257969, 9.0726548 ], [ 38.726472, 9.0661305 ], [ 38.7265023, 9.0657005 ], [ 38.7252597, 9.0642197 ], [ 38.7238357, 9.0634896 ], [ 38.7217762, 9.0625895 ], [ 38.7195573, 9.0613802 ], [ 38.7188539, 9.0537516 ], [ 38.7159088, 9.0528119 ], [ 38.711742, 9.048993 ], [ 38.7107677, 9.0488427 ], [ 38.707826, 9.0513915 ], [ 38.7059672, 9.055068 ], [ 38.7058868, 9.0598722 ], [ 38.7071273, 9.0631653 ], [ 38.707658, 9.0628554 ], [ 38.7110449, 9.061498 ], [ 38.714509, 9.0682505 ], [ 38.7146036, 9.0688953 ], [ 38.7151902, 9.0700342 ], [ 38.7157707, 9.0714928 ], [ 38.7160362, 9.0719192 ], [ 38.7182799, 9.0763662 ], [ 38.7190591, 9.077488 ], [ 38.7212082, 9.0809212 ] ] ] } },
{ "type": "Feature", "properties": { "threshold_s": 600, "time_label": "10 min drive" }, "geometry": { "type": "Polygon", "coordinates": [ [ [ 38.6893412, 9.069898 ], [ 38.6907051, 9.0717587 ], [ 38.6938391, 9.0730859 ], [ 38.6945052, 9.0723955 ], [ 38.6946523, 9.0720662 ], [ 38.6947811, 9.0717378 ], [ 38.698357799999989, 9.0683166 ], [ 38.6992261, 9.0679087 ], [ 38.7001384, 9.0673675 ], [ 38.7049681, 9.0734342 ], [ 38.7040883, 9.075675 ], [ 38.7066767, 9.0720331 ], [ 38.7064393, 9.0656273 ], [ 38.707658, 9.0628554 ], [ 38.7110449, 9.061498 ], [ 38.714509, 9.0682505 ], [ 38.7146036, 9.0688953 ], [ 38.7151902, 9.0700342 ], [ 38.715507, 9.070681 ], [ 38.7157707, 9.0714928 ], [ 38.7160362, 9.0719192 ], [ 38.7182799, 9.0763662 ], [ 38.7190591, 9.077488 ], [ 38.7212082, 9.0809212 ], [ 38.7222228, 9.0847868 ], [ 38.7107912, 9.0885365 ], [ 38.7188042, 9.0925749 ], [ 38.7231521, 9.0851596 ], [ 38.7255473, 9.0871632 ], [ 38.7265894, 9.0880836 ], [ 38.730374, 9.0869792 ], [ 38.7380585, 9.0909943 ], [ 38.7437648, 9.0886729 ], [ 38.7443215, 9.0876717 ], [ 38.7440855, 9.0871613 ], [ 38.7410451, 9.0866057 ], [ 38.7389972, 9.0871137 ], [ 38.7352261, 9.0871606 ], [ 38.7309526, 9.086197 ], [ 38.7287586, 9.0812933 ], [ 38.7324589, 9.0764417 ], [ 38.7377219, 9.0759888 ], [ 38.7382369, 9.0758127 ], [ 38.7389919, 9.0740699 ], [ 38.7422269, 9.0690505 ], [ 38.7456746, 9.0669454 ], [ 38.7470103, 9.0664675 ], [ 38.7479243, 9.0658835 ], [ 38.7484129, 9.065267 ], [ 38.7484218, 9.0651141 ], [ 38.7462598, 9.0581087 ], [ 38.7452658, 9.0537138 ], [ 38.7441805, 9.0514772 ], [ 38.7437495, 9.0509108 ], [ 38.7411208, 9.0500081 ], [ 38.7372725, 9.0464281 ], [ 38.7368394, 9.0418941 ], [ 38.7359305, 9.0415209 ], [ 38.7304449, 9.0371184 ], [ 38.7297093, 9.0361907 ], [ 38.7279612, 9.0356078 ], [ 38.7240786, 9.0347561 ], [ 38.7179798, 9.0303254 ], [ 38.7177828, 9.0301607 ], [ 38.7143767, 9.0276131 ], [ 38.7136193, 9.0277912 ], [ 38.7076087, 9.0299507 ], [ 38.7049815, 9.0313607 ], [ 38.7005121, 9.0357644 ], [ 38.6969583, 9.0375002 ], [ 38.6937377, 9.0410938 ], [ 38.6922363, 9.0443981 ], [ 38.6919808, 9.0453363 ], [ 38.6906552, 9.0515548 ], [ 38.6863963, 9.0549755 ], [ 38.6857408, 9.0619477 ], [ 38.6893149, 9.0685795 ], [ 38.6893412, 9.069898 ] ] ] } },
{ "type": "Feature", "properties": { "threshold_s": 900, "time_label": "15 min drive" }, "geometry": { "type": "Polygon", "coordinates": [ [ [ 38.6847362, 9.0650724 ], [ 38.6848046, 9.0744871 ], [ 38.689663, 9.0762027 ], [ 38.6938391, 9.0730859 ], [ 38.7040883, 9.075675 ], [ 38.7066767, 9.0720331 ], [ 38.7182799, 9.0763662 ], [ 38.7190591, 9.077488 ], [ 38.7212082, 9.0809212 ], [ 38.7222228, 9.0847868 ], [ 38.7107912, 9.0885365 ], [ 38.7188042, 9.0925749 ], [ 38.7265894, 9.0880836 ], [ 38.7380585, 9.0909943 ], [ 38.7489573, 9.092251 ], [ 38.7555841, 9.0953021 ], [ 38.7610892, 9.096521 ], [ 38.7620931, 9.0965039 ], [ 38.7634499, 9.0964408 ], [ 38.7639566, 9.0927503 ], [ 38.7634939, 9.0907745 ], [ 38.7630419, 9.0905984 ], [ 38.7536985, 9.0820899 ], [ 38.7592721, 9.0777621 ], [ 38.760237, 9.0773743 ], [ 38.7621165, 9.0756068 ], [ 38.7653728, 9.0711988 ], [ 38.7658167, 9.0664029 ], [ 38.7657765, 9.0622659 ], [ 38.7656926, 9.0602311 ], [ 38.7650576, 9.0511274 ], [ 38.7605296, 9.041151 ], [ 38.7582831, 9.0359975 ], [ 38.7523777, 9.0300754 ], [ 38.7440472, 9.0232515 ], [ 38.7347609, 9.016752 ], [ 38.7339308, 9.0164814 ], [ 38.7303847, 9.0156057 ], [ 38.7225071, 9.0114307 ], [ 38.7190564, 9.0070821 ], [ 38.7179508, 9.009018 ], [ 38.7153025, 9.0123922 ], [ 38.7043753, 9.0177554 ], [ 38.7025633, 9.0171327 ], [ 38.6996707, 9.0155123 ], [ 38.6988272, 9.0169752 ], [ 38.6983706, 9.018354 ], [ 38.6950466, 9.0235727 ], [ 38.6854255, 9.0239263 ], [ 38.6846304, 9.0240298 ], [ 38.6806486, 9.0292508 ], [ 38.6797614, 9.0331397 ], [ 38.6794643, 9.0446396 ], [ 38.6806176, 9.0455197 ], [ 38.6846724, 9.0563468 ], [ 38.6847206, 9.0589202 ], [ 38.684761, 9.0605151 ], [ 38.6847507, 9.0616361 ], [ 38.6847578, 9.0622835 ], [ 38.6847362, 9.0650724 ] ] ] } },
{ "type": "Feature", "properties": { "threshold_s": 300, "time_label": "5 min drive" }, "geometry": { "type": "Polygon", "coordinates": [ [ [ 38.7433663, 9.047114 ], [ 38.7446104, 9.0506486 ], [ 38.7446992, 9.0507129 ], [ 38.7489405, 9.0536645 ], [ 38.7522372, 9.054834 ], [ 38.753982, 9.0552087 ], [ 38.7569102, 9.0555767 ], [ 38.7615513, 9.0556329 ], [ 38.764614, 9.0541074 ], [ 38.7653567, 9.0526351 ], [ 38.7682121, 9.0503408 ], [ 38.7702489, 9.0500487 ], [ 38.7703563, 9.0500188 ], [ 38.772725, 9.0469788 ], [ 38.7753607, 9.0423724 ], [ 38.7784962, 9.0381963 ], [ 38.7779067, 9.0359559 ], [ 38.7770047, 9.0312073 ], [ 38.7742804, 9.0292455 ], [ 38.7722482, 9.0279523 ], [ 38.7717946, 9.0280784 ], [ 38.7706975, 9.0282685 ], [ 38.767701, 9.0287114 ], [ 38.7673563, 9.028805 ], [ 38.7625209, 9.0267749 ], [ 38.7624111, 9.0266163 ], [ 38.7616201, 9.0233396 ], [ 38.7638225, 9.0193203 ], [ 38.7638073, 9.0191651 ], [ 38.7633018, 9.0192267 ], [ 38.7582698, 9.020931 ], [ 38.7575174, 9.0206261 ], [ 38.7561953, 9.0200771 ], [ 38.754346, 9.0216889 ], [ 38.751883, 9.0249976 ], [ 38.7490952, 9.028018 ], [ 38.7452999, 9.0301931 ], [ 38.745241, 9.0302293 ], [ 38.7417078, 9.0339163 ], [ 38.7415025, 9.0344947 ], [ 38.7410243, 9.0368286 ], [ 38.7407971, 9.0398028 ], [ 38.7414151, 9.0426959 ], [ 38.7433663, 9.047114 ] ] ] } },
{ "type": "Feature", "properties": { "threshold_s": 600, "time_label": "10 min drive" }, "geometry": { "type": "Polygon", "coordinates": [ [ [ 38.7308706, 9.0655205 ], [ 38.7322328, 9.0679197 ], [ 38.7380645, 9.0677495 ], [ 38.7394818, 9.0691537 ], [ 38.7433863, 9.0736866 ], [ 38.7500198, 9.0734554 ], [ 38.7523673, 9.0750431 ], [ 38.7584755, 9.0766311 ], [ 38.759199099999989, 9.0769278 ], [ 38.759592, 9.0770801 ], [ 38.7609605, 9.0766974 ], [ 38.7621165, 9.0756068 ], [ 38.7680067, 9.0755069 ], [ 38.7738921, 9.0725177 ], [ 38.7749684, 9.0694771 ], [ 38.7764087, 9.0679833 ], [ 38.7820199, 9.0676257 ], [ 38.7829832, 9.0633337 ], [ 38.7871173, 9.0618773 ], [ 38.7888612, 9.057534 ], [ 38.7883158, 9.0551371 ], [ 38.7879704, 9.0540761 ], [ 38.792129, 9.0494167 ], [ 38.7906995, 9.0454025 ], [ 38.7918929, 9.0415089 ], [ 38.7898711, 9.0353037 ], [ 38.7947311, 9.0312946 ], [ 38.7954111, 9.0306171 ], [ 38.7973537, 9.0288307 ], [ 38.7962349, 9.0243572 ], [ 38.7929798, 9.0211669 ], [ 38.7895982, 9.0173518 ], [ 38.7873429, 9.0143333 ], [ 38.7813332, 9.0121982 ], [ 38.7810649, 9.011236 ], [ 38.7774528, 9.0057013 ], [ 38.7719972, 9.0020342 ], [ 38.7718436, 9.0014832 ], [ 38.7705998, 8.9995274 ], [ 38.7693671, 8.9994722 ], [ 38.7656343, 8.9994049 ], [ 38.7641369, 8.9997092 ], [ 38.7609245, 9.000468 ], [ 38.7546804, 9.0018889 ], [ 38.7520792, 9.002727 ], [ 38.7467176, 9.0045045 ], [ 38.7450837, 9.0051057 ], [ 38.7432431, 9.0074962 ], [ 38.7389141, 9.0108949 ], [ 38.7374018, 9.0112675 ], [ 38.7363091, 9.0129335 ], [ 38.7318922, 9.0152679 ], [ 38.7303847, 9.0156057 ], [ 38.729859, 9.0157951 ], [ 38.7273511, 9.0183408 ], [ 38.7268389, 9.0202624 ], [ 38.7249787, 9.024868 ], [ 38.722997, 9.0279126 ], [ 38.7224694, 9.0296404 ], [ 38.7203707, 9.0350718 ], [ 38.7206966, 9.037875 ], [ 38.7212714, 9.0423913 ], [ 38.7213001, 9.0460257 ], [ 38.7217462, 9.0482593 ], [ 38.7235954, 9.0507595 ], [ 38.7246494, 9.0548689 ], [ 38.7251965, 9.0579106 ], [ 38.7264813, 9.0598398 ], [ 38.7282904, 9.06185 ], [ 38.7308706, 9.0655205 ] ] ] } },
{ "type": "Feature", "properties": { "threshold_s": 900, "time_label": "15 min drive" }, "geometry": { "type": "Polygon", "coordinates": [ [ [ 38.7157707, 9.0714928 ], [ 38.7182799, 9.0763662 ], [ 38.722216, 9.0782878 ], [ 38.7279962, 9.0819581 ], [ 38.7287586, 9.0812933 ], [ 38.7324589, 9.0764417 ], [ 38.7377219, 9.0759888 ], [ 38.7382369, 9.0758127 ], [ 38.7445479, 9.0766414 ], [ 38.7465249, 9.0792228 ], [ 38.745965, 9.0868881 ], [ 38.7440855, 9.0871613 ], [ 38.7410451, 9.0866057 ], [ 38.741257, 9.0875976 ], [ 38.7422991, 9.0892562 ], [ 38.7450282, 9.0888649 ], [ 38.7466992, 9.0877724 ], [ 38.7469025, 9.0870101 ], [ 38.7478956, 9.0789074 ], [ 38.7536985, 9.0820899 ], [ 38.7616257, 9.0880055 ], [ 38.761552, 9.0882703 ], [ 38.7630419, 9.0905984 ], [ 38.7625162, 9.0885921 ], [ 38.7622379, 9.0881776 ], [ 38.7613576, 9.0810134 ], [ 38.7612186, 9.0800548 ], [ 38.7636937, 9.0758776 ], [ 38.7684722, 9.0768381 ], [ 38.7700425, 9.0798452 ], [ 38.773237, 9.081739 ], [ 38.7736219, 9.0787401 ], [ 38.7742804, 9.0774085 ], [ 38.775241, 9.0762624 ], [ 38.7769619, 9.0750951 ], [ 38.7836453, 9.0772787 ], [ 38.7845762, 9.0804395 ], [ 38.7856852, 9.0805299 ], [ 38.7896159, 9.0783315 ], [ 38.7946067, 9.076095 ], [ 38.7949508, 9.0759041 ], [ 38.7963992, 9.0704068 ], [ 38.7963618, 9.0678503 ], [ 38.7957475, 9.0620051 ], [ 38.8016832, 9.0618727 ], [ 38.8020828, 9.0621853 ], [ 38.8028473, 9.0628395 ], [ 38.8050477, 9.06282 ], [ 38.8067847, 9.0595471 ], [ 38.8096063, 9.0526954 ], [ 38.8087629, 9.0482752 ], [ 38.8085872, 9.048062 ], [ 38.8069644, 9.0447637 ], [ 38.8041703, 9.044401 ], [ 38.7967241, 9.0428703 ], [ 38.7975584, 9.0393973 ], [ 38.8005483, 9.0376132 ], [ 38.8042312, 9.0365115 ], [ 38.8097365, 9.0345983 ], [ 38.8147181, 9.0359606 ], [ 38.8154149, 9.0358025 ], [ 38.8161143, 9.0355068 ], [ 38.8163561, 9.0349854 ], [ 38.8163782, 9.0349276 ], [ 38.8170572, 9.0307173 ], [ 38.8161631, 9.0303651 ], [ 38.8169372, 9.0230296 ], [ 38.8151325, 9.0204597 ], [ 38.8115648, 9.0158465 ], [ 38.8117229, 9.0129526 ], [ 38.8096198, 9.0082847 ], [ 38.8059445, 9.0070212 ], [ 38.8012889, 9.0015944 ], [ 38.8002281, 9.0010613 ], [ 38.7951352, 8.9973643 ], [ 38.7956395, 8.9945489 ], [ 38.7932496, 8.9902193 ], [ 38.7931797, 8.9901665 ], [ 38.7893008, 8.9887511 ], [ 38.7855757, 8.9849273 ], [ 38.7810382, 8.9833915 ], [ 38.7780844, 8.9833345 ], [ 38.7713633, 8.9819561 ], [ 38.7648254, 8.9790716 ], [ 38.7624501, 8.9795471 ], [ 38.758982, 8.9801758 ], [ 38.7520522, 8.9816694 ], [ 38.7494497, 8.9805597 ], [ 38.7465178, 8.9822653 ], [ 38.7392813, 8.9844006 ], [ 38.7368917, 8.9845969 ], [ 38.7331702, 8.9866157 ], [ 38.7323374, 8.9888358 ], [ 38.7281075, 8.9943971 ], [ 38.7278068, 8.9946508 ], [ 38.725977, 8.9973217 ], [ 38.7259, 8.9976253 ], [ 38.7258428, 8.9978506 ], [ 38.7268985, 8.9991841 ], [ 38.7285474, 9.0064755 ], [ 38.7284978, 9.0065722 ], [ 38.726517, 9.0109459 ], [ 38.7201735, 9.0095651 ], [ 38.7197471, 9.0087074 ], [ 38.7190564, 9.0070821 ], [ 38.7186309, 9.0047421 ], [ 38.7186681, 9.0042571 ], [ 38.7186832, 9.004024 ], [ 38.7187191, 9.0029892 ], [ 38.7187473, 9.0020037 ], [ 38.7182619, 9.0019742 ], [ 38.7179937, 9.0019645 ], [ 38.7173141, 9.0025641 ], [ 38.7129074, 9.0075087 ], [ 38.710993, 9.0137582 ], [ 38.7110799, 9.014609 ], [ 38.7112233, 9.0146857 ], [ 38.7117121, 9.0149559 ], [ 38.7136283, 9.0221923 ], [ 38.7118323, 9.02292 ], [ 38.7113392, 9.0229746 ], [ 38.7083363, 9.0267296 ], [ 38.7047662, 9.0279834 ], [ 38.7032464, 9.0308579 ], [ 38.7022577, 9.0341348 ], [ 38.7021752, 9.0394962 ], [ 38.7034614, 9.0423153 ], [ 38.7051786, 9.04538 ], [ 38.7054147, 9.0455747 ], [ 38.7067276, 9.046368 ], [ 38.7086856, 9.0515048 ], [ 38.7066398, 9.0546231 ], [ 38.7061932, 9.054923 ], [ 38.7059672, 9.055068 ], [ 38.7064661, 9.0584386 ], [ 38.7077774, 9.0606464 ], [ 38.7082397, 9.0607552 ], [ 38.7110449, 9.061498 ], [ 38.714509, 9.0682505 ], [ 38.7146036, 9.0688953 ], [ 38.7157707, 9.0714928 ] ] ] } },
{ "type": "Feature", "properties": { "threshold_s": 300, "time_label": "5 min drive" }, "geometry": { "type": "Polygon", "coordinates": [ [ [ 38.7638895, 9.0199177 ], [ 38.7650922, 9.0223314 ], [ 38.7664473, 9.0226405 ], [ 38.7686595, 9.0207369 ], [ 38.7723687, 9.02177 ], [ 38.7726157, 9.0232898 ], [ 38.7763592, 9.0232278 ], [ 38.7764095, 9.0231921 ], [ 38.7791253, 9.0212346 ], [ 38.7827933, 9.0192845 ], [ 38.7868626, 9.0185753 ], [ 38.7890664, 9.0182611 ], [ 38.79037610000001, 9.0163806 ], [ 38.7904882, 9.0158742 ], [ 38.789912, 9.0117734 ], [ 38.7904413, 9.0114498 ], [ 38.7919494, 9.0097737 ], [ 38.7925181, 9.0080703 ], [ 38.7947168, 9.0050565 ], [ 38.7946479, 9.0046967 ], [ 38.7946308, 9.0046325 ], [ 38.7917389, 9.0056483 ], [ 38.7892042, 9.0040436 ], [ 38.7882698, 9.0017096 ], [ 38.7897293, 8.9996859 ], [ 38.7906855, 8.9993148 ], [ 38.7913789, 8.9990156 ], [ 38.7920983, 8.9987684 ], [ 38.792624, 8.9985777 ], [ 38.7931524, 8.9954781 ], [ 38.7913479, 8.9928249 ], [ 38.7887993, 8.9927548 ], [ 38.7852648, 8.9915358 ], [ 38.7822305, 8.9904055 ], [ 38.7779312, 8.9897209 ], [ 38.7771993, 8.9889938 ], [ 38.7730466, 8.9897253 ], [ 38.7711981, 8.9882736 ], [ 38.7711194, 8.9883651 ], [ 38.7690985, 8.9909227 ], [ 38.7679324, 8.991757 ], [ 38.7668799, 8.9927481 ], [ 38.7632901, 8.995034 ], [ 38.7619851, 8.9958804 ], [ 38.7603021, 8.9984982 ], [ 38.7592063, 9.0006528 ], [ 38.7603074, 9.0040662 ], [ 38.7609067, 9.0058947 ], [ 38.7627101, 9.0070834 ], [ 38.76206, 9.0111118 ], [ 38.7598898, 9.0114568 ], [ 38.7591938, 9.0114719 ], [ 38.759196, 9.0116 ], [ 38.7593389, 9.0118938 ], [ 38.762877, 9.0129834 ], [ 38.7632994, 9.0143168 ], [ 38.7623398, 9.017288 ], [ 38.7623666, 9.0174082 ], [ 38.7638895, 9.0199177 ] ] ] } },
{ "type": "Feature", "properties": { "threshold_s": 600, "time_label": "10 min drive" }, "geometry": { "type": "Polygon", "coordinates": [ [ [ 38.7414953, 9.0214372 ], [ 38.7452193, 9.0273356 ], [ 38.7512775, 9.0305243 ], [ 38.7573179, 9.0358262 ], [ 38.7584061, 9.0370047 ], [ 38.7678945, 9.0410057 ], [ 38.7740028, 9.0422343 ], [ 38.7753607, 9.0423724 ], [ 38.7778774, 9.0397628 ], [ 38.7801888, 9.0380316 ], [ 38.7894697, 9.0358202 ], [ 38.7988474, 9.0307862 ], [ 38.8011234, 9.0303124 ], [ 38.804107, 9.0285119 ], [ 38.8074333, 9.0229306 ], [ 38.8116947, 9.0198284 ], [ 38.8108201, 9.0148705 ], [ 38.8115716, 9.0067653 ], [ 38.8137632, 9.0014858 ], [ 38.8138301, 8.9945428 ], [ 38.8097735, 8.9869675 ], [ 38.8035562, 8.9852867 ], [ 38.8021619, 8.9853275 ], [ 38.7996331, 8.9854045 ], [ 38.7899075, 8.9859732 ], [ 38.7880106, 8.9854871 ], [ 38.7855757, 8.9849273 ], [ 38.7787516, 8.9794447 ], [ 38.7777914, 8.9763594 ], [ 38.7755072, 8.9716351 ], [ 38.7752672, 8.9716781 ], [ 38.7654244, 8.9727788 ], [ 38.7628793, 8.9728562 ], [ 38.7605834, 8.9740789 ], [ 38.7540968, 8.9794135 ], [ 38.7495568, 8.9814266 ], [ 38.743093, 8.9887576 ], [ 38.7417482, 8.9901297 ], [ 38.7417165, 8.994666 ], [ 38.7420561, 9.0049155 ], [ 38.7383308, 9.0091723 ], [ 38.7373792, 9.0111042 ], [ 38.7374018, 9.0112675 ], [ 38.7393228, 9.0164224 ], [ 38.7414953, 9.0214372 ] ] ] } },
{ "type": "Feature", "properties": { "threshold_s": 900, "time_label": "15 min drive" }, "geometry": { "type": "Polygon", "coordinates": [ [ [ 38.7279798, 9.0339205 ], [ 38.7348727, 9.0432874 ], [ 38.7412114, 9.0484778 ], [ 38.7440765, 9.0514193 ], [ 38.7479907, 9.0547749 ], [ 38.7575443, 9.0595224 ], [ 38.7613287, 9.061978 ], [ 38.772508, 9.061296 ], [ 38.7748037, 9.0612719 ], [ 38.7820121, 9.0601739 ], [ 38.7884441, 9.057753 ], [ 38.7888612, 9.057534 ], [ 38.792129, 9.0494167 ], [ 38.7967241, 9.0428703 ], [ 38.8042312, 9.0365115 ], [ 38.8144658, 9.0377323 ], [ 38.8163683, 9.0394796 ], [ 38.8181494, 9.0401582 ], [ 38.8184291, 9.0400446 ], [ 38.818889, 9.0398497 ], [ 38.8208896, 9.0388888 ], [ 38.8227328, 9.037991 ], [ 38.8239646, 9.0372368 ], [ 38.8307496, 9.0279156 ], [ 38.8316044, 9.0267239 ], [ 38.8339238, 9.0216463 ], [ 38.8339249, 9.0209136 ], [ 38.8322389, 9.0134539 ], [ 38.8320595, 9.0124229 ], [ 38.8303265, 9.0044892 ], [ 38.8309022, 8.9950803 ], [ 38.8313538, 8.9906402 ], [ 38.8289297, 8.9840815 ], [ 38.8277744, 8.9773 ], [ 38.8267766, 8.9758979 ], [ 38.8245638, 8.9749275 ], [ 38.8237016, 8.975427 ], [ 38.8211327, 8.9767138 ], [ 38.8208006, 8.9803978 ], [ 38.817983, 8.985495 ], [ 38.8097735, 8.9869675 ], [ 38.8079529, 8.9863615 ], [ 38.8066972, 8.9860036 ], [ 38.8035562, 8.9852867 ], [ 38.8021619, 8.9853275 ], [ 38.7996331, 8.9854045 ], [ 38.7971379, 8.9861223 ], [ 38.7899075, 8.9859732 ], [ 38.7880106, 8.9854871 ], [ 38.7855757, 8.9849273 ], [ 38.7842988, 8.9845215 ], [ 38.7787516, 8.9794447 ], [ 38.7777914, 8.9763594 ], [ 38.7828796, 8.9680649 ], [ 38.7909604, 8.9677523 ], [ 38.7914937, 8.9674282 ], [ 38.7921412, 8.9652592 ], [ 38.7918006, 8.9634721 ], [ 38.7912011, 8.9611803 ], [ 38.7910549, 8.9607763 ], [ 38.7909744, 8.9606478 ], [ 38.7902489, 8.9602939 ], [ 38.7883276, 8.9595368 ], [ 38.7848514, 8.9583628 ], [ 38.7745982, 8.9553157 ], [ 38.7707686, 8.9540323 ], [ 38.766852, 8.953155 ], [ 38.762583, 8.9530152 ], [ 38.7564152, 8.9537169 ], [ 38.7487685, 8.9578441 ], [ 38.7417376, 8.9644179 ], [ 38.7358058, 8.9664959 ], [ 38.7340753, 8.9706794 ], [ 38.7282642, 8.9799748 ], [ 38.7254147, 8.986819 ], [ 38.723478, 8.9931039 ], [ 38.7230574, 8.9945486 ], [ 38.7220337, 8.9992215 ], [ 38.7178011, 9.0083227 ], [ 38.7157746, 9.0132195 ], [ 38.7196042, 9.0227446 ], [ 38.7199824, 9.0233068 ], [ 38.7266235, 9.0309984 ], [ 38.7279798, 9.0339205 ] ] ] } },
{ "type": "Feature", "properties": { "threshold_s": 300, "time_label": "5 min drive" }, "geometry": { "type": "Polygon", "coordinates": [ [ [ 38.7709504, 9.0340645 ], [ 38.7734143, 9.0388789 ], [ 38.7777758, 9.0401384 ], [ 38.7818758, 9.0411522 ], [ 38.7828712, 9.0413032 ], [ 38.7832034, 9.0412485 ], [ 38.784006, 9.0409412 ], [ 38.788646, 9.0371199 ], [ 38.788999, 9.0366321 ], [ 38.7898711, 9.0353037 ], [ 38.7913411, 9.0328014 ], [ 38.7947311, 9.0312946 ], [ 38.7988474, 9.0307862 ], [ 38.8011234, 9.0303124 ], [ 38.8022468, 9.0290022 ], [ 38.8022679, 9.0289403 ], [ 38.8020118, 9.0282786 ], [ 38.8018846, 9.028053 ], [ 38.8006361, 9.0234734 ], [ 38.8014876, 9.0217608 ], [ 38.8016071, 9.0216033 ], [ 38.8020513, 9.0210223 ], [ 38.797182, 9.0184257 ], [ 38.7967567, 9.0182941 ], [ 38.7947434, 9.0176284 ], [ 38.7915556, 9.0156549 ], [ 38.7890701, 9.0126731 ], [ 38.7880908, 9.0106422 ], [ 38.7823498, 9.0091425 ], [ 38.7816411, 9.0083637 ], [ 38.7810148, 9.0078206 ], [ 38.7809236, 9.0077517 ], [ 38.7803711, 9.0080397 ], [ 38.7793008, 9.0087445 ], [ 38.775033, 9.0113597 ], [ 38.773148, 9.0145762 ], [ 38.7700074, 9.0148215 ], [ 38.7699191, 9.014831 ], [ 38.7692811, 9.0152555 ], [ 38.7682007, 9.0165141 ], [ 38.766175, 9.0194163 ], [ 38.7664473, 9.0226405 ], [ 38.7696171, 9.026581 ], [ 38.7673563, 9.028805 ], [ 38.7660695, 9.0292297 ], [ 38.7657206, 9.0293019 ], [ 38.7696665, 9.0317334 ], [ 38.7709504, 9.0340645 ] ] ] } },
{ "type": "Feature", "properties": { "threshold_s": 600, "time_label": "10 min drive" }, "geometry": { "type": "Polygon", "coordinates": [ [ [ 38.754349, 9.0462826 ], [ 38.7586062, 9.0517882 ], [ 38.7677326, 9.0562897 ], [ 38.7732366, 9.0571025 ], [ 38.7804636, 9.0589097 ], [ 38.7876136, 9.0553217 ], [ 38.792129, 9.0494167 ], [ 38.7967241, 9.0428703 ], [ 38.8041703, 9.044401 ], [ 38.8042312, 9.0365115 ], [ 38.8097365, 9.0345983 ], [ 38.8144658, 9.0377323 ], [ 38.8163683, 9.0394796 ], [ 38.8178167, 9.0395693 ], [ 38.8216329, 9.0373684 ], [ 38.8215724, 9.0355778 ], [ 38.8209959, 9.0334367 ], [ 38.8231243, 9.0247995 ], [ 38.8218961, 9.0181608 ], [ 38.8215656, 9.0176649 ], [ 38.817654, 9.0119948 ], [ 38.8139248, 9.0056053 ], [ 38.812179, 9.0038137 ], [ 38.8118464, 9.0035839 ], [ 38.8105224, 9.0026899 ], [ 38.8043088, 8.9993655 ], [ 38.8004776, 8.9984045 ], [ 38.7947403, 8.9944516 ], [ 38.7943037, 8.9941335 ], [ 38.7918435, 8.9923162 ], [ 38.7917543, 8.9922639 ], [ 38.7879873, 8.9904466 ], [ 38.7781568, 8.9873024 ], [ 38.7756031, 8.9871261 ], [ 38.7755492, 8.9871715 ], [ 38.7734938, 8.9926488 ], [ 38.769518, 8.9962843 ], [ 38.7649779, 8.9996025 ], [ 38.7576883, 9.0047943 ], [ 38.7545018, 9.0072532 ], [ 38.7498019, 9.0115651 ], [ 38.7484279, 9.0131606 ], [ 38.746012, 9.0163151 ], [ 38.7460695, 9.0165495 ], [ 38.7460997, 9.01666 ], [ 38.7465746, 9.0187454 ], [ 38.7462285, 9.0283971 ], [ 38.745241, 9.0302293 ], [ 38.7447562, 9.0333098 ], [ 38.7481119, 9.0381431 ], [ 38.754349, 9.0462826 ] ] ] } },
{ "type": "Feature", "properties": { "threshold_s": 900, "time_label": "15 min drive" }, "geometry": { "type": "Polygon", "coordinates": [ [ [ 38.733022, 9.0515466 ], [ 38.7383953, 9.0586644 ], [ 38.7410353, 9.0613288 ], [ 38.7433396, 9.063477 ], [ 38.7491736, 9.0683011 ], [ 38.7560065, 9.0722344 ], [ 38.7599415, 9.0743207 ], [ 38.7606709, 9.0746963 ], [ 38.7744675, 9.0748804 ], [ 38.7836453, 9.0772787 ], [ 38.7841657, 9.0771675 ], [ 38.7930049, 9.0729548 ], [ 38.7950405, 9.0717919 ], [ 38.795199, 9.071208 ], [ 38.8043252, 9.0623799 ], [ 38.8088579, 9.0622404 ], [ 38.8144933, 9.0607549 ], [ 38.8149651, 9.0605226 ], [ 38.8211697, 9.0564948 ], [ 38.8285455, 9.0551872 ], [ 38.832019, 9.0536483 ], [ 38.8348856, 9.0503233 ], [ 38.837142, 9.0464329 ], [ 38.8417882, 9.0380274 ], [ 38.8438302, 9.0322455 ], [ 38.843856, 9.0212365 ], [ 38.8422945, 9.0106625 ], [ 38.8391423, 9.0078459 ], [ 38.8387066, 9.0074123 ], [ 38.8369434, 9.0057327 ], [ 38.8325866, 9.000256 ], [ 38.8298823, 8.9926199 ], [ 38.8288815, 8.9916274 ], [ 38.828577, 8.9913473 ], [ 38.8196728, 8.9858488 ], [ 38.8066972, 8.9860036 ], [ 38.8035562, 8.9852867 ], [ 38.8021619, 8.9853275 ], [ 38.7996331, 8.9854045 ], [ 38.7899075, 8.9859732 ], [ 38.7880106, 8.9854871 ], [ 38.7777914, 8.9763594 ], [ 38.7759295, 8.9724099 ], [ 38.7750556, 8.9694476 ], [ 38.7664998, 8.9707517 ], [ 38.7655318, 8.9710292 ], [ 38.7645882, 8.9715171 ], [ 38.7640962, 8.9718863 ], [ 38.7639284, 8.9720178 ], [ 38.7628793, 8.9728562 ], [ 38.7596918, 8.9783251 ], [ 38.749979, 8.9842547 ], [ 38.7417482, 8.9901297 ], [ 38.738095199999989, 8.9942698 ], [ 38.7376045, 8.9950873 ], [ 38.7331656, 9.0029958 ], [ 38.7264951, 9.0122563 ], [ 38.7248057, 9.0196475 ], [ 38.7244628, 9.0281024 ], [ 38.7236852, 9.0351997 ], [ 38.7276385, 9.0441208 ], [ 38.7280317, 9.044982 ], [ 38.733022, 9.0515466 ] ] ] } },
{ "type": "Feature", "properties": { "threshold_s": 300, "time_label": "5 min drive" }, "geometry": { "type": "Polygon", "coordinates": [ [ [ 38.7682007, 9.0165141 ], [ 38.7713573, 9.0204686 ], [ 38.7740967, 9.0193713 ], [ 38.7747315, 9.0192594 ], [ 38.7760797, 9.0175791 ], [ 38.7807383, 9.0166185 ], [ 38.7813556, 9.0188907 ], [ 38.7810531, 9.0207143 ], [ 38.7811702, 9.0225738 ], [ 38.7828895, 9.0215465 ], [ 38.7849275, 9.020122 ], [ 38.7888092, 9.0179132 ], [ 38.79037610000001, 9.0163806 ], [ 38.7914293, 9.0143947 ], [ 38.793999, 9.0122732 ], [ 38.7950341, 9.0117579 ], [ 38.7953327, 9.0115677 ], [ 38.7961994, 9.0100267 ], [ 38.7967858, 9.0085313 ], [ 38.797621, 9.0063149 ], [ 38.797983, 9.0046067 ], [ 38.7981876, 9.0030972 ], [ 38.797986, 9.0026206 ], [ 38.7955181, 9.0020965 ], [ 38.7965052, 8.9969379 ], [ 38.7956395, 8.9945489 ], [ 38.7948366, 8.9914727 ], [ 38.7942992, 8.9887271 ], [ 38.7908932, 8.9872382 ], [ 38.7888132, 8.9859297 ], [ 38.7879749, 8.9856538 ], [ 38.7855757, 8.9849273 ], [ 38.7810382, 8.9833915 ], [ 38.7791983, 8.9832948 ], [ 38.774466, 8.9840908 ], [ 38.7731591, 8.9845459 ], [ 38.77311, 8.9846007 ], [ 38.7730621, 8.9846542 ], [ 38.7716921, 8.9892484 ], [ 38.7712247, 8.9902551 ], [ 38.7708378, 8.9911658 ], [ 38.7704442, 8.9929865 ], [ 38.7702186, 8.9948896 ], [ 38.7683732, 8.9987024 ], [ 38.7666007, 9.0001548 ], [ 38.7657816, 9.0007925 ], [ 38.7657918, 9.0013837 ], [ 38.7663704, 9.0019672 ], [ 38.7663964, 9.0070441 ], [ 38.7661556, 9.0073141 ], [ 38.7658891, 9.0123181 ], [ 38.7682007, 9.0165141 ] ] ] } },
{ "type": "Feature", "properties": { "threshold_s": 600, "time_label": "10 min drive" }, "geometry": { "type": "Polygon", "coordinates": [ [ [ 38.7475765, 9.0210798 ], [ 38.7488745, 9.0229183 ], [ 38.7492011, 9.0232587 ], [ 38.751883, 9.0249976 ], [ 38.7600593, 9.0317233 ], [ 38.7620102, 9.0334911 ], [ 38.7631249, 9.0342974 ], [ 38.7695029, 9.0370091 ], [ 38.7722077, 9.0379644 ], [ 38.7737834, 9.0382137 ], [ 38.7784962, 9.0381963 ], [ 38.7866579, 9.0379459 ], [ 38.7884075, 9.037232 ], [ 38.788646, 9.0371199 ], [ 38.7988474, 9.0307862 ], [ 38.8011234, 9.0303124 ], [ 38.804107, 9.0285119 ], [ 38.8116947, 9.0198284 ], [ 38.8147478, 9.0092304 ], [ 38.8165175, 9.0039267 ], [ 38.8175726, 8.9964934 ], [ 38.8176652, 8.9945341 ], [ 38.8144142, 8.9899372 ], [ 38.8141627, 8.9895817 ], [ 38.8097735, 8.9869675 ], [ 38.8079529, 8.9863615 ], [ 38.8066972, 8.9860036 ], [ 38.8035562, 8.9852867 ], [ 38.8021619, 8.9853275 ], [ 38.7996331, 8.9854045 ], [ 38.7971379, 8.9861223 ], [ 38.7899075, 8.9859732 ], [ 38.7880106, 8.9854871 ], [ 38.7855757, 8.9849273 ], [ 38.7842988, 8.9845215 ], [ 38.7787516, 8.9794447 ], [ 38.7804589, 8.9680504 ], [ 38.7798232, 8.9672529 ], [ 38.7764513, 8.9654406 ], [ 38.7748945, 8.9656073 ], [ 38.7662108, 8.9676225 ], [ 38.7609422, 8.9727954 ], [ 38.7542657, 8.9801767 ], [ 38.7524498, 8.9849586 ], [ 38.7480194, 8.9921369 ], [ 38.747417, 8.9945813 ], [ 38.7477143, 8.9960308 ], [ 38.7465419, 9.0063014 ], [ 38.7441227, 9.0100953 ], [ 38.7440647, 9.0101702 ], [ 38.7449654, 9.0165766 ], [ 38.7475765, 9.0210798 ] ] ] } },
{ "type": "Feature", "properties": { "threshold_s": 900, "time_label": "15 min drive" }, "geometry": { "type": "Polygon", "coordinates": [ [ [ 38.7341184, 9.0347785 ], [ 38.7373638, 9.0386148 ], [ 38.7471673, 9.0469322 ], [ 38.7515593, 9.051262 ], [ 38.756649, 9.0549986 ], [ 38.7592571, 9.055992 ], [ 38.7606458, 9.0559972 ], [ 38.7736753, 9.0564126 ], [ 38.7749457, 9.0564745 ], [ 38.780319, 9.0564925 ], [ 38.7859225, 9.0537132 ], [ 38.792129, 9.0494167 ], [ 38.7967241, 9.0428703 ], [ 38.8042312, 9.0365115 ], [ 38.8163683, 9.0394796 ], [ 38.8184291, 9.0400446 ], [ 38.8227328, 9.037991 ], [ 38.823517699999989, 9.0370374 ], [ 38.8309072, 9.0275316 ], [ 38.8339238, 9.0216463 ], [ 38.8325961, 9.0092326 ], [ 38.8328805, 9.0077548 ], [ 38.834307, 9.0008841 ], [ 38.8352429, 8.9890778 ], [ 38.8348866, 8.987573 ], [ 38.8348569, 8.9875182 ], [ 38.8304619, 8.9779273 ], [ 38.8300543, 8.9713237 ], [ 38.8290883, 8.9699325 ], [ 38.8261664, 8.9692642 ], [ 38.825781, 8.9692864 ], [ 38.8249786, 8.9694064 ], [ 38.8201197, 8.9717796 ], [ 38.819654, 8.9719953 ], [ 38.8188761, 8.9738855 ], [ 38.8208006, 8.9803978 ], [ 38.8097735, 8.9869675 ], [ 38.8079529, 8.9863615 ], [ 38.8066972, 8.9860036 ], [ 38.8035562, 8.9852867 ], [ 38.8021619, 8.9853275 ], [ 38.7996331, 8.9854045 ], [ 38.7971379, 8.9861223 ], [ 38.7899075, 8.9859732 ], [ 38.7880106, 8.9854871 ], [ 38.7855757, 8.9849273 ], [ 38.7842988, 8.9845215 ], [ 38.7787516, 8.9794447 ], [ 38.7828796, 8.9680649 ], [ 38.7919347, 8.9698281 ], [ 38.7981165, 8.9647562 ], [ 38.7953947, 8.9588435 ], [ 38.7930639, 8.955268 ], [ 38.7878543, 8.9534724 ], [ 38.7858675, 8.9527894 ], [ 38.7846805, 8.9526129 ], [ 38.7730985, 8.9495769 ], [ 38.7713286, 8.9481103 ], [ 38.7690681, 8.9462568 ], [ 38.7677867, 8.9460398 ], [ 38.759338, 8.9508307 ], [ 38.7582529, 8.9516779 ], [ 38.7506098, 8.9584779 ], [ 38.7481324, 8.9616128 ], [ 38.7385016, 8.9691304 ], [ 38.7377529, 8.9713496 ], [ 38.7347285, 8.9804375 ], [ 38.7325033, 8.9848697 ], [ 38.7309077, 8.9878554 ], [ 38.7289264, 8.9982376 ], [ 38.7285474, 9.0064755 ], [ 38.7211895, 9.0115916 ], [ 38.7210359, 9.0122983 ], [ 38.7239098, 9.0199514 ], [ 38.7242492, 9.0203289 ], [ 38.731509, 9.0299434 ], [ 38.7341184, 9.0347785 ] ] ] } },
{ "type": "Feature", "properties": { "threshold_s": 300, "time_label": "5 min drive" }, "geometry": { "type": "Polygon", "coordinates": [ [ [ 38.7596918, 8.9783251 ], [ 38.759964, 8.9792704 ], [ 38.7608841, 8.9786978 ], [ 38.7688078, 8.9778368 ], [ 38.7701639, 8.9786274 ], [ 38.7714209, 8.9793042 ], [ 38.7719831, 8.9795407 ], [ 38.7722493, 8.9796533 ], [ 38.7720609, 8.9756886 ], [ 38.7705231, 8.9704184 ], [ 38.7715801, 8.967035 ], [ 38.7746049, 8.9599046 ], [ 38.775242, 8.9583361 ], [ 38.7778845, 8.9525715 ], [ 38.7781105, 8.9512402 ], [ 38.77675, 8.9469359 ], [ 38.7759608, 8.9454448 ], [ 38.7755343, 8.944993 ], [ 38.7697956, 8.9428309 ], [ 38.7682387, 8.9435755 ], [ 38.7665323, 8.9445711 ], [ 38.7610491, 8.9474346 ], [ 38.7560588, 8.9495278 ], [ 38.7527288, 8.9558138 ], [ 38.7516371, 8.9589428 ], [ 38.7516577, 8.9600086 ], [ 38.7518256, 8.961464 ], [ 38.7537374, 8.9637344 ], [ 38.7567186, 8.9656751 ], [ 38.7609422, 8.9727954 ], [ 38.7607317, 8.9735508 ], [ 38.7606675, 8.9737722 ], [ 38.7605834, 8.9740789 ], [ 38.7604122, 8.974693 ], [ 38.7602367, 8.9753929 ], [ 38.7596897, 8.9769291 ], [ 38.7596943, 8.9779839 ], [ 38.7596918, 8.9783251 ] ] ] } },
{ "type": "Feature", "properties": { "threshold_s": 600, "time_label": "10 min drive" }, "geometry": { "type": "Polygon", "coordinates": [ [ [ 38.7440312, 8.9887843 ], [ 38.7508894, 8.9967315 ], [ 38.7513274, 8.9971902 ], [ 38.7553867, 9.0000722 ], [ 38.7592063, 9.0006528 ], [ 38.7596786, 9.0006531 ], [ 38.7649383, 8.997765 ], [ 38.766772, 8.9969781 ], [ 38.769846, 8.9955893 ], [ 38.7788648, 8.9968111 ], [ 38.7789746, 8.9967504 ], [ 38.7821738, 8.9945403 ], [ 38.7916494, 8.988039 ], [ 38.7920318, 8.9875297 ], [ 38.791375, 8.9871117 ], [ 38.7899075, 8.9859732 ], [ 38.7880106, 8.9854871 ], [ 38.7855757, 8.9849273 ], [ 38.7842988, 8.9845215 ], [ 38.7787516, 8.9794447 ], [ 38.7777914, 8.9763594 ], [ 38.7828796, 8.9680649 ], [ 38.7902771, 8.9669999 ], [ 38.7904689, 8.9670449 ], [ 38.79308420000001, 8.9588075 ], [ 38.7960874, 8.9527503 ], [ 38.7967291, 8.9514381 ], [ 38.797912, 8.9482878 ], [ 38.7980971, 8.946804 ], [ 38.7979241, 8.9466321 ], [ 38.7978771, 8.9465934 ], [ 38.7959191, 8.9457137 ], [ 38.7931886, 8.9442637 ], [ 38.7876306, 8.9342 ], [ 38.7811167, 8.9251179 ], [ 38.7799953, 8.9248947 ], [ 38.772631, 8.9249623 ], [ 38.7710707, 8.9251297 ], [ 38.7642678, 8.9280367 ], [ 38.7550425, 8.9308073 ], [ 38.7431068, 8.932231 ], [ 38.741959199999989, 8.9339881 ], [ 38.7413398, 8.9351319 ], [ 38.7379644, 8.9455563 ], [ 38.7365994, 8.9487018 ], [ 38.7363612, 8.9498128 ], [ 38.7366857, 8.9505038 ], [ 38.7372737, 8.9516334 ], [ 38.7381752, 8.9526622 ], [ 38.7403759, 8.9568763 ], [ 38.7358658, 8.966419 ], [ 38.7377116, 8.972403 ], [ 38.7379345, 8.9725852 ], [ 38.739079, 8.9734757 ], [ 38.7444469, 8.9837629 ], [ 38.7440312, 8.9887843 ] ] ] } },
{ "type": "Feature", "properties": { "threshold_s": 900, "time_label": "15 min drive" }, "geometry": { "type": "Polygon", "coordinates": [ [ [ 38.7268985, 8.9991841 ], [ 38.7310968, 9.0043304 ], [ 38.734007, 9.0072517 ], [ 38.7371188, 9.0072656 ], [ 38.7441022, 9.0135976 ], [ 38.7451623, 9.0154851 ], [ 38.7460997, 9.01666 ], [ 38.752181899999989, 9.0217133 ], [ 38.752741, 9.02144 ], [ 38.7570594, 9.0187168 ], [ 38.7638073, 9.0191651 ], [ 38.7721413, 9.0163029 ], [ 38.7741335, 9.0152535 ], [ 38.7823501, 9.0188421 ], [ 38.7857985, 9.0153244 ], [ 38.7890943, 9.0121969 ], [ 38.789982, 9.0113729 ], [ 38.7914267, 9.009869 ], [ 38.8008775, 9.0069041 ], [ 38.8012885, 9.0067028 ], [ 38.8016877, 9.0064996 ], [ 38.804171599999989, 9.0040571 ], [ 38.8051177, 8.9998951 ], [ 38.8086395, 8.9919032 ], [ 38.8109257, 8.9889653 ], [ 38.8097735, 8.9869675 ], [ 38.8079529, 8.9863615 ], [ 38.8035562, 8.9852867 ], [ 38.8021619, 8.9853275 ], [ 38.7996331, 8.9854045 ], [ 38.7971379, 8.9861223 ], [ 38.7899075, 8.9859732 ], [ 38.7880106, 8.9854871 ], [ 38.7855757, 8.9849273 ], [ 38.7842988, 8.9845215 ], [ 38.7787516, 8.9794447 ], [ 38.7777914, 8.9763594 ], [ 38.7828796, 8.9680649 ], [ 38.7919347, 8.9698281 ], [ 38.7983287, 8.9653657 ], [ 38.8034373, 8.9661348 ], [ 38.8078771, 8.9656652 ], [ 38.8091822, 8.965245 ], [ 38.8114894, 8.9641966 ], [ 38.8092054, 8.9565742 ], [ 38.8081755, 8.9500842 ], [ 38.8070033, 8.9403165 ], [ 38.8082707, 8.9383955 ], [ 38.8035004, 8.9353497 ], [ 38.7965722, 8.9284864 ], [ 38.7972715, 8.9256087 ], [ 38.7973531, 8.9247874 ], [ 38.7974331, 8.9239827 ], [ 38.7975199, 8.9231419 ], [ 38.7994757, 8.917382 ], [ 38.7990814, 8.917427 ], [ 38.7891434, 8.9175704 ], [ 38.7874324, 8.9128207 ], [ 38.7876535, 8.9105968 ], [ 38.780236, 8.912336 ], [ 38.776056, 8.9104872 ], [ 38.7741252, 8.9091411 ], [ 38.764964, 8.9051055 ], [ 38.7606078, 8.9074915 ], [ 38.7572819, 8.9122175 ], [ 38.7477104, 8.9151323 ], [ 38.7463589, 8.913764 ], [ 38.7462055, 8.9136485 ], [ 38.7459972, 8.9134847 ], [ 38.7457769, 8.9133177 ], [ 38.7451355, 8.9129011 ], [ 38.7439879, 8.9126133 ], [ 38.7355496, 8.9142195 ], [ 38.7316133, 8.9153253 ], [ 38.729798, 8.9165287 ], [ 38.726508, 8.9250876 ], [ 38.7227216, 8.9346611 ], [ 38.7203867, 8.9379481 ], [ 38.7163086, 8.9470379 ], [ 38.7159671, 8.9484713 ], [ 38.7155541, 8.9515367 ], [ 38.7156788, 8.9519724 ], [ 38.7173479, 8.9532857 ], [ 38.720478, 8.9630862 ], [ 38.7197162, 8.9653009 ], [ 38.7183424, 8.9677714 ], [ 38.718049, 8.9684362 ], [ 38.7176063, 8.970535 ], [ 38.7177841, 8.9708986 ], [ 38.7181224, 8.9714796 ], [ 38.7184154, 8.9718832 ], [ 38.7191264, 8.972191 ], [ 38.7206716, 8.9727651 ], [ 38.7241057, 8.9751056 ], [ 38.7258008, 8.9824669 ], [ 38.7260556, 8.9834392 ], [ 38.7265869, 8.9850391 ], [ 38.7278253, 8.9938773 ], [ 38.7268985, 8.9991841 ] ] ] } },
{ "type": "Feature", "properties": { "threshold_s": 300, "time_label": "5 min drive" }, "geometry": { "type": "Polygon", "coordinates": [ [ [ 38.7693626, 9.0163824 ], [ 38.7703065, 9.0178326 ], [ 38.771192, 9.0184455 ], [ 38.7742102, 9.0174735 ], [ 38.7741335, 9.0152535 ], [ 38.776373, 9.0129175 ], [ 38.7790322, 9.0148252 ], [ 38.7807383, 9.0166185 ], [ 38.7800908, 9.0202484 ], [ 38.7787771, 9.0234759 ], [ 38.7812063, 9.0252209 ], [ 38.7812609, 9.0251757 ], [ 38.7846348, 9.0227478 ], [ 38.7862759, 9.0237897 ], [ 38.7903417, 9.0214052 ], [ 38.7921291, 9.0212226 ], [ 38.7933946, 9.0212397 ], [ 38.7953428, 9.0176745 ], [ 38.7990841, 9.0152732 ], [ 38.8009101, 9.0132402 ], [ 38.8017033, 9.0092955 ], [ 38.802184, 9.0074508 ], [ 38.8021486, 9.0062351 ], [ 38.8023024, 9.0034086 ], [ 38.802689, 9.0013388 ], [ 38.8024677, 9.0009613 ], [ 38.8007767, 9.0000299 ], [ 38.799224, 9.000165 ], [ 38.7965052, 8.9969379 ], [ 38.7956395, 8.9945489 ], [ 38.7952264, 8.9934812 ], [ 38.7949535, 8.9927309 ], [ 38.7948242, 8.9923398 ], [ 38.7938117, 8.9895998 ], [ 38.7937429, 8.9895272 ], [ 38.792569, 8.9896677 ], [ 38.7908448, 8.9901828 ], [ 38.7876549, 8.9893973 ], [ 38.7831639, 8.9889418 ], [ 38.7816779, 8.9891378 ], [ 38.777445299999989, 8.9880264 ], [ 38.7769009, 8.9885584 ], [ 38.776855, 8.9886044 ], [ 38.776481, 8.989139 ], [ 38.7761585, 8.989666 ], [ 38.7741154, 8.9932832 ], [ 38.7741375, 8.9945623 ], [ 38.7717799, 8.9976465 ], [ 38.768846, 8.999063 ], [ 38.7672642, 9.0017771 ], [ 38.7671183, 9.0031016 ], [ 38.7674794, 9.0056217 ], [ 38.7678266, 9.0080481 ], [ 38.7672577, 9.0104737 ], [ 38.7672256, 9.0115334 ], [ 38.769726, 9.0132853 ], [ 38.7693626, 9.0163824 ] ] ] } },
{ "type": "Feature", "properties": { "threshold_s": 600, "time_label": "10 min drive" }, "geometry": { "type": "Polygon", "coordinates": [ [ [ 38.7494123, 9.0211759 ], [ 38.7505797, 9.0229467 ], [ 38.7600593, 9.0317233 ], [ 38.7667603, 9.0382378 ], [ 38.7693345, 9.0402439 ], [ 38.7733433, 9.041089 ], [ 38.7743931, 9.0409883 ], [ 38.7840646, 9.0399581 ], [ 38.788646, 9.0371199 ], [ 38.7997189, 9.0335465 ], [ 38.808201, 9.0306966 ], [ 38.8147871, 9.0225069 ], [ 38.8171751, 9.0194641 ], [ 38.8201494, 9.0114735 ], [ 38.821587, 9.0050755 ], [ 38.8218561, 9.0020851 ], [ 38.821611, 8.9970155 ], [ 38.8214167, 8.9944311 ], [ 38.8192988, 8.9884962 ], [ 38.8166645, 8.988021 ], [ 38.8066972, 8.9860036 ], [ 38.8035562, 8.9852867 ], [ 38.8021619, 8.9853275 ], [ 38.7996331, 8.9854045 ], [ 38.7899075, 8.9859732 ], [ 38.7880106, 8.9854871 ], [ 38.7777914, 8.9763594 ], [ 38.7759295, 8.9724099 ], [ 38.7750556, 8.9694476 ], [ 38.7660779, 8.9717093 ], [ 38.7651339, 8.9719832 ], [ 38.7634898, 8.9729395 ], [ 38.760112, 8.9782971 ], [ 38.7579608, 8.9816198 ], [ 38.7509282, 8.9916097 ], [ 38.7481745, 8.9945274 ], [ 38.7483563, 9.0064761 ], [ 38.7445255, 9.010739 ], [ 38.7458578, 9.0156628 ], [ 38.7494123, 9.0211759 ] ] ] } },
{ "type": "Feature", "properties": { "threshold_s": 900, "time_label": "15 min drive" }, "geometry": { "type": "Polygon", "coordinates": [ [ [ 38.7428107, 9.0424086 ], [ 38.7456875, 9.0454928 ], [ 38.745965, 9.0457722 ], [ 38.7515593, 9.051262 ], [ 38.7565047, 9.0554225 ], [ 38.7681542, 9.0592667 ], [ 38.7756462, 9.0597021 ], [ 38.7802957, 9.0593364 ], [ 38.7825084, 9.0587388 ], [ 38.7877655, 9.0565115 ], [ 38.7883158, 9.0551371 ], [ 38.792129, 9.0494167 ], [ 38.8069644, 9.0447637 ], [ 38.8157876, 9.0455703 ], [ 38.8179354, 9.0457465 ], [ 38.8235377, 9.0431763 ], [ 38.8252923, 9.0422627 ], [ 38.828339, 9.0398697 ], [ 38.8306081, 9.037338 ], [ 38.8362977, 9.0307735 ], [ 38.8408486, 9.021363 ], [ 38.8387787, 9.0081909 ], [ 38.8375933, 9.0058645 ], [ 38.8396552, 8.9890861 ], [ 38.8392845, 8.9855719 ], [ 38.837948, 8.9837452 ], [ 38.8285251, 8.9717354 ], [ 38.8253376, 8.9702862 ], [ 38.8219663, 8.9725441 ], [ 38.8208093, 8.9733361 ], [ 38.8211327, 8.9767138 ], [ 38.8079529, 8.9863615 ], [ 38.8066972, 8.9860036 ], [ 38.8035562, 8.9852867 ], [ 38.8021619, 8.9853275 ], [ 38.7996331, 8.9854045 ], [ 38.7971379, 8.9861223 ], [ 38.7899075, 8.9859732 ], [ 38.7880106, 8.9854871 ], [ 38.7855757, 8.9849273 ], [ 38.7842988, 8.9845215 ], [ 38.7828796, 8.9680649 ], [ 38.7909604, 8.9677523 ], [ 38.7914937, 8.9674282 ], [ 38.7929548, 8.9660988 ], [ 38.7919977, 8.9605524 ], [ 38.7919948, 8.9602384 ], [ 38.7891538, 8.9587052 ], [ 38.7869578, 8.9579884 ], [ 38.7707661, 8.9525276 ], [ 38.7633968, 8.9532148 ], [ 38.7626598, 8.9534407 ], [ 38.7526631, 8.9617102 ], [ 38.7422511, 8.9720595 ], [ 38.7400277, 8.9744338 ], [ 38.7365785, 8.9795314 ], [ 38.7331702, 8.9866157 ], [ 38.7323374, 8.9888358 ], [ 38.7306458, 8.9975836 ], [ 38.7253784, 9.0132798 ], [ 38.7247722, 9.0152427 ], [ 38.724787, 9.0155262 ], [ 38.7255172, 9.019411 ], [ 38.7338104, 9.0317038 ], [ 38.7357049, 9.0343764 ], [ 38.7428107, 9.0424086 ] ] ] } },
{ "type": "Feature", "properties": { "threshold_s": 300, "time_label": "5 min drive" }, "geometry": { "type": "Polygon", "coordinates": [ [ [ 38.727503, 8.9529559 ], [ 38.7300856, 8.9575519 ], [ 38.7309928, 8.9577975 ], [ 38.733176899999989, 8.9569398 ], [ 38.7335671, 8.9563225 ], [ 38.7388181, 8.9533071 ], [ 38.7403759, 8.9568763 ], [ 38.7429656, 8.9598609 ], [ 38.743187399999989, 8.9628821 ], [ 38.7431857, 8.9636017 ], [ 38.7439679, 8.9641027 ], [ 38.7480411, 8.9670263 ], [ 38.7487476, 8.967392 ], [ 38.7502609, 8.9667641 ], [ 38.7551391, 8.964469 ], [ 38.756366, 8.9636477 ], [ 38.7579586, 8.9615616 ], [ 38.7586793, 8.959135 ], [ 38.7584882, 8.955665 ], [ 38.7567779, 8.9504498 ], [ 38.7565238, 8.9459981 ], [ 38.7564201, 8.9447894 ], [ 38.7548051, 8.9422793 ], [ 38.7510243, 8.9387161 ], [ 38.7502692, 8.9376556 ], [ 38.7447779, 8.935317 ], [ 38.744579, 8.9351656 ], [ 38.7390876, 8.9371395 ], [ 38.7342534, 8.9379186 ], [ 38.7321951, 8.9402901 ], [ 38.7268514, 8.9431378 ], [ 38.7259931, 8.9444006 ], [ 38.7248986, 8.9464576 ], [ 38.7245779, 8.9472544 ], [ 38.7239026, 8.9489642 ], [ 38.7239063, 8.9490538 ], [ 38.7239636, 8.9499045 ], [ 38.7260554, 8.9526424 ], [ 38.727503, 8.9529559 ] ] ] } },
{ "type": "Feature", "properties": { "threshold_s": 600, "time_label": "10 min drive" }, "geometry": { "type": "Polygon", "coordinates": [ [ [ 38.7113571, 8.9645981 ], [ 38.712239, 8.969129 ], [ 38.7181224, 8.9714796 ], [ 38.7207229, 8.972019 ], [ 38.7258704, 8.9763704 ], [ 38.727001, 8.9760068 ], [ 38.7282267, 8.9758101 ], [ 38.7342095, 8.9793641 ], [ 38.7387921, 8.9816575 ], [ 38.7435155, 8.9846347 ], [ 38.7462675, 8.9865609 ], [ 38.7484661, 8.9879114 ], [ 38.7519498, 8.9890651 ], [ 38.7542526, 8.9861048 ], [ 38.7598998, 8.9823002 ], [ 38.762682, 8.9825866 ], [ 38.764094, 8.9820233 ], [ 38.764862, 8.9803677 ], [ 38.7646558, 8.9779692 ], [ 38.7672669, 8.9714868 ], [ 38.7677047, 8.9706015 ], [ 38.7688905, 8.9672992 ], [ 38.7726464, 8.9617668 ], [ 38.7746049, 8.9599046 ], [ 38.775242, 8.9583361 ], [ 38.7755169, 8.9575612 ], [ 38.7753178, 8.956777 ], [ 38.7744105, 8.9496642 ], [ 38.7742229, 8.9482255 ], [ 38.7704948, 8.9435932 ], [ 38.7694567, 8.9435905 ], [ 38.7649015, 8.9419151 ], [ 38.7654849, 8.9350003 ], [ 38.7659465, 8.9342398 ], [ 38.7664081, 8.9322098 ], [ 38.7642566, 8.9294233 ], [ 38.762958, 8.9281725 ], [ 38.7589952, 8.9234564 ], [ 38.7554607, 8.926309 ], [ 38.7504724, 8.9206262 ], [ 38.7497851, 8.9178583 ], [ 38.7470126, 8.9164625 ], [ 38.7447993, 8.9154085 ], [ 38.7416768, 8.9151535 ], [ 38.7376152, 8.9162703 ], [ 38.7332205, 8.9172147 ], [ 38.7311911, 8.9177063 ], [ 38.7302774, 8.9184498 ], [ 38.7293293, 8.9194567 ], [ 38.7272197, 8.9220797 ], [ 38.7222866, 8.9253297 ], [ 38.716904, 8.93066 ], [ 38.7163543, 8.9307024 ], [ 38.7156326, 8.9307128 ], [ 38.7151672, 8.9307128 ], [ 38.7125628, 8.9311831 ], [ 38.7121524, 8.9312189 ], [ 38.7116535, 8.9337838 ], [ 38.7124434, 8.9340938 ], [ 38.7152611, 8.9361367 ], [ 38.713008, 8.9426952 ], [ 38.7106309, 8.9421838 ], [ 38.7087256, 8.9412683 ], [ 38.7086239, 8.9431834 ], [ 38.7056469, 8.9493476 ], [ 38.7053463, 8.9498908 ], [ 38.7041367, 8.9550057 ], [ 38.7042975, 8.9555025 ], [ 38.7052918, 8.9583318 ], [ 38.7066028, 8.9589294 ], [ 38.7113571, 8.9645981 ] ] ] } },
{ "type": "Feature", "properties": { "threshold_s": 900, "time_label": "15 min drive" }, "geometry": { "type": "Polygon", "coordinates": [ [ [ 38.6974973, 8.9795789 ], [ 38.698746, 8.9809909 ], [ 38.6991452, 8.9813379 ], [ 38.6998047, 8.9818107 ], [ 38.7071132, 8.9854303 ], [ 38.7172351, 8.9924321 ], [ 38.7289264, 8.9982376 ], [ 38.7380116, 9.003884 ], [ 38.7461356, 9.0106348 ], [ 38.746218, 9.0106422 ], [ 38.7543717, 9.010126 ], [ 38.7675736, 9.0030528 ], [ 38.7738252, 8.9995496 ], [ 38.7818342, 8.9898611 ], [ 38.7836111, 8.9851884 ], [ 38.7836218, 8.9848499 ], [ 38.7829895, 8.9840922 ], [ 38.7787516, 8.9794447 ], [ 38.7777914, 8.9763594 ], [ 38.7872824, 8.9646498 ], [ 38.787733, 8.9640842 ], [ 38.7889339, 8.9618507 ], [ 38.7893686, 8.9610735 ], [ 38.7902271, 8.9589532 ], [ 38.79381, 8.9509213 ], [ 38.7946927, 8.9462823 ], [ 38.7876306, 8.9342 ], [ 38.7814748, 8.921874 ], [ 38.7808038, 8.9177279 ], [ 38.7784643, 8.9159168 ], [ 38.777513, 8.9152183 ], [ 38.764964, 8.9051055 ], [ 38.7500466, 8.9013292 ], [ 38.7472224, 8.8999782 ], [ 38.746419, 8.9000601 ], [ 38.7362117, 8.9011704 ], [ 38.7350826, 8.9022633 ], [ 38.7337589, 8.9040162 ], [ 38.7313695, 8.9071775 ], [ 38.7312216, 8.9075352 ], [ 38.727289399999989, 8.9135477 ], [ 38.714174, 8.9207268 ], [ 38.7113597, 8.9196049 ], [ 38.7074294, 8.9215038 ], [ 38.69870250000001, 8.9321675 ], [ 38.6915978, 8.9420717 ], [ 38.6848025, 8.9510048 ], [ 38.684802, 8.9512162 ], [ 38.6873272, 8.9636669 ], [ 38.6953367, 8.976696 ], [ 38.6974973, 8.9795789 ] ] ] } },
{ "type": "Feature", "properties": { "threshold_s": 300, "time_label": "5 min drive" }, "geometry": { "type": "Polygon", "coordinates": [ [ [ 38.7657801, 9.0168339 ], [ 38.7666902, 9.0194705 ], [ 38.7686595, 9.0207369 ], [ 38.772948, 9.0210846 ], [ 38.7748887, 9.021689 ], [ 38.7757479, 9.0204704 ], [ 38.7767495, 9.0195951 ], [ 38.7805245, 9.0220573 ], [ 38.7803283, 9.0233325 ], [ 38.7806577, 9.0238498 ], [ 38.7811059, 9.0234327 ], [ 38.7828895, 9.0215465 ], [ 38.7854499, 9.0200894 ], [ 38.7873343, 9.0195722 ], [ 38.7896598, 9.0192439 ], [ 38.791997, 9.0167392 ], [ 38.7930271, 9.0146946 ], [ 38.7961516, 9.0125743 ], [ 38.797059, 9.0107003 ], [ 38.7978778, 9.008977 ], [ 38.7990622, 9.0056269 ], [ 38.8001074, 9.0025819 ], [ 38.8001838, 9.0022144 ], [ 38.7991572, 9.0019977 ], [ 38.7977966, 9.0017538 ], [ 38.7955181, 9.0020965 ], [ 38.7946719, 8.9978068 ], [ 38.7965052, 8.9969379 ], [ 38.7956395, 8.9945489 ], [ 38.7952264, 8.9934812 ], [ 38.7949535, 8.9927309 ], [ 38.7942992, 8.9887271 ], [ 38.7920807, 8.9883178 ], [ 38.7890151, 8.9881152 ], [ 38.7851306, 8.9856381 ], [ 38.7843123, 8.9857955 ], [ 38.7803636, 8.9851876 ], [ 38.779193, 8.9844972 ], [ 38.778325, 8.9844791 ], [ 38.7756216, 8.9845761 ], [ 38.7731591, 8.9845459 ], [ 38.77311, 8.9846007 ], [ 38.7730621, 8.9846542 ], [ 38.7732891, 8.986205 ], [ 38.7716921, 8.9892484 ], [ 38.7712555, 8.9905916 ], [ 38.771232, 8.9913267 ], [ 38.7708398, 8.9931594 ], [ 38.7682519, 8.9964896 ], [ 38.765179, 8.9981909 ], [ 38.764029, 9.0002724 ], [ 38.764064, 9.0016943 ], [ 38.7642637, 9.0025648 ], [ 38.764577, 9.0029893 ], [ 38.765411, 9.0036496 ], [ 38.7661556, 9.0073141 ], [ 38.764761, 9.0088177 ], [ 38.7644245, 9.0091892 ], [ 38.7636137, 9.009863 ], [ 38.7626954, 9.0108388 ], [ 38.7625799, 9.011047 ], [ 38.7627294, 9.0115076 ], [ 38.7658891, 9.0123181 ], [ 38.7661117, 9.016113 ], [ 38.7657801, 9.0168339 ] ] ] } },
{ "type": "Feature", "properties": { "threshold_s": 600, "time_label": "10 min drive" }, "geometry": { "type": "Polygon", "coordinates": [ [ [ 38.7445602, 9.0201826 ], [ 38.747689, 9.0250316 ], [ 38.7515863, 9.0272817 ], [ 38.7603589, 9.0356761 ], [ 38.762837, 9.0371171 ], [ 38.7728901, 9.0400549 ], [ 38.782869, 9.039107 ], [ 38.7866579, 9.0379459 ], [ 38.7884075, 9.037232 ], [ 38.788646, 9.0371199 ], [ 38.7988474, 9.0307862 ], [ 38.8011234, 9.0303124 ], [ 38.8048161, 9.0292985 ], [ 38.8133654, 9.0199396 ], [ 38.8161168, 9.0114963 ], [ 38.8178348, 9.0041654 ], [ 38.8191622, 8.9962648 ], [ 38.8193455, 8.9939846 ], [ 38.8178312, 8.991968 ], [ 38.8156034, 8.9899318 ], [ 38.8097735, 8.9869675 ], [ 38.8079529, 8.9863615 ], [ 38.8066972, 8.9860036 ], [ 38.8035562, 8.9852867 ], [ 38.8021619, 8.9853275 ], [ 38.7996331, 8.9854045 ], [ 38.7971379, 8.9861223 ], [ 38.7899075, 8.9859732 ], [ 38.7880106, 8.9854871 ], [ 38.7855757, 8.9849273 ], [ 38.7777914, 8.9763594 ], [ 38.7784204, 8.9681007 ], [ 38.7785706, 8.9675191 ], [ 38.7764272, 8.9662314 ], [ 38.7748945, 8.9656073 ], [ 38.7662108, 8.9676225 ], [ 38.7609422, 8.9727954 ], [ 38.7542657, 8.9801767 ], [ 38.7496014, 8.9875721 ], [ 38.7459717, 8.9909406 ], [ 38.7446667, 8.9949007 ], [ 38.7432431, 9.0074962 ], [ 38.7407623, 9.0108375 ], [ 38.7427155, 9.0163732 ], [ 38.7445602, 9.0201826 ] ] ] } },
{ "type": "Feature", "properties": { "threshold_s": 900, "time_label": "15 min drive" }, "geometry": { "type": "Polygon", "coordinates": [ [ [ 38.7334076, 9.0367109 ], [ 38.7361917, 9.0401532 ], [ 38.736987, 9.0409822 ], [ 38.7498386, 9.0527075 ], [ 38.7598514, 9.0583555 ], [ 38.7615053, 9.0588087 ], [ 38.7748613, 9.0589137 ], [ 38.7804636, 9.0589097 ], [ 38.7811896, 9.0585373 ], [ 38.7871544, 9.055412 ], [ 38.792129, 9.0494167 ], [ 38.7967241, 9.0428703 ], [ 38.8042312, 9.0365115 ], [ 38.8174096, 9.0417458 ], [ 38.8175591, 9.0417795 ], [ 38.822769, 9.0392715 ], [ 38.82487, 9.0376093 ], [ 38.8327768, 9.0283725 ], [ 38.8328062, 9.0282913 ], [ 38.8352508, 9.020929 ], [ 38.8346003, 9.0074879 ], [ 38.8369945, 8.9887869 ], [ 38.8363834, 8.9863091 ], [ 38.8300543, 8.9713237 ], [ 38.8290883, 8.9699325 ], [ 38.825781, 8.9692864 ], [ 38.8249786, 8.9694064 ], [ 38.8201197, 8.9717796 ], [ 38.8198254, 8.9720055 ], [ 38.8194468, 8.9728782 ], [ 38.8189528, 8.9738598 ], [ 38.8035562, 8.9852867 ], [ 38.8021619, 8.9853275 ], [ 38.7919347, 8.9698281 ], [ 38.796996, 8.9651492 ], [ 38.7964194, 8.964214 ], [ 38.7934088, 8.9566604 ], [ 38.7930076, 8.9563159 ], [ 38.786195, 8.9537408 ], [ 38.7690681, 8.9462568 ], [ 38.759338, 8.9508307 ], [ 38.7509096, 8.9586491 ], [ 38.7387184, 8.9695725 ], [ 38.734549, 8.9753057 ], [ 38.7292729, 8.9868235 ], [ 38.7278068, 8.9946508 ], [ 38.7201735, 9.0095651 ], [ 38.7191591, 9.0121974 ], [ 38.7191807, 9.0122896 ], [ 38.7219605, 9.02151 ], [ 38.7326221, 9.0357387 ], [ 38.7334076, 9.0367109 ] ] ] } },
{ "type": "Feature", "properties": { "threshold_s": 300, "time_label": "5 min drive" }, "geometry": { "type": "Polygon", "coordinates": [ [ [ 38.7738585, 9.0107737 ], [ 38.7743198, 9.0122732 ], [ 38.7744038, 9.0122967 ], [ 38.7778035, 9.0124771 ], [ 38.7817494, 9.0139229 ], [ 38.7825499, 9.0130512 ], [ 38.7883565, 9.0096317 ], [ 38.7896763, 9.0092286 ], [ 38.7919736, 9.0079378 ], [ 38.7919719, 9.0077005 ], [ 38.7917436, 9.0057285 ], [ 38.7917389, 9.0056483 ], [ 38.7920983, 8.9987684 ], [ 38.792624, 8.9985777 ], [ 38.7931544, 8.9983837 ], [ 38.7936291, 8.9982041 ], [ 38.7941482, 8.9979968 ], [ 38.7946719, 8.9978068 ], [ 38.7965052, 8.9969379 ], [ 38.7976136, 8.9913002 ], [ 38.79654, 8.9900417 ], [ 38.7942992, 8.9887271 ], [ 38.791375, 8.9871117 ], [ 38.788826, 8.985809 ], [ 38.7879749, 8.9856538 ], [ 38.7855757, 8.9849273 ], [ 38.7842988, 8.9845215 ], [ 38.7829895, 8.9840922 ], [ 38.7787516, 8.9794447 ], [ 38.7777914, 8.9763594 ], [ 38.7774548, 8.9759568 ], [ 38.7773636, 8.975878 ], [ 38.7730839, 8.9782915 ], [ 38.7691776, 8.9814885 ], [ 38.7686049, 8.9823656 ], [ 38.7673754, 8.985989 ], [ 38.7657081, 8.9898585 ], [ 38.7654197, 8.9966008 ], [ 38.7653393, 8.9971114 ], [ 38.7665433, 9.0010165 ], [ 38.7679271, 9.0042908 ], [ 38.7680585, 9.0045594 ], [ 38.768307, 9.0047561 ], [ 38.7719838, 9.0062934 ], [ 38.7738585, 9.0107737 ] ] ] } },
{ "type": "Feature", "properties": { "threshold_s": 600, "time_label": "10 min drive" }, "geometry": { "type": "Polygon", "coordinates": [ [ [ 38.7495149, 9.011528 ], [ 38.7523491, 9.0197223 ], [ 38.7602254, 9.0222978 ], [ 38.7673563, 9.028805 ], [ 38.7736071, 9.0317865 ], [ 38.7820987, 9.0327323 ], [ 38.7834835, 9.0321406 ], [ 38.7859405, 9.0306672 ], [ 38.7867588, 9.0301967 ], [ 38.7970609, 9.0265442 ], [ 38.8045576, 9.0198433 ], [ 38.8051492, 9.0192078 ], [ 38.8094223, 9.0111091 ], [ 38.8098948, 9.0097693 ], [ 38.8108174, 9.0069524 ], [ 38.8118464, 9.0035839 ], [ 38.8125484, 9.0014711 ], [ 38.815139, 8.9942059 ], [ 38.8172823, 8.9910278 ], [ 38.8174492, 8.9894809 ], [ 38.8175784, 8.9874966 ], [ 38.8175372, 8.9873423 ], [ 38.8172293, 8.987135 ], [ 38.8066972, 8.9860036 ], [ 38.8035562, 8.9852867 ], [ 38.8021619, 8.9853275 ], [ 38.7996331, 8.9854045 ], [ 38.7971379, 8.9861223 ], [ 38.7899075, 8.9859732 ], [ 38.7880106, 8.9854871 ], [ 38.7855757, 8.9849273 ], [ 38.7842988, 8.9845215 ], [ 38.7787516, 8.9794447 ], [ 38.7777914, 8.9763594 ], [ 38.7828796, 8.9680649 ], [ 38.7865958, 8.9662315 ], [ 38.7872891, 8.965332 ], [ 38.7876459, 8.9640948 ], [ 38.7826837, 8.9639596 ], [ 38.7775834, 8.9635925 ], [ 38.7671781, 8.9595838 ], [ 38.7652374, 8.9606403 ], [ 38.7644303, 8.961891 ], [ 38.7633086, 8.9638436 ], [ 38.7570116, 8.9719198 ], [ 38.7552445, 8.9725333 ], [ 38.7513245, 8.9774483 ], [ 38.7478086, 8.9840864 ], [ 38.7459717, 8.9909406 ], [ 38.7448465, 8.9951276 ], [ 38.7453434, 8.9957544 ], [ 38.7453967, 8.9958182 ], [ 38.748930799999989, 8.9998262 ], [ 38.7508227, 9.0077324 ], [ 38.7495149, 9.011528 ] ] ] } },
{ "type": "Feature", "properties": { "threshold_s": 900, "time_label": "15 min drive" }, "geometry": { "type": "Polygon", "coordinates": [ [ [ 38.7380256, 9.0328911 ], [ 38.739012, 9.0339387 ], [ 38.7428422, 9.0353794 ], [ 38.7521131, 9.0406747 ], [ 38.7537545, 9.0425834 ], [ 38.754203, 9.0428713 ], [ 38.7616429, 9.0478536 ], [ 38.767836, 9.0485087 ], [ 38.7793219, 9.0484354 ], [ 38.7822559, 9.0487745 ], [ 38.7879583, 9.0472925 ], [ 38.7893323, 9.046174 ], [ 38.7888638, 9.0443872 ], [ 38.7883687, 9.0411166 ], [ 38.7898711, 9.0353037 ], [ 38.7997189, 9.0335465 ], [ 38.805898, 9.0343795 ], [ 38.8097365, 9.0345983 ], [ 38.8151629, 9.0350542 ], [ 38.8209589, 9.0292428 ], [ 38.824039, 9.0262475 ], [ 38.8246236, 9.0254743 ], [ 38.8265759, 9.0200041 ], [ 38.8272261, 9.0165398 ], [ 38.8296097, 9.0071875 ], [ 38.8303265, 9.0044892 ], [ 38.8321106, 8.9977634 ], [ 38.8339856, 8.9915776 ], [ 38.8355352, 8.9861079 ], [ 38.8351679, 8.9856924 ], [ 38.8303922, 8.9744672 ], [ 38.8300543, 8.9713237 ], [ 38.8289182, 8.9663006 ], [ 38.8271273, 8.9664541 ], [ 38.8229629, 8.9668673 ], [ 38.8213746, 8.9677801 ], [ 38.8180051, 8.9696678 ], [ 38.8169054, 8.9714992 ], [ 38.8168311, 8.9739661 ], [ 38.817983, 8.985495 ], [ 38.8097735, 8.9869675 ], [ 38.8079529, 8.9863615 ], [ 38.8066972, 8.9860036 ], [ 38.8035562, 8.9852867 ], [ 38.8021619, 8.9853275 ], [ 38.7996331, 8.9854045 ], [ 38.7971379, 8.9861223 ], [ 38.7899075, 8.9859732 ], [ 38.7880106, 8.9854871 ], [ 38.7855757, 8.9849273 ], [ 38.7842988, 8.9845215 ], [ 38.7787516, 8.9794447 ], [ 38.7828796, 8.9680649 ], [ 38.7919347, 8.9698281 ], [ 38.7983287, 8.9653657 ], [ 38.8031926, 8.9653287 ], [ 38.8051308, 8.9655543 ], [ 38.805922, 8.9637815 ], [ 38.8060082, 8.9605034 ], [ 38.8010904, 8.9585388 ], [ 38.7967291, 8.9514381 ], [ 38.7958543, 8.9499351 ], [ 38.7939987, 8.9481076 ], [ 38.7925738, 8.9472637 ], [ 38.7849033, 8.9445916 ], [ 38.7839613, 8.9443411 ], [ 38.773277899999989, 8.940861 ], [ 38.7716901, 8.9383666 ], [ 38.7711035, 8.938612 ], [ 38.7710331, 8.9386429 ], [ 38.7639706, 8.942036 ], [ 38.7564201, 8.9447894 ], [ 38.7557067, 8.945474 ], [ 38.7517645, 8.9508566 ], [ 38.7464974, 8.9584282 ], [ 38.746077, 8.9588322 ], [ 38.742496, 8.9624729 ], [ 38.7338521, 8.9650684 ], [ 38.733741, 8.9650956 ], [ 38.7340753, 8.9706794 ], [ 38.7306013, 8.9808713 ], [ 38.7294422, 8.9825095 ], [ 38.7281075, 8.9943971 ], [ 38.7268985, 8.9991841 ], [ 38.7284978, 9.0065722 ], [ 38.7270118, 9.0118618 ], [ 38.7291375, 9.0170706 ], [ 38.7341387, 9.0250681 ], [ 38.7374792, 9.0316971 ], [ 38.7380256, 9.0328911 ] ] ] } }
]
}
