{
"type": "FeatureCollection",
"name": "isochrone_shop_confectionery_drive",
"crs": { "type": "name", "properties": { "name": "urn:ogc:def:crs:OGC:1.3:CRS84" } },
"features": [
{ "type": "Feature", "properties": { "threshold_s": 300, "time_label": "5 min drive" }, "geometry": { "type": "Polygon", "coordinates": [ [ [ 38.7188894, 9.0059185 ], [ 38.7190919, 9.0068716 ], [ 38.7193413, 9.0071959 ], [ 38.7199702, 9.0042617 ], [ 38.7224929, 8.9990797 ], [ 38.7236724, 8.9987142 ], [ 38.7268985, 8.9991841 ], [ 38.7274674, 8.99912 ], [ 38.732501, 9.001813 ], [ 38.730182, 9.0046135 ], [ 38.7292146, 9.0052443 ], [ 38.7285474, 9.0064755 ], [ 38.7284978, 9.0065722 ], [ 38.7286855, 9.0089895 ], [ 38.7321181, 9.0117201 ], [ 38.734748, 9.01525 ], [ 38.7378225, 9.0128122 ], [ 38.74049, 9.0107113 ], [ 38.7410089, 9.0086816 ], [ 38.74219990000001, 9.0049176 ], [ 38.7439897, 9.0024543 ], [ 38.7434307, 8.9973006 ], [ 38.7452549, 8.9933223 ], [ 38.7457274, 8.9902239 ], [ 38.7452968, 8.9874874 ], [ 38.7441847, 8.9862839 ], [ 38.7405449, 8.9819251 ], [ 38.7387747, 8.9814628 ], [ 38.7343044, 8.9793256 ], [ 38.7332414, 8.9782144 ], [ 38.7328836, 8.9778363 ], [ 38.7313138, 8.9771965 ], [ 38.7288472, 8.9786214 ], [ 38.7283872, 8.9787856 ], [ 38.7270547, 8.9798003 ], [ 38.7219078, 8.9782685 ], [ 38.7171412, 8.9798381 ], [ 38.7173092, 8.9803274 ], [ 38.7180908, 8.9841611 ], [ 38.7165458, 8.9869257 ], [ 38.7125153, 8.9887289 ], [ 38.7112759, 8.9887158 ], [ 38.7118692, 8.9897204 ], [ 38.7136137, 8.9922004 ], [ 38.7167689, 8.9939947 ], [ 38.7188513, 8.9979545 ], [ 38.7189357, 9.0001877 ], [ 38.7189773, 9.0029713 ], [ 38.7188894, 9.0059185 ] ] ] } },
{ "type": "Feature", "properties": { "threshold_s": 600, "time_label": "10 min drive" }, "geometry": { "type": "Polygon", "coordinates": [ [ [ 38.7054921, 9.0149443 ], [ 38.7076717, 9.0183726 ], [ 38.7093361, 9.019713 ], [ 38.7151311, 9.0261072 ], [ 38.7172373, 9.0266253 ], [ 38.7203913, 9.0263445 ], [ 38.7253752, 9.0305239 ], [ 38.7264003, 9.0315693 ], [ 38.7317272, 9.0364619 ], [ 38.7317618, 9.0364688 ], [ 38.7369454, 9.0344738 ], [ 38.7402905, 9.0337396 ], [ 38.7462922, 9.0314434 ], [ 38.7466777, 9.031133 ], [ 38.7480031, 9.0281187 ], [ 38.7503238, 9.0244243 ], [ 38.7546091, 9.0217117 ], [ 38.7576655, 9.0188971 ], [ 38.7586505, 9.0180415 ], [ 38.7587022, 9.0179263 ], [ 38.7601319, 9.011234 ], [ 38.7609067, 9.0058947 ], [ 38.7649101, 8.9987426 ], [ 38.7661868, 8.9974783 ], [ 38.7656003, 8.9952358 ], [ 38.7638103, 8.9869976 ], [ 38.7652084, 8.9830832 ], [ 38.7648575, 8.9809028 ], [ 38.7644734, 8.9800744 ], [ 38.762356, 8.9764219 ], [ 38.7553573, 8.9729976 ], [ 38.7512587, 8.9703346 ], [ 38.7454177, 8.9645275 ], [ 38.7439679, 8.9641027 ], [ 38.7420288, 8.9645832 ], [ 38.7352396, 8.9611247 ], [ 38.7326381, 8.9587993 ], [ 38.7308003, 8.96028 ], [ 38.7242787, 8.9614374 ], [ 38.7231038, 8.9613597 ], [ 38.7182512, 8.9615706 ], [ 38.7150158, 8.9614105 ], [ 38.7130737, 8.9643417 ], [ 38.710841, 8.9673156 ], [ 38.7103194, 8.9680752 ], [ 38.710095, 8.968557 ], [ 38.7098087, 8.9694061 ], [ 38.705359, 8.9760753 ], [ 38.7040856, 8.976641 ], [ 38.7029967, 8.9771245 ], [ 38.6982185, 8.9783918 ], [ 38.6963748, 8.9790204 ], [ 38.6933706, 8.9804171 ], [ 38.6920414, 8.982059 ], [ 38.693748, 8.98684 ], [ 38.6943208, 8.9882677 ], [ 38.6969308, 8.9953562 ], [ 38.6977001, 8.9982411 ], [ 38.6993992, 9.0026107 ], [ 38.7005766, 9.003427 ], [ 38.7053932, 9.0070716 ], [ 38.7053349, 9.014028 ], [ 38.7054921, 9.0149443 ] ] ] } },
{ "type": "Feature", "properties": { "threshold_s": 900, "time_label": "15 min drive" }, "geometry": { "type": "Polygon", "coordinates": [ [ [ 38.7004057, 9.0377578 ], [ 38.7057319, 9.0445986 ], [ 38.7122999, 9.0485977 ], [ 38.7216615, 9.052406 ], [ 38.7259203, 9.0543392 ], [ 38.7297097, 9.0557703 ], [ 38.7323672, 9.0557041 ], [ 38.7376958, 9.0551661 ], [ 38.7397953, 9.0530938 ], [ 38.7482742, 9.0501229 ], [ 38.7522729, 9.0489789 ], [ 38.7563261, 9.047414 ], [ 38.7588975, 9.043584 ], [ 38.758988, 9.0433294 ], [ 38.7620831, 9.0353314 ], [ 38.7636485, 9.0328556 ], [ 38.7705804, 9.0283662 ], [ 38.7706975, 9.0282685 ], [ 38.7766007, 9.0235376 ], [ 38.7766472, 9.0235001 ], [ 38.7793942, 9.0198778 ], [ 38.7834846, 9.01484 ], [ 38.7834729, 9.0142678 ], [ 38.781468, 9.0045317 ], [ 38.7816243, 9.0021541 ], [ 38.782616, 8.9950866 ], [ 38.7858171, 8.9901332 ], [ 38.7842988, 8.9845215 ], [ 38.7777914, 8.9763594 ], [ 38.7752672, 8.9716781 ], [ 38.7714972, 8.9618546 ], [ 38.7692517, 8.9571825 ], [ 38.7690248, 8.9567862 ], [ 38.7659699, 8.9533813 ], [ 38.7621917, 8.9528686 ], [ 38.7547486, 8.9496682 ], [ 38.7519839, 8.9481849 ], [ 38.7513941, 8.9479072 ], [ 38.7498443, 8.9472918 ], [ 38.7407243, 8.9419771 ], [ 38.7403338, 8.9416406 ], [ 38.7358986, 8.9383165 ], [ 38.7337989, 8.937223 ], [ 38.7249005, 8.9406474 ], [ 38.718863399999989, 8.9440195 ], [ 38.7169259, 8.9451545 ], [ 38.7097463, 8.9487392 ], [ 38.7056469, 8.9493476 ], [ 38.696078, 8.9523082 ], [ 38.6949377, 8.9543928 ], [ 38.6946148, 8.9572657 ], [ 38.6878783, 8.9643282 ], [ 38.6857943, 8.9643597 ], [ 38.6847804, 8.9648975 ], [ 38.6826561, 8.9659984 ], [ 38.676766, 8.9679733 ], [ 38.6740132, 8.9743649 ], [ 38.6731634, 8.9770238 ], [ 38.6723415, 8.9841697 ], [ 38.6725735, 8.9858729 ], [ 38.6742863, 8.9905406 ], [ 38.6745822, 8.9914439 ], [ 38.6770075, 9.0016761 ], [ 38.6799981, 9.0051993 ], [ 38.6825761, 9.0079971 ], [ 38.6874847, 9.0159484 ], [ 38.6870858, 9.0228654 ], [ 38.6891158, 9.0251889 ], [ 38.6906075, 9.0251852 ], [ 38.6918318, 9.0250956 ], [ 38.6963119, 9.0265084 ], [ 38.6993368, 9.0329567 ], [ 38.6992764, 9.0336705 ], [ 38.7004057, 9.0377578 ] ] ] } },
{ "type": "Feature", "properties": { "threshold_s": 300, "time_label": "5 min drive" }, "geometry": { "type": "Polygon", "coordinates": [ [ [ 38.7747833, 9.0070232 ], [ 38.7754892, 9.0093199 ], [ 38.7820902, 9.0117878 ], [ 38.7874922, 9.0136376 ], [ 38.7938893, 9.010515 ], [ 38.794879, 9.0090416 ], [ 38.7951808, 9.0084743 ], [ 38.8005208, 9.0032677 ], [ 38.8013238, 8.9997042 ], [ 38.8007558, 8.9987956 ], [ 38.8031779, 8.9919784 ], [ 38.8042245, 8.9908712 ], [ 38.8048125, 8.9901822 ], [ 38.8047893, 8.9897114 ], [ 38.8035562, 8.9852867 ], [ 38.8021619, 8.9853275 ], [ 38.7996331, 8.9854045 ], [ 38.7971379, 8.9861223 ], [ 38.789819799999989, 8.986366 ], [ 38.788826, 8.985809 ], [ 38.7855757, 8.9849273 ], [ 38.7842988, 8.9845215 ], [ 38.7829895, 8.9840922 ], [ 38.7824454, 8.9839019 ], [ 38.7782627, 8.9821212 ], [ 38.7764753, 8.9868029 ], [ 38.7734938, 8.9926488 ], [ 38.7730194, 8.9957645 ], [ 38.7753912, 8.9966925 ], [ 38.777362, 8.9984848 ], [ 38.7761237, 9.004792 ], [ 38.7747095, 9.005959 ], [ 38.7747833, 9.0070232 ] ] ] } },
{ "type": "Feature", "properties": { "threshold_s": 600, "time_label": "10 min drive" }, "geometry": { "type": "Polygon", "coordinates": [ [ [ 38.7561231, 9.0153091 ], [ 38.7586505, 9.0180415 ], [ 38.7673037, 9.0253571 ], [ 38.7743299, 9.0293061 ], [ 38.7834835, 9.0321406 ], [ 38.7979837, 9.0299544 ], [ 38.7991979, 9.0286409 ], [ 38.809637, 9.0202318 ], [ 38.8108795, 9.0190988 ], [ 38.8161268, 9.0119246 ], [ 38.8164575, 9.011285 ], [ 38.8218916, 8.9997821 ], [ 38.8229317, 8.9971741 ], [ 38.8252471, 8.9899392 ], [ 38.8259465, 8.978022 ], [ 38.8245886, 8.977147 ], [ 38.8208006, 8.9803978 ], [ 38.8079529, 8.9863615 ], [ 38.8066972, 8.9860036 ], [ 38.8035562, 8.9852867 ], [ 38.8021619, 8.9853275 ], [ 38.7996331, 8.9854045 ], [ 38.7971379, 8.9861223 ], [ 38.7899075, 8.9859732 ], [ 38.7880106, 8.9854871 ], [ 38.7855757, 8.9849273 ], [ 38.7842988, 8.9845215 ], [ 38.7787516, 8.9794447 ], [ 38.7804589, 8.9680504 ], [ 38.7804395, 8.9665631 ], [ 38.7775834, 8.9635925 ], [ 38.7726275, 8.964449 ], [ 38.7609422, 8.9727954 ], [ 38.7564987, 8.9822218 ], [ 38.7555837, 8.9863387 ], [ 38.7540808, 8.9957833 ], [ 38.7541654, 8.9959883 ], [ 38.7553258, 8.9969642 ], [ 38.7579128, 9.0080385 ], [ 38.755338, 9.0119598 ], [ 38.7553236, 9.0121104 ], [ 38.7561231, 9.0153091 ] ] ] } },
{ "type": "Feature", "properties": { "threshold_s": 900, "time_label": "15 min drive" }, "geometry": { "type": "Polygon", "coordinates": [ [ [ 38.7347345, 9.0165131 ], [ 38.7415488, 9.0297294 ], [ 38.7418619, 9.0299892 ], [ 38.7419312, 9.0300338 ], [ 38.7557028, 9.0397766 ], [ 38.7612864, 9.0448542 ], [ 38.7680977, 9.0468236 ], [ 38.7822264, 9.0489175 ], [ 38.7879583, 9.0472925 ], [ 38.7889132, 9.046568 ], [ 38.7893323, 9.046174 ], [ 38.8042312, 9.0365115 ], [ 38.8151452, 9.038081 ], [ 38.8175314, 9.0373427 ], [ 38.8184353, 9.0368494 ], [ 38.8198134, 9.0358672 ], [ 38.8228783, 9.0335362 ], [ 38.8229451, 9.0334666 ], [ 38.8284413, 9.0271774 ], [ 38.83203240000001, 9.021741 ], [ 38.8323849, 9.0210095 ], [ 38.8375936, 9.0082663 ], [ 38.8392022, 8.9998574 ], [ 38.8424526, 8.9893469 ], [ 38.8426673, 8.9877079 ], [ 38.8419177, 8.9820854 ], [ 38.841629, 8.9808673 ], [ 38.8376764, 8.9692227 ], [ 38.8309743, 8.9575601 ], [ 38.8180145, 8.9621375 ], [ 38.8114894, 8.9641966 ], [ 38.7954142, 8.9556839 ], [ 38.7940751, 8.9547593 ], [ 38.7908254, 8.9525403 ], [ 38.7859723, 8.9511163 ], [ 38.7690681, 8.9462568 ], [ 38.7598615, 8.9518502 ], [ 38.7516714, 8.96169 ], [ 38.7413924, 8.9712893 ], [ 38.7376123, 8.9805423 ], [ 38.7371454, 8.9903463 ], [ 38.7371778, 8.998569 ], [ 38.7340005, 9.0108205 ], [ 38.7339737, 9.011497 ], [ 38.7340052, 9.0117332 ], [ 38.7347345, 9.0165131 ] ] ] } },
{ "type": "Feature", "properties": { "threshold_s": 300, "time_label": "5 min drive" }, "geometry": { "type": "Polygon", "coordinates": [ [ [ 38.7215664, 8.9977019 ], [ 38.7205095, 8.9996903 ], [ 38.7209133, 8.9995602 ], [ 38.7220337, 8.9992215 ], [ 38.7224929, 8.9990797 ], [ 38.7236724, 8.9987142 ], [ 38.7268985, 8.9991841 ], [ 38.7274674, 8.99912 ], [ 38.7289264, 8.9982376 ], [ 38.7302594, 8.9977804 ], [ 38.7307139, 8.9976947 ], [ 38.7325948, 9.0017547 ], [ 38.732501, 9.001813 ], [ 38.730182, 9.0046135 ], [ 38.7292146, 9.0052443 ], [ 38.730935700000011, 9.0078495 ], [ 38.7313527, 9.0086805 ], [ 38.731964499999989, 9.0093869 ], [ 38.7341748, 9.0107132 ], [ 38.7359776, 9.0102827 ], [ 38.7387193, 9.0103826 ], [ 38.7424871, 9.0102645 ], [ 38.7445775, 9.0129089 ], [ 38.7446699, 9.0129369 ], [ 38.7449046, 9.0130052 ], [ 38.7476673, 9.0105487 ], [ 38.7489751, 9.0069735 ], [ 38.7517324, 9.0049461 ], [ 38.7519015, 9.0048619 ], [ 38.7530085, 9.0043225 ], [ 38.7531698, 9.0041116 ], [ 38.7536939, 9.0025951 ], [ 38.7561745, 8.9996726 ], [ 38.7568953, 8.999106 ], [ 38.758028, 8.9950297 ], [ 38.7580315, 8.994674 ], [ 38.757013, 8.9912123 ], [ 38.7566308, 8.9868222 ], [ 38.7566121, 8.9854758 ], [ 38.7573107, 8.9817491 ], [ 38.7545104, 8.9790531 ], [ 38.75253, 8.978179 ], [ 38.7487619, 8.9763426 ], [ 38.7466576, 8.9749068 ], [ 38.7461902, 8.9749715 ], [ 38.7459779, 8.9750163 ], [ 38.7450813, 8.9751633 ], [ 38.7438314, 8.975388 ], [ 38.7400277, 8.9744338 ], [ 38.7377431, 8.9730167 ], [ 38.734549, 8.9753057 ], [ 38.7328836, 8.9778363 ], [ 38.7301135, 8.9791555 ], [ 38.7296599, 8.9798651 ], [ 38.7276381, 8.9829479 ], [ 38.7269208, 8.9842288 ], [ 38.7265869, 8.9850391 ], [ 38.7262524, 8.9869032 ], [ 38.7241702, 8.9895817 ], [ 38.7241057, 8.989642 ], [ 38.7223572, 8.9928201 ], [ 38.721388, 8.994096 ], [ 38.7215664, 8.9977019 ] ] ] } },
{ "type": "Feature", "properties": { "threshold_s": 600, "time_label": "10 min drive" }, "geometry": { "type": "Polygon", "coordinates": [ [ [ 38.7142962, 9.0121102 ], [ 38.7172717, 9.0182925 ], [ 38.7225781, 9.0237289 ], [ 38.7283993, 9.028026 ], [ 38.7324699, 9.0315075 ], [ 38.7370889, 9.0322481 ], [ 38.7422276, 9.0322978 ], [ 38.7450782, 9.0323696 ], [ 38.7475825, 9.0323943 ], [ 38.7531912, 9.0297342 ], [ 38.7581126, 9.0269965 ], [ 38.7616201, 9.0233396 ], [ 38.7638895, 9.0199177 ], [ 38.7659352, 9.0168131 ], [ 38.767167, 9.0123421 ], [ 38.7706225, 9.010122 ], [ 38.7743817, 9.0065093 ], [ 38.7747095, 9.005959 ], [ 38.7734899, 9.0014308 ], [ 38.7758743, 8.9963788 ], [ 38.7763041, 8.9957546 ], [ 38.7780153, 8.9925672 ], [ 38.7766992, 8.9857251 ], [ 38.777238, 8.9839864 ], [ 38.7773083, 8.9830631 ], [ 38.7770538, 8.9803839 ], [ 38.7753195, 8.9786739 ], [ 38.7697098, 8.9786677 ], [ 38.7687171, 8.9780856 ], [ 38.7664998, 8.9707517 ], [ 38.7662108, 8.9676225 ], [ 38.7660424, 8.9663201 ], [ 38.7633621, 8.962338 ], [ 38.7580243, 8.9610853 ], [ 38.7555344, 8.9593632 ], [ 38.7518528, 8.9557927 ], [ 38.7512418, 8.9555263 ], [ 38.7476609, 8.9574208 ], [ 38.7424721, 8.9617445 ], [ 38.7404933, 8.9609058 ], [ 38.7348681, 8.9596248 ], [ 38.7335671, 8.9563225 ], [ 38.732454, 8.9546242 ], [ 38.7297839, 8.9566203 ], [ 38.7270542, 8.9595824 ], [ 38.7258243, 8.9612139 ], [ 38.7199863, 8.9644708 ], [ 38.7182221, 8.9675577 ], [ 38.7175886, 8.9692367 ], [ 38.7172198, 8.9707216 ], [ 38.7135418, 8.9763191 ], [ 38.7127013, 8.9783543 ], [ 38.71161330000001, 8.9805554 ], [ 38.7053044, 8.9852953 ], [ 38.7047439, 8.9858227 ], [ 38.7044953, 8.9868868 ], [ 38.7055021, 8.9941581 ], [ 38.706346, 8.9967622 ], [ 38.7066569, 8.9975757 ], [ 38.7073546, 8.9978268 ], [ 38.7086257, 8.9983915 ], [ 38.7143733, 9.0001679 ], [ 38.7162037, 9.003294 ], [ 38.7161945, 9.0080137 ], [ 38.7142962, 9.0121102 ] ] ] } },
{ "type": "Feature", "properties": { "threshold_s": 900, "time_label": "15 min drive" }, "geometry": { "type": "Polygon", "coordinates": [ [ [ 38.7089674, 9.0354666 ], [ 38.7130563, 9.0404385 ], [ 38.7217462, 9.0482593 ], [ 38.7249667, 9.0499866 ], [ 38.7302149, 9.0516528 ], [ 38.7323945, 9.0520451 ], [ 38.7329233, 9.0519989 ], [ 38.735253899999989, 9.051613 ], [ 38.7482742, 9.0501229 ], [ 38.7568086, 9.0494772 ], [ 38.7574848, 9.0494308 ], [ 38.7576135, 9.0493058 ], [ 38.7580652, 9.0488412 ], [ 38.7613838, 9.0448472 ], [ 38.7625945, 9.0433073 ], [ 38.7725503, 9.0352767 ], [ 38.775312, 9.0329041 ], [ 38.7823913, 9.0264422 ], [ 38.7896598, 9.0192439 ], [ 38.791997, 9.0167392 ], [ 38.7915556, 9.0156549 ], [ 38.7898291, 9.0104565 ], [ 38.7936291, 8.9982041 ], [ 38.794385, 8.9970616 ], [ 38.7966211, 8.9916862 ], [ 38.7966919, 8.9912265 ], [ 38.7942992, 8.9887271 ], [ 38.7899075, 8.9859732 ], [ 38.7880106, 8.9854871 ], [ 38.7855757, 8.9849273 ], [ 38.7842988, 8.9845215 ], [ 38.7787516, 8.9794447 ], [ 38.7828796, 8.9680649 ], [ 38.7828581, 8.9679775 ], [ 38.7755169, 8.9575612 ], [ 38.7758695, 8.9518383 ], [ 38.7758509, 8.9494855 ], [ 38.7758132, 8.9483132 ], [ 38.7757718, 8.9480696 ], [ 38.7748517, 8.9466994 ], [ 38.7714078, 8.9431754 ], [ 38.7633346, 8.9403366 ], [ 38.7501063, 8.9366738 ], [ 38.7429939, 8.9369966 ], [ 38.7341009, 8.9345072 ], [ 38.7331036, 8.9345746 ], [ 38.732959, 8.9346006 ], [ 38.7213057, 8.939956 ], [ 38.712544, 8.9490019 ], [ 38.708588399999989, 8.9511281 ], [ 38.6988366, 8.9558615 ], [ 38.6987179, 8.9560198 ], [ 38.6989697, 8.956874 ], [ 38.6999497, 8.9594078 ], [ 38.7001855, 8.9600148 ], [ 38.7001897, 8.9677934 ], [ 38.6917643, 8.9736267 ], [ 38.6899579, 8.9736162 ], [ 38.6877228, 8.9752024 ], [ 38.6834253, 8.9775917 ], [ 38.6833825, 8.9776248 ], [ 38.6832113, 8.9816585 ], [ 38.6872186, 8.9920613 ], [ 38.688317, 9.0023185 ], [ 38.6891121, 9.0040405 ], [ 38.6895746, 9.0048696 ], [ 38.690984, 9.0067819 ], [ 38.695627, 9.0185451 ], [ 38.6959451, 9.0198971 ], [ 38.6961386, 9.0202666 ], [ 38.7003976, 9.02517 ], [ 38.7089674, 9.0354666 ] ] ] } },
{ "type": "Feature", "properties": { "threshold_s": 300, "time_label": "5 min drive" }, "geometry": { "type": "Polygon", "coordinates": [ [ [ 38.7022307, 8.9728978 ], [ 38.7024934, 8.974706 ], [ 38.7037504, 8.9758767 ], [ 38.7057853, 8.9756135 ], [ 38.7065117, 8.9752925 ], [ 38.7076208, 8.974797 ], [ 38.7079365, 8.9746578 ], [ 38.7085293, 8.9743943 ], [ 38.7089684, 8.9741971 ], [ 38.7092046, 8.9740936 ], [ 38.7097858, 8.9738359 ], [ 38.7107423, 8.973403 ], [ 38.7110888, 8.9732445 ], [ 38.7120216, 8.9728206 ], [ 38.713758, 8.9722018 ], [ 38.7187499, 8.972423 ], [ 38.7204065, 8.9728935 ], [ 38.7212323, 8.9729119 ], [ 38.7247432, 8.9730688 ], [ 38.7249227, 8.9730334 ], [ 38.7256696, 8.9721836 ], [ 38.7261173, 8.9689048 ], [ 38.727375, 8.9653815 ], [ 38.7276622, 8.9634168 ], [ 38.727665, 8.9627193 ], [ 38.7276671, 8.9616568 ], [ 38.7276238, 8.9613825 ], [ 38.7258145, 8.9585262 ], [ 38.7255286, 8.9576791 ], [ 38.727476, 8.9525109 ], [ 38.7265286, 8.9487218 ], [ 38.7255665, 8.9454609 ], [ 38.7253649, 8.9451573 ], [ 38.7252582, 8.945024 ], [ 38.7240815, 8.944222 ], [ 38.7230275, 8.9437106 ], [ 38.7202932, 8.9428596 ], [ 38.7193868, 8.9430442 ], [ 38.7169259, 8.9451545 ], [ 38.7157618, 8.9461813 ], [ 38.7135835, 8.9481014 ], [ 38.7083825, 8.9462516 ], [ 38.7042759, 8.9441276 ], [ 38.7023901, 8.9487493 ], [ 38.7006778, 8.9503101 ], [ 38.6957192, 8.9520853 ], [ 38.6943834, 8.9527364 ], [ 38.6943434, 8.9548919 ], [ 38.6944314, 8.9560721 ], [ 38.6946148, 8.9572657 ], [ 38.6955415, 8.9596648 ], [ 38.6958124, 8.9598689 ], [ 38.6984839, 8.9604146 ], [ 38.6997608, 8.96103 ], [ 38.7015584, 8.9642617 ], [ 38.6986901, 8.9671433 ], [ 38.7001897, 8.9677934 ], [ 38.7022307, 8.9728978 ] ] ] } },
{ "type": "Feature", "properties": { "threshold_s": 600, "time_label": "10 min drive" }, "geometry": { "type": "Polygon", "coordinates": [ [ [ 38.6852274, 8.9805781 ], [ 38.6877509, 8.9855511 ], [ 38.693257, 8.9896724 ], [ 38.695789, 8.9891022 ], [ 38.6962191, 8.9889482 ], [ 38.6969275, 8.9885841 ], [ 38.6978363, 8.9881056 ], [ 38.7005572, 8.9868598 ], [ 38.7071906, 8.9860857 ], [ 38.7077402, 8.985556 ], [ 38.7165458, 8.9869257 ], [ 38.7167642, 8.9883729 ], [ 38.716908, 8.9901293 ], [ 38.7173929, 8.9902075 ], [ 38.7206103, 8.9904456 ], [ 38.7238093, 8.9906704 ], [ 38.7245401, 8.9900158 ], [ 38.7254147, 8.986819 ], [ 38.7324017, 8.9843453 ], [ 38.737172, 8.9846817 ], [ 38.7377916, 8.9841214 ], [ 38.7400372, 8.9805206 ], [ 38.7450175, 8.9752273 ], [ 38.7450813, 8.9751633 ], [ 38.7452156, 8.9732083 ], [ 38.7456054, 8.9686649 ], [ 38.7454986, 8.9683321 ], [ 38.7449837, 8.968007 ], [ 38.7438592, 8.967905 ], [ 38.7413601, 8.9669542 ], [ 38.7355458, 8.9629714 ], [ 38.7352973, 8.9619756 ], [ 38.7352396, 8.9611247 ], [ 38.7429693, 8.9567245 ], [ 38.7436067, 8.9570909 ], [ 38.7440031, 8.9569046 ], [ 38.7446192, 8.9566703 ], [ 38.7455368, 8.9561932 ], [ 38.7473971, 8.9537242 ], [ 38.7477601, 8.9525668 ], [ 38.7492489, 8.9465652 ], [ 38.7462384, 8.9426869 ], [ 38.7435845, 8.9365006 ], [ 38.7390134, 8.9348026 ], [ 38.7331916, 8.9297496 ], [ 38.7281575, 8.9271718 ], [ 38.7248138, 8.9242371 ], [ 38.723478, 8.9228749 ], [ 38.7230456, 8.9224806 ], [ 38.7212387, 8.92351 ], [ 38.7202896, 8.9240603 ], [ 38.7123176, 8.9260697 ], [ 38.7116689, 8.9264898 ], [ 38.7062073, 8.9295602 ], [ 38.69870250000001, 8.9321675 ], [ 38.6985399, 8.9324667 ], [ 38.6943345, 8.9403947 ], [ 38.6905998, 8.941313 ], [ 38.6884219, 8.9413436 ], [ 38.6855485, 8.9407877 ], [ 38.6847402, 8.9407987 ], [ 38.68354, 8.940955 ], [ 38.6817489, 8.942167 ], [ 38.6802779, 8.943664 ], [ 38.6801187, 8.9442031 ], [ 38.6804992, 8.9510846 ], [ 38.6803134, 8.9557227 ], [ 38.6803973, 8.9570556 ], [ 38.6829673, 8.9643809 ], [ 38.6812171, 8.967792 ], [ 38.6801021, 8.9701187 ], [ 38.6817193, 8.9755981 ], [ 38.6852274, 8.9805781 ] ] ] } },
{ "type": "Feature", "properties": { "threshold_s": 900, "time_label": "15 min drive" }, "geometry": { "type": "Polygon", "coordinates": [ [ [ 38.6702502, 8.9966073 ], [ 38.6750011, 9.0031694 ], [ 38.6769319, 9.0043748 ], [ 38.6803078, 9.0045434 ], [ 38.6914363, 9.0060543 ], [ 38.6940091, 9.0069179 ], [ 38.7033051, 9.0052887 ], [ 38.7068054, 9.0058914 ], [ 38.7105645, 9.0046979 ], [ 38.7197143, 9.0079515 ], [ 38.730935700000011, 9.0078495 ], [ 38.7325083, 9.0090783 ], [ 38.7341049, 9.0102287 ], [ 38.7361179, 9.0093048 ], [ 38.74219990000001, 9.0049176 ], [ 38.7499581, 8.9994267 ], [ 38.7534142, 8.9955503 ], [ 38.7578753, 8.9870874 ], [ 38.7625297, 8.9781554 ], [ 38.7627127, 8.9666965 ], [ 38.7640562, 8.9583092 ], [ 38.7640214, 8.9576842 ], [ 38.764001, 8.9574999 ], [ 38.7633968, 8.9532148 ], [ 38.7628957, 8.9451813 ], [ 38.7598461, 8.9378391 ], [ 38.7624076, 8.9324762 ], [ 38.7612942, 8.9293142 ], [ 38.7605815, 8.9284304 ], [ 38.7589171, 8.9271134 ], [ 38.7498766, 8.9209888 ], [ 38.7489381, 8.9191994 ], [ 38.7472521, 8.9176928 ], [ 38.7437616, 8.9147852 ], [ 38.7383515, 8.9086289 ], [ 38.735762, 8.9091884 ], [ 38.7295807, 8.9119588 ], [ 38.727289399999989, 8.9135477 ], [ 38.7226438, 8.9196104 ], [ 38.714174, 8.9207268 ], [ 38.7113597, 8.9196049 ], [ 38.7030194, 8.9214373 ], [ 38.7007337, 8.9274804 ], [ 38.69870250000001, 8.9321675 ], [ 38.6985399, 8.9324667 ], [ 38.6983983, 8.9354585 ], [ 38.6875914, 8.9395825 ], [ 38.6866843, 8.9390464 ], [ 38.6859834, 8.9390791 ], [ 38.6829914, 8.9401098 ], [ 38.6802779, 8.943664 ], [ 38.6801187, 8.9442031 ], [ 38.6802028, 8.9447962 ], [ 38.6803925, 8.945542 ], [ 38.6804992, 8.9510846 ], [ 38.6726743, 8.9593681 ], [ 38.6665157, 8.9610838 ], [ 38.6647734, 8.9629335 ], [ 38.6644214, 8.9638876 ], [ 38.663793, 8.9663176 ], [ 38.6623332, 8.9764481 ], [ 38.6615473, 8.9833127 ], [ 38.6658115, 8.9900599 ], [ 38.6702502, 8.9966073 ] ] ] } },
{ "type": "Feature", "properties": { "threshold_s": 300, "time_label": "5 min drive" }, "geometry": { "type": "Polygon", "coordinates": [ [ [ 38.8773054, 8.9875893 ], [ 38.8786331, 8.9934733 ], [ 38.8814333, 8.9951662 ], [ 38.8852216, 8.9975096 ], [ 38.8855772, 8.9975479 ], [ 38.8886133, 8.9949029 ], [ 38.8936431, 8.9924707 ], [ 38.8895121, 8.986617 ], [ 38.8918967, 8.9815223 ], [ 38.8960601, 8.9799898 ], [ 38.8962032, 8.979302 ], [ 38.8968989, 8.9759151 ], [ 38.89846, 8.9705885 ], [ 38.899451, 8.9690174 ], [ 38.8989817, 8.967902 ], [ 38.8960915, 8.9652311 ], [ 38.8948591, 8.964777 ], [ 38.8880409, 8.9631164 ], [ 38.8854526, 8.9603697 ], [ 38.8844093, 8.9598369 ], [ 38.8826155, 8.9598184 ], [ 38.8786944, 8.9637113 ], [ 38.8769908, 8.9661846 ], [ 38.8770774, 8.967025 ], [ 38.8791146, 8.9691254 ], [ 38.8792715, 8.9693022 ], [ 38.8807078, 8.9710786 ], [ 38.8820073, 8.9730657 ], [ 38.8845518, 8.9782527 ], [ 38.8846948, 8.9804587 ], [ 38.8847016, 8.9805858 ], [ 38.8850946, 8.9838114 ], [ 38.8791226, 8.9856556 ], [ 38.8779357, 8.9863667 ], [ 38.8773054, 8.9875893 ] ] ] } },
{ "type": "Feature", "properties": { "threshold_s": 600, "time_label": "10 min drive" }, "geometry": { "type": "Polygon", "coordinates": [ [ [ 38.865925, 9.0072348 ], [ 38.8664962, 9.0090527 ], [ 38.8741203, 9.0109293 ], [ 38.8757439, 9.0124514 ], [ 38.8774643, 9.0136264 ], [ 38.8792102, 9.0147551 ], [ 38.88512, 9.0154454 ], [ 38.8906755, 9.015872 ], [ 38.8907487, 9.0158764 ], [ 38.8946072, 9.0138679 ], [ 38.899767, 9.010667 ], [ 38.9008968, 9.0095896 ], [ 38.9028293, 9.006449 ], [ 38.9025959, 9.0057496 ], [ 38.9016357, 9.00318 ], [ 38.9000831, 8.9957216 ], [ 38.901672499999989, 8.99006 ], [ 38.9023532, 8.9846168 ], [ 38.9030009, 8.9800626 ], [ 38.901802, 8.9777524 ], [ 38.89846, 8.9705885 ], [ 38.899451, 8.9690174 ], [ 38.9003293, 8.9611959 ], [ 38.9026409, 8.9590526 ], [ 38.899219, 8.9543261 ], [ 38.8979622, 8.953656 ], [ 38.8947101, 8.9526472 ], [ 38.8908184, 8.947061 ], [ 38.8899815, 8.9469802 ], [ 38.8862076, 8.9466265 ], [ 38.8822569, 8.9441949 ], [ 38.88041, 8.9488349 ], [ 38.8737598, 8.9489221 ], [ 38.8675448, 8.9507969 ], [ 38.8685024, 8.9571187 ], [ 38.8656345, 8.9620021 ], [ 38.8596511, 8.9619301 ], [ 38.8620604, 8.9702149 ], [ 38.8619397, 8.9685915 ], [ 38.8627933, 8.9648805 ], [ 38.8631319, 8.9641831 ], [ 38.8713939, 8.9653464 ], [ 38.8716393, 8.9663726 ], [ 38.8730414, 8.9722954 ], [ 38.8692842, 8.9776795 ], [ 38.8653253, 8.9813012 ], [ 38.8639602, 8.9815304 ], [ 38.8620903, 8.9818093 ], [ 38.862619, 8.9826484 ], [ 38.8651268, 8.9834511 ], [ 38.868806, 8.9891138 ], [ 38.869126, 8.9895551 ], [ 38.8705891, 8.9912559 ], [ 38.8735718, 8.9973809 ], [ 38.8690741, 9.0025066 ], [ 38.8684118, 9.002743 ], [ 38.8676923, 9.0029318 ], [ 38.8665502, 9.003787 ], [ 38.8663052, 9.0042332 ], [ 38.865925, 9.0072348 ] ] ] } },
{ "type": "Feature", "properties": { "threshold_s": 900, "time_label": "15 min drive" }, "geometry": { "type": "Polygon", "coordinates": [ [ [ 38.8463331, 9.0104403 ], [ 38.8486878, 9.0140259 ], [ 38.8528666, 9.0179439 ], [ 38.8532484, 9.0182947 ], [ 38.8568146, 9.020547 ], [ 38.8643259, 9.0240878 ], [ 38.8684342, 9.0269428 ], [ 38.8769483, 9.0334756 ], [ 38.8784468, 9.0349512 ], [ 38.8794833, 9.0349708 ], [ 38.8874093, 9.0344573 ], [ 38.8894082, 9.0339936 ], [ 38.8898581, 9.033852 ], [ 38.8953325, 9.027668 ], [ 38.9002302, 9.0222733 ], [ 38.9008565, 9.0197236 ], [ 38.9004207, 9.0112823 ], [ 38.9028293, 9.006449 ], [ 38.9025959, 9.0057496 ], [ 38.9023653, 8.9955715 ], [ 38.9043886, 8.9908277 ], [ 38.905657, 8.9885185 ], [ 38.9061706, 8.985985 ], [ 38.9061452, 8.9847142 ], [ 38.9018503, 8.9765893 ], [ 38.899451, 8.9690174 ], [ 38.9026409, 8.9590526 ], [ 38.899219, 8.9543261 ], [ 38.8964939, 8.9444486 ], [ 38.8900915, 8.9423342 ], [ 38.8822569, 8.9441949 ], [ 38.8737598, 8.9489221 ], [ 38.8662735, 8.9506035 ], [ 38.8622153, 8.9511149 ], [ 38.8575174, 8.9513017 ], [ 38.8557485, 8.952286 ], [ 38.8573484, 8.9578221 ], [ 38.8596511, 8.9619301 ], [ 38.8617231, 8.9654777 ], [ 38.8542589, 8.9723237 ], [ 38.8539979, 8.9723627 ], [ 38.8494104, 8.9788651 ], [ 38.8456259, 8.9797438 ], [ 38.84429440000001, 8.9801963 ], [ 38.841919, 8.9854672 ], [ 38.8447968, 8.9896865 ], [ 38.8464038, 8.9917043 ], [ 38.8448124, 9.0022157 ], [ 38.8463331, 9.0104403 ] ] ] } },
{ "type": "Feature", "properties": { "threshold_s": 300, "time_label": "5 min drive" }, "geometry": { "type": "Polygon", "coordinates": [ [ [ 38.695077, 9.0660904 ], [ 38.6949831, 9.066376 ], [ 38.6963716, 9.0673118 ], [ 38.698357799999989, 9.0683166 ], [ 38.6992261, 9.0679087 ], [ 38.7001384, 9.0673675 ], [ 38.7043412, 9.0666829 ], [ 38.7047361, 9.0671463 ], [ 38.7049681, 9.0734342 ], [ 38.7066767, 9.0720331 ], [ 38.7051867, 9.0669423 ], [ 38.7064393, 9.0656273 ], [ 38.707658, 9.0628554 ], [ 38.7110449, 9.061498 ], [ 38.7147419, 9.0627772 ], [ 38.7154944, 9.0661054 ], [ 38.7157479, 9.0667755 ], [ 38.716975, 9.0684375 ], [ 38.7172258, 9.0686296 ], [ 38.7175758, 9.0688659 ], [ 38.717952, 9.0690613 ], [ 38.7194854, 9.0697505 ], [ 38.7198846, 9.069499 ], [ 38.7200117, 9.0691602 ], [ 38.7205002, 9.065913 ], [ 38.7202186, 9.0632794 ], [ 38.7207026, 9.0593857 ], [ 38.7206783, 9.058177 ], [ 38.7237543, 9.0551894 ], [ 38.7235673, 9.0539123 ], [ 38.7249858, 9.0500191 ], [ 38.7249667, 9.0499866 ], [ 38.7249365, 9.049948 ], [ 38.724913, 9.0499227 ], [ 38.7223227, 9.0479272 ], [ 38.7215629, 9.0478241 ], [ 38.720305, 9.0477991 ], [ 38.7197747, 9.0482355 ], [ 38.7157536, 9.0477334 ], [ 38.714793, 9.0457469 ], [ 38.7147702, 9.0456575 ], [ 38.7144953, 9.0447469 ], [ 38.7123378, 9.0418275 ], [ 38.7119767, 9.0417736 ], [ 38.7100227, 9.0416232 ], [ 38.7088318, 9.0442662 ], [ 38.7060598, 9.045207 ], [ 38.7037919, 9.0461124 ], [ 38.7032843, 9.0463005 ], [ 38.7025494, 9.0465938 ], [ 38.7016178, 9.0477981 ], [ 38.7014276, 9.0483143 ], [ 38.7014701, 9.049207 ], [ 38.6988763, 9.0525377 ], [ 38.6978128, 9.0557983 ], [ 38.6956846, 9.0590059 ], [ 38.6956333, 9.0590879 ], [ 38.6957335, 9.0595285 ], [ 38.6959863, 9.0603192 ], [ 38.6985998, 9.063679 ], [ 38.6972442, 9.0656717 ], [ 38.6960317, 9.0661013 ], [ 38.695077, 9.0660904 ] ] ] } },
{ "type": "Feature", "properties": { "threshold_s": 600, "time_label": "10 min drive" }, "geometry": { "type": "Polygon", "coordinates": [ [ [ 38.6848503, 9.0662366 ], [ 38.6848046, 9.0744871 ], [ 38.689663, 9.0762027 ], [ 38.6938391, 9.0730859 ], [ 38.6945052, 9.0723955 ], [ 38.6946523, 9.0720662 ], [ 38.6947811, 9.0717378 ], [ 38.698357799999989, 9.0683166 ], [ 38.7049681, 9.0734342 ], [ 38.7040883, 9.075675 ], [ 38.7066767, 9.0720331 ], [ 38.7151902, 9.0700342 ], [ 38.715507, 9.070681 ], [ 38.7157707, 9.0714928 ], [ 38.7160362, 9.0719192 ], [ 38.7182799, 9.0763662 ], [ 38.7190591, 9.077488 ], [ 38.7212082, 9.0809212 ], [ 38.7107912, 9.0885365 ], [ 38.7222228, 9.0847868 ], [ 38.7255473, 9.0871632 ], [ 38.726289, 9.0858111 ], [ 38.7287586, 9.0812933 ], [ 38.7261845, 9.0750759 ], [ 38.7338488, 9.072825 ], [ 38.7354343, 9.0715826 ], [ 38.741014, 9.0648982 ], [ 38.7419963, 9.0636923 ], [ 38.7422629, 9.0621329 ], [ 38.7425416, 9.0602868 ], [ 38.7440539, 9.053498 ], [ 38.7435698, 9.04991 ], [ 38.7432714, 9.0477428 ], [ 38.7434531, 9.038981 ], [ 38.7395927, 9.035054 ], [ 38.7384367, 9.0346415 ], [ 38.7320078, 9.0300158 ], [ 38.7304595, 9.0287023 ], [ 38.7303283, 9.0286827 ], [ 38.7301066, 9.0286546 ], [ 38.722301, 9.0264528 ], [ 38.7209415, 9.0249966 ], [ 38.7203815, 9.0244886 ], [ 38.7158288, 9.0208711 ], [ 38.7146139, 9.0205086 ], [ 38.714144, 9.0204375 ], [ 38.7117542, 9.0204905 ], [ 38.7051357, 9.0249965 ], [ 38.7035291, 9.0254177 ], [ 38.7014104, 9.0257572 ], [ 38.6979978, 9.0302365 ], [ 38.6951821, 9.0328202 ], [ 38.692354, 9.0351618 ], [ 38.6901301, 9.0376314 ], [ 38.6865038, 9.0455767 ], [ 38.685388, 9.0473163 ], [ 38.684895, 9.0518267 ], [ 38.6846724, 9.0563468 ], [ 38.6847362, 9.0650724 ], [ 38.6847681, 9.0654203 ], [ 38.6848503, 9.0662366 ] ] ] } },
{ "type": "Feature", "properties": { "threshold_s": 900, "time_label": "15 min drive" }, "geometry": { "type": "Polygon", "coordinates": [ [ [ 38.6847362, 9.0650724 ], [ 38.6848046, 9.0744871 ], [ 38.689663, 9.0762027 ], [ 38.6938391, 9.0730859 ], [ 38.7040883, 9.075675 ], [ 38.7066767, 9.0720331 ], [ 38.7182799, 9.0763662 ], [ 38.7190591, 9.077488 ], [ 38.7212082, 9.0809212 ], [ 38.7222228, 9.0847868 ], [ 38.7107912, 9.0885365 ], [ 38.7188042, 9.0925749 ], [ 38.7265894, 9.0880836 ], [ 38.7380585, 9.0909943 ], [ 38.7474556, 9.0884637 ], [ 38.748058, 9.0878049 ], [ 38.7478956, 9.0789074 ], [ 38.7523673, 9.0750431 ], [ 38.754019, 9.0745692 ], [ 38.7587925, 9.0707906 ], [ 38.7608059, 9.0681608 ], [ 38.7620154, 9.0655545 ], [ 38.7627214, 9.0567686 ], [ 38.7626772, 9.0557355 ], [ 38.7624706, 9.0535973 ], [ 38.7631762, 9.0432434 ], [ 38.7631271, 9.0430357 ], [ 38.7602203, 9.0332626 ], [ 38.7581126, 9.0269965 ], [ 38.7573693, 9.0258112 ], [ 38.752127, 9.0213476 ], [ 38.745118, 9.0164679 ], [ 38.7360857, 9.0112532 ], [ 38.7338199, 9.0093084 ], [ 38.730441, 9.0060503 ], [ 38.7285474, 9.0064755 ], [ 38.7191164, 9.0001686 ], [ 38.7188698, 8.9998109 ], [ 38.7178476, 9.0006727 ], [ 38.716688, 9.0022051 ], [ 38.714215, 9.0056337 ], [ 38.7129074, 9.0075087 ], [ 38.7098831, 9.0106851 ], [ 38.7049219, 9.0129477 ], [ 38.6951244, 9.0096412 ], [ 38.6942677, 9.0108235 ], [ 38.6917076, 9.0168955 ], [ 38.6822002, 9.018717 ], [ 38.6795545, 9.0212492 ], [ 38.6729117, 9.0281448 ], [ 38.6726095, 9.0312806 ], [ 38.6733014, 9.0351256 ], [ 38.6794643, 9.0446396 ], [ 38.6806176, 9.0455197 ], [ 38.6846724, 9.0563468 ], [ 38.6847206, 9.0589202 ], [ 38.684761, 9.0605151 ], [ 38.6847507, 9.0616361 ], [ 38.6847578, 9.0622835 ], [ 38.6847362, 9.0650724 ] ] ] } }
]
}
