{
"type": "FeatureCollection",
"name": "isochrone_amenity_drinking_water_drive",
"crs": { "type": "name", "properties": { "name": "urn:ogc:def:crs:OGC:1.3:CRS84" } },
"features": [
{ "type": "Feature", "properties": { "threshold_s": 300, "time_label": "5 min drive" }, "geometry": { "type": "Polygon", "coordinates": [ [ [ 38.6946158, 8.9787356 ], [ 38.6953197, 8.9797142 ], [ 38.6971305, 8.9809448 ], [ 38.6985553, 8.9808574 ], [ 38.7039784, 8.9764145 ], [ 38.7057853, 8.9756135 ], [ 38.7065117, 8.9752925 ], [ 38.7076208, 8.974797 ], [ 38.7079365, 8.9746578 ], [ 38.7085293, 8.9743943 ], [ 38.7089684, 8.9741971 ], [ 38.7092046, 8.9740936 ], [ 38.7097858, 8.9738359 ], [ 38.7107423, 8.973403 ], [ 38.7110888, 8.9732445 ], [ 38.7137725, 8.9724536 ], [ 38.7206829, 8.9750566 ], [ 38.7213911, 8.9756873 ], [ 38.7233107, 8.975741 ], [ 38.7234369, 8.9751753 ], [ 38.7237431, 8.9735448 ], [ 38.7247438, 8.967833 ], [ 38.7252565, 8.9659516 ], [ 38.7244731, 8.960367 ], [ 38.7193358, 8.9556942 ], [ 38.7174137, 8.9514514 ], [ 38.7156814, 8.9509822 ], [ 38.7137612, 8.9506522 ], [ 38.7087649, 8.9521945 ], [ 38.706019499999989, 8.9539817 ], [ 38.7042975, 8.9555025 ], [ 38.6972613, 8.9539438 ], [ 38.6967489, 8.9534902 ], [ 38.6957145, 8.9536041 ], [ 38.6934453, 8.9582368 ], [ 38.693562, 8.9605524 ], [ 38.6949742, 8.9614784 ], [ 38.6973037, 8.9678437 ], [ 38.6929491, 8.9700675 ], [ 38.6919154, 8.9705047 ], [ 38.6920311, 8.9726709 ], [ 38.6933614, 8.9763654 ], [ 38.6940234, 8.9777605 ], [ 38.6946158, 8.9787356 ] ] ] } },
{ "type": "Feature", "properties": { "threshold_s": 600, "time_label": "10 min drive" }, "geometry": { "type": "Polygon", "coordinates": [ [ [ 38.6840324, 8.9951916 ], [ 38.6845293, 8.9958121 ], [ 38.6889352, 8.9975942 ], [ 38.6985764, 8.9949158 ], [ 38.7053445, 8.9944656 ], [ 38.7165609, 8.992588 ], [ 38.7221247, 8.9925416 ], [ 38.7266077, 8.9926198 ], [ 38.7266778, 8.9925634 ], [ 38.726614, 8.990508 ], [ 38.7351134, 8.9837889 ], [ 38.7364519, 8.9840816 ], [ 38.7371782, 8.9838183 ], [ 38.7390094, 8.9805037 ], [ 38.7436582, 8.9724046 ], [ 38.7441065, 8.9712029 ], [ 38.7442511, 8.9705699 ], [ 38.7438549, 8.9689888 ], [ 38.7355458, 8.9629714 ], [ 38.7352396, 8.9611247 ], [ 38.7364709, 8.9560006 ], [ 38.7379298, 8.9509612 ], [ 38.7382146, 8.9501484 ], [ 38.7383114, 8.9497793 ], [ 38.7384074, 8.9493618 ], [ 38.738367, 8.9466013 ], [ 38.7340651, 8.9396349 ], [ 38.7325565, 8.9387172 ], [ 38.7234294, 8.9343587 ], [ 38.7217322, 8.9335509 ], [ 38.7193404, 8.9335716 ], [ 38.7182565, 8.936313 ], [ 38.7074572, 8.936407 ], [ 38.7051554, 8.9360615 ], [ 38.6983983, 8.9354585 ], [ 38.6905998, 8.941313 ], [ 38.6884219, 8.9413436 ], [ 38.6837425, 8.9419078 ], [ 38.6827766, 8.9422271 ], [ 38.681482699999989, 8.9428469 ], [ 38.6809114, 8.9432324 ], [ 38.6802779, 8.943664 ], [ 38.6801187, 8.9442031 ], [ 38.6802028, 8.9447962 ], [ 38.6803134, 8.9557227 ], [ 38.6803973, 8.9570556 ], [ 38.6750518, 8.9668892 ], [ 38.6731634, 8.9770238 ], [ 38.6731739, 8.9773428 ], [ 38.6736441, 8.9791129 ], [ 38.6749434, 8.9817092 ], [ 38.678182, 8.9876476 ], [ 38.6840324, 8.9951916 ] ] ] } },
{ "type": "Feature", "properties": { "threshold_s": 900, "time_label": "15 min drive" }, "geometry": { "type": "Polygon", "coordinates": [ [ [ 38.6645325, 9.0033071 ], [ 38.6680624, 9.0073462 ], [ 38.671073, 9.0104254 ], [ 38.6719642, 9.0113312 ], [ 38.6730546, 9.0120305 ], [ 38.6746809, 9.0126971 ], [ 38.6769807, 9.0135129 ], [ 38.6786784, 9.013297 ], [ 38.6902254, 9.0136731 ], [ 38.6997398, 9.0155845 ], [ 38.7000731, 9.0156284 ], [ 38.7049651, 9.0102282 ], [ 38.7139575, 9.0091895 ], [ 38.7210359, 9.0122983 ], [ 38.721633, 9.0119422 ], [ 38.7225071, 9.0114307 ], [ 38.7329321, 9.0116426 ], [ 38.734448, 9.0130864 ], [ 38.7360117, 9.0122933 ], [ 38.7374698, 9.0110916 ], [ 38.74219990000001, 9.0049176 ], [ 38.7490623, 8.9992276 ], [ 38.7520486, 8.9949625 ], [ 38.7531048, 8.993258 ], [ 38.7556409, 8.988903 ], [ 38.7564533, 8.9874301 ], [ 38.7596918, 8.9783251 ], [ 38.76242, 8.9685074 ], [ 38.7614843, 8.9580241 ], [ 38.7608555, 8.9544776 ], [ 38.7585164, 8.9439955 ], [ 38.754288, 8.9376352 ], [ 38.7503177, 8.9319296 ], [ 38.74901, 8.9303154 ], [ 38.7421381, 8.925791 ], [ 38.7390065, 8.9224161 ], [ 38.7349753, 8.9195169 ], [ 38.727289399999989, 8.9135477 ], [ 38.7226438, 8.9196104 ], [ 38.714174, 8.9207268 ], [ 38.7113597, 8.9196049 ], [ 38.7105604, 8.9221885 ], [ 38.7062073, 8.9295602 ], [ 38.69870250000001, 8.9321675 ], [ 38.6985399, 8.9324667 ], [ 38.6983983, 8.9354585 ], [ 38.6875914, 8.9395825 ], [ 38.6866843, 8.9390464 ], [ 38.6859834, 8.9390791 ], [ 38.6829914, 8.9401098 ], [ 38.6802779, 8.943664 ], [ 38.6801187, 8.9442031 ], [ 38.6802028, 8.9447962 ], [ 38.6803925, 8.945542 ], [ 38.6804992, 8.9510846 ], [ 38.6726743, 8.9593681 ], [ 38.6665157, 8.9610838 ], [ 38.6642035, 8.9613076 ], [ 38.6559536, 8.9655129 ], [ 38.6541805, 8.9664143 ], [ 38.6539108, 8.9744546 ], [ 38.6542019, 8.9763025 ], [ 38.6591364, 8.9831608 ], [ 38.6599191, 8.9867243 ], [ 38.6597476, 8.9909745 ], [ 38.6592607, 8.9944693 ], [ 38.6645325, 9.0033071 ] ] ] } },
{ "type": "Feature", "properties": { "threshold_s": 300, "time_label": "5 min drive" }, "geometry": { "type": "Polygon", "coordinates": [ [ [ 38.8187528, 8.8385423 ], [ 38.8194555, 8.8384522 ], [ 38.8188037, 8.8381182 ], [ 38.8187528, 8.8385423 ] ] ] } },
{ "type": "Feature", "properties": { "threshold_s": 600, "time_label": "10 min drive" }, "geometry": { "type": "Polygon", "coordinates": [ [ [ 38.8187528, 8.8385423 ], [ 38.8194555, 8.8384522 ], [ 38.8188037, 8.8381182 ], [ 38.8187528, 8.8385423 ] ] ] } },
{ "type": "Feature", "properties": { "threshold_s": 900, "time_label": "15 min drive" }, "geometry": { "type": "Polygon", "coordinates": [ [ [ 38.8187528, 8.8385423 ], [ 38.8194555, 8.8384522 ], [ 38.8188037, 8.8381182 ], [ 38.8187528, 8.8385423 ] ] ] } },
{ "type": "Feature", "properties": { "threshold_s": 300, "time_label": "5 min drive" }, "geometry": { "type": "Polygon", "coordinates": [ [ [ 38.7128595, 8.9667916 ], [ 38.7130442, 8.9680264 ], [ 38.7189853, 8.9700705 ], [ 38.7198439, 8.9703886 ], [ 38.7237888, 8.9707442 ], [ 38.7266294, 8.9728033 ], [ 38.7276338, 8.9743338 ], [ 38.7296868, 8.9752961 ], [ 38.7346587, 8.9739573 ], [ 38.7375861, 8.9741636 ], [ 38.7429767, 8.9727105 ], [ 38.7434813, 8.9705768 ], [ 38.7407647, 8.9696851 ], [ 38.7372129, 8.9662997 ], [ 38.7355458, 8.9629714 ], [ 38.7352396, 8.9611247 ], [ 38.7364709, 8.9560006 ], [ 38.7416386, 8.9527331 ], [ 38.7419392, 8.951485 ], [ 38.7420845, 8.9508667 ], [ 38.7422418, 8.9502442 ], [ 38.7423251, 8.9499041 ], [ 38.7423969, 8.9496075 ], [ 38.7424729, 8.9492846 ], [ 38.7426053, 8.948739 ], [ 38.7423963, 8.9468909 ], [ 38.7417747, 8.945377 ], [ 38.7407958, 8.9439545 ], [ 38.7396323, 8.9425541 ], [ 38.737807, 8.9407308 ], [ 38.7340245, 8.9393792 ], [ 38.7336878, 8.9394434 ], [ 38.7322478, 8.9405618 ], [ 38.7260826, 8.942055 ], [ 38.7237417, 8.9448268 ], [ 38.7215566, 8.9491322 ], [ 38.7199029, 8.9525868 ], [ 38.7181476, 8.9559264 ], [ 38.7136436, 8.9602259 ], [ 38.7135471, 8.9609676 ], [ 38.7130066, 8.9653424 ], [ 38.7128595, 8.9667916 ] ] ] } },
{ "type": "Feature", "properties": { "threshold_s": 600, "time_label": "10 min drive" }, "geometry": { "type": "Polygon", "coordinates": [ [ [ 38.6966211, 8.9762442 ], [ 38.6991935, 8.9797737 ], [ 38.7066054, 8.9831749 ], [ 38.7096251, 8.9827231 ], [ 38.7129021, 8.9832206 ], [ 38.7179174, 8.9892139 ], [ 38.7255622, 8.9913882 ], [ 38.7306756, 8.9935185 ], [ 38.7318522, 8.9938175 ], [ 38.7392383, 8.9966999 ], [ 38.7448209, 8.992834 ], [ 38.7481062, 8.9924875 ], [ 38.751011, 8.9919451 ], [ 38.7523171, 8.9904359 ], [ 38.7552246, 8.9863426 ], [ 38.7581101, 8.9811642 ], [ 38.7597527, 8.9773518 ], [ 38.7613593, 8.9707294 ], [ 38.7596895, 8.9645419 ], [ 38.7606216, 8.9589706 ], [ 38.7603619, 8.9570516 ], [ 38.7599771, 8.9552114 ], [ 38.7592615, 8.95035 ], [ 38.7594397, 8.944691 ], [ 38.758741, 8.9406331 ], [ 38.757121, 8.9354319 ], [ 38.7557982, 8.9306579 ], [ 38.7551006, 8.9303682 ], [ 38.7483837, 8.9259659 ], [ 38.7444224, 8.924109 ], [ 38.7404176, 8.9210347 ], [ 38.7352683, 8.9173866 ], [ 38.7332205, 8.9172147 ], [ 38.7307886, 8.9185419 ], [ 38.7293038, 8.9200026 ], [ 38.7225024, 8.9240636 ], [ 38.7222866, 8.9253297 ], [ 38.7163543, 8.9307024 ], [ 38.7156326, 8.9307128 ], [ 38.7151672, 8.9307128 ], [ 38.71189420000001, 8.9305843 ], [ 38.710751, 8.9314628 ], [ 38.7106329, 8.9335387 ], [ 38.7086068, 8.9409726 ], [ 38.7076195, 8.9414161 ], [ 38.7070924, 8.9421567 ], [ 38.7051688, 8.9476046 ], [ 38.7025941, 8.9502734 ], [ 38.695662, 8.9509001 ], [ 38.6929862, 8.952092 ], [ 38.6930059, 8.9540277 ], [ 38.6932147, 8.9571632 ], [ 38.6934453, 8.9582368 ], [ 38.694698, 8.9603908 ], [ 38.6973037, 8.9678437 ], [ 38.6965302, 8.9703163 ], [ 38.6964987, 8.97071 ], [ 38.6966211, 8.9762442 ] ] ] } },
{ "type": "Feature", "properties": { "threshold_s": 900, "time_label": "15 min drive" }, "geometry": { "type": "Polygon", "coordinates": [ [ [ 38.6851714, 8.9946456 ], [ 38.6859861, 8.9956094 ], [ 38.6881279, 8.9966811 ], [ 38.7022214, 9.0016321 ], [ 38.7069203, 9.0027792 ], [ 38.7197143, 9.0079515 ], [ 38.7321181, 9.0117201 ], [ 38.734748, 9.01525 ], [ 38.7446581, 9.0167997 ], [ 38.746222, 9.016833 ], [ 38.7466617, 9.0166137 ], [ 38.7588742, 9.0086394 ], [ 38.767328, 9.0017712 ], [ 38.7747749, 8.9936803 ], [ 38.7780844, 8.9833345 ], [ 38.7782983, 8.982017 ], [ 38.7777464, 8.9806532 ], [ 38.7767997, 8.9780852 ], [ 38.7696909, 8.9686206 ], [ 38.7726464, 8.9617668 ], [ 38.7728872, 8.9614966 ], [ 38.7746049, 8.9599046 ], [ 38.775242, 8.9583361 ], [ 38.7755169, 8.9575612 ], [ 38.7758695, 8.9518383 ], [ 38.7758509, 8.9494855 ], [ 38.7758132, 8.9483132 ], [ 38.7756121, 8.9361513 ], [ 38.772631, 8.9249623 ], [ 38.7702032, 8.9199201 ], [ 38.7622749, 8.9147088 ], [ 38.7580946, 8.9124759 ], [ 38.7488725, 8.9026402 ], [ 38.7461579, 8.9010112 ], [ 38.7362117, 8.9011704 ], [ 38.7350826, 8.9022633 ], [ 38.7337589, 8.9040162 ], [ 38.7313695, 8.9071775 ], [ 38.7312216, 8.9075352 ], [ 38.727289399999989, 8.9135477 ], [ 38.714174, 8.9207268 ], [ 38.7113597, 8.9196049 ], [ 38.7074294, 8.9215038 ], [ 38.69870250000001, 8.9321675 ], [ 38.6863238, 8.93968 ], [ 38.6829914, 8.9401098 ], [ 38.6802779, 8.943664 ], [ 38.6801187, 8.9442031 ], [ 38.6804992, 8.9510846 ], [ 38.6803134, 8.9557227 ], [ 38.6776712, 8.96827 ], [ 38.6776088, 8.9765588 ], [ 38.6810841, 8.9846709 ], [ 38.6847643, 8.9941224 ], [ 38.6849978, 8.9944267 ], [ 38.6851714, 8.9946456 ] ] ] } },
{ "type": "Feature", "properties": { "threshold_s": 300, "time_label": "5 min drive" }, "geometry": { "type": "Polygon", "coordinates": [ [ [ 38.7822667, 8.9992671 ], [ 38.7823378, 9.0013971 ], [ 38.782411, 9.0014722 ], [ 38.7863282, 9.0029323 ], [ 38.7882641, 9.0032555 ], [ 38.7906855, 8.9993148 ], [ 38.7913789, 8.9990156 ], [ 38.7970185, 9.0037105 ], [ 38.7976324, 9.0038828 ], [ 38.7987573, 9.0041948 ], [ 38.8012192, 9.004282 ], [ 38.8016061, 9.0039712 ], [ 38.8019402, 9.0036834 ], [ 38.8070261, 8.9987976 ], [ 38.8102361, 8.9937654 ], [ 38.8113809, 8.9918976 ], [ 38.8121692, 8.9905254 ], [ 38.8114187, 8.9892505 ], [ 38.8094608, 8.9871787 ], [ 38.8035562, 8.9852867 ], [ 38.8021619, 8.9853275 ], [ 38.7996331, 8.9854045 ], [ 38.7971379, 8.9861223 ], [ 38.789819799999989, 8.986366 ], [ 38.788826, 8.985809 ], [ 38.7855757, 8.9849273 ], [ 38.7842988, 8.9845215 ], [ 38.7829895, 8.9840922 ], [ 38.7790937, 8.9824536 ], [ 38.7789774, 8.9838548 ], [ 38.7799272, 8.9853434 ], [ 38.7805548, 8.9870377 ], [ 38.7779248, 8.992709 ], [ 38.7792163, 8.9939508 ], [ 38.7822667, 8.9992671 ] ] ] } },
{ "type": "Feature", "properties": { "threshold_s": 600, "time_label": "10 min drive" }, "geometry": { "type": "Polygon", "coordinates": [ [ [ 38.7682007, 9.0165141 ], [ 38.7693392, 9.0177338 ], [ 38.7704765, 9.0188531 ], [ 38.7714391, 9.0195628 ], [ 38.7811702, 9.0225738 ], [ 38.7860295, 9.0246382 ], [ 38.7863276, 9.0246843 ], [ 38.8008549, 9.0254157 ], [ 38.8116947, 9.0198284 ], [ 38.821277, 9.0091683 ], [ 38.8255294, 9.0054258 ], [ 38.8270529, 9.0033866 ], [ 38.829257, 8.99286 ], [ 38.829459, 8.9867615 ], [ 38.8277744, 8.9773 ], [ 38.8252005, 8.9754019 ], [ 38.8220191, 8.9769747 ], [ 38.8218902, 8.9771681 ], [ 38.8208006, 8.9803978 ], [ 38.8079529, 8.9863615 ], [ 38.8066972, 8.9860036 ], [ 38.8035562, 8.9852867 ], [ 38.8021619, 8.9853275 ], [ 38.7996331, 8.9854045 ], [ 38.7971379, 8.9861223 ], [ 38.7899075, 8.9859732 ], [ 38.7880106, 8.9854871 ], [ 38.7855757, 8.9849273 ], [ 38.7842988, 8.9845215 ], [ 38.7787516, 8.9794447 ], [ 38.7804589, 8.9680504 ], [ 38.7804395, 8.9665631 ], [ 38.7775834, 8.9635925 ], [ 38.7726275, 8.964449 ], [ 38.7609422, 8.9727954 ], [ 38.7606675, 8.9737722 ], [ 38.759938, 8.987608 ], [ 38.7598661, 8.9943823 ], [ 38.7609245, 9.000468 ], [ 38.7644245, 9.0091892 ], [ 38.7658891, 9.0123181 ], [ 38.7682007, 9.0165141 ] ] ] } },
{ "type": "Feature", "properties": { "threshold_s": 900, "time_label": "15 min drive" }, "geometry": { "type": "Polygon", "coordinates": [ [ [ 38.7478097, 9.0212658 ], [ 38.7492011, 9.0232587 ], [ 38.7620102, 9.0334911 ], [ 38.7631249, 9.0342974 ], [ 38.7695029, 9.0370091 ], [ 38.7707849, 9.0374901 ], [ 38.7722077, 9.0379644 ], [ 38.7773078, 9.0393449 ], [ 38.7813319, 9.0400888 ], [ 38.7821976, 9.0400112 ], [ 38.7835732, 9.0398786 ], [ 38.7884075, 9.037232 ], [ 38.8031475, 9.0364072 ], [ 38.8042312, 9.0365115 ], [ 38.8157836, 9.0387644 ], [ 38.8173474, 9.0380837 ], [ 38.8250372, 9.0343063 ], [ 38.8368236, 9.0215274 ], [ 38.8395884, 9.0164068 ], [ 38.8423269, 9.011252 ], [ 38.8434183, 9.0086094 ], [ 38.8455052, 9.001792 ], [ 38.8495491, 8.9874223 ], [ 38.8495385, 8.9871071 ], [ 38.8426743, 8.9754599 ], [ 38.8376764, 8.9692227 ], [ 38.8309743, 8.9575601 ], [ 38.8180145, 8.9621375 ], [ 38.8114894, 8.9641966 ], [ 38.7954142, 8.9556839 ], [ 38.7908739, 8.9529576 ], [ 38.787465, 8.9521653 ], [ 38.7869571, 8.9521051 ], [ 38.7688543, 8.9481925 ], [ 38.7598615, 8.9518502 ], [ 38.757306, 8.9561092 ], [ 38.7562482, 8.9578487 ], [ 38.7500526, 8.9667886 ], [ 38.7439171, 8.9739495 ], [ 38.7410338, 8.9804994 ], [ 38.7406063, 8.9895038 ], [ 38.739811, 9.0001027 ], [ 38.7450859, 9.0165871 ], [ 38.7478097, 9.0212658 ] ] ] } },
{ "type": "Feature", "properties": { "threshold_s": 300, "time_label": "5 min drive" }, "geometry": { "type": "Polygon", "coordinates": [ [ [ 38.7822667, 8.9992671 ], [ 38.7823378, 9.0013971 ], [ 38.782411, 9.0014722 ], [ 38.7863282, 9.0029323 ], [ 38.7882641, 9.0032555 ], [ 38.7906855, 8.9993148 ], [ 38.7913789, 8.9990156 ], [ 38.7970185, 9.0037105 ], [ 38.7976324, 9.0038828 ], [ 38.7987573, 9.0041948 ], [ 38.8012192, 9.004282 ], [ 38.8016061, 9.0039712 ], [ 38.8019402, 9.0036834 ], [ 38.8070261, 8.9987976 ], [ 38.8102361, 8.9937654 ], [ 38.8113809, 8.9918976 ], [ 38.8121692, 8.9905254 ], [ 38.8114187, 8.9892505 ], [ 38.8094608, 8.9871787 ], [ 38.8035562, 8.9852867 ], [ 38.8021619, 8.9853275 ], [ 38.7996331, 8.9854045 ], [ 38.7971379, 8.9861223 ], [ 38.789819799999989, 8.986366 ], [ 38.788826, 8.985809 ], [ 38.7855757, 8.9849273 ], [ 38.7842988, 8.9845215 ], [ 38.7829895, 8.9840922 ], [ 38.7790937, 8.9824536 ], [ 38.7789774, 8.9838548 ], [ 38.7799272, 8.9853434 ], [ 38.7805548, 8.9870377 ], [ 38.7779248, 8.992709 ], [ 38.7792163, 8.9939508 ], [ 38.7822667, 8.9992671 ] ] ] } },
{ "type": "Feature", "properties": { "threshold_s": 600, "time_label": "10 min drive" }, "geometry": { "type": "Polygon", "coordinates": [ [ [ 38.7682007, 9.0165141 ], [ 38.7693392, 9.0177338 ], [ 38.7704765, 9.0188531 ], [ 38.7714391, 9.0195628 ], [ 38.7811702, 9.0225738 ], [ 38.7860295, 9.0246382 ], [ 38.7863276, 9.0246843 ], [ 38.8008549, 9.0254157 ], [ 38.8116947, 9.0198284 ], [ 38.821277, 9.0091683 ], [ 38.8255294, 9.0054258 ], [ 38.8270529, 9.0033866 ], [ 38.829257, 8.99286 ], [ 38.829459, 8.9867615 ], [ 38.8277744, 8.9773 ], [ 38.8252005, 8.9754019 ], [ 38.8220191, 8.9769747 ], [ 38.8218902, 8.9771681 ], [ 38.8208006, 8.9803978 ], [ 38.8079529, 8.9863615 ], [ 38.8066972, 8.9860036 ], [ 38.8035562, 8.9852867 ], [ 38.8021619, 8.9853275 ], [ 38.7996331, 8.9854045 ], [ 38.7971379, 8.9861223 ], [ 38.7899075, 8.9859732 ], [ 38.7880106, 8.9854871 ], [ 38.7855757, 8.9849273 ], [ 38.7842988, 8.9845215 ], [ 38.7787516, 8.9794447 ], [ 38.7804589, 8.9680504 ], [ 38.7804395, 8.9665631 ], [ 38.7775834, 8.9635925 ], [ 38.7726275, 8.964449 ], [ 38.7609422, 8.9727954 ], [ 38.7606675, 8.9737722 ], [ 38.759938, 8.987608 ], [ 38.7598661, 8.9943823 ], [ 38.7609245, 9.000468 ], [ 38.7644245, 9.0091892 ], [ 38.7658891, 9.0123181 ], [ 38.7682007, 9.0165141 ] ] ] } },
{ "type": "Feature", "properties": { "threshold_s": 900, "time_label": "15 min drive" }, "geometry": { "type": "Polygon", "coordinates": [ [ [ 38.7478097, 9.0212658 ], [ 38.7492011, 9.0232587 ], [ 38.7620102, 9.0334911 ], [ 38.7631249, 9.0342974 ], [ 38.7695029, 9.0370091 ], [ 38.7707849, 9.0374901 ], [ 38.7722077, 9.0379644 ], [ 38.7773078, 9.0393449 ], [ 38.7813319, 9.0400888 ], [ 38.7821976, 9.0400112 ], [ 38.7835732, 9.0398786 ], [ 38.7884075, 9.037232 ], [ 38.8031475, 9.0364072 ], [ 38.8042312, 9.0365115 ], [ 38.8157836, 9.0387644 ], [ 38.8173474, 9.0380837 ], [ 38.8250372, 9.0343063 ], [ 38.8368236, 9.0215274 ], [ 38.8395884, 9.0164068 ], [ 38.8423269, 9.011252 ], [ 38.8434183, 9.0086094 ], [ 38.8455052, 9.001792 ], [ 38.8495491, 8.9874223 ], [ 38.8495385, 8.9871071 ], [ 38.8426743, 8.9754599 ], [ 38.8376764, 8.9692227 ], [ 38.8309743, 8.9575601 ], [ 38.8180145, 8.9621375 ], [ 38.8114894, 8.9641966 ], [ 38.7954142, 8.9556839 ], [ 38.7908739, 8.9529576 ], [ 38.787465, 8.9521653 ], [ 38.7869571, 8.9521051 ], [ 38.7688543, 8.9481925 ], [ 38.7598615, 8.9518502 ], [ 38.757306, 8.9561092 ], [ 38.7562482, 8.9578487 ], [ 38.7500526, 8.9667886 ], [ 38.7439171, 8.9739495 ], [ 38.7410338, 8.9804994 ], [ 38.7406063, 8.9895038 ], [ 38.739811, 9.0001027 ], [ 38.7450859, 9.0165871 ], [ 38.7478097, 9.0212658 ] ] ] } }
]
}
