{
"type": "FeatureCollection",
"name": "isochrone_shop_health_food_drive",
"crs": { "type": "name", "properties": { "name": "urn:ogc:def:crs:OGC:1.3:CRS84" } },
"features": [
{ "type": "Feature", "properties": { "threshold_s": 300, "time_label": "5 min drive" }, "geometry": { "type": "Polygon", "coordinates": [ [ [ 38.7609601, 9.0437661 ], [ 38.7610127, 9.0440194 ], [ 38.7611534, 9.0441026 ], [ 38.7633023, 9.0453081 ], [ 38.7639091, 9.0457048 ], [ 38.7657775, 9.0471413 ], [ 38.7676639, 9.0498369 ], [ 38.7679429, 9.0501205 ], [ 38.7702489, 9.0500487 ], [ 38.7703563, 9.0500188 ], [ 38.7711241, 9.0483539 ], [ 38.772725, 9.0469788 ], [ 38.7770637, 9.0488362 ], [ 38.7783756, 9.049188 ], [ 38.7797534, 9.049189 ], [ 38.7822264, 9.0489175 ], [ 38.7863618, 9.0469064 ], [ 38.7881461, 9.0481785 ], [ 38.7887992, 9.047307 ], [ 38.7893323, 9.046174 ], [ 38.7888638, 9.0443872 ], [ 38.7883687, 9.0411166 ], [ 38.788999, 9.0366321 ], [ 38.7898711, 9.0353037 ], [ 38.7914952, 9.032615 ], [ 38.7935214, 9.0301317 ], [ 38.7937076, 9.0297792 ], [ 38.7940713, 9.0283586 ], [ 38.7941556, 9.0256189 ], [ 38.7940937, 9.0255635 ], [ 38.7916929, 9.0247087 ], [ 38.7894086, 9.0239549 ], [ 38.7876648, 9.0232365 ], [ 38.7862093, 9.0222595 ], [ 38.7840036, 9.0191911 ], [ 38.7827485, 9.0183763 ], [ 38.7795994, 9.0155365 ], [ 38.7771373, 9.0148378 ], [ 38.7721413, 9.0163029 ], [ 38.7693392, 9.0177338 ], [ 38.7676275, 9.0197284 ], [ 38.7686595, 9.0207369 ], [ 38.7673037, 9.0253571 ], [ 38.7624111, 9.0266163 ], [ 38.7616201, 9.0233396 ], [ 38.7614021, 9.0232701 ], [ 38.76061330000001, 9.0273217 ], [ 38.7576451, 9.0285006 ], [ 38.7573454, 9.0285605 ], [ 38.7565032, 9.0287242 ], [ 38.7568262, 9.030107 ], [ 38.7570673, 9.0349685 ], [ 38.7573179, 9.0358262 ], [ 38.7579791, 9.0380662 ], [ 38.7599283, 9.0398541 ], [ 38.7609601, 9.0437661 ] ] ] } },
{ "type": "Feature", "properties": { "threshold_s": 600, "time_label": "10 min drive" }, "geometry": { "type": "Polygon", "coordinates": [ [ [ 38.743018, 9.0517899 ], [ 38.7460569, 9.057108 ], [ 38.7465042, 9.0572232 ], [ 38.7480519, 9.0576533 ], [ 38.7526571, 9.0610173 ], [ 38.7549777, 9.0637348 ], [ 38.7609098, 9.066708 ], [ 38.7672387, 9.068146 ], [ 38.7718618, 9.0689938 ], [ 38.7746251, 9.0694215 ], [ 38.7764986, 9.0674535 ], [ 38.7820199, 9.0676257 ], [ 38.7853696, 9.0647255 ], [ 38.7886496, 9.0651575 ], [ 38.7903043, 9.0653399 ], [ 38.7921292, 9.0640844 ], [ 38.7928802, 9.063107 ], [ 38.7939517, 9.061192 ], [ 38.7938711, 9.0600459 ], [ 38.7931769, 9.0568746 ], [ 38.7916383, 9.0559051 ], [ 38.792129, 9.0494167 ], [ 38.7906995, 9.0454025 ], [ 38.7967241, 9.0428703 ], [ 38.7975584, 9.0393973 ], [ 38.8005483, 9.0376132 ], [ 38.8041703, 9.044401 ], [ 38.8069644, 9.0447637 ], [ 38.8042312, 9.0365115 ], [ 38.8097365, 9.0345983 ], [ 38.8104845, 9.0343085 ], [ 38.8130282, 9.033534 ], [ 38.8131091, 9.0333978 ], [ 38.8129809, 9.0333193 ], [ 38.8116564, 9.0325841 ], [ 38.809383, 9.0265432 ], [ 38.8102636, 9.0243078 ], [ 38.8146516, 9.0217388 ], [ 38.813209, 9.0199514 ], [ 38.8108201, 9.0148705 ], [ 38.8080794, 9.0104469 ], [ 38.8033146, 9.0081789 ], [ 38.8009696, 9.008072 ], [ 38.7959238, 9.0052582 ], [ 38.7946308, 9.0046325 ], [ 38.7936953, 9.0050935 ], [ 38.7882698, 9.0017096 ], [ 38.7883566, 9.0003414 ], [ 38.7875247, 8.9998242 ], [ 38.7831283, 8.9981565 ], [ 38.7802986, 8.996918 ], [ 38.7789324, 8.9966101 ], [ 38.7725222, 8.9981068 ], [ 38.7665751, 9.0005115 ], [ 38.7638527, 9.0030427 ], [ 38.7587508, 9.0052114 ], [ 38.7535663, 9.009591 ], [ 38.7482888, 9.0109348 ], [ 38.7460468, 9.0114413 ], [ 38.7431896, 9.016309 ], [ 38.7431772, 9.0164219 ], [ 38.7427946, 9.0196841 ], [ 38.7389638, 9.0239739 ], [ 38.7376964, 9.024566 ], [ 38.7376528, 9.0246336 ], [ 38.7374238, 9.0254659 ], [ 38.7373963, 9.0256735 ], [ 38.7369338, 9.0296467 ], [ 38.7366399, 9.0346148 ], [ 38.7381363, 9.0410531 ], [ 38.7397933, 9.0438992 ], [ 38.7412114, 9.0484778 ], [ 38.743018, 9.0517899 ] ] ] } },
{ "type": "Feature", "properties": { "threshold_s": 900, "time_label": "15 min drive" }, "geometry": { "type": "Polygon", "coordinates": [ [ [ 38.7243359, 9.0611076 ], [ 38.7282699, 9.0670315 ], [ 38.7322406, 9.0703367 ], [ 38.732969, 9.0705393 ], [ 38.7370366, 9.0717907 ], [ 38.7379366, 9.0721722 ], [ 38.7445479, 9.0766414 ], [ 38.7510584, 9.0755627 ], [ 38.753382, 9.0790122 ], [ 38.7613576, 9.0810134 ], [ 38.7684722, 9.0768381 ], [ 38.7700425, 9.0798452 ], [ 38.773237, 9.081739 ], [ 38.7736219, 9.0787401 ], [ 38.7742804, 9.0774085 ], [ 38.775241, 9.0762624 ], [ 38.7769619, 9.0750951 ], [ 38.7836453, 9.0772787 ], [ 38.7845762, 9.0804395 ], [ 38.7856852, 9.0805299 ], [ 38.7896159, 9.0783315 ], [ 38.7946067, 9.076095 ], [ 38.7992678, 9.0741871 ], [ 38.7963992, 9.0704068 ], [ 38.7963618, 9.0678503 ], [ 38.8028473, 9.0628395 ], [ 38.8069985, 9.0664515 ], [ 38.811484, 9.0642857 ], [ 38.8180608, 9.064728 ], [ 38.819532100000011, 9.061253 ], [ 38.8231248, 9.0567513 ], [ 38.8219959, 9.0560586 ], [ 38.819489, 9.0528113 ], [ 38.8248239, 9.0468382 ], [ 38.8271413, 9.0476369 ], [ 38.828831, 9.0461447 ], [ 38.832886, 9.0432387 ], [ 38.8328675, 9.0395465 ], [ 38.8324024, 9.0387646 ], [ 38.8323298, 9.0308474 ], [ 38.8344597, 9.0293538 ], [ 38.8347538, 9.0284478 ], [ 38.8353941, 9.0233442 ], [ 38.8348874, 9.0216123 ], [ 38.831858, 9.0152179 ], [ 38.8322389, 9.0134539 ], [ 38.8320595, 9.0124229 ], [ 38.8289659, 9.0055265 ], [ 38.8275404, 9.0042923 ], [ 38.8251673, 9.0028349 ], [ 38.8227358, 8.9975418 ], [ 38.8210722, 8.9960126 ], [ 38.8147899, 8.9922479 ], [ 38.8077416, 8.9896339 ], [ 38.8047709, 8.9893009 ], [ 38.7996331, 8.9854045 ], [ 38.7976586, 8.9872854 ], [ 38.791375, 8.9871117 ], [ 38.789819799999989, 8.986366 ], [ 38.788826, 8.985809 ], [ 38.7855757, 8.9849273 ], [ 38.7842988, 8.9845215 ], [ 38.7787516, 8.9794447 ], [ 38.7767997, 8.9780852 ], [ 38.7755219, 8.9781492 ], [ 38.7734221, 8.9784757 ], [ 38.7690595, 8.9795189 ], [ 38.7623163, 8.9809214 ], [ 38.7614384, 8.9810966 ], [ 38.7598874, 8.9826072 ], [ 38.7542526, 8.9861048 ], [ 38.7507597, 8.986419 ], [ 38.7438558, 8.990557 ], [ 38.7427999, 8.9909033 ], [ 38.7381707, 8.9924364 ], [ 38.7376045, 8.9950873 ], [ 38.7353683, 9.0005664 ], [ 38.7325948, 9.0017547 ], [ 38.732501, 9.001813 ], [ 38.730182, 9.0046135 ], [ 38.7285474, 9.0064755 ], [ 38.7284978, 9.0065722 ], [ 38.7264951, 9.0122563 ], [ 38.7214342, 9.0141765 ], [ 38.7207368, 9.0175832 ], [ 38.7175683, 9.0214501 ], [ 38.7165078, 9.0248001 ], [ 38.7163433, 9.02551 ], [ 38.7167809, 9.030354 ], [ 38.7164375, 9.0373809 ], [ 38.716344, 9.0381067 ], [ 38.7180988, 9.0426318 ], [ 38.7199456, 9.049349 ], [ 38.7209953, 9.0524848 ], [ 38.7228912, 9.0588227 ], [ 38.7243359, 9.0611076 ] ] ] } }
]
}
