{
"type": "FeatureCollection",
"name": "isochrone_amenity_pub_drive",
"crs": { "type": "name", "properties": { "name": "urn:ogc:def:crs:OGC:1.3:CRS84" } },
"features": [
{ "type": "Feature", "properties": { "threshold_s": 300, "time_label": "5 min drive" }, "geometry": { "type": "Polygon", "coordinates": [ [ [ 38.7503028, 9.0158043 ], [ 38.751575699999989, 9.0171898 ], [ 38.7526258, 9.0172874 ], [ 38.7543086, 9.017315 ], [ 38.7555926, 9.0160591 ], [ 38.7566767, 9.0148583 ], [ 38.7565754, 9.0147817 ], [ 38.7554942, 9.0142652 ], [ 38.75478, 9.0135773 ], [ 38.7553236, 9.0121104 ], [ 38.755338, 9.0119598 ], [ 38.7552017, 9.0100104 ], [ 38.7567884, 9.0092968 ], [ 38.7591779, 9.0112723 ], [ 38.7589663, 9.01153 ], [ 38.7588792, 9.0116653 ], [ 38.7593389, 9.0118938 ], [ 38.7601319, 9.011234 ], [ 38.7588742, 9.0086394 ], [ 38.7587462, 9.0073761 ], [ 38.7587103, 9.0068983 ], [ 38.7583092, 9.0077312 ], [ 38.7567295, 9.0078257 ], [ 38.7560328, 9.0070649 ], [ 38.7547566, 9.0057969 ], [ 38.7557102, 9.0049258 ], [ 38.7569441, 9.0046531 ], [ 38.75719070000001, 9.0047099 ], [ 38.7574847, 9.0045057 ], [ 38.7574893, 9.0040118 ], [ 38.7567516, 9.0025752 ], [ 38.7564305, 9.0022735 ], [ 38.755623, 9.0021177 ], [ 38.7551021, 9.0002629 ], [ 38.7539989, 9.0011037 ], [ 38.752732, 9.0012941 ], [ 38.7513207, 9.0020037 ], [ 38.7508607, 9.0022828 ], [ 38.7504336, 9.0036879 ], [ 38.7493597, 9.0047637 ], [ 38.7483563, 9.0064761 ], [ 38.7472317, 9.0081935 ], [ 38.748271, 9.0080491 ], [ 38.7502626, 9.0077974 ], [ 38.7513155, 9.0081678 ], [ 38.7526401, 9.0079989 ], [ 38.7535663, 9.009591 ], [ 38.7533592, 9.010613 ], [ 38.7519181, 9.0117755 ], [ 38.7503444, 9.0116155 ], [ 38.7499394, 9.0114004 ], [ 38.7498135, 9.0113847 ], [ 38.7482888, 9.0109348 ], [ 38.7472759, 9.012391 ], [ 38.7484279, 9.0131606 ], [ 38.7484963, 9.0132162 ], [ 38.7497617, 9.0140877 ], [ 38.7503028, 9.0158043 ] ] ] } },
{ "type": "Feature", "properties": { "threshold_s": 600, "time_label": "10 min drive" }, "geometry": { "type": "Polygon", "coordinates": [ [ [ 38.7460263, 9.0241043 ], [ 38.7463807, 9.0263647 ], [ 38.748782, 9.0262905 ], [ 38.7501642, 9.0276345 ], [ 38.7501956, 9.027699 ], [ 38.7516948, 9.0287486 ], [ 38.7526328, 9.0285574 ], [ 38.7552246, 9.0265647 ], [ 38.7572955, 9.0263761 ], [ 38.7573693, 9.0258112 ], [ 38.7576048, 9.024946 ], [ 38.7575279, 9.0235574 ], [ 38.7602254, 9.0222978 ], [ 38.7605536, 9.0224021 ], [ 38.7602755, 9.0220911 ], [ 38.7600956, 9.0220791 ], [ 38.7587366, 9.0212076 ], [ 38.7603636, 9.0186068 ], [ 38.7605842, 9.0185252 ], [ 38.76068, 9.0184747 ], [ 38.7638073, 9.0191651 ], [ 38.7657801, 9.0168339 ], [ 38.7649382, 9.0162277 ], [ 38.7632994, 9.0143168 ], [ 38.7658891, 9.0123181 ], [ 38.7683696, 9.0132238 ], [ 38.7695735, 9.0120323 ], [ 38.7706225, 9.010122 ], [ 38.7706413, 9.0092666 ], [ 38.7688528, 9.0085028 ], [ 38.7680934, 9.008144 ], [ 38.7678266, 9.0080481 ], [ 38.7674965, 9.0079313 ], [ 38.7665786, 9.007126 ], [ 38.767867, 9.0044714 ], [ 38.7680657, 9.0039884 ], [ 38.767328, 9.0017712 ], [ 38.7673828, 8.9998628 ], [ 38.7668332, 8.9995569 ], [ 38.7656343, 8.9994049 ], [ 38.7636747, 8.9996135 ], [ 38.7604745, 8.9999085 ], [ 38.7588115, 8.9971097 ], [ 38.759535, 8.9958867 ], [ 38.7595939, 8.9955921 ], [ 38.7596548, 8.9944049 ], [ 38.7595485, 8.9939777 ], [ 38.7593972, 8.993556 ], [ 38.7591808, 8.9929533 ], [ 38.757013, 8.9912123 ], [ 38.753855, 8.9904583 ], [ 38.7519884, 8.9898262 ], [ 38.7504898, 8.990246 ], [ 38.7479952, 8.9924244 ], [ 38.7449813, 8.9932408 ], [ 38.7446667, 8.9949007 ], [ 38.7448465, 8.9951276 ], [ 38.7453434, 8.9957544 ], [ 38.7458811, 8.998566 ], [ 38.7456058, 8.9999417 ], [ 38.743207, 9.0023614 ], [ 38.7406738, 9.0016086 ], [ 38.7405517, 9.0016754 ], [ 38.7394138, 9.0033881 ], [ 38.7381765, 9.0059311 ], [ 38.7377773, 9.008472 ], [ 38.7371388, 9.0095967 ], [ 38.7359091, 9.0114509 ], [ 38.7376246, 9.0128814 ], [ 38.7392, 9.0135461 ], [ 38.7381084, 9.016537 ], [ 38.7395934, 9.0180534 ], [ 38.7399206, 9.0183454 ], [ 38.7400752, 9.0184858 ], [ 38.7403048, 9.0186944 ], [ 38.742114, 9.0213713 ], [ 38.7431634, 9.0219375 ], [ 38.7441473, 9.022135 ], [ 38.7460263, 9.0241043 ] ] ] } },
{ "type": "Feature", "properties": { "threshold_s": 900, "time_label": "15 min drive" }, "geometry": { "type": "Polygon", "coordinates": [ [ [ 38.7374792, 9.0316971 ], [ 38.7386519, 9.033309 ], [ 38.7402905, 9.0337396 ], [ 38.7417706, 9.0340836 ], [ 38.7420146, 9.0341229 ], [ 38.7429368, 9.0342591 ], [ 38.7432376, 9.0342989 ], [ 38.7439918, 9.0343989 ], [ 38.7517542, 9.038645 ], [ 38.7555497, 9.0379841 ], [ 38.7550527, 9.0350946 ], [ 38.7615913, 9.0308121 ], [ 38.7673037, 9.0253571 ], [ 38.7707329, 9.0240985 ], [ 38.7747315, 9.0192594 ], [ 38.7812692, 9.0141888 ], [ 38.7813332, 9.0121982 ], [ 38.7801564, 9.0037409 ], [ 38.7749536, 8.9996857 ], [ 38.774816199999989, 8.9941075 ], [ 38.7748685, 8.9939269 ], [ 38.7753801, 8.9924898 ], [ 38.7721056, 8.9911933 ], [ 38.76804, 8.9900825 ], [ 38.7645036, 8.9855142 ], [ 38.7636957, 8.9832885 ], [ 38.7632988, 8.9831008 ], [ 38.7584523, 8.9816164 ], [ 38.752506, 8.9804823 ], [ 38.7493828, 8.979404 ], [ 38.745601, 8.9814678 ], [ 38.7393433, 8.9852712 ], [ 38.7388376, 8.9858469 ], [ 38.7382566, 8.9884032 ], [ 38.7343846, 8.996604 ], [ 38.730182, 9.0046135 ], [ 38.7287807, 9.0080888 ], [ 38.7253784, 9.0132798 ], [ 38.7274598, 9.018264 ], [ 38.7312122, 9.0204846 ], [ 38.7338172, 9.0250172 ], [ 38.7343523, 9.0258096 ], [ 38.7374792, 9.0316971 ] ] ] } },
{ "type": "Feature", "properties": { "threshold_s": 300, "time_label": "5 min drive" }, "geometry": { "type": "Polygon", "coordinates": [ [ [ 38.7666051, 8.9944842 ], [ 38.7682519, 8.9964896 ], [ 38.7689952, 8.9971992 ], [ 38.7715868, 8.9980293 ], [ 38.7730326, 8.9973437 ], [ 38.7753912, 8.9966925 ], [ 38.7758743, 8.9963788 ], [ 38.7763041, 8.9957546 ], [ 38.7770756, 8.992736 ], [ 38.7780153, 8.9925672 ], [ 38.778576, 8.992462 ], [ 38.7797226, 8.9922354 ], [ 38.78009, 8.9905694 ], [ 38.7784117, 8.9902173 ], [ 38.7750877, 8.9907234 ], [ 38.7726688, 8.9892939 ], [ 38.7718676, 8.9877508 ], [ 38.7706549, 8.986741 ], [ 38.7693325, 8.985905 ], [ 38.767618, 8.9854072 ], [ 38.7673754, 8.985989 ], [ 38.7672391, 8.9864353 ], [ 38.7662867, 8.9897064 ], [ 38.7657081, 8.9898585 ], [ 38.7660945, 8.991706 ], [ 38.7664925, 8.9943395 ], [ 38.7666051, 8.9944842 ] ] ] } },
{ "type": "Feature", "properties": { "threshold_s": 600, "time_label": "10 min drive" }, "geometry": { "type": "Polygon", "coordinates": [ [ [ 38.7601513, 9.0005071 ], [ 38.76146, 9.0035082 ], [ 38.7629613, 9.0049758 ], [ 38.7661556, 9.0073141 ], [ 38.7699708, 9.0073954 ], [ 38.7717272, 9.0079713 ], [ 38.7721322, 9.008018 ], [ 38.7763593, 9.0077319 ], [ 38.778296, 9.0051979 ], [ 38.7782481, 9.0051158 ], [ 38.7772268, 9.0028263 ], [ 38.7788891, 8.9997858 ], [ 38.7809611, 8.999987 ], [ 38.782378, 8.9997652 ], [ 38.783416, 8.9991267 ], [ 38.7839102, 8.9987704 ], [ 38.7849841, 8.9979637 ], [ 38.7855356, 8.9969067 ], [ 38.7854666, 8.9953642 ], [ 38.7885437, 8.9923131 ], [ 38.7893008, 8.9887511 ], [ 38.7890151, 8.9881152 ], [ 38.7886316, 8.987331 ], [ 38.7884371, 8.9870932 ], [ 38.7855757, 8.9849273 ], [ 38.7842988, 8.9845215 ], [ 38.7829895, 8.9840922 ], [ 38.7824454, 8.9839019 ], [ 38.7782876, 8.982047 ], [ 38.7767255, 8.9817067 ], [ 38.7738427, 8.980634 ], [ 38.7718879, 8.979752 ], [ 38.7708268, 8.9803929 ], [ 38.7695651, 8.9811775 ], [ 38.7659251, 8.9808102 ], [ 38.7650426, 8.9787808 ], [ 38.7646558, 8.9779692 ], [ 38.764073, 8.9772204 ], [ 38.7638058, 8.9768236 ], [ 38.7623526, 8.9769294 ], [ 38.760112, 8.9782971 ], [ 38.7579608, 8.9816198 ], [ 38.7566514, 8.9847435 ], [ 38.7564533, 8.9867181 ], [ 38.7567562, 8.9884636 ], [ 38.7591509, 8.9921947 ], [ 38.7594068, 8.9930156 ], [ 38.7593601, 8.9973697 ], [ 38.7601513, 9.0005071 ] ] ] } },
{ "type": "Feature", "properties": { "threshold_s": 900, "time_label": "15 min drive" }, "geometry": { "type": "Polygon", "coordinates": [ [ [ 38.7547867, 9.0028817 ], [ 38.7535663, 9.009591 ], [ 38.7543717, 9.010126 ], [ 38.7586435, 9.0127141 ], [ 38.7637032, 9.0172024 ], [ 38.7684944, 9.0142876 ], [ 38.7720021, 9.0165267 ], [ 38.7727337, 9.0165182 ], [ 38.7741335, 9.0152535 ], [ 38.7812692, 9.0141888 ], [ 38.782059, 9.014438 ], [ 38.7861091, 9.0087839 ], [ 38.7875245, 9.008059 ], [ 38.7880361, 9.0076636 ], [ 38.7898343, 9.0055715 ], [ 38.7931544, 8.9983837 ], [ 38.7936291, 8.9982041 ], [ 38.7941482, 8.9979968 ], [ 38.7946719, 8.9978068 ], [ 38.7951352, 8.9973643 ], [ 38.797957, 8.9920335 ], [ 38.7976136, 8.9913002 ], [ 38.7963452, 8.9891736 ], [ 38.791375, 8.9871117 ], [ 38.788826, 8.985809 ], [ 38.7880106, 8.9854871 ], [ 38.7855757, 8.9849273 ], [ 38.7842988, 8.9845215 ], [ 38.7787516, 8.9794447 ], [ 38.7777914, 8.9763594 ], [ 38.7756114, 8.9726492 ], [ 38.7750388, 8.9724298 ], [ 38.7734583, 8.973063 ], [ 38.7664998, 8.9707517 ], [ 38.7613593, 8.9707294 ], [ 38.7570116, 8.9719198 ], [ 38.7549873, 8.972556 ], [ 38.7497169, 8.9780273 ], [ 38.7478086, 8.9840864 ], [ 38.7478244, 8.9850778 ], [ 38.7478922, 8.9855711 ], [ 38.7487069, 8.9911738 ], [ 38.747904, 8.994513 ], [ 38.7493724, 8.9970314 ], [ 38.7508271, 8.9983434 ], [ 38.7527221, 9.0002977 ], [ 38.753203, 9.0009678 ], [ 38.7547867, 9.0028817 ] ] ] } },
{ "type": "Feature", "properties": { "threshold_s": 300, "time_label": "5 min drive" }, "geometry": { "type": "Polygon", "coordinates": [ [ [ 38.7865171, 8.9978671 ], [ 38.7866955, 8.9981628 ], [ 38.7868335, 8.9981402 ], [ 38.7869011, 8.9980859 ], [ 38.7873295, 8.9978484 ], [ 38.788413, 8.9959625 ], [ 38.788491, 8.9960225 ], [ 38.7891596, 8.9951631 ], [ 38.7903908, 8.9948847 ], [ 38.790482, 8.9965207 ], [ 38.7907287, 8.9971431 ], [ 38.79043, 8.9986976 ], [ 38.7894879, 8.9990878 ], [ 38.7906855, 8.9993148 ], [ 38.7920983, 8.9987684 ], [ 38.792624, 8.9985777 ], [ 38.7931544, 8.9983837 ], [ 38.7936291, 8.9982041 ], [ 38.7946719, 8.9978068 ], [ 38.7951352, 8.9973643 ], [ 38.7965052, 8.9969379 ], [ 38.7948523, 8.9966292 ], [ 38.7944971, 8.995647 ], [ 38.7956395, 8.9945489 ], [ 38.7952264, 8.9934812 ], [ 38.7952184, 8.9928401 ], [ 38.7966451, 8.9921571 ], [ 38.7976136, 8.9913002 ], [ 38.79654, 8.9900417 ], [ 38.7963341, 8.9900894 ], [ 38.795499, 8.9912753 ], [ 38.7953449, 8.9913077 ], [ 38.7945593, 8.9897957 ], [ 38.7942992, 8.9887271 ], [ 38.7933953, 8.9891541 ], [ 38.7920807, 8.9883178 ], [ 38.7920318, 8.9875297 ], [ 38.791375, 8.9871117 ], [ 38.789819799999989, 8.986366 ], [ 38.7908932, 8.9872382 ], [ 38.7906399, 8.9883331 ], [ 38.7916591, 8.9890332 ], [ 38.7908448, 8.9901828 ], [ 38.7905229, 8.9906157 ], [ 38.7897353, 8.991741 ], [ 38.788291, 8.9915527 ], [ 38.7881416, 8.9909852 ], [ 38.7879873, 8.9904466 ], [ 38.7877175, 8.9895661 ], [ 38.7871316, 8.9907792 ], [ 38.7867218, 8.9921765 ], [ 38.7860104, 8.9923858 ], [ 38.7872777, 8.9926361 ], [ 38.7873682, 8.9940098 ], [ 38.786585, 8.9945701 ], [ 38.7875536, 8.9956627 ], [ 38.7868816, 8.9977798 ], [ 38.7865356, 8.9978286 ], [ 38.7865171, 8.9978671 ] ] ] } },
{ "type": "Feature", "properties": { "threshold_s": 600, "time_label": "10 min drive" }, "geometry": { "type": "Polygon", "coordinates": [ [ [ 38.7783258, 8.9985267 ], [ 38.7780823, 9.0053305 ], [ 38.7837833, 9.0077407 ], [ 38.7884384, 9.0091028 ], [ 38.7884709, 9.0091113 ], [ 38.7913185, 9.007363 ], [ 38.7917664, 9.0063258 ], [ 38.7984222, 9.003494 ], [ 38.7993101, 9.0037383 ], [ 38.8012192, 9.004282 ], [ 38.8013844, 9.0027679 ], [ 38.8012889, 9.0015944 ], [ 38.8013238, 8.9997042 ], [ 38.8038621, 8.9932965 ], [ 38.8048338, 8.9919389 ], [ 38.8058082, 8.9901794 ], [ 38.8058456, 8.9893081 ], [ 38.8035562, 8.9852867 ], [ 38.8021619, 8.9853275 ], [ 38.7996331, 8.9854045 ], [ 38.7971379, 8.9861223 ], [ 38.789819799999989, 8.986366 ], [ 38.788826, 8.985809 ], [ 38.7855757, 8.9849273 ], [ 38.7842988, 8.9845215 ], [ 38.7829895, 8.9840922 ], [ 38.7790937, 8.9824536 ], [ 38.7789774, 8.9838548 ], [ 38.7796594, 8.9901999 ], [ 38.7766295, 8.9930188 ], [ 38.7783258, 8.9985267 ] ] ] } },
{ "type": "Feature", "properties": { "threshold_s": 900, "time_label": "15 min drive" }, "geometry": { "type": "Polygon", "coordinates": [ [ [ 38.7705514, 9.0092813 ], [ 38.773148, 9.0145762 ], [ 38.7732235, 9.0146348 ], [ 38.7819307, 9.0165447 ], [ 38.7863369, 9.0194521 ], [ 38.7865467, 9.0196378 ], [ 38.7896598, 9.0192439 ], [ 38.7952426, 9.0151258 ], [ 38.8042417, 9.0123665 ], [ 38.8056166, 9.0117535 ], [ 38.8061032, 9.0115015 ], [ 38.8079575, 9.0091341 ], [ 38.809306, 9.005337 ], [ 38.8148622, 8.9942893 ], [ 38.8172823, 8.9910278 ], [ 38.8175372, 8.9873423 ], [ 38.8172293, 8.987135 ], [ 38.8066972, 8.9860036 ], [ 38.8035562, 8.9852867 ], [ 38.8021619, 8.9853275 ], [ 38.7996331, 8.9854045 ], [ 38.7899075, 8.9859732 ], [ 38.7880106, 8.9854871 ], [ 38.7855757, 8.9849273 ], [ 38.7777914, 8.9763594 ], [ 38.7756114, 8.9726492 ], [ 38.7687171, 8.9780856 ], [ 38.7690595, 8.9795189 ], [ 38.7691349, 8.9921401 ], [ 38.7682519, 8.9964896 ], [ 38.7692675, 9.0042938 ], [ 38.7695761, 9.0061032 ], [ 38.7705514, 9.0092813 ] ] ] } },
{ "type": "Feature", "properties": { "threshold_s": 300, "time_label": "5 min drive" }, "geometry": { "type": "Polygon", "coordinates": [ [ [ 38.7556319, 8.9579012 ], [ 38.7563421, 8.9602968 ], [ 38.7579586, 8.9615616 ], [ 38.759264, 8.9623271 ], [ 38.7615882, 8.9638827 ], [ 38.7629765, 8.9659959 ], [ 38.7654878, 8.9646567 ], [ 38.7663711, 8.9659721 ], [ 38.7667509, 8.9662586 ], [ 38.7673177, 8.9660073 ], [ 38.7685313, 8.9651209 ], [ 38.7696234, 8.9636751 ], [ 38.7718099, 8.962378 ], [ 38.7726464, 8.9617668 ], [ 38.7746049, 8.9599046 ], [ 38.775242, 8.9583361 ], [ 38.7755169, 8.9575612 ], [ 38.7753178, 8.956777 ], [ 38.7743879, 8.9540411 ], [ 38.7726577, 8.9524171 ], [ 38.771809, 8.9505652 ], [ 38.7714429, 8.9501701 ], [ 38.7703778, 8.9507138 ], [ 38.7688027, 8.948857 ], [ 38.7688543, 8.9481925 ], [ 38.7678722, 8.9487095 ], [ 38.7691994, 8.9510629 ], [ 38.7690797, 8.9520986 ], [ 38.766852, 8.953155 ], [ 38.7659699, 8.9533813 ], [ 38.7633968, 8.9532148 ], [ 38.7617457, 8.9519426 ], [ 38.760636, 8.9516484 ], [ 38.7598615, 8.9518502 ], [ 38.7589418, 8.9531029 ], [ 38.7582808, 8.9540712 ], [ 38.7569429, 8.9559319 ], [ 38.7556319, 8.9579012 ] ] ] } },
{ "type": "Feature", "properties": { "threshold_s": 600, "time_label": "10 min drive" }, "geometry": { "type": "Polygon", "coordinates": [ [ [ 38.7474743, 8.9625299 ], [ 38.7486493, 8.9654003 ], [ 38.7500526, 8.9667886 ], [ 38.754786, 8.9704253 ], [ 38.7570116, 8.9719198 ], [ 38.759932, 8.9764989 ], [ 38.7671367, 8.976797 ], [ 38.770035, 8.9725261 ], [ 38.7715801, 8.967035 ], [ 38.7737249, 8.9605879 ], [ 38.7746049, 8.9599046 ], [ 38.775242, 8.9583361 ], [ 38.779052, 8.9539221 ], [ 38.7807335, 8.9505511 ], [ 38.779634, 8.9483289 ], [ 38.7756973, 8.9448818 ], [ 38.7743569, 8.9402565 ], [ 38.7724535, 8.9380532 ], [ 38.771988, 8.9379385 ], [ 38.7710331, 8.9386429 ], [ 38.7649015, 8.9419151 ], [ 38.7633346, 8.9403366 ], [ 38.7600285, 8.9419964 ], [ 38.7537296, 8.9430502 ], [ 38.7523361, 8.949291 ], [ 38.7517645, 8.9508566 ], [ 38.7514167, 8.9524664 ], [ 38.7476609, 8.9574208 ], [ 38.7464974, 8.9584282 ], [ 38.746077, 8.9588322 ], [ 38.7474743, 8.9625299 ] ] ] } },
{ "type": "Feature", "properties": { "threshold_s": 900, "time_label": "15 min drive" }, "geometry": { "type": "Polygon", "coordinates": [ [ [ 38.7414488, 8.9644008 ], [ 38.7421094, 8.9706271 ], [ 38.7467806, 8.974895 ], [ 38.7491773, 8.9765528 ], [ 38.7513245, 8.9774483 ], [ 38.7564987, 8.9822218 ], [ 38.7589226, 8.9866488 ], [ 38.759938, 8.987608 ], [ 38.7659047, 8.9839108 ], [ 38.7660307, 8.9838301 ], [ 38.7666567, 8.9830736 ], [ 38.7737158, 8.9826456 ], [ 38.77425, 8.9825658 ], [ 38.7749792, 8.9824072 ], [ 38.7766517, 8.9813993 ], [ 38.7768464, 8.9809212 ], [ 38.7764951, 8.9768143 ], [ 38.7757194, 8.9743427 ], [ 38.7750388, 8.9724298 ], [ 38.7715801, 8.967035 ], [ 38.7726464, 8.9617668 ], [ 38.7728872, 8.9614966 ], [ 38.7737249, 8.9605879 ], [ 38.7805062, 8.9613459 ], [ 38.781147, 8.9615179 ], [ 38.7820736, 8.9616559 ], [ 38.7828497, 8.9618599 ], [ 38.7843645, 8.9622353 ], [ 38.7848107, 8.9622522 ], [ 38.7863218, 8.9604522 ], [ 38.7878376, 8.9547606 ], [ 38.7897859, 8.9520522 ], [ 38.7900399, 8.9462494 ], [ 38.7897221, 8.9455545 ], [ 38.7863919, 8.9427689 ], [ 38.7830056, 8.9405187 ], [ 38.7804897, 8.936656 ], [ 38.7786108, 8.930677 ], [ 38.7775374, 8.9285231 ], [ 38.7770201, 8.9287389 ], [ 38.7748735, 8.9298225 ], [ 38.7682445, 8.9295578 ], [ 38.7621219, 8.9326265 ], [ 38.7575599, 8.933409 ], [ 38.7559931, 8.9338063 ], [ 38.7502186, 8.935019 ], [ 38.7453074, 8.9360354 ], [ 38.7446257, 8.9389036 ], [ 38.7452078, 8.9398899 ], [ 38.7431681, 8.9464392 ], [ 38.7423963, 8.9468909 ], [ 38.7390563, 8.9521853 ], [ 38.7389687, 8.9526037 ], [ 38.7391974, 8.9534311 ], [ 38.7403759, 8.9568763 ], [ 38.7404933, 8.9609058 ], [ 38.7414488, 8.9644008 ] ] ] } },
{ "type": "Feature", "properties": { "threshold_s": 300, "time_label": "5 min drive" }, "geometry": { "type": "Polygon", "coordinates": [ [ [ 38.7819011, 9.0162539 ], [ 38.7819307, 9.0165447 ], [ 38.7841292, 9.0165435 ], [ 38.7855651, 9.0185913 ], [ 38.7861715, 9.0197125 ], [ 38.7870651, 9.0196171 ], [ 38.7873343, 9.0195722 ], [ 38.7896598, 9.0192439 ], [ 38.7901935, 9.0180435 ], [ 38.791997, 9.0167392 ], [ 38.7937864, 9.0154702 ], [ 38.7949421, 9.0145161 ], [ 38.7956759, 9.013702 ], [ 38.7959622, 9.0132559 ], [ 38.7961516, 9.0125743 ], [ 38.7963315, 9.0103532 ], [ 38.7965463, 9.0097939 ], [ 38.7969296, 9.0088592 ], [ 38.797109, 9.008386 ], [ 38.7970892, 9.0075365 ], [ 38.7968254, 9.0071466 ], [ 38.795201, 9.0056441 ], [ 38.7946308, 9.0046325 ], [ 38.7936953, 9.0050935 ], [ 38.7917389, 9.0056483 ], [ 38.7894034, 9.0046542 ], [ 38.7892042, 9.0040436 ], [ 38.7882698, 9.0017096 ], [ 38.7880442, 9.0011082 ], [ 38.78788440000001, 9.0005935 ], [ 38.7878517, 9.0006103 ], [ 38.7869787, 9.0015165 ], [ 38.7855785, 9.0032038 ], [ 38.7849636, 9.0033462 ], [ 38.7836494, 9.0045185 ], [ 38.7824927, 9.004531 ], [ 38.7822177, 9.004539 ], [ 38.7806044, 9.0049721 ], [ 38.7794724, 9.0056821 ], [ 38.7790846, 9.007266 ], [ 38.7781482, 9.0088664 ], [ 38.7780831, 9.0090041 ], [ 38.7782722, 9.0100379 ], [ 38.7786358, 9.0111903 ], [ 38.7792254, 9.0132141 ], [ 38.7817163, 9.0136245 ], [ 38.7817494, 9.0139229 ], [ 38.7819011, 9.0162539 ] ] ] } },
{ "type": "Feature", "properties": { "threshold_s": 600, "time_label": "10 min drive" }, "geometry": { "type": "Polygon", "coordinates": [ [ [ 38.7766007, 9.0235376 ], [ 38.777128, 9.0248365 ], [ 38.7806417, 9.0258586 ], [ 38.7845473, 9.0282398 ], [ 38.7874505, 9.0295787 ], [ 38.7884042, 9.0291921 ], [ 38.7898626, 9.0285236 ], [ 38.7926964, 9.0264009 ], [ 38.7959445, 9.0257353 ], [ 38.796299, 9.025302 ], [ 38.7963524, 9.0252368 ], [ 38.7974667, 9.0235442 ], [ 38.7992964, 9.0204626 ], [ 38.8016899, 9.0200113 ], [ 38.8019774, 9.0198821 ], [ 38.802462, 9.0194301 ], [ 38.8030907, 9.0146854 ], [ 38.8034284, 9.0138029 ], [ 38.8030966, 9.0136281 ], [ 38.8010811, 9.011184 ], [ 38.8028004, 9.0086231 ], [ 38.8033146, 9.0081789 ], [ 38.805089, 9.0074997 ], [ 38.805683, 9.007259 ], [ 38.8059445, 9.0070212 ], [ 38.8034796, 9.0044801 ], [ 38.8038473, 9.0011438 ], [ 38.8044385, 8.9996268 ], [ 38.8007558, 8.9987956 ], [ 38.7965052, 8.9969379 ], [ 38.7949314, 8.9948251 ], [ 38.7945392, 8.9945138 ], [ 38.7918435, 8.9923162 ], [ 38.7917543, 8.9922639 ], [ 38.788291, 8.9915527 ], [ 38.7847861, 8.9907155 ], [ 38.783081, 8.9918757 ], [ 38.7821735, 8.9939806 ], [ 38.7784264, 8.9944714 ], [ 38.7778293, 8.9946797 ], [ 38.7770092, 8.9949946 ], [ 38.777362, 8.9984848 ], [ 38.7779966, 8.9994625 ], [ 38.7757771, 9.0033548 ], [ 38.7734655, 9.0030482 ], [ 38.7727683, 9.0030296 ], [ 38.7716451, 9.0039323 ], [ 38.771041, 9.0056867 ], [ 38.7717272, 9.0079713 ], [ 38.7725128, 9.0102701 ], [ 38.7742634, 9.0124589 ], [ 38.7743465, 9.0124832 ], [ 38.776373, 9.0129175 ], [ 38.7790322, 9.0148252 ], [ 38.7807383, 9.0166185 ], [ 38.7800908, 9.0202484 ], [ 38.7766472, 9.0235001 ], [ 38.7766007, 9.0235376 ] ] ] } },
{ "type": "Feature", "properties": { "threshold_s": 900, "time_label": "15 min drive" }, "geometry": { "type": "Polygon", "coordinates": [ [ [ 38.767883, 9.0286497 ], [ 38.767701, 9.0287114 ], [ 38.7701755, 9.0299115 ], [ 38.7723844, 9.0333248 ], [ 38.7774782, 9.0349523 ], [ 38.7797197, 9.0361348 ], [ 38.7855725, 9.0348864 ], [ 38.7859775, 9.0355527 ], [ 38.7864758, 9.0378832 ], [ 38.7866579, 9.0379459 ], [ 38.7894697, 9.0358202 ], [ 38.7898711, 9.0353037 ], [ 38.7913411, 9.0328014 ], [ 38.7947311, 9.0312946 ], [ 38.7988474, 9.0307862 ], [ 38.8011234, 9.0303124 ], [ 38.8048161, 9.0292985 ], [ 38.807424, 9.0245836 ], [ 38.8077682, 9.0239565 ], [ 38.8087057, 9.0226739 ], [ 38.8133654, 9.0199396 ], [ 38.8133688, 9.0197109 ], [ 38.812003, 9.0146785 ], [ 38.8127466, 9.0114028 ], [ 38.8147569, 9.0088398 ], [ 38.8164236, 9.0039119 ], [ 38.8150748, 9.0021567 ], [ 38.8141333, 9.0012666 ], [ 38.8129683, 8.995979 ], [ 38.8133568, 8.9947416 ], [ 38.8126849, 8.9937643 ], [ 38.812396, 8.9934597 ], [ 38.8107555, 8.9919136 ], [ 38.8076384, 8.9901538 ], [ 38.8048125, 8.9901822 ], [ 38.8018267, 8.9898213 ], [ 38.7997874, 8.9861208 ], [ 38.7996331, 8.9854045 ], [ 38.7965669, 8.9878238 ], [ 38.791375, 8.9871117 ], [ 38.789819799999989, 8.986366 ], [ 38.788826, 8.985809 ], [ 38.7855757, 8.9849273 ], [ 38.7842988, 8.9845215 ], [ 38.7829895, 8.9840922 ], [ 38.7824454, 8.9839019 ], [ 38.7807425, 8.9839147 ], [ 38.7749007, 8.9846708 ], [ 38.7740672, 8.9854398 ], [ 38.7738282, 8.9856895 ], [ 38.7719503, 8.9903067 ], [ 38.768621, 8.9952975 ], [ 38.7650467, 8.9975944 ], [ 38.7650014, 8.9976644 ], [ 38.7633019, 9.0003663 ], [ 38.763698, 9.0032032 ], [ 38.764761, 9.0088177 ], [ 38.7644245, 9.0091892 ], [ 38.7636137, 9.009863 ], [ 38.76206, 9.0111118 ], [ 38.7627294, 9.0115076 ], [ 38.7645019, 9.0170063 ], [ 38.766175, 9.0194163 ], [ 38.7686595, 9.0207369 ], [ 38.7717222, 9.0232818 ], [ 38.7686882, 9.0283996 ], [ 38.767883, 9.0286497 ] ] ] } },
{ "type": "Feature", "properties": { "threshold_s": 300, "time_label": "5 min drive" }, "geometry": { "type": "Polygon", "coordinates": [ [ [ 38.7586856, 8.9999436 ], [ 38.7587985, 9.0020734 ], [ 38.7597493, 9.0025973 ], [ 38.7616158, 9.004092 ], [ 38.7636837, 9.004735 ], [ 38.7649415, 9.0055052 ], [ 38.766098, 9.0042608 ], [ 38.7684475, 9.0050954 ], [ 38.7692675, 9.0042938 ], [ 38.76827990000001, 9.0036892 ], [ 38.769688, 9.0011882 ], [ 38.7705819, 9.0007731 ], [ 38.7714849, 8.997922 ], [ 38.7717256, 8.9974435 ], [ 38.7730161, 8.9946505 ], [ 38.7725236, 8.9943175 ], [ 38.7722057, 8.9941153 ], [ 38.7708398, 8.9931594 ], [ 38.7706876, 8.9906817 ], [ 38.7704844, 8.9906366 ], [ 38.76804, 8.9900825 ], [ 38.7662867, 8.9897064 ], [ 38.7651287, 8.9879443 ], [ 38.7650777, 8.9877284 ], [ 38.7650281, 8.9876688 ], [ 38.7634392, 8.9867237 ], [ 38.7608696, 8.9875656 ], [ 38.7593683, 8.989876 ], [ 38.7592571, 8.9906178 ], [ 38.7591453, 8.9913732 ], [ 38.7591509, 8.9921947 ], [ 38.7594068, 8.9930156 ], [ 38.7597039, 8.9959808 ], [ 38.759554, 8.9967245 ], [ 38.759032, 8.998066 ], [ 38.7586621, 8.999279 ], [ 38.7586856, 8.9999436 ] ] ] } },
{ "type": "Feature", "properties": { "threshold_s": 600, "time_label": "10 min drive" }, "geometry": { "type": "Polygon", "coordinates": [ [ [ 38.7530085, 9.0043225 ], [ 38.7535663, 9.009591 ], [ 38.7543717, 9.010126 ], [ 38.7586435, 9.0127141 ], [ 38.7632994, 9.0143168 ], [ 38.767167, 9.0123421 ], [ 38.7706225, 9.010122 ], [ 38.7745506, 9.0111448 ], [ 38.7747322, 9.0111996 ], [ 38.7747681, 9.0111909 ], [ 38.774881, 9.0108722 ], [ 38.7751447, 9.0097636 ], [ 38.7747095, 9.005959 ], [ 38.7766126, 8.999646 ], [ 38.7763041, 8.9957546 ], [ 38.7809926, 8.9933249 ], [ 38.7836118, 8.9910161 ], [ 38.7816779, 8.9891378 ], [ 38.7809162, 8.9889418 ], [ 38.7784041, 8.9888346 ], [ 38.7769009, 8.9885584 ], [ 38.7732505, 8.9832664 ], [ 38.7729625, 8.9812058 ], [ 38.771043, 8.9807541 ], [ 38.7650426, 8.9787808 ], [ 38.7634805, 8.9783721 ], [ 38.759488, 8.9783088 ], [ 38.7553965, 8.9820855 ], [ 38.7531757, 8.9836321 ], [ 38.7524498, 8.9849586 ], [ 38.7500986, 8.9892798 ], [ 38.747121, 8.9917451 ], [ 38.7458342, 8.9949273 ], [ 38.7487378, 8.9988017 ], [ 38.7490623, 8.9992276 ], [ 38.7530085, 9.0043225 ] ] ] } },
{ "type": "Feature", "properties": { "threshold_s": 900, "time_label": "15 min drive" }, "geometry": { "type": "Polygon", "coordinates": [ [ [ 38.7458373, 9.0155904 ], [ 38.7458578, 9.0156628 ], [ 38.7505739, 9.0190794 ], [ 38.752181899999989, 9.0217133 ], [ 38.7526323, 9.0214301 ], [ 38.7561953, 9.0200771 ], [ 38.7600498, 9.0221853 ], [ 38.7602254, 9.0222978 ], [ 38.7605536, 9.0224021 ], [ 38.7664473, 9.0226405 ], [ 38.7713573, 9.0204686 ], [ 38.7744601, 9.0203401 ], [ 38.7763276, 9.0184688 ], [ 38.7771591, 9.017689 ], [ 38.7834846, 9.01484 ], [ 38.7848288, 9.0151578 ], [ 38.7857985, 9.0153244 ], [ 38.7833831, 9.0092518 ], [ 38.7836494, 9.0045185 ], [ 38.7856932, 9.0002523 ], [ 38.7873295, 8.9978484 ], [ 38.7903908, 8.9948847 ], [ 38.7908023, 8.9945153 ], [ 38.7913479, 8.9928249 ], [ 38.7920318, 8.9875297 ], [ 38.791375, 8.9871117 ], [ 38.788826, 8.985809 ], [ 38.7879749, 8.9856538 ], [ 38.7855757, 8.9849273 ], [ 38.7842988, 8.9845215 ], [ 38.7829895, 8.9840922 ], [ 38.7787516, 8.9794447 ], [ 38.7773636, 8.975878 ], [ 38.7755665, 8.9741506 ], [ 38.774138, 8.9743781 ], [ 38.7724437, 8.9748216 ], [ 38.7710859, 8.9752898 ], [ 38.7660779, 8.9717093 ], [ 38.7658795, 8.9714651 ], [ 38.7655318, 8.9710292 ], [ 38.762618, 8.9673329 ], [ 38.7565422, 8.9679672 ], [ 38.7554306, 8.9688312 ], [ 38.7519835, 8.9733241 ], [ 38.749944, 8.9753297 ], [ 38.7449466, 8.9801176 ], [ 38.743529, 8.9827014 ], [ 38.7392226, 8.9874092 ], [ 38.7382566, 8.9884032 ], [ 38.7383237, 8.9951094 ], [ 38.7371778, 8.998569 ], [ 38.7368938, 9.0019137 ], [ 38.7375899, 9.0023508 ], [ 38.7414856, 9.0033531 ], [ 38.7448468, 9.0074017 ], [ 38.7441169, 9.0104975 ], [ 38.7458373, 9.0155904 ] ] ] } },
{ "type": "Feature", "properties": { "threshold_s": 300, "time_label": "5 min drive" }, "geometry": { "type": "Polygon", "coordinates": [ [ [ 38.854691699999989, 8.9988022 ], [ 38.8551758, 9.001051 ], [ 38.856015, 9.0011077 ], [ 38.8583918, 9.0019574 ], [ 38.859954, 9.0032962 ], [ 38.8616534, 9.0013971 ], [ 38.8621925, 8.9992314 ], [ 38.863330499999989, 8.9968197 ], [ 38.8641715, 8.9962063 ], [ 38.8673329, 8.996602 ], [ 38.8685319, 8.9965702 ], [ 38.8683298, 8.9954969 ], [ 38.8658631, 8.9953807 ], [ 38.8647621, 8.9947766 ], [ 38.8638084, 8.9931033 ], [ 38.8638173, 8.9912566 ], [ 38.8659556, 8.990281 ], [ 38.8637348, 8.9880715 ], [ 38.8614618, 8.9872907 ], [ 38.8605502, 8.9872796 ], [ 38.8584427, 8.9856789 ], [ 38.8570512, 8.9845652 ], [ 38.856352, 8.986161 ], [ 38.8553466, 8.9874296 ], [ 38.8549678, 8.9888492 ], [ 38.8536167, 8.9909155 ], [ 38.8521201, 8.9936541 ], [ 38.8519602, 8.9940964 ], [ 38.8518646, 8.9947502 ], [ 38.8522509, 8.9948575 ], [ 38.8549742, 8.9957103 ], [ 38.854874, 8.9974818 ], [ 38.854691699999989, 8.9988022 ] ] ] } },
{ "type": "Feature", "properties": { "threshold_s": 600, "time_label": "10 min drive" }, "geometry": { "type": "Polygon", "coordinates": [ [ [ 38.8467644, 9.0021269 ], [ 38.847133, 9.0027615 ], [ 38.8491053, 9.0047841 ], [ 38.8495311, 9.0051875 ], [ 38.850382, 9.0058106 ], [ 38.8511537, 9.0058402 ], [ 38.8520834, 9.0059043 ], [ 38.8557418, 9.0078428 ], [ 38.8563341, 9.0081527 ], [ 38.856694, 9.0081418 ], [ 38.8571605, 9.007807 ], [ 38.8588436, 9.0055906 ], [ 38.8629958, 9.0045807 ], [ 38.8653346, 9.0071711 ], [ 38.8655183, 9.0078997 ], [ 38.8662327, 9.0095132 ], [ 38.8664424, 9.009777 ], [ 38.8698051, 9.0088234 ], [ 38.869645, 9.0062027 ], [ 38.8686443, 9.0028691 ], [ 38.868548, 9.0025283 ], [ 38.8679659, 9.0000301 ], [ 38.8685319, 8.9965702 ], [ 38.8683298, 8.9954969 ], [ 38.8658631, 8.9953807 ], [ 38.8647621, 8.9947766 ], [ 38.8638084, 8.9931033 ], [ 38.8659556, 8.990281 ], [ 38.8637757, 8.988145 ], [ 38.8644268, 8.9854301 ], [ 38.8656975, 8.9832292 ], [ 38.8659543, 8.9825954 ], [ 38.8653253, 8.9813012 ], [ 38.8639602, 8.9815304 ], [ 38.8617671, 8.9787642 ], [ 38.861662699999989, 8.9784161 ], [ 38.8598227, 8.9823993 ], [ 38.8556372, 8.9814877 ], [ 38.855432, 8.9797845 ], [ 38.8558564, 8.9770674 ], [ 38.8558424, 8.9770318 ], [ 38.8555617, 8.9771388 ], [ 38.8518164, 8.9790824 ], [ 38.8497531, 8.9811687 ], [ 38.8480453, 8.9831795 ], [ 38.848377, 8.9841832 ], [ 38.8487394, 8.9873422 ], [ 38.8473916, 8.9889473 ], [ 38.8460724, 8.9898733 ], [ 38.8446074, 8.9909144 ], [ 38.8437107, 8.9917778 ], [ 38.8437048, 8.9918238 ], [ 38.844038, 8.9928216 ], [ 38.8442396, 8.9933847 ], [ 38.8449759, 8.9945539 ], [ 38.8459019, 8.9984841 ], [ 38.8467644, 9.0021269 ] ] ] } },
{ "type": "Feature", "properties": { "threshold_s": 900, "time_label": "15 min drive" }, "geometry": { "type": "Polygon", "coordinates": [ [ [ 38.8381116, 9.0046709 ], [ 38.8407943, 9.0092092 ], [ 38.8411982, 9.0095959 ], [ 38.8422715, 9.0102378 ], [ 38.8474555, 9.0141045 ], [ 38.8493033, 9.0157409 ], [ 38.8523958, 9.0183236 ], [ 38.8567812, 9.0191047 ], [ 38.8571499, 9.0190899 ], [ 38.8633168, 9.018985 ], [ 38.8644643, 9.0199316 ], [ 38.865731, 9.0207837 ], [ 38.8721682, 9.0187161 ], [ 38.8741028, 9.0189236 ], [ 38.8746138, 9.0181865 ], [ 38.8784919, 9.0120639 ], [ 38.8783678, 9.0107325 ], [ 38.8779021, 9.009779 ], [ 38.8772155, 9.0051419 ], [ 38.8794391, 9.0011745 ], [ 38.879364, 9.0010116 ], [ 38.8767032, 8.9999374 ], [ 38.8751623, 8.9993069 ], [ 38.87197780000001, 8.9972456 ], [ 38.8710961, 8.9968484 ], [ 38.8683298, 8.9954969 ], [ 38.8659556, 8.990281 ], [ 38.8644268, 8.9854301 ], [ 38.8694492, 8.9826364 ], [ 38.8740943, 8.978438 ], [ 38.8740466, 8.9777405 ], [ 38.8726893, 8.9753044 ], [ 38.8683575, 8.973622 ], [ 38.8619397, 8.9685915 ], [ 38.8620604, 8.9702149 ], [ 38.8611719, 8.9752872 ], [ 38.8549588, 8.9743086 ], [ 38.8542589, 8.9723237 ], [ 38.8539979, 8.9723627 ], [ 38.8481686, 8.9754581 ], [ 38.8436849, 8.9799373 ], [ 38.8409653, 8.9806 ], [ 38.8403841, 8.9813265 ], [ 38.840218, 8.9816602 ], [ 38.8378099, 8.9880211 ], [ 38.8356489, 8.9878773 ], [ 38.8352429, 8.9890778 ], [ 38.8356114, 8.9955616 ], [ 38.8362049, 9.00028 ], [ 38.8365258, 9.0017563 ], [ 38.8381116, 9.0046709 ] ] ] } },
{ "type": "Feature", "properties": { "threshold_s": 300, "time_label": "5 min drive" }, "geometry": { "type": "Polygon", "coordinates": [ [ [ 38.770352, 8.9845249 ], [ 38.7708136, 8.9850439 ], [ 38.7729728, 8.9865826 ], [ 38.7755492, 8.9871715 ], [ 38.7757769, 8.9873237 ], [ 38.7764753, 8.9868029 ], [ 38.7786151, 8.9867668 ], [ 38.7790112, 8.986333 ], [ 38.7791239, 8.986207 ], [ 38.7805367, 8.9844949 ], [ 38.7810148, 8.9841267 ], [ 38.7810323, 8.9840708 ], [ 38.7810382, 8.9833915 ], [ 38.779409, 8.9827553 ], [ 38.7786772, 8.9809764 ], [ 38.7786839, 8.9804382 ], [ 38.7787651, 8.9799759 ], [ 38.7787516, 8.9794447 ], [ 38.7774737, 8.9778372 ], [ 38.7777914, 8.9763594 ], [ 38.7774548, 8.9759568 ], [ 38.7773636, 8.975878 ], [ 38.7760118, 8.9755812 ], [ 38.7756114, 8.9726492 ], [ 38.774991, 8.9719637 ], [ 38.7747993, 8.9729854 ], [ 38.7743937, 8.9751561 ], [ 38.7736234, 8.9756236 ], [ 38.7724017, 8.9758839 ], [ 38.7721035, 8.97589 ], [ 38.7710805, 8.9760786 ], [ 38.7705121, 8.9766188 ], [ 38.7699983, 8.9769814 ], [ 38.7676058, 8.9774758 ], [ 38.7679582, 8.9785881 ], [ 38.7682462, 8.9789959 ], [ 38.7691776, 8.9814885 ], [ 38.7686049, 8.9823656 ], [ 38.7705655, 8.9839412 ], [ 38.770352, 8.9845249 ] ] ] } },
{ "type": "Feature", "properties": { "threshold_s": 600, "time_label": "10 min drive" }, "geometry": { "type": "Polygon", "coordinates": [ [ [ 38.760377, 8.984903 ], [ 38.7610306, 8.9868202 ], [ 38.7660614, 8.9911266 ], [ 38.76804, 8.9900825 ], [ 38.7748148, 8.9924547 ], [ 38.7749201, 8.9927977 ], [ 38.7777683, 8.9954023 ], [ 38.7788648, 8.9968111 ], [ 38.7789746, 8.9967504 ], [ 38.7821738, 8.9945403 ], [ 38.7834713, 8.9922552 ], [ 38.7866521, 8.9898008 ], [ 38.7930034, 8.9904073 ], [ 38.793088, 8.9904577 ], [ 38.7941338, 8.9900363 ], [ 38.7942992, 8.9887271 ], [ 38.7899075, 8.9859732 ], [ 38.7880106, 8.9854871 ], [ 38.7855757, 8.9849273 ], [ 38.7842988, 8.9845215 ], [ 38.7829895, 8.9840922 ], [ 38.7787516, 8.9794447 ], [ 38.7777914, 8.9763594 ], [ 38.7773623, 8.9752898 ], [ 38.7759295, 8.9724099 ], [ 38.7804589, 8.9680504 ], [ 38.7828796, 8.9680649 ], [ 38.7828581, 8.9679775 ], [ 38.7775834, 8.9635925 ], [ 38.7726275, 8.964449 ], [ 38.7662108, 8.9676225 ], [ 38.7640962, 8.9718863 ], [ 38.7609422, 8.9727954 ], [ 38.7606675, 8.9737722 ], [ 38.7604122, 8.974693 ], [ 38.7606946, 8.9807142 ], [ 38.7598998, 8.9823002 ], [ 38.7598874, 8.9826072 ], [ 38.760037, 8.9838182 ], [ 38.760377, 8.984903 ] ] ] } },
{ "type": "Feature", "properties": { "threshold_s": 900, "time_label": "15 min drive" }, "geometry": { "type": "Polygon", "coordinates": [ [ [ 38.7530056, 8.9932938 ], [ 38.7534454, 8.9946852 ], [ 38.7560478, 8.9962321 ], [ 38.759554, 8.9967245 ], [ 38.764029, 9.0002724 ], [ 38.7664671, 9.0014235 ], [ 38.7672642, 9.0017771 ], [ 38.767328, 9.0017712 ], [ 38.7680139, 9.0016855 ], [ 38.773622, 9.0018561 ], [ 38.7785178, 9.006465 ], [ 38.7793227, 9.0073006 ], [ 38.7810148, 9.0078206 ], [ 38.7831612, 9.0062702 ], [ 38.7841033, 9.0045257 ], [ 38.7869117, 9.0014777 ], [ 38.7906855, 8.9993148 ], [ 38.7913789, 8.9990156 ], [ 38.798838, 9.0004149 ], [ 38.799224, 9.000165 ], [ 38.7994259, 8.9995528 ], [ 38.7991837, 8.9991818 ], [ 38.797957, 8.9920335 ], [ 38.8020439, 8.9901737 ], [ 38.8035396, 8.9855276 ], [ 38.8035562, 8.9852867 ], [ 38.8021619, 8.9853275 ], [ 38.7996331, 8.9854045 ], [ 38.7971379, 8.9861223 ], [ 38.7899075, 8.9859732 ], [ 38.7880106, 8.9854871 ], [ 38.7855757, 8.9849273 ], [ 38.7842988, 8.9845215 ], [ 38.7787516, 8.9794447 ], [ 38.7777914, 8.9763594 ], [ 38.7773623, 8.9752898 ], [ 38.7759295, 8.9724099 ], [ 38.7804589, 8.9680504 ], [ 38.7828796, 8.9680649 ], [ 38.7902771, 8.9669999 ], [ 38.7904689, 8.9670449 ], [ 38.7908766, 8.9625051 ], [ 38.7901255, 8.9616448 ], [ 38.7893686, 8.9610735 ], [ 38.787473, 8.9603453 ], [ 38.7852788, 8.9596807 ], [ 38.7828497, 8.9618599 ], [ 38.7775834, 8.9635925 ], [ 38.7719155, 8.9606968 ], [ 38.7708984, 8.9591535 ], [ 38.7698412, 8.958487 ], [ 38.7673415, 8.9565798 ], [ 38.7656731, 8.9576793 ], [ 38.7639042, 8.9599587 ], [ 38.7637591, 8.9608204 ], [ 38.7635887, 8.9618935 ], [ 38.7634032, 8.9632481 ], [ 38.7633086, 8.9638436 ], [ 38.7632587, 8.9641906 ], [ 38.7629765, 8.9659959 ], [ 38.7629101, 8.9664361 ], [ 38.762844200000011, 8.9668596 ], [ 38.7628083, 8.9670849 ], [ 38.76242, 8.9685074 ], [ 38.757237, 8.9730796 ], [ 38.75253, 8.978179 ], [ 38.7517222, 8.9794389 ], [ 38.7489975, 8.9855754 ], [ 38.7524202, 8.99088 ], [ 38.75289990000001, 8.992923 ], [ 38.7530056, 8.9932938 ] ] ] } },
{ "type": "Feature", "properties": { "threshold_s": 300, "time_label": "5 min drive" }, "geometry": { "type": "Polygon", "coordinates": [ [ [ 38.8694559, 9.0259726 ], [ 38.8684342, 9.0269428 ], [ 38.8686174, 9.0269972 ], [ 38.8698443, 9.0273614 ], [ 38.8705179, 9.0270392 ], [ 38.8717479, 9.0271382 ], [ 38.8725337, 9.0295832 ], [ 38.874594, 9.0312755 ], [ 38.8745846, 9.0317379 ], [ 38.8757998, 9.0328566 ], [ 38.8769585, 9.0323083 ], [ 38.8785159, 9.0307424 ], [ 38.8795409, 9.0300968 ], [ 38.8811779, 9.028538 ], [ 38.8819173, 9.0276901 ], [ 38.8836402, 9.0261324 ], [ 38.8839988, 9.0258385 ], [ 38.884326, 9.0254171 ], [ 38.8825482, 9.023578 ], [ 38.8826483, 9.0228894 ], [ 38.8834693, 9.0218382 ], [ 38.88377, 9.0215706 ], [ 38.8837626, 9.0213408 ], [ 38.8829664, 9.0205861 ], [ 38.8816447, 9.0194746 ], [ 38.8807936, 9.019455 ], [ 38.8793261, 9.0177371 ], [ 38.8793242, 9.017456 ], [ 38.879258, 9.0166177 ], [ 38.8783194, 9.0153851 ], [ 38.8779491, 9.0154495 ], [ 38.8762324, 9.017194 ], [ 38.8761976, 9.0177202 ], [ 38.8765792, 9.0188719 ], [ 38.876574, 9.0194041 ], [ 38.8764855, 9.0197393 ], [ 38.8757868, 9.0208335 ], [ 38.8734134, 9.0200097 ], [ 38.8733147, 9.018458 ], [ 38.8731579, 9.0163746 ], [ 38.8730642, 9.015296 ], [ 38.8730726, 9.0149674 ], [ 38.8730838, 9.0145262 ], [ 38.870775, 9.0140075 ], [ 38.8700784, 9.0149055 ], [ 38.8687358, 9.0168024 ], [ 38.8681429, 9.019456 ], [ 38.8670985, 9.0210156 ], [ 38.8656563, 9.0209936 ], [ 38.865628, 9.0214233 ], [ 38.8668123, 9.0232455 ], [ 38.8676783, 9.022608 ], [ 38.8701941, 9.0227452 ], [ 38.8701761, 9.0254044 ], [ 38.8694559, 9.0259726 ] ] ] } },
{ "type": "Feature", "properties": { "threshold_s": 600, "time_label": "10 min drive" }, "geometry": { "type": "Polygon", "coordinates": [ [ [ 38.858625, 9.0261033 ], [ 38.8603472, 9.0290309 ], [ 38.8627145, 9.030028 ], [ 38.8636881, 9.0301716 ], [ 38.8648603, 9.0291935 ], [ 38.8684198, 9.0290747 ], [ 38.8699011, 9.0331262 ], [ 38.8719335, 9.0373811 ], [ 38.8714937, 9.0387469 ], [ 38.8730906, 9.0419826 ], [ 38.8774289, 9.0406527 ], [ 38.8821253, 9.0386812 ], [ 38.8830869, 9.0366493 ], [ 38.8845447, 9.0336838 ], [ 38.8880637, 9.0329037 ], [ 38.8903664, 9.0312348 ], [ 38.8906735, 9.0305845 ], [ 38.8908049, 9.0292706 ], [ 38.8920079, 9.0251462 ], [ 38.8923896, 9.0232173 ], [ 38.8944717, 9.0201679 ], [ 38.8907373, 9.0178612 ], [ 38.8906634, 9.0178602 ], [ 38.8856355, 9.0184126 ], [ 38.8855438, 9.0154758 ], [ 38.8850811, 9.0130612 ], [ 38.8850949, 9.0125743 ], [ 38.8850894, 9.0113146 ], [ 38.8850489, 9.0106787 ], [ 38.880597, 9.0078746 ], [ 38.8799545, 9.0073398 ], [ 38.8770559, 9.0051536 ], [ 38.8758087, 9.0071199 ], [ 38.8732047, 9.0109346 ], [ 38.8698051, 9.0088234 ], [ 38.8697952, 9.0060093 ], [ 38.8692713, 9.0054074 ], [ 38.8687659, 9.0047204 ], [ 38.8682853, 9.0044867 ], [ 38.8638241, 9.0055364 ], [ 38.8616097, 9.0100496 ], [ 38.8616108, 9.0101591 ], [ 38.8611169, 9.0150647 ], [ 38.8598804, 9.016562 ], [ 38.8595053, 9.0170777 ], [ 38.8564735, 9.0208085 ], [ 38.855161, 9.0208735 ], [ 38.8552666, 9.0216244 ], [ 38.8566874, 9.0233589 ], [ 38.858625, 9.0261033 ] ] ] } },
{ "type": "Feature", "properties": { "threshold_s": 900, "time_label": "15 min drive" }, "geometry": { "type": "Polygon", "coordinates": [ [ [ 38.852012, 9.0308668 ], [ 38.8527705, 9.0356068 ], [ 38.8539516, 9.0363108 ], [ 38.8594664, 9.0396235 ], [ 38.8644817, 9.0406976 ], [ 38.8650733, 9.039177 ], [ 38.8714937, 9.0387469 ], [ 38.8717572, 9.0428048 ], [ 38.8710607, 9.0441727 ], [ 38.870777, 9.0456028 ], [ 38.870354399999989, 9.0483745 ], [ 38.8700261, 9.0491544 ], [ 38.870313, 9.04973 ], [ 38.8754922, 9.051752 ], [ 38.8779786, 9.0518233 ], [ 38.8800174, 9.0509103 ], [ 38.880946, 9.0504166 ], [ 38.884281799999989, 9.0483931 ], [ 38.8875767, 9.0440816 ], [ 38.8891501, 9.0421339 ], [ 38.8924666, 9.0374161 ], [ 38.8930339, 9.0330507 ], [ 38.8953325, 9.027668 ], [ 38.8956209, 9.0252058 ], [ 38.9002302, 9.0222733 ], [ 38.9008565, 9.0197236 ], [ 38.8991091, 9.0134851 ], [ 38.8959829, 9.0106558 ], [ 38.8939056, 9.0083297 ], [ 38.8915607, 9.0051396 ], [ 38.8908868, 9.0041977 ], [ 38.8862399, 9.0008245 ], [ 38.8805562, 9.0000566 ], [ 38.8781288, 8.9979531 ], [ 38.8776031, 8.9979266 ], [ 38.8710961, 8.9968484 ], [ 38.8658068, 8.9993625 ], [ 38.8636212, 9.0018483 ], [ 38.8573102, 9.0018501 ], [ 38.856015, 9.0011077 ], [ 38.8551758, 9.001051 ], [ 38.8550796, 9.0010514 ], [ 38.8537604, 9.0014803 ], [ 38.852173, 9.0079808 ], [ 38.8507386, 9.010114 ], [ 38.8507575, 9.0106081 ], [ 38.8495471, 9.0157298 ], [ 38.847228, 9.0179143 ], [ 38.8466367, 9.0185819 ], [ 38.8434577, 9.0214849 ], [ 38.8463785, 9.0249482 ], [ 38.8483329, 9.0269724 ], [ 38.8495132, 9.027842 ], [ 38.852012, 9.0308668 ] ] ] } },
{ "type": "Feature", "properties": { "threshold_s": 300, "time_label": "5 min drive" }, "geometry": { "type": "Polygon", "coordinates": [ [ [ 38.7740239, 9.029924 ], [ 38.7738375, 9.030361 ], [ 38.7761426, 9.0292092 ], [ 38.7777275, 9.0282723 ], [ 38.7792906, 9.0265435 ], [ 38.7806417, 9.0258586 ], [ 38.7823913, 9.0264422 ], [ 38.7826753, 9.0251546 ], [ 38.7811059, 9.0234327 ], [ 38.7828895, 9.0215465 ], [ 38.7846348, 9.0227478 ], [ 38.7845997, 9.0226513 ], [ 38.78304, 9.0204663 ], [ 38.782688, 9.0198901 ], [ 38.7822697, 9.0199832 ], [ 38.7804623, 9.0179874 ], [ 38.7795994, 9.0155365 ], [ 38.777837, 9.0134105 ], [ 38.7767513, 9.0132784 ], [ 38.7761538, 9.0139141 ], [ 38.7760706, 9.0156092 ], [ 38.775128, 9.0168441 ], [ 38.7727337, 9.0165182 ], [ 38.7732235, 9.0146348 ], [ 38.773148, 9.0145762 ], [ 38.7712012, 9.0155134 ], [ 38.7700742, 9.0161859 ], [ 38.7702626, 9.0175372 ], [ 38.7683061, 9.0191895 ], [ 38.7676275, 9.0197284 ], [ 38.7686595, 9.0207369 ], [ 38.7708838, 9.0203264 ], [ 38.7713573, 9.0204686 ], [ 38.7723687, 9.02177 ], [ 38.7717222, 9.0232818 ], [ 38.7722297, 9.0251154 ], [ 38.7722787, 9.0259286 ], [ 38.7717946, 9.0280784 ], [ 38.7722482, 9.0279523 ], [ 38.7740239, 9.029924 ] ] ] } },
{ "type": "Feature", "properties": { "threshold_s": 600, "time_label": "10 min drive" }, "geometry": { "type": "Polygon", "coordinates": [ [ [ 38.7611244, 9.0293966 ], [ 38.763464, 9.0326464 ], [ 38.7663647, 9.032801 ], [ 38.7675585, 9.0358251 ], [ 38.7694764, 9.0373855 ], [ 38.7734143, 9.0388789 ], [ 38.7772388, 9.038123 ], [ 38.7780224, 9.0381513 ], [ 38.7784962, 9.0381963 ], [ 38.7791536, 9.0381632 ], [ 38.7799358, 9.0345924 ], [ 38.7804737, 9.033912 ], [ 38.7847393, 9.0337449 ], [ 38.785141, 9.0334743 ], [ 38.7867588, 9.0301967 ], [ 38.7895501, 9.0295027 ], [ 38.7905778, 9.0297413 ], [ 38.7916626, 9.0285942 ], [ 38.7926964, 9.0264009 ], [ 38.7924283, 9.0251427 ], [ 38.7948623, 9.021823 ], [ 38.7958715, 9.0208691 ], [ 38.7948915, 9.0201822 ], [ 38.7926043, 9.0182931 ], [ 38.7917798, 9.0168777 ], [ 38.7904882, 9.0158742 ], [ 38.7882279, 9.0132665 ], [ 38.7878286, 9.0118477 ], [ 38.7859647, 9.0127606 ], [ 38.782751, 9.0114268 ], [ 38.7811817, 9.009175 ], [ 38.7793008, 9.0087445 ], [ 38.778296, 9.0051979 ], [ 38.7782481, 9.0051158 ], [ 38.7775795, 9.0043913 ], [ 38.7767098, 9.0045986 ], [ 38.7761237, 9.004792 ], [ 38.773414, 9.0061278 ], [ 38.7706413, 9.0092666 ], [ 38.7705514, 9.0092813 ], [ 38.7672577, 9.0104737 ], [ 38.7636057, 9.0109899 ], [ 38.7627136, 9.0143638 ], [ 38.7623398, 9.017288 ], [ 38.7606025, 9.0183832 ], [ 38.7603349, 9.0184885 ], [ 38.7603636, 9.0186068 ], [ 38.7633195, 9.0193691 ], [ 38.7645123, 9.0221623 ], [ 38.7650922, 9.0223314 ], [ 38.7673037, 9.0253571 ], [ 38.7664952, 9.0274613 ], [ 38.7633917, 9.0291295 ], [ 38.7611664, 9.0293214 ], [ 38.7611244, 9.0293966 ] ] ] } },
{ "type": "Feature", "properties": { "threshold_s": 900, "time_label": "15 min drive" }, "geometry": { "type": "Polygon", "coordinates": [ [ [ 38.7550527, 9.0350946 ], [ 38.7565413, 9.0397014 ], [ 38.7592181, 9.0408393 ], [ 38.7622324, 9.0436142 ], [ 38.7642316, 9.0454537 ], [ 38.7673458, 9.0478868 ], [ 38.7720477, 9.0473428 ], [ 38.7767446, 9.0468163 ], [ 38.7787114, 9.0473741 ], [ 38.7827002, 9.0462063 ], [ 38.7850703, 9.0458998 ], [ 38.7864317, 9.0451248 ], [ 38.7870159, 9.0440162 ], [ 38.7853727, 9.0402983 ], [ 38.7878993, 9.0373684 ], [ 38.7884075, 9.037232 ], [ 38.788646, 9.0371199 ], [ 38.788999, 9.0366321 ], [ 38.7898711, 9.0353037 ], [ 38.7913411, 9.0328014 ], [ 38.7947311, 9.0312946 ], [ 38.7968678, 9.0306899 ], [ 38.7997189, 9.0335465 ], [ 38.8022468, 9.0290022 ], [ 38.8022679, 9.0289403 ], [ 38.8020118, 9.0282786 ], [ 38.8018846, 9.028053 ], [ 38.8006361, 9.0234734 ], [ 38.8027586, 9.0219534 ], [ 38.805639, 9.019272 ], [ 38.8054565, 9.0178424 ], [ 38.8030907, 9.0146854 ], [ 38.7984096, 9.0131613 ], [ 38.7982384, 9.0121833 ], [ 38.7980147, 9.0102396 ], [ 38.7981024, 9.0094849 ], [ 38.7979744, 9.0092021 ], [ 38.7978778, 9.008977 ], [ 38.7967773, 9.0076836 ], [ 38.7937552, 9.005399 ], [ 38.7892042, 9.0040436 ], [ 38.7882698, 9.0017096 ], [ 38.7880442, 9.0011082 ], [ 38.7873295, 8.9978484 ], [ 38.7862862, 8.9969378 ], [ 38.7831292, 8.9955145 ], [ 38.7816229, 8.9949502 ], [ 38.7784264, 8.9944714 ], [ 38.7743488, 8.9956238 ], [ 38.7696973, 8.997182 ], [ 38.7663914, 9.0000105 ], [ 38.7653333, 9.0005965 ], [ 38.7634095, 9.0027896 ], [ 38.7587508, 9.0052114 ], [ 38.7560328, 9.0070649 ], [ 38.7553898, 9.007956 ], [ 38.7530544, 9.0114358 ], [ 38.7504561, 9.013546 ], [ 38.7498254, 9.0140209 ], [ 38.7497617, 9.0140877 ], [ 38.7477449, 9.0168043 ], [ 38.7487686, 9.0189104 ], [ 38.7503751, 9.0212789 ], [ 38.7529988, 9.0254039 ], [ 38.7518885, 9.0270083 ], [ 38.7504043, 9.0309179 ], [ 38.7528617, 9.035044 ], [ 38.7550527, 9.0350946 ] ] ] } },
{ "type": "Feature", "properties": { "threshold_s": 300, "time_label": "5 min drive" }, "geometry": { "type": "Polygon", "coordinates": [ [ [ 38.7820705, 9.0326994 ], [ 38.7820987, 9.0327323 ], [ 38.7828374, 9.0322795 ], [ 38.7834835, 9.0321406 ], [ 38.7847393, 9.0337449 ], [ 38.783986400000011, 9.0315834 ], [ 38.7845581, 9.0313118 ], [ 38.7851879, 9.0309389 ], [ 38.7859405, 9.0306672 ], [ 38.7860223, 9.0306152 ], [ 38.7867588, 9.0301967 ], [ 38.7874505, 9.0295787 ], [ 38.7895501, 9.0295027 ], [ 38.7905778, 9.0297413 ], [ 38.7916642, 9.03154 ], [ 38.7913411, 9.0328014 ], [ 38.7914952, 9.032615 ], [ 38.7933345, 9.0314512 ], [ 38.7943505, 9.0307929 ], [ 38.7941765, 9.030534 ], [ 38.7941431, 9.0292904 ], [ 38.7955746, 9.0285027 ], [ 38.7973991, 9.0272539 ], [ 38.7972578, 9.0269698 ], [ 38.7971844, 9.0267963 ], [ 38.7970609, 9.0265442 ], [ 38.7963524, 9.0252368 ], [ 38.7974667, 9.0235442 ], [ 38.7986196, 9.0231216 ], [ 38.7985591, 9.0230077 ], [ 38.7971687, 9.0230092 ], [ 38.7952798, 9.0235539 ], [ 38.7948623, 9.021823 ], [ 38.7937734, 9.02122 ], [ 38.7933946, 9.0212397 ], [ 38.7929892, 9.0212511 ], [ 38.7923591, 9.0212951 ], [ 38.7914155, 9.021388 ], [ 38.7904683, 9.0214873 ], [ 38.7899138, 9.0214734 ], [ 38.787837, 9.0208872 ], [ 38.786564, 9.019551 ], [ 38.7865467, 9.0196378 ], [ 38.7863688, 9.0207494 ], [ 38.7863129, 9.0211792 ], [ 38.7848897, 9.0225805 ], [ 38.7845997, 9.0226513 ], [ 38.7846348, 9.0227478 ], [ 38.7862759, 9.0237897 ], [ 38.7860295, 9.0246382 ], [ 38.7856655, 9.0255148 ], [ 38.7842556, 9.0261153 ], [ 38.783076, 9.0248046 ], [ 38.7812609, 9.0251757 ], [ 38.7806955, 9.0246812 ], [ 38.7806417, 9.0258586 ], [ 38.7808259, 9.0265729 ], [ 38.7794641, 9.0279072 ], [ 38.7794175, 9.0282491 ], [ 38.7797265, 9.0285 ], [ 38.7814889, 9.0295103 ], [ 38.7817441, 9.0315324 ], [ 38.7819364, 9.0322232 ], [ 38.7820705, 9.0326994 ] ] ] } },
{ "type": "Feature", "properties": { "threshold_s": 600, "time_label": "10 min drive" }, "geometry": { "type": "Polygon", "coordinates": [ [ [ 38.7717547, 9.0348206 ], [ 38.7735888, 9.0383887 ], [ 38.7777758, 9.0401384 ], [ 38.781978, 9.0408806 ], [ 38.7832034, 9.0412485 ], [ 38.7836839, 9.0406005 ], [ 38.7866579, 9.0379459 ], [ 38.7884075, 9.037232 ], [ 38.788646, 9.0371199 ], [ 38.788999, 9.0366321 ], [ 38.7898711, 9.0353037 ], [ 38.7913411, 9.0328014 ], [ 38.7947311, 9.0312946 ], [ 38.7968678, 9.0306899 ], [ 38.7997189, 9.0335465 ], [ 38.8011234, 9.0303124 ], [ 38.8048161, 9.0292985 ], [ 38.8049448, 9.0287289 ], [ 38.8060612, 9.0246606 ], [ 38.8073051, 9.0235674 ], [ 38.8075376, 9.0232629 ], [ 38.8074967, 9.0222318 ], [ 38.8062572, 9.017411 ], [ 38.8034284, 9.0138029 ], [ 38.8006163, 9.0142076 ], [ 38.797051, 9.0117309 ], [ 38.7967788, 9.0112606 ], [ 38.7966076, 9.0109225 ], [ 38.7953645, 9.0109659 ], [ 38.7945046, 9.0111732 ], [ 38.7931859, 9.0116294 ], [ 38.7890337, 9.0094553 ], [ 38.7884709, 9.0091113 ], [ 38.7884384, 9.0091028 ], [ 38.7874114, 9.0096416 ], [ 38.7835543, 9.0118734 ], [ 38.7802996, 9.0139608 ], [ 38.776591, 9.0179189 ], [ 38.7740967, 9.0193713 ], [ 38.7723687, 9.02177 ], [ 38.7717222, 9.0232818 ], [ 38.7722297, 9.0251154 ], [ 38.7686882, 9.0283996 ], [ 38.7701755, 9.0299115 ], [ 38.7717547, 9.0348206 ] ] ] } },
{ "type": "Feature", "properties": { "threshold_s": 900, "time_label": "15 min drive" }, "geometry": { "type": "Polygon", "coordinates": [ [ [ 38.7640078, 9.0429474 ], [ 38.7643664, 9.0444269 ], [ 38.7676702, 9.0474486 ], [ 38.7720477, 9.0473428 ], [ 38.7782369, 9.0484276 ], [ 38.7830713, 9.0491877 ], [ 38.7892183, 9.0480524 ], [ 38.7918929, 9.0415089 ], [ 38.7971052, 9.0385115 ], [ 38.8042312, 9.0365115 ], [ 38.8097365, 9.0345983 ], [ 38.8150895, 9.0352167 ], [ 38.8153981, 9.0345482 ], [ 38.8154254, 9.0344793 ], [ 38.815954, 9.0315147 ], [ 38.8192466, 9.0238812 ], [ 38.8171611, 9.0191599 ], [ 38.8129994, 9.0138904 ], [ 38.8127466, 9.0114028 ], [ 38.812744, 9.0109566 ], [ 38.8113387, 9.0071568 ], [ 38.8108174, 9.0069524 ], [ 38.8092571, 9.0065629 ], [ 38.8070616, 9.0064311 ], [ 38.7993101, 9.0037383 ], [ 38.7982943, 9.0031359 ], [ 38.7981876, 9.0030972 ], [ 38.7958496, 9.0027295 ], [ 38.7897293, 8.9996859 ], [ 38.7886674, 8.9994336 ], [ 38.7870403, 8.9997513 ], [ 38.7862625, 8.9999559 ], [ 38.7856932, 9.0002523 ], [ 38.7799647, 9.0034833 ], [ 38.774206, 9.0073034 ], [ 38.7692515, 9.0104413 ], [ 38.7654814, 9.0154268 ], [ 38.7629355, 9.0171841 ], [ 38.7615141, 9.0235259 ], [ 38.7573454, 9.0285605 ], [ 38.7575971, 9.0292881 ], [ 38.7594397, 9.0331593 ], [ 38.7599654, 9.0337094 ], [ 38.763485, 9.0378991 ], [ 38.7640078, 9.0429474 ] ] ] } },
{ "type": "Feature", "properties": { "threshold_s": 300, "time_label": "5 min drive" }, "geometry": { "type": "Polygon", "coordinates": [ [ [ 38.863127, 9.0107071 ], [ 38.8641832, 9.0131222 ], [ 38.8651119, 9.013136 ], [ 38.8655774, 9.013136 ], [ 38.8656485, 9.013136 ], [ 38.867695, 9.0115976 ], [ 38.8682366, 9.0116838 ], [ 38.8707969, 9.0115168 ], [ 38.8712248, 9.0129433 ], [ 38.8726298, 9.0108859 ], [ 38.8732047, 9.0109346 ], [ 38.8741203, 9.0109293 ], [ 38.8741303, 9.010825 ], [ 38.8736321, 9.0096147 ], [ 38.8734525, 9.0090916 ], [ 38.8733718, 9.0088617 ], [ 38.8732891, 9.0086325 ], [ 38.8729334, 9.0079034 ], [ 38.8714058, 9.0068331 ], [ 38.8707467, 9.0044099 ], [ 38.870685, 9.0042787 ], [ 38.87043, 9.0027015 ], [ 38.8716996, 9.0003215 ], [ 38.8764132, 9.002169 ], [ 38.8764657, 9.0023479 ], [ 38.8765478, 9.0023991 ], [ 38.8767339, 9.0023692 ], [ 38.8768108, 9.0022491 ], [ 38.8767718, 9.0020768 ], [ 38.8763197, 9.0008487 ], [ 38.8716419, 8.9987671 ], [ 38.8717995, 8.9982579 ], [ 38.871912, 8.9976329 ], [ 38.8716808, 8.9975028 ], [ 38.869763, 8.9978869 ], [ 38.8684809, 8.9988539 ], [ 38.8658068, 8.9993625 ], [ 38.8650755, 9.0008421 ], [ 38.8636212, 9.0018483 ], [ 38.8632261, 9.0025349 ], [ 38.8631353, 9.002715 ], [ 38.8628482, 9.0038286 ], [ 38.8629958, 9.0045807 ], [ 38.8635111, 9.0066908 ], [ 38.8644617, 9.0082 ], [ 38.8647452, 9.0092696 ], [ 38.863127, 9.0107071 ] ] ] } },
{ "type": "Feature", "properties": { "threshold_s": 600, "time_label": "10 min drive" }, "geometry": { "type": "Polygon", "coordinates": [ [ [ 38.8541842, 9.0136705 ], [ 38.8567371, 9.0177538 ], [ 38.8586889, 9.0196529 ], [ 38.8596607, 9.0204593 ], [ 38.8622165, 9.0206089 ], [ 38.8626257, 9.0206366 ], [ 38.8631122, 9.0206697 ], [ 38.86369, 9.0207089 ], [ 38.8670985, 9.0210156 ], [ 38.8750795, 9.0224152 ], [ 38.8752333, 9.0224214 ], [ 38.8779101, 9.0212599 ], [ 38.8832516, 9.0147137 ], [ 38.8834823, 9.0143769 ], [ 38.8850894, 9.0113146 ], [ 38.8850489, 9.0106787 ], [ 38.8850409, 9.0106075 ], [ 38.8844776, 9.0058689 ], [ 38.88569, 8.9989386 ], [ 38.8872403, 8.9974902 ], [ 38.8839747, 8.9949569 ], [ 38.8806877, 8.9956404 ], [ 38.8735718, 8.9973809 ], [ 38.8710961, 8.9968484 ], [ 38.8658068, 8.9993625 ], [ 38.8636212, 9.0018483 ], [ 38.8566548, 8.9988859 ], [ 38.8556806, 8.9973701 ], [ 38.854874, 8.9974818 ], [ 38.8516225, 9.0013292 ], [ 38.8515895, 9.0016543 ], [ 38.8519377, 9.0100389 ], [ 38.8541842, 9.0136705 ] ] ] } },
{ "type": "Feature", "properties": { "threshold_s": 900, "time_label": "15 min drive" }, "geometry": { "type": "Polygon", "coordinates": [ [ [ 38.8407053, 9.0109138 ], [ 38.8442766, 9.0156512 ], [ 38.8472369, 9.0182456 ], [ 38.8526505, 9.022946 ], [ 38.8589003, 9.0246002 ], [ 38.861053, 9.0266849 ], [ 38.863004599999989, 9.0288912 ], [ 38.8637409, 9.0295237 ], [ 38.8684198, 9.0290747 ], [ 38.8745846, 9.0317379 ], [ 38.8757998, 9.0328566 ], [ 38.877925, 9.0340255 ], [ 38.878458, 9.0335562 ], [ 38.8825235, 9.0296668 ], [ 38.8859596, 9.0262335 ], [ 38.8860216, 9.0258678 ], [ 38.8860816, 9.0255144 ], [ 38.8862572, 9.0245422 ], [ 38.8867052, 9.0228693 ], [ 38.8907445, 9.0166061 ], [ 38.8933669, 9.0146571 ], [ 38.8959829, 9.0106558 ], [ 38.8959709, 9.0093349 ], [ 38.8938395, 9.0057756 ], [ 38.8947441, 8.9980996 ], [ 38.8947448, 8.9979451 ], [ 38.8945421, 8.9960927 ], [ 38.8939867, 8.994115 ], [ 38.8925672, 8.9923619 ], [ 38.890239, 8.9914652 ], [ 38.8860145, 8.9844181 ], [ 38.8848376, 8.9848396 ], [ 38.8792782, 8.9868859 ], [ 38.8720161, 8.9906148 ], [ 38.8705891, 8.9912559 ], [ 38.8627698, 8.9918304 ], [ 38.8596444, 8.9887113 ], [ 38.856466, 8.9861286 ], [ 38.856352, 8.986161 ], [ 38.8546241, 8.9872988 ], [ 38.8475934, 8.9925988 ], [ 38.8461507, 8.9936333 ], [ 38.8436262, 8.9960947 ], [ 38.8405692, 8.9998724 ], [ 38.8396599, 9.0013672 ], [ 38.8396472, 9.0016223 ], [ 38.8421329, 9.0059404 ], [ 38.8407053, 9.0109138 ] ] ] } },
{ "type": "Feature", "properties": { "threshold_s": 300, "time_label": "5 min drive" }, "geometry": { "type": "Polygon", "coordinates": [ [ [ 38.7447332, 9.040759 ], [ 38.7459589, 9.0425788 ], [ 38.7478687, 9.04249 ], [ 38.7505575, 9.0409128 ], [ 38.7521131, 9.0406747 ], [ 38.7532904, 9.0400861 ], [ 38.7556919, 9.0394787 ], [ 38.7555497, 9.0379841 ], [ 38.7550527, 9.0350946 ], [ 38.7549, 9.0340673 ], [ 38.7558521, 9.0318884 ], [ 38.7575971, 9.0292881 ], [ 38.7576393, 9.0288664 ], [ 38.7576451, 9.0285006 ], [ 38.7573454, 9.0285605 ], [ 38.7548754, 9.0266116 ], [ 38.7548785, 9.0265448 ], [ 38.7543934, 9.0265644 ], [ 38.7541621, 9.0265885 ], [ 38.7517903, 9.0249097 ], [ 38.7518575, 9.0242085 ], [ 38.7508048, 9.0245939 ], [ 38.7511448, 9.025789 ], [ 38.7494022, 9.027615 ], [ 38.7483515, 9.0274422 ], [ 38.7475835, 9.0271264 ], [ 38.7473215, 9.0272216 ], [ 38.7456176, 9.0283852 ], [ 38.7427112, 9.0274712 ], [ 38.7421301, 9.0278548 ], [ 38.7415334, 9.0291626 ], [ 38.7414059, 9.0321356 ], [ 38.7415025, 9.0344947 ], [ 38.7428422, 9.0353794 ], [ 38.7437411, 9.0379618 ], [ 38.7427149, 9.0385204 ], [ 38.7426675, 9.0385499 ], [ 38.7447332, 9.040759 ] ] ] } },
{ "type": "Feature", "properties": { "threshold_s": 600, "time_label": "10 min drive" }, "geometry": { "type": "Polygon", "coordinates": [ [ [ 38.736129, 9.0447854 ], [ 38.7378963, 9.0490839 ], [ 38.7399537, 9.051018 ], [ 38.7409075, 9.0514123 ], [ 38.7415314, 9.0514829 ], [ 38.7441805, 9.0514772 ], [ 38.7448042, 9.0514297 ], [ 38.7488178, 9.0510707 ], [ 38.7531123, 9.0510492 ], [ 38.7572076, 9.0502389 ], [ 38.7580652, 9.0488412 ], [ 38.7600057, 9.0440359 ], [ 38.7613074, 9.0440921 ], [ 38.7614694, 9.0439155 ], [ 38.7614471, 9.0437227 ], [ 38.7625107, 9.0387169 ], [ 38.763485, 9.0378991 ], [ 38.7634966, 9.0378188 ], [ 38.7632315, 9.0343164 ], [ 38.7654192, 9.0307943 ], [ 38.7625209, 9.0267749 ], [ 38.7616201, 9.0233396 ], [ 38.7587366, 9.0212076 ], [ 38.7576248, 9.0176281 ], [ 38.7566767, 9.0148583 ], [ 38.7565754, 9.0147817 ], [ 38.7529074, 9.012924 ], [ 38.7504561, 9.013546 ], [ 38.7498254, 9.0140209 ], [ 38.7497617, 9.0140877 ], [ 38.7474466, 9.0166921 ], [ 38.7431444, 9.0173755 ], [ 38.7421281, 9.0175937 ], [ 38.7399206, 9.0183454 ], [ 38.7384167, 9.0189047 ], [ 38.7332006, 9.0206959 ], [ 38.7335879, 9.0225953 ], [ 38.7336241, 9.0231117 ], [ 38.7335966, 9.0242952 ], [ 38.7310806, 9.0287863 ], [ 38.7300508, 9.033799 ], [ 38.7312052, 9.0355354 ], [ 38.7320365, 9.0365238 ], [ 38.7324735, 9.0416034 ], [ 38.733706, 9.0442708 ], [ 38.736129, 9.0447854 ] ] ] } },
{ "type": "Feature", "properties": { "threshold_s": 900, "time_label": "15 min drive" }, "geometry": { "type": "Polygon", "coordinates": [ [ [ 38.7291995, 9.0547546 ], [ 38.7316966, 9.0574888 ], [ 38.7330799, 9.0585286 ], [ 38.7334131, 9.0587463 ], [ 38.7384407, 9.0605578 ], [ 38.7438799, 9.0618138 ], [ 38.7481875, 9.0616251 ], [ 38.7526571, 9.0610173 ], [ 38.7574072, 9.0591695 ], [ 38.7588853, 9.0596236 ], [ 38.7601738, 9.0598012 ], [ 38.7604079, 9.0597619 ], [ 38.7611409, 9.058726 ], [ 38.7658778, 9.055845 ], [ 38.7663175, 9.0542998 ], [ 38.7661909, 9.0537262 ], [ 38.7687422, 9.0485503 ], [ 38.7701541, 9.0481491 ], [ 38.7712129, 9.0478766 ], [ 38.7717695, 9.0465521 ], [ 38.7709008, 9.045025 ], [ 38.7706733, 9.0395278 ], [ 38.7721869, 9.0388821 ], [ 38.7735888, 9.0383887 ], [ 38.7737834, 9.0382137 ], [ 38.775375, 9.0328458 ], [ 38.7739974, 9.0298455 ], [ 38.7719643, 9.0289784 ], [ 38.7679401, 9.0287723 ], [ 38.7677974, 9.0236685 ], [ 38.7686595, 9.0207369 ], [ 38.7687544, 9.0164593 ], [ 38.7663692, 9.0156361 ], [ 38.7654659, 9.0106243 ], [ 38.7654607, 9.0104574 ], [ 38.7647812, 9.0085945 ], [ 38.7638989, 9.0084046 ], [ 38.7603429, 9.0076063 ], [ 38.7587508, 9.0052114 ], [ 38.7545691, 9.0029082 ], [ 38.7525602, 9.0030854 ], [ 38.7467176, 9.0045045 ], [ 38.7432431, 9.0074962 ], [ 38.7383308, 9.0091723 ], [ 38.7361179, 9.0093048 ], [ 38.7357035, 9.0094809 ], [ 38.7340005, 9.0108205 ], [ 38.7285514, 9.0122122 ], [ 38.7281463, 9.0122149 ], [ 38.7260014, 9.0147848 ], [ 38.7241003, 9.0192945 ], [ 38.7224346, 9.0236799 ], [ 38.721402, 9.0259654 ], [ 38.7214765, 9.0293057 ], [ 38.7203707, 9.0350718 ], [ 38.7206966, 9.037875 ], [ 38.7221792, 9.0401845 ], [ 38.7241848, 9.0443085 ], [ 38.723537, 9.0461376 ], [ 38.7234619, 9.0463773 ], [ 38.7255087, 9.0494864 ], [ 38.7286208, 9.0522375 ], [ 38.7291995, 9.0547546 ] ] ] } },
{ "type": "Feature", "properties": { "threshold_s": 300, "time_label": "5 min drive" }, "geometry": { "type": "Polygon", "coordinates": [ [ [ 38.783091, 9.0025189 ], [ 38.7832893, 9.0030005 ], [ 38.7852171, 9.0045595 ], [ 38.7858608, 9.0048218 ], [ 38.7871496, 9.0051748 ], [ 38.7892283, 9.0061657 ], [ 38.7898343, 9.0055715 ], [ 38.7894034, 9.0046542 ], [ 38.7892042, 9.0040436 ], [ 38.7882698, 9.0017096 ], [ 38.7897293, 8.9996859 ], [ 38.7906855, 8.9993148 ], [ 38.7913789, 8.9990156 ], [ 38.7920983, 8.9987684 ], [ 38.792624, 8.9985777 ], [ 38.7931544, 8.9983837 ], [ 38.7936291, 8.9982041 ], [ 38.7941482, 8.9979968 ], [ 38.7946719, 8.9978068 ], [ 38.7965052, 8.9969379 ], [ 38.7956395, 8.9945489 ], [ 38.7952264, 8.9934812 ], [ 38.7948242, 8.9923398 ], [ 38.7941338, 8.9900363 ], [ 38.7938117, 8.9895998 ], [ 38.7933953, 8.9891541 ], [ 38.792569, 8.9896677 ], [ 38.7908448, 8.9901828 ], [ 38.788588, 8.989031 ], [ 38.7876549, 8.9893973 ], [ 38.7867721, 8.989924 ], [ 38.7852648, 8.9915358 ], [ 38.7850454, 8.9944509 ], [ 38.7845103, 8.9958517 ], [ 38.7831216, 8.9974816 ], [ 38.783194, 8.9988784 ], [ 38.7834549, 9.0004129 ], [ 38.783091, 9.0025189 ] ] ] } },
{ "type": "Feature", "properties": { "threshold_s": 600, "time_label": "10 min drive" }, "geometry": { "type": "Polygon", "coordinates": [ [ [ 38.77382510000001, 9.0059662 ], [ 38.7751776, 9.0098829 ], [ 38.7801527, 9.0119568 ], [ 38.7817494, 9.0139229 ], [ 38.7834846, 9.01484 ], [ 38.7872844, 9.0160666 ], [ 38.7874547, 9.016091 ], [ 38.7875045, 9.0160762 ], [ 38.7908548, 9.0142631 ], [ 38.7961516, 9.0125743 ], [ 38.7978778, 9.008977 ], [ 38.7990016, 9.0065682 ], [ 38.7991914, 9.0059044 ], [ 38.8001074, 9.0025819 ], [ 38.8001838, 9.0022144 ], [ 38.7987395, 8.9994411 ], [ 38.7984775, 8.9990207 ], [ 38.7965052, 8.9969379 ], [ 38.797341, 8.9927148 ], [ 38.797957, 8.9920335 ], [ 38.7992705, 8.9883311 ], [ 38.8035396, 8.9855276 ], [ 38.8035562, 8.9852867 ], [ 38.8021619, 8.9853275 ], [ 38.7996331, 8.9854045 ], [ 38.7971379, 8.9861223 ], [ 38.791375, 8.9871117 ], [ 38.789819799999989, 8.986366 ], [ 38.788826, 8.985809 ], [ 38.7855757, 8.9849273 ], [ 38.7842988, 8.9845215 ], [ 38.7829895, 8.9840922 ], [ 38.7824454, 8.9839019 ], [ 38.7795987, 8.9875419 ], [ 38.7766295, 8.9930188 ], [ 38.7765583, 8.9936071 ], [ 38.7770092, 8.9949946 ], [ 38.777362, 8.9984848 ], [ 38.7759407, 9.0043032 ], [ 38.77382510000001, 9.0059662 ] ] ] } },
{ "type": "Feature", "properties": { "threshold_s": 900, "time_label": "15 min drive" }, "geometry": { "type": "Polygon", "coordinates": [ [ [ 38.7682007, 9.0165141 ], [ 38.7693392, 9.0177338 ], [ 38.7704765, 9.0188531 ], [ 38.7714391, 9.0195628 ], [ 38.7806577, 9.0238498 ], [ 38.7859034, 9.0269719 ], [ 38.7871475, 9.0271371 ], [ 38.7930311, 9.0240115 ], [ 38.8018595, 9.0192341 ], [ 38.8030901, 9.0149569 ], [ 38.8065782, 9.0089915 ], [ 38.8084397, 9.0045809 ], [ 38.8088088, 9.0004855 ], [ 38.8088474, 8.9974101 ], [ 38.8128304, 8.9900357 ], [ 38.8127899, 8.9893411 ], [ 38.8097735, 8.9869675 ], [ 38.8079529, 8.9863615 ], [ 38.8066972, 8.9860036 ], [ 38.8035562, 8.9852867 ], [ 38.8021619, 8.9853275 ], [ 38.7996331, 8.9854045 ], [ 38.7971379, 8.9861223 ], [ 38.788826, 8.985809 ], [ 38.7879749, 8.9856538 ], [ 38.7855757, 8.9849273 ], [ 38.7787516, 8.9794447 ], [ 38.7777914, 8.9763594 ], [ 38.7774548, 8.9759568 ], [ 38.7773636, 8.975878 ], [ 38.7734221, 8.9784757 ], [ 38.7718879, 8.979752 ], [ 38.7712984, 8.9803752 ], [ 38.7689877, 8.9865387 ], [ 38.76804, 8.9900825 ], [ 38.767995, 8.992182 ], [ 38.7665433, 9.0010165 ], [ 38.7664671, 9.0014235 ], [ 38.7663704, 9.0019672 ], [ 38.7661556, 9.0073141 ], [ 38.767167, 9.0123421 ], [ 38.7682007, 9.0165141 ] ] ] } },
{ "type": "Feature", "properties": { "threshold_s": 300, "time_label": "5 min drive" }, "geometry": { "type": "Polygon", "coordinates": [ [ [ 38.7311321, 8.9504265 ], [ 38.7325399, 8.9524582 ], [ 38.7345153, 8.9509479 ], [ 38.7372737, 8.9516334 ], [ 38.7381752, 8.9526622 ], [ 38.7388181, 8.9533071 ], [ 38.7410834, 8.9549156 ], [ 38.7411174, 8.9549177 ], [ 38.7437008, 8.9541945 ], [ 38.7448513, 8.9532608 ], [ 38.7461382, 8.9518 ], [ 38.7474431, 8.9503262 ], [ 38.7479702, 8.9492071 ], [ 38.7498212, 8.9465159 ], [ 38.7483745, 8.9452539 ], [ 38.7462384, 8.9426869 ], [ 38.7445819, 8.9396004 ], [ 38.7424866, 8.9378158 ], [ 38.7392106, 8.9379975 ], [ 38.7358986, 8.9383165 ], [ 38.7352552, 8.9381678 ], [ 38.7351336, 8.9406358 ], [ 38.7353253, 8.9424163 ], [ 38.7350102, 8.9443899 ], [ 38.7342766, 8.9468504 ], [ 38.7326076, 8.9484342 ], [ 38.72929, 8.9486837 ], [ 38.7311321, 8.9504265 ] ] ] } },
{ "type": "Feature", "properties": { "threshold_s": 600, "time_label": "10 min drive" }, "geometry": { "type": "Polygon", "coordinates": [ [ [ 38.7261992, 8.958587 ], [ 38.7263131, 8.9595443 ], [ 38.7276544, 8.9604039 ], [ 38.7294334, 8.9609553 ], [ 38.7330546, 8.9628478 ], [ 38.7337236, 8.9625548 ], [ 38.7347155, 8.9619706 ], [ 38.7352396, 8.9611247 ], [ 38.7351846, 8.9609923 ], [ 38.7348681, 8.9596248 ], [ 38.7364709, 8.9560006 ], [ 38.741532, 8.9558019 ], [ 38.7429693, 8.9567245 ], [ 38.7436067, 8.9570909 ], [ 38.746077, 8.9588322 ], [ 38.7506098, 8.9584779 ], [ 38.7514364, 8.9545396 ], [ 38.75506750000001, 8.953034 ], [ 38.7560588, 8.9495278 ], [ 38.7581194, 8.9458735 ], [ 38.7588309, 8.9448533 ], [ 38.7588805, 8.9447122 ], [ 38.7586706, 8.943708 ], [ 38.7585063, 8.9432019 ], [ 38.7579483, 8.9420892 ], [ 38.7568782, 8.9405762 ], [ 38.7547673, 8.9374875 ], [ 38.7538567, 8.9369382 ], [ 38.750846, 8.9350628 ], [ 38.7481308, 8.9315917 ], [ 38.7475412, 8.9310741 ], [ 38.7457665, 8.9302213 ], [ 38.7424849, 8.9301141 ], [ 38.7415334, 8.9319128 ], [ 38.7409971, 8.9326751 ], [ 38.7382661, 8.934166 ], [ 38.7339035, 8.9321621 ], [ 38.7337568, 8.9308869 ], [ 38.7331916, 8.9297496 ], [ 38.732701, 8.9291721 ], [ 38.7321191, 8.9298927 ], [ 38.731033, 8.9313573 ], [ 38.7289767, 8.934023 ], [ 38.7272335, 8.9357127 ], [ 38.724478499999989, 8.9399352 ], [ 38.7231369, 8.9413597 ], [ 38.7222447, 8.9423215 ], [ 38.7217744, 8.9435857 ], [ 38.7207708, 8.9466268 ], [ 38.7189076, 8.9495119 ], [ 38.7218002, 8.9533475 ], [ 38.7227686, 8.9541923 ], [ 38.7233466, 8.954489 ], [ 38.7261992, 8.958587 ] ] ] } },
{ "type": "Feature", "properties": { "threshold_s": 900, "time_label": "15 min drive" }, "geometry": { "type": "Polygon", "coordinates": [ [ [ 38.715255, 8.9602221 ], [ 38.7169833, 8.9650594 ], [ 38.7216205, 8.9670339 ], [ 38.7238605, 8.9678774 ], [ 38.7263668, 8.9689366 ], [ 38.7286668, 8.9711442 ], [ 38.7292314, 8.9716261 ], [ 38.7296949, 8.9720272 ], [ 38.7317352, 8.9738671 ], [ 38.7322075, 8.9738249 ], [ 38.7362289, 8.9717369 ], [ 38.7377529, 8.9713496 ], [ 38.739233, 8.9709154 ], [ 38.7388259, 8.969511 ], [ 38.7385016, 8.9691304 ], [ 38.737573, 8.9679618 ], [ 38.7372129, 8.9662997 ], [ 38.7424278, 8.9649367 ], [ 38.7428094, 8.9650467 ], [ 38.743452499999989, 8.9650028 ], [ 38.7476856, 8.9678205 ], [ 38.7501096, 8.968593 ], [ 38.7510712, 8.9681477 ], [ 38.7556134, 8.966333 ], [ 38.757682, 8.9641352 ], [ 38.7590507, 8.9620808 ], [ 38.7606216, 8.9589706 ], [ 38.76364490000001, 8.9555997 ], [ 38.7635111, 8.954252 ], [ 38.7633968, 8.9532148 ], [ 38.7612636, 8.9486256 ], [ 38.7623253, 8.9463102 ], [ 38.7626817, 8.9456225 ], [ 38.7628957, 8.9451813 ], [ 38.7622239, 8.945001 ], [ 38.7599486, 8.9438317 ], [ 38.758741, 8.9406331 ], [ 38.7598461, 8.9378391 ], [ 38.7598836, 8.9360797 ], [ 38.7599156, 8.9353096 ], [ 38.7599319, 8.9349152 ], [ 38.7604603, 8.9313766 ], [ 38.7588899, 8.9293005 ], [ 38.7541648, 8.9275505 ], [ 38.753379, 8.9273714 ], [ 38.7495012, 8.9236476 ], [ 38.7494676, 8.9230907 ], [ 38.749187, 8.9225397 ], [ 38.7472001, 8.9203207 ], [ 38.742656, 8.9203168 ], [ 38.7404671, 8.9206655 ], [ 38.7388956, 8.9210529 ], [ 38.7352683, 8.9173866 ], [ 38.7333097, 8.9179927 ], [ 38.7318195, 8.9186223 ], [ 38.7303787, 8.9201272 ], [ 38.728479, 8.9223476 ], [ 38.7274947, 8.9235127 ], [ 38.7235384, 8.926101 ], [ 38.7224093, 8.9284355 ], [ 38.7190572, 8.9322785 ], [ 38.7171614, 8.9340249 ], [ 38.7172328, 8.9361997 ], [ 38.7158471, 8.9413677 ], [ 38.7136567, 8.9435823 ], [ 38.7111602, 8.9483774 ], [ 38.7103955, 8.9506878 ], [ 38.7093868, 8.9554634 ], [ 38.7119596, 8.9591044 ], [ 38.7140952, 8.9596855 ], [ 38.715255, 8.9602221 ] ] ] } },
{ "type": "Feature", "properties": { "threshold_s": 300, "time_label": "5 min drive" }, "geometry": { "type": "Polygon", "coordinates": [ [ [ 38.7257432, 8.9584845 ], [ 38.7260865, 8.959898 ], [ 38.7269102, 8.9603558 ], [ 38.7276265, 8.9607913 ], [ 38.7294334, 8.9609553 ], [ 38.7299066, 8.9609893 ], [ 38.7309768, 8.9602939 ], [ 38.7330402, 8.9612662 ], [ 38.7330689, 8.961954 ], [ 38.7329381, 8.9628062 ], [ 38.7329448, 8.9629303 ], [ 38.7313496, 8.9646863 ], [ 38.7335819, 8.9654407 ], [ 38.7338065, 8.9651427 ], [ 38.7338521, 8.9650684 ], [ 38.733273, 8.9646673 ], [ 38.7341882, 8.9625721 ], [ 38.7346948, 8.9625629 ], [ 38.7355458, 8.9629714 ], [ 38.7352396, 8.9611247 ], [ 38.7351846, 8.9609923 ], [ 38.7348681, 8.9596248 ], [ 38.7334362, 8.9591808 ], [ 38.733176899999989, 8.9569398 ], [ 38.7335671, 8.9563225 ], [ 38.7364709, 8.9560006 ], [ 38.733087, 8.9556029 ], [ 38.732454, 8.9546242 ], [ 38.7324205, 8.9523999 ], [ 38.732519, 8.9518222 ], [ 38.7330755, 8.9499822 ], [ 38.733206, 8.9497495 ], [ 38.73349, 8.9487137 ], [ 38.7323561, 8.9494602 ], [ 38.7311058, 8.9497706 ], [ 38.7300556, 8.9508681 ], [ 38.7295541, 8.9517322 ], [ 38.7301407, 8.9521526 ], [ 38.731062, 8.9531298 ], [ 38.7311816, 8.9554112 ], [ 38.7306932, 8.9555078 ], [ 38.7292903, 8.9552506 ], [ 38.728762, 8.9552402 ], [ 38.7272777, 8.9556214 ], [ 38.7266015, 8.9562245 ], [ 38.7260489, 8.9580033 ], [ 38.7257432, 8.9584845 ] ] ] } },
{ "type": "Feature", "properties": { "threshold_s": 600, "time_label": "10 min drive" }, "geometry": { "type": "Polygon", "coordinates": [ [ [ 38.7168079, 8.9640889 ], [ 38.7165685, 8.9653121 ], [ 38.7210374, 8.9695813 ], [ 38.7266294, 8.9728033 ], [ 38.727952, 8.9738983 ], [ 38.7296868, 8.9752961 ], [ 38.7346587, 8.9739573 ], [ 38.7375861, 8.9741636 ], [ 38.7429767, 8.9727105 ], [ 38.7432844, 8.9712271 ], [ 38.7425491, 8.9703814 ], [ 38.7372129, 8.9662997 ], [ 38.7355458, 8.9629714 ], [ 38.7352396, 8.9611247 ], [ 38.7364709, 8.9560006 ], [ 38.741538, 8.9531417 ], [ 38.7421294, 8.9527569 ], [ 38.7428664, 8.9476614 ], [ 38.742462, 8.9458879 ], [ 38.7409015, 8.9435192 ], [ 38.737807, 8.9407308 ], [ 38.7343578, 8.9379562 ], [ 38.7321951, 8.9402901 ], [ 38.7258961, 8.9415389 ], [ 38.7257027, 8.9416899 ], [ 38.7243715, 8.943773 ], [ 38.7237417, 8.9448268 ], [ 38.7198445, 8.9505415 ], [ 38.7195469, 8.9528554 ], [ 38.7195277, 8.9534771 ], [ 38.7195767, 8.9541353 ], [ 38.7196263, 8.9606677 ], [ 38.7168079, 8.9640889 ] ] ] } },
{ "type": "Feature", "properties": { "threshold_s": 900, "time_label": "15 min drive" }, "geometry": { "type": "Polygon", "coordinates": [ [ [ 38.7080019, 8.9674191 ], [ 38.7087473, 8.9716708 ], [ 38.7101339, 8.9721143 ], [ 38.7120216, 8.9728206 ], [ 38.7140299, 8.9732737 ], [ 38.7189332, 8.9793883 ], [ 38.7215909, 8.9811187 ], [ 38.7223984, 8.9810641 ], [ 38.7301493, 8.9825139 ], [ 38.7324017, 8.9843453 ], [ 38.7330562, 8.9845585 ], [ 38.737172, 8.9846817 ], [ 38.7392856, 8.9844684 ], [ 38.7468322, 8.9817306 ], [ 38.7493828, 8.979404 ], [ 38.7513245, 8.9774483 ], [ 38.7517611, 8.9769732 ], [ 38.7512788, 8.9696611 ], [ 38.7512627, 8.9690872 ], [ 38.7511866, 8.9686452 ], [ 38.7510712, 8.9681477 ], [ 38.7507722, 8.9674012 ], [ 38.7506098, 8.9584779 ], [ 38.7510028, 8.9531669 ], [ 38.7533661, 8.9473794 ], [ 38.7537108, 8.9465658 ], [ 38.7527011, 8.9445671 ], [ 38.7493833, 8.9401641 ], [ 38.745957, 8.9344593 ], [ 38.7455287, 8.934299 ], [ 38.7436894, 8.933938 ], [ 38.7399562, 8.9326344 ], [ 38.7339398, 8.9269285 ], [ 38.732743, 8.9278836 ], [ 38.7301344, 8.930964 ], [ 38.7293366, 8.9316398 ], [ 38.7208172, 8.9348974 ], [ 38.7195191, 8.9350239 ], [ 38.7162273, 8.9410286 ], [ 38.7116111, 8.9484977 ], [ 38.7115609, 8.9511337 ], [ 38.7066624, 8.958716 ], [ 38.7066028, 8.9589294 ], [ 38.7080019, 8.9674191 ] ] ] } }
]
}
