{
"type": "FeatureCollection",
"name": "isochrone_shop_beverages_drive",
"crs": { "type": "name", "properties": { "name": "urn:ogc:def:crs:OGC:1.3:CRS84" } },
"features": [
{ "type": "Feature", "properties": { "threshold_s": 300, "time_label": "5 min drive" }, "geometry": { "type": "Polygon", "coordinates": [ [ [ 38.8315603, 9.0210402 ], [ 38.83203240000001, 9.021741 ], [ 38.8335088, 9.021666 ], [ 38.8339238, 9.0216463 ], [ 38.8348874, 9.0216123 ], [ 38.8368236, 9.0215274 ], [ 38.8375525, 9.0214989 ], [ 38.8387245, 9.0216508 ], [ 38.840716, 9.0230892 ], [ 38.841274, 9.0244402 ], [ 38.8414594, 9.0241881 ], [ 38.8415376, 9.0240819 ], [ 38.8416863, 9.0238805 ], [ 38.8414063, 9.0230654 ], [ 38.8430227, 9.0212811 ], [ 38.8437578, 9.0212396 ], [ 38.843856, 9.0212365 ], [ 38.8431449, 9.019449 ], [ 38.8420265, 9.0170997 ], [ 38.8410201, 9.0158851 ], [ 38.8389494, 9.0144871 ], [ 38.8386655, 9.0144652 ], [ 38.8382913, 9.0145752 ], [ 38.8380106, 9.0146708 ], [ 38.835626499999989, 9.0156771 ], [ 38.8346937, 9.0148785 ], [ 38.8337181, 9.012633 ], [ 38.8336706, 9.0122636 ], [ 38.8317138, 9.0131113 ], [ 38.8315356, 9.0132402 ], [ 38.830646, 9.0155476 ], [ 38.8296521, 9.0160313 ], [ 38.8298545, 9.0163027 ], [ 38.8309154, 9.016991 ], [ 38.8312386, 9.0193236 ], [ 38.8312764, 9.019895 ], [ 38.8313149, 9.0204614 ], [ 38.8315603, 9.0210402 ] ] ] } },
{ "type": "Feature", "properties": { "threshold_s": 600, "time_label": "10 min drive" }, "geometry": { "type": "Polygon", "coordinates": [ [ [ 38.8194273, 9.0176486 ], [ 38.8199606, 9.0189684 ], [ 38.8214779, 9.0198759 ], [ 38.8234308, 9.0217676 ], [ 38.8257265, 9.0233455 ], [ 38.8265798, 9.0254264 ], [ 38.826657, 9.0257235 ], [ 38.8296675, 9.0268584 ], [ 38.8320971, 9.0281925 ], [ 38.8339023, 9.0302265 ], [ 38.8348948, 9.0314908 ], [ 38.8362328, 9.0339547 ], [ 38.8363098, 9.0339963 ], [ 38.8368373, 9.0341313 ], [ 38.837967, 9.0342755 ], [ 38.8400357, 9.0328395 ], [ 38.8436427, 9.0326368 ], [ 38.8442592, 9.0324403 ], [ 38.8454603, 9.0319907 ], [ 38.8474679, 9.0308967 ], [ 38.8482548, 9.0297178 ], [ 38.8504599, 9.0269378 ], [ 38.8498255, 9.0257435 ], [ 38.8526943, 9.0237145 ], [ 38.8541256, 9.0206948 ], [ 38.8540747, 9.0196323 ], [ 38.8523727, 9.0163211 ], [ 38.8515265, 9.0152912 ], [ 38.8499168, 9.0136545 ], [ 38.8482646, 9.0120106 ], [ 38.8463331, 9.0104403 ], [ 38.8441673, 9.0105137 ], [ 38.8427397, 9.0085083 ], [ 38.8425356, 9.0081494 ], [ 38.8420216, 9.0072789 ], [ 38.8409735, 9.0065219 ], [ 38.8402205, 9.0060344 ], [ 38.8386856, 9.0051973 ], [ 38.8386027, 9.0052016 ], [ 38.8356071, 9.0049112 ], [ 38.8348145, 9.0040503 ], [ 38.8314611, 9.0054037 ], [ 38.8304789, 9.0046066 ], [ 38.8303265, 9.0044892 ], [ 38.8289485, 9.0034542 ], [ 38.8271347, 9.0043946 ], [ 38.8267102, 9.0063457 ], [ 38.8263032, 9.0074272 ], [ 38.8265068, 9.0084036 ], [ 38.8261094, 9.0101883 ], [ 38.8246822, 9.0117334 ], [ 38.8213333, 9.0110947 ], [ 38.8212563, 9.0111273 ], [ 38.8208147, 9.013098 ], [ 38.8193771, 9.0158641 ], [ 38.819362, 9.0164901 ], [ 38.8194273, 9.0176486 ] ] ] } },
{ "type": "Feature", "properties": { "threshold_s": 900, "time_label": "15 min drive" }, "geometry": { "type": "Polygon", "coordinates": [ [ [ 38.8096449, 9.0204194 ], [ 38.8129946, 9.0250146 ], [ 38.8163433, 9.0259836 ], [ 38.8188645, 9.0286643 ], [ 38.8219205, 9.0322375 ], [ 38.8263568, 9.0345103 ], [ 38.827771, 9.0378714 ], [ 38.828069, 9.0396587 ], [ 38.8288784, 9.0413308 ], [ 38.8353037, 9.0418997 ], [ 38.8357251, 9.0418533 ], [ 38.8424774, 9.0414555 ], [ 38.8427765, 9.0414417 ], [ 38.8447957, 9.040289 ], [ 38.8495593, 9.0389459 ], [ 38.852754, 9.0378566 ], [ 38.8550878, 9.036132 ], [ 38.8580807, 9.0309077 ], [ 38.8612844, 9.0285577 ], [ 38.8636325, 9.0233232 ], [ 38.865731, 9.0207837 ], [ 38.8657854, 9.0184168 ], [ 38.8631918, 9.0156936 ], [ 38.8604021, 9.012444 ], [ 38.8598696, 9.0118277 ], [ 38.8592603, 9.0111654 ], [ 38.8578594, 9.0098002 ], [ 38.8557418, 9.0078428 ], [ 38.8511864, 9.0038778 ], [ 38.8496914, 9.0025945 ], [ 38.8488565, 9.0019666 ], [ 38.8432261, 8.9984282 ], [ 38.8386949, 8.9968581 ], [ 38.8374946, 8.9964446 ], [ 38.8366749, 8.9968147 ], [ 38.8306094, 8.9952029 ], [ 38.8282234, 8.9933245 ], [ 38.8277469, 8.9927898 ], [ 38.8265017, 8.9924918 ], [ 38.824895, 8.9955635 ], [ 38.8216547, 8.9979647 ], [ 38.8189781, 9.0014169 ], [ 38.8158741, 9.0039065 ], [ 38.8131087, 9.0072802 ], [ 38.8105828, 9.0115618 ], [ 38.8106196, 9.0133539 ], [ 38.8107057, 9.0133779 ], [ 38.811054, 9.0201534 ], [ 38.8096449, 9.0204194 ] ] ] } },
{ "type": "Feature", "properties": { "threshold_s": 300, "time_label": "5 min drive" }, "geometry": { "type": "Polygon", "coordinates": [ [ [ 38.7679818, 9.0389659 ], [ 38.7683965, 9.0402376 ], [ 38.7693345, 9.0402439 ], [ 38.7693953, 9.040212 ], [ 38.7706733, 9.0395278 ], [ 38.7728901, 9.0400549 ], [ 38.7733433, 9.041089 ], [ 38.7743931, 9.0409883 ], [ 38.7734143, 9.0388789 ], [ 38.7747213, 9.0379721 ], [ 38.7752885, 9.0378956 ], [ 38.7765473, 9.0380698 ], [ 38.7772388, 9.038123 ], [ 38.7780224, 9.0381513 ], [ 38.7785826, 9.0382486 ], [ 38.7791536, 9.0381632 ], [ 38.7786645, 9.0370821 ], [ 38.7783693, 9.0349826 ], [ 38.7799358, 9.0345924 ], [ 38.7804737, 9.033912 ], [ 38.7817318, 9.0329631 ], [ 38.7806722, 9.0327462 ], [ 38.7802271, 9.0305908 ], [ 38.7799938, 9.0303326 ], [ 38.7801866, 9.0281985 ], [ 38.7789508, 9.0264462 ], [ 38.7788843, 9.0258763 ], [ 38.777128, 9.0248365 ], [ 38.7766447, 9.0232281 ], [ 38.7766106, 9.0231955 ], [ 38.7764095, 9.0231921 ], [ 38.7745991, 9.0233237 ], [ 38.7735011, 9.024124 ], [ 38.7722297, 9.0251154 ], [ 38.7722787, 9.0259286 ], [ 38.7717946, 9.0280784 ], [ 38.7712506, 9.0282421 ], [ 38.7706975, 9.0282685 ], [ 38.7696171, 9.026581 ], [ 38.7673037, 9.0253571 ], [ 38.7686882, 9.0283996 ], [ 38.767883, 9.0286497 ], [ 38.767701, 9.0287114 ], [ 38.7673563, 9.028805 ], [ 38.7660695, 9.0292297 ], [ 38.7657206, 9.0293019 ], [ 38.7639705, 9.0296349 ], [ 38.7631421, 9.032984 ], [ 38.7633016, 9.0331372 ], [ 38.7633836, 9.0331509 ], [ 38.7636485, 9.0328556 ], [ 38.7664014, 9.0314507 ], [ 38.7664081, 9.0326913 ], [ 38.7663647, 9.032801 ], [ 38.7668058, 9.0346378 ], [ 38.7665653, 9.0366879 ], [ 38.766493, 9.037754 ], [ 38.7667603, 9.0382378 ], [ 38.7679818, 9.0389659 ] ] ] } },
{ "type": "Feature", "properties": { "threshold_s": 600, "time_label": "10 min drive" }, "geometry": { "type": "Polygon", "coordinates": [ [ [ 38.7556919, 9.0394787 ], [ 38.7557028, 9.0397766 ], [ 38.7581499, 9.0417016 ], [ 38.7600057, 9.0440359 ], [ 38.7629946, 9.0462782 ], [ 38.7657775, 9.0471413 ], [ 38.7669492, 9.0499581 ], [ 38.7682121, 9.0503408 ], [ 38.7702489, 9.0500487 ], [ 38.7703563, 9.0500188 ], [ 38.7721319, 9.0480659 ], [ 38.7763681, 9.0494641 ], [ 38.7797534, 9.049189 ], [ 38.7803797, 9.0490786 ], [ 38.7827002, 9.0462063 ], [ 38.7858018, 9.0466865 ], [ 38.7870159, 9.0440162 ], [ 38.7869235, 9.0434758 ], [ 38.7853727, 9.0402983 ], [ 38.7878993, 9.0373684 ], [ 38.7884075, 9.037232 ], [ 38.788646, 9.0371199 ], [ 38.788999, 9.0366321 ], [ 38.7887482, 9.0361844 ], [ 38.7880696, 9.0351791 ], [ 38.7869981, 9.033897 ], [ 38.7863892, 9.0328944 ], [ 38.7895501, 9.0295027 ], [ 38.7905778, 9.0297413 ], [ 38.7908639, 9.0294185 ], [ 38.7916626, 9.0285942 ], [ 38.7916646, 9.028526 ], [ 38.7905104, 9.0269941 ], [ 38.7882379, 9.0254218 ], [ 38.7868398, 9.0221014 ], [ 38.7866543, 9.0211264 ], [ 38.7850674, 9.0190776 ], [ 38.7846256, 9.0187558 ], [ 38.782823, 9.0174736 ], [ 38.7795994, 9.0155365 ], [ 38.777837, 9.0134105 ], [ 38.7767513, 9.0132784 ], [ 38.7761538, 9.0139141 ], [ 38.7720935, 9.0161841 ], [ 38.7712012, 9.0155134 ], [ 38.7700074, 9.0148215 ], [ 38.7699191, 9.014831 ], [ 38.7687544, 9.0164593 ], [ 38.766175, 9.0194163 ], [ 38.7664473, 9.0226405 ], [ 38.7616201, 9.0233396 ], [ 38.7605536, 9.0224021 ], [ 38.7602755, 9.0220911 ], [ 38.7600956, 9.0220791 ], [ 38.7572491, 9.0250712 ], [ 38.7563315, 9.0257239 ], [ 38.7549855, 9.028112 ], [ 38.7531912, 9.0297342 ], [ 38.7547358, 9.0318906 ], [ 38.7570673, 9.0349685 ], [ 38.7556919, 9.0394787 ] ] ] } },
{ "type": "Feature", "properties": { "threshold_s": 900, "time_label": "15 min drive" }, "geometry": { "type": "Polygon", "coordinates": [ [ [ 38.7558851, 9.0540038 ], [ 38.7559836, 9.0549912 ], [ 38.7565047, 9.0554225 ], [ 38.761252, 9.0568683 ], [ 38.7658428, 9.0577181 ], [ 38.7681542, 9.0592667 ], [ 38.7684838, 9.0593718 ], [ 38.7719363, 9.0593398 ], [ 38.7750336, 9.0596606 ], [ 38.7756462, 9.0597021 ], [ 38.7802957, 9.0593364 ], [ 38.7825084, 9.0587388 ], [ 38.7824511, 9.056754 ], [ 38.7870759, 9.0554455 ], [ 38.7877605, 9.0566709 ], [ 38.7879067, 9.0567537 ], [ 38.7880797, 9.0563507 ], [ 38.7883158, 9.0551371 ], [ 38.7873548, 9.0536933 ], [ 38.7866829, 9.0534973 ], [ 38.7850186, 9.049336 ], [ 38.7881461, 9.0481785 ], [ 38.7892183, 9.0480524 ], [ 38.792129, 9.0494167 ], [ 38.7906995, 9.0454025 ], [ 38.7967241, 9.0428703 ], [ 38.7918929, 9.0415089 ], [ 38.788016399999989, 9.0400262 ], [ 38.788646, 9.0371199 ], [ 38.788999, 9.0366321 ], [ 38.7894697, 9.0358202 ], [ 38.7898711, 9.0353037 ], [ 38.7913411, 9.0328014 ], [ 38.7947311, 9.0312946 ], [ 38.7968678, 9.0306899 ], [ 38.7988474, 9.0307862 ], [ 38.8005564, 9.0303732 ], [ 38.8011234, 9.0303124 ], [ 38.8022468, 9.0290022 ], [ 38.8022679, 9.0289403 ], [ 38.8020118, 9.0282786 ], [ 38.7988977, 9.0268528 ], [ 38.8002208, 9.022295 ], [ 38.8010242, 9.0215233 ], [ 38.8010437, 9.0214108 ], [ 38.7966165, 9.0188583 ], [ 38.7947434, 9.0176284 ], [ 38.7927188, 9.0152235 ], [ 38.7903715, 9.0118648 ], [ 38.7890337, 9.0094553 ], [ 38.7884709, 9.0091113 ], [ 38.7884384, 9.0091028 ], [ 38.7874114, 9.0096416 ], [ 38.7831538, 9.00811 ], [ 38.7828239, 9.0074981 ], [ 38.7822558, 9.006623 ], [ 38.7810221, 9.0058338 ], [ 38.7776747, 9.0055086 ], [ 38.775304, 9.0062872 ], [ 38.774206, 9.0073034 ], [ 38.7705514, 9.0092813 ], [ 38.7672577, 9.0104737 ], [ 38.7629096, 9.0108249 ], [ 38.7626954, 9.0108388 ], [ 38.76206, 9.0111118 ], [ 38.7627136, 9.0143638 ], [ 38.7623398, 9.017288 ], [ 38.7587022, 9.0179263 ], [ 38.7576248, 9.0176281 ], [ 38.755531, 9.0174041 ], [ 38.7548211, 9.0173518 ], [ 38.7544893, 9.0173204 ], [ 38.7518654, 9.0166783 ], [ 38.751575699999989, 9.0171898 ], [ 38.750576, 9.0190124 ], [ 38.74800410000001, 9.021064 ], [ 38.7466013, 9.0257342 ], [ 38.744473, 9.0293587 ], [ 38.7437521, 9.0338112 ], [ 38.7439918, 9.0343989 ], [ 38.7455821, 9.0385532 ], [ 38.7457088, 9.0400194 ], [ 38.7463036, 9.041451 ], [ 38.7472882, 9.0451854 ], [ 38.749239, 9.0469663 ], [ 38.7526984, 9.0505018 ], [ 38.7528293, 9.0508645 ], [ 38.7558851, 9.0540038 ] ] ] } },
{ "type": "Feature", "properties": { "threshold_s": 300, "time_label": "5 min drive" }, "geometry": { "type": "Polygon", "coordinates": [ [ [ 38.8106196, 9.0133539 ], [ 38.8109781, 9.0138911 ], [ 38.8132233, 9.0144189 ], [ 38.8152355, 9.0119172 ], [ 38.8161268, 9.0119246 ], [ 38.8186794, 9.0137801 ], [ 38.8197847, 9.0164883 ], [ 38.8194153, 9.0171491 ], [ 38.8198794, 9.0176142 ], [ 38.8212509, 9.0187748 ], [ 38.8215588, 9.0187509 ], [ 38.8237634, 9.0179832 ], [ 38.8259667, 9.0193676 ], [ 38.8272261, 9.0165398 ], [ 38.8272559, 9.0132902 ], [ 38.8272128, 9.013053 ], [ 38.8270598, 9.0118905 ], [ 38.8283048, 9.0092346 ], [ 38.8288254, 9.0078165 ], [ 38.8288573, 9.0076696 ], [ 38.8289686, 9.0063636 ], [ 38.827472, 9.0052887 ], [ 38.8254516, 9.0040688 ], [ 38.8246908, 9.004143 ], [ 38.8236721, 9.0042039 ], [ 38.8209683, 9.0028963 ], [ 38.8184192, 9.0028096 ], [ 38.8164236, 9.0039119 ], [ 38.815231, 9.0050509 ], [ 38.8138061, 9.0061821 ], [ 38.8130584, 9.0069047 ], [ 38.8126827, 9.0073092 ], [ 38.81128, 9.0092989 ], [ 38.8102475, 9.0114704 ], [ 38.8106196, 9.0133539 ] ] ] } },
{ "type": "Feature", "properties": { "threshold_s": 600, "time_label": "10 min drive" }, "geometry": { "type": "Polygon", "coordinates": [ [ [ 38.8023704, 9.017401 ], [ 38.8018595, 9.0192341 ], [ 38.8019712, 9.0193152 ], [ 38.802462, 9.0194301 ], [ 38.8035447, 9.0196294 ], [ 38.8076165, 9.0203631 ], [ 38.8112028, 9.0213055 ], [ 38.8116801, 9.0213311 ], [ 38.8146516, 9.0217388 ], [ 38.8186367, 9.0229963 ], [ 38.8229044, 9.0260905 ], [ 38.8249282, 9.0291742 ], [ 38.8286482, 9.0286809 ], [ 38.8309072, 9.0275316 ], [ 38.8309401, 9.0274559 ], [ 38.8313044, 9.0245723 ], [ 38.8368236, 9.0215274 ], [ 38.8349853, 9.0153984 ], [ 38.8361872, 9.0116384 ], [ 38.8365469, 9.0105999 ], [ 38.8368286, 9.0074636 ], [ 38.8365865, 9.0065814 ], [ 38.8348794, 9.0020687 ], [ 38.8345014, 9.0010924 ], [ 38.8332387, 8.9997931 ], [ 38.8282243, 8.9959768 ], [ 38.8237725, 8.9943237 ], [ 38.8213344, 8.995094 ], [ 38.8138214, 8.9950904 ], [ 38.8127252, 8.9959884 ], [ 38.8111447, 8.9973356 ], [ 38.806023, 8.9999586 ], [ 38.804171599999989, 9.0040571 ], [ 38.8016497, 9.0094333 ], [ 38.8026099, 9.0167887 ], [ 38.8023704, 9.017401 ] ] ] } },
{ "type": "Feature", "properties": { "threshold_s": 900, "time_label": "15 min drive" }, "geometry": { "type": "Polygon", "coordinates": [ [ [ 38.7917798, 9.0168777 ], [ 38.7914155, 9.021388 ], [ 38.7930765, 9.0228625 ], [ 38.7954952, 9.0249473 ], [ 38.796299, 9.025302 ], [ 38.8004262, 9.0262119 ], [ 38.8020936, 9.0264203 ], [ 38.8082555, 9.0263566 ], [ 38.8149015, 9.0299632 ], [ 38.8165315, 9.0308887 ], [ 38.8209959, 9.0334367 ], [ 38.8306081, 9.037338 ], [ 38.83561, 9.0351641 ], [ 38.8411669, 9.0314711 ], [ 38.8412755, 9.0312517 ], [ 38.843967, 9.0247653 ], [ 38.8455119, 9.0186309 ], [ 38.8478268, 9.0103241 ], [ 38.847826, 9.0102352 ], [ 38.8473128, 9.0059978 ], [ 38.8459336, 9.0049721 ], [ 38.8444112, 9.0042941 ], [ 38.8396599, 9.0013672 ], [ 38.8347629, 8.9930203 ], [ 38.8340249, 8.9881903 ], [ 38.8339757, 8.9881109 ], [ 38.8315061, 8.9866653 ], [ 38.823195, 8.9853167 ], [ 38.8192088, 8.9866935 ], [ 38.8097735, 8.9869675 ], [ 38.8028242, 8.9908194 ], [ 38.8024711, 8.9914824 ], [ 38.7981365, 8.9992974 ], [ 38.7958496, 9.0027295 ], [ 38.7947168, 9.0050565 ], [ 38.7935226, 9.007857 ], [ 38.7932745, 9.0089167 ], [ 38.7917798, 9.0168777 ] ] ] } },
{ "type": "Feature", "properties": { "threshold_s": 300, "time_label": "5 min drive" }, "geometry": { "type": "Polygon", "coordinates": [ [ [ 38.745682, 9.0328467 ], [ 38.7460726, 9.0341827 ], [ 38.7487176, 9.0350745 ], [ 38.7494822, 9.0357729 ], [ 38.7501814, 9.0362262 ], [ 38.7517542, 9.038645 ], [ 38.7525465, 9.0380504 ], [ 38.7555497, 9.0379841 ], [ 38.7550527, 9.0350946 ], [ 38.7549, 9.0340673 ], [ 38.7558521, 9.0318884 ], [ 38.7568262, 9.030107 ], [ 38.7575971, 9.0292881 ], [ 38.7611244, 9.0293966 ], [ 38.76209, 9.029884 ], [ 38.7621176, 9.0297963 ], [ 38.7611664, 9.0293214 ], [ 38.7582228, 9.0285769 ], [ 38.7581126, 9.0269965 ], [ 38.7576048, 9.024946 ], [ 38.7567715, 9.0239365 ], [ 38.7547844, 9.0252812 ], [ 38.7518575, 9.0242085 ], [ 38.7508048, 9.0245939 ], [ 38.75011, 9.0262182 ], [ 38.7474657, 9.0272879 ], [ 38.747125, 9.0282177 ], [ 38.7459818, 9.0310786 ], [ 38.745682, 9.0328467 ] ] ] } },
{ "type": "Feature", "properties": { "threshold_s": 600, "time_label": "10 min drive" }, "geometry": { "type": "Polygon", "coordinates": [ [ [ 38.7434116, 9.0452264 ], [ 38.7462735, 9.0484102 ], [ 38.7465743, 9.0484181 ], [ 38.7482093, 9.0480917 ], [ 38.7519653, 9.0479608 ], [ 38.7554499, 9.04807 ], [ 38.7568986, 9.0481555 ], [ 38.7562092, 9.047044 ], [ 38.7573255, 9.0439475 ], [ 38.7600057, 9.0440359 ], [ 38.7609601, 9.0437661 ], [ 38.761383, 9.0436452 ], [ 38.7605296, 9.041151 ], [ 38.7625107, 9.0387169 ], [ 38.763485, 9.0378991 ], [ 38.7639577, 9.0366488 ], [ 38.7672949, 9.0333336 ], [ 38.768567, 9.0339854 ], [ 38.7684305, 9.0329237 ], [ 38.7683848, 9.0328415 ], [ 38.7664014, 9.0314507 ], [ 38.7654192, 9.0307943 ], [ 38.7633917, 9.0291295 ], [ 38.7625209, 9.0267749 ], [ 38.7616201, 9.0233396 ], [ 38.7633195, 9.0193691 ], [ 38.7606025, 9.0183832 ], [ 38.7587022, 9.0179263 ], [ 38.7566767, 9.0148583 ], [ 38.7565754, 9.0147817 ], [ 38.7530028, 9.0117021 ], [ 38.7501221, 9.0122852 ], [ 38.7484963, 9.0132162 ], [ 38.746012, 9.0163151 ], [ 38.7445428, 9.0193766 ], [ 38.7424225, 9.022066 ], [ 38.7406978, 9.022521 ], [ 38.7398328, 9.0227395 ], [ 38.7376964, 9.024566 ], [ 38.7376528, 9.0246336 ], [ 38.7374238, 9.0254659 ], [ 38.7363707, 9.0295812 ], [ 38.7370889, 9.0322481 ], [ 38.7366399, 9.0346148 ], [ 38.7378842, 9.0374214 ], [ 38.7399562, 9.0406862 ], [ 38.742112, 9.0437179 ], [ 38.7434116, 9.0452264 ] ] ] } },
{ "type": "Feature", "properties": { "threshold_s": 900, "time_label": "15 min drive" }, "geometry": { "type": "Polygon", "coordinates": [ [ [ 38.7399352, 9.0575077 ], [ 38.7400067, 9.0575833 ], [ 38.7438521, 9.0581799 ], [ 38.7484489, 9.0588421 ], [ 38.7513386, 9.0566671 ], [ 38.7539978, 9.0561037 ], [ 38.7572967, 9.0574294 ], [ 38.7598514, 9.0583555 ], [ 38.7626772, 9.0557355 ], [ 38.764614, 9.0541074 ], [ 38.7662823, 9.0496236 ], [ 38.767836, 9.0485087 ], [ 38.7686014, 9.0480309 ], [ 38.7706796, 9.0471375 ], [ 38.7708269, 9.0470365 ], [ 38.7694638, 9.0449786 ], [ 38.7733433, 9.041089 ], [ 38.7743931, 9.0409883 ], [ 38.7772388, 9.038123 ], [ 38.7789967, 9.0337559 ], [ 38.7788875, 9.0312164 ], [ 38.7761492, 9.027044 ], [ 38.7754401, 9.0268163 ], [ 38.7707329, 9.0240985 ], [ 38.7708838, 9.0203264 ], [ 38.771192, 9.0184455 ], [ 38.7721899, 9.0162346 ], [ 38.7699102, 9.014068 ], [ 38.7672577, 9.0104737 ], [ 38.7643308, 9.0075099 ], [ 38.7603429, 9.0076063 ], [ 38.7587508, 9.0052114 ], [ 38.7587141, 9.0041929 ], [ 38.7546804, 9.0018889 ], [ 38.7533004, 9.0021771 ], [ 38.7519359, 9.0026255 ], [ 38.7467176, 9.0045045 ], [ 38.7450837, 9.0051057 ], [ 38.7410089, 9.0086816 ], [ 38.7387193, 9.0103826 ], [ 38.7375141, 9.0120792 ], [ 38.7367613, 9.0137791 ], [ 38.7325036, 9.0164106 ], [ 38.7300246, 9.0163718 ], [ 38.729956799999989, 9.0163642 ], [ 38.72926, 9.0169807 ], [ 38.7277709, 9.0199051 ], [ 38.7277276, 9.0204429 ], [ 38.727897, 9.025717 ], [ 38.7274925, 9.0263393 ], [ 38.7250612, 9.0281938 ], [ 38.7252684, 9.0285488 ], [ 38.7249019, 9.0339276 ], [ 38.7244952, 9.0344387 ], [ 38.7265248, 9.0373437 ], [ 38.728019, 9.0390448 ], [ 38.7294285, 9.0438761 ], [ 38.7317687, 9.047415 ], [ 38.7339416, 9.0490828 ], [ 38.7363382, 9.0529235 ], [ 38.73760690000001, 9.0533015 ], [ 38.7399352, 9.0575077 ] ] ] } },
{ "type": "Feature", "properties": { "threshold_s": 300, "time_label": "5 min drive" }, "geometry": { "type": "Polygon", "coordinates": [ [ [ 38.8102475, 9.0114704 ], [ 38.8097058, 9.0137634 ], [ 38.8132313, 9.0149019 ], [ 38.8132233, 9.0144189 ], [ 38.8152355, 9.0119172 ], [ 38.8161268, 9.0119246 ], [ 38.8186794, 9.0137801 ], [ 38.8194153, 9.0171491 ], [ 38.8212509, 9.0187748 ], [ 38.8215588, 9.0187509 ], [ 38.8237634, 9.0179832 ], [ 38.8257765, 9.0184475 ], [ 38.8272261, 9.0165398 ], [ 38.8269489, 9.0149332 ], [ 38.8270598, 9.0118905 ], [ 38.8283048, 9.0092346 ], [ 38.8288254, 9.0078165 ], [ 38.8288573, 9.0076696 ], [ 38.8288667, 9.0074564 ], [ 38.8275927, 9.005396 ], [ 38.827472, 9.0052887 ], [ 38.8246908, 9.004143 ], [ 38.8237283, 9.0036515 ], [ 38.8210512, 9.0028113 ], [ 38.8204129, 9.0027494 ], [ 38.8182929, 9.0026966 ], [ 38.8158741, 9.0039065 ], [ 38.8146785, 9.0049602 ], [ 38.8135634, 9.0061768 ], [ 38.8126827, 9.0073092 ], [ 38.81128, 9.0092989 ], [ 38.8102475, 9.0114704 ] ] ] } },
{ "type": "Feature", "properties": { "threshold_s": 600, "time_label": "10 min drive" }, "geometry": { "type": "Polygon", "coordinates": [ [ [ 38.8018595, 9.0192341 ], [ 38.8019774, 9.0198821 ], [ 38.8076165, 9.0203631 ], [ 38.8110784, 9.0214064 ], [ 38.81506, 9.0219887 ], [ 38.8186367, 9.0229963 ], [ 38.8208135, 9.0241331 ], [ 38.8249282, 9.0291742 ], [ 38.8281022, 9.0285546 ], [ 38.8309401, 9.0274559 ], [ 38.8348874, 9.0216123 ], [ 38.8352508, 9.020929 ], [ 38.8353704, 9.0205201 ], [ 38.8346937, 9.0148785 ], [ 38.8361948, 9.0112022 ], [ 38.8363087, 9.0083377 ], [ 38.8363426, 9.0071357 ], [ 38.8348794, 9.0020687 ], [ 38.8332387, 8.9997931 ], [ 38.8278431, 8.9956641 ], [ 38.8237725, 8.9943237 ], [ 38.821032, 8.9947257 ], [ 38.8138165, 8.9947463 ], [ 38.813348, 8.995177 ], [ 38.8129657, 8.9956049 ], [ 38.8111447, 8.9973356 ], [ 38.8056857, 8.9996652 ], [ 38.8034796, 9.0044801 ], [ 38.8016497, 9.0094333 ], [ 38.802971, 9.0155489 ], [ 38.8026099, 9.0167887 ], [ 38.8023704, 9.017401 ], [ 38.8018595, 9.0192341 ] ] ] } },
{ "type": "Feature", "properties": { "threshold_s": 900, "time_label": "15 min drive" }, "geometry": { "type": "Polygon", "coordinates": [ [ [ 38.7914155, 9.021388 ], [ 38.7931306, 9.0235175 ], [ 38.7959445, 9.0257353 ], [ 38.8004262, 9.0262119 ], [ 38.8020936, 9.0264203 ], [ 38.8082555, 9.0263566 ], [ 38.8149015, 9.0299632 ], [ 38.8165315, 9.0308887 ], [ 38.8211113, 9.0331374 ], [ 38.82228520000001, 9.033648 ], [ 38.8306081, 9.037338 ], [ 38.83561, 9.0351641 ], [ 38.8411669, 9.0314711 ], [ 38.843967, 9.0247653 ], [ 38.8452638, 9.018649 ], [ 38.8466544, 9.0103372 ], [ 38.8466401, 9.0096147 ], [ 38.8465432, 9.0083023 ], [ 38.8461633, 9.0055932 ], [ 38.8444237, 9.0047164 ], [ 38.8396599, 9.0013672 ], [ 38.8347629, 8.9930203 ], [ 38.8343344, 8.987973 ], [ 38.8342782, 8.9879222 ], [ 38.8315061, 8.9866653 ], [ 38.8228863, 8.9850231 ], [ 38.8190351, 8.9862093 ], [ 38.8097735, 8.9869675 ], [ 38.8020439, 8.9901737 ], [ 38.7981365, 8.9992974 ], [ 38.7958496, 9.0027295 ], [ 38.7946308, 9.0046325 ], [ 38.7935545, 9.0069479 ], [ 38.7922613, 9.0130458 ], [ 38.7917798, 9.0168777 ], [ 38.7914155, 9.021388 ] ] ] } },
{ "type": "Feature", "properties": { "threshold_s": 300, "time_label": "5 min drive" }, "geometry": { "type": "Polygon", "coordinates": [ [ [ 38.7787355, 9.0030202 ], [ 38.7780823, 9.0053305 ], [ 38.7794724, 9.0056821 ], [ 38.7810221, 9.0058338 ], [ 38.7827072, 9.0061669 ], [ 38.7831612, 9.0062702 ], [ 38.7841301, 9.0065027 ], [ 38.7853284, 9.00681 ], [ 38.7870035, 9.0057066 ], [ 38.789343, 9.0055722 ], [ 38.7893815, 9.005578 ], [ 38.7896529, 9.005535 ], [ 38.7894034, 9.0046542 ], [ 38.7892042, 9.0040436 ], [ 38.7882641, 9.0032555 ], [ 38.7882698, 9.0017096 ], [ 38.7889105, 9.0000486 ], [ 38.7897293, 8.9996859 ], [ 38.7906855, 8.9993148 ], [ 38.7913789, 8.9990156 ], [ 38.7920983, 8.9987684 ], [ 38.792624, 8.9985777 ], [ 38.7931544, 8.9983837 ], [ 38.7937863, 8.9969911 ], [ 38.7943467, 8.9950463 ], [ 38.7933804, 8.9941166 ], [ 38.7918435, 8.9923162 ], [ 38.7917543, 8.9922639 ], [ 38.7897353, 8.991741 ], [ 38.7881416, 8.9909852 ], [ 38.7860818, 8.9902517 ], [ 38.7847861, 8.9907155 ], [ 38.7838371, 8.9909241 ], [ 38.7822305, 8.9904055 ], [ 38.7808029, 8.9921666 ], [ 38.7792163, 8.9939508 ], [ 38.7784264, 8.9944714 ], [ 38.7777683, 8.9954023 ], [ 38.7781307, 8.9965431 ], [ 38.7776278, 8.9979624 ], [ 38.777362, 8.9984848 ], [ 38.7779966, 8.9994625 ], [ 38.7795597, 9.0006527 ], [ 38.7792411, 9.0026554 ], [ 38.7787355, 9.0030202 ] ] ] } },
{ "type": "Feature", "properties": { "threshold_s": 600, "time_label": "10 min drive" }, "geometry": { "type": "Polygon", "coordinates": [ [ [ 38.7705514, 9.0092813 ], [ 38.773148, 9.0145762 ], [ 38.7732235, 9.0146348 ], [ 38.776373, 9.0129175 ], [ 38.7793668, 9.0132882 ], [ 38.7819307, 9.0165447 ], [ 38.7874547, 9.016091 ], [ 38.7875045, 9.0160762 ], [ 38.7875552, 9.0160411 ], [ 38.7910495, 9.0135358 ], [ 38.7955817, 9.0122013 ], [ 38.7957154, 9.012016 ], [ 38.7976317, 9.0084889 ], [ 38.7984364, 9.006861 ], [ 38.8001838, 9.0022144 ], [ 38.7965052, 8.9969379 ], [ 38.797957, 8.9920335 ], [ 38.7997874, 8.9861208 ], [ 38.7996331, 8.9854045 ], [ 38.7965669, 8.9878238 ], [ 38.791375, 8.9871117 ], [ 38.789819799999989, 8.986366 ], [ 38.788826, 8.985809 ], [ 38.7855757, 8.9849273 ], [ 38.7842988, 8.9845215 ], [ 38.7829895, 8.9840922 ], [ 38.7782983, 8.982017 ], [ 38.7753103, 8.982628 ], [ 38.7738282, 8.9856895 ], [ 38.7719503, 8.9903067 ], [ 38.7713957, 8.9920023 ], [ 38.7708546, 8.9939276 ], [ 38.7710398, 8.9958541 ], [ 38.7712938, 8.9985856 ], [ 38.7692675, 9.0042938 ], [ 38.7695761, 9.0061032 ], [ 38.7705514, 9.0092813 ] ] ] } },
{ "type": "Feature", "properties": { "threshold_s": 900, "time_label": "15 min drive" }, "geometry": { "type": "Polygon", "coordinates": [ [ [ 38.7629595, 9.017323 ], [ 38.7650922, 9.0223314 ], [ 38.7726157, 9.0232898 ], [ 38.777128, 9.0248365 ], [ 38.7823913, 9.0264422 ], [ 38.7860883, 9.0266382 ], [ 38.7928829, 9.0236637 ], [ 38.8007335, 9.0190982 ], [ 38.8021061, 9.0173173 ], [ 38.8065782, 9.0089915 ], [ 38.8082091, 9.0032886 ], [ 38.8088088, 9.0004855 ], [ 38.8085471, 8.9956857 ], [ 38.8103143, 8.9883096 ], [ 38.8097735, 8.9869675 ], [ 38.8079529, 8.9863615 ], [ 38.8035562, 8.9852867 ], [ 38.8021619, 8.9853275 ], [ 38.7996331, 8.9854045 ], [ 38.7971379, 8.9861223 ], [ 38.7880106, 8.9854871 ], [ 38.7855757, 8.9849273 ], [ 38.7787516, 8.9794447 ], [ 38.7777914, 8.9763594 ], [ 38.7756114, 8.9726492 ], [ 38.7750388, 8.9724298 ], [ 38.766807300000011, 8.9766861 ], [ 38.764124099999989, 8.9821933 ], [ 38.7621897, 8.9874769 ], [ 38.7621897, 8.9875462 ], [ 38.7622938, 8.9937159 ], [ 38.7616126, 9.0004111 ], [ 38.7620759, 9.0032468 ], [ 38.7598898, 9.0114568 ], [ 38.7629595, 9.017323 ] ] ] } },
{ "type": "Feature", "properties": { "threshold_s": 300, "time_label": "5 min drive" }, "geometry": { "type": "Polygon", "coordinates": [ [ [ 38.8315603, 9.0210402 ], [ 38.83203240000001, 9.021741 ], [ 38.8335088, 9.021666 ], [ 38.8339238, 9.0216463 ], [ 38.8348874, 9.0216123 ], [ 38.8368236, 9.0215274 ], [ 38.8375525, 9.0214989 ], [ 38.8387245, 9.0216508 ], [ 38.840716, 9.0230892 ], [ 38.841274, 9.0244402 ], [ 38.8421927, 9.0240007 ], [ 38.8430227, 9.0212811 ], [ 38.8437578, 9.0212396 ], [ 38.843856, 9.0212365 ], [ 38.8433289, 9.0199223 ], [ 38.8435261, 9.0180631 ], [ 38.8431689, 9.0165818 ], [ 38.8418507, 9.0153651 ], [ 38.8401289, 9.0140992 ], [ 38.8392588, 9.0130661 ], [ 38.8388387, 9.0127745 ], [ 38.8374839, 9.0127074 ], [ 38.8368092, 9.0128559 ], [ 38.836747699999989, 9.0128996 ], [ 38.8363424, 9.0131566 ], [ 38.8336706, 9.0122636 ], [ 38.8317138, 9.0131113 ], [ 38.8314384, 9.0144364 ], [ 38.8296521, 9.0160313 ], [ 38.8298545, 9.0163027 ], [ 38.8309154, 9.016991 ], [ 38.8312386, 9.0193236 ], [ 38.8312764, 9.019895 ], [ 38.8313149, 9.0204614 ], [ 38.8315603, 9.0210402 ] ] ] } },
{ "type": "Feature", "properties": { "threshold_s": 600, "time_label": "10 min drive" }, "geometry": { "type": "Polygon", "coordinates": [ [ [ 38.8194273, 9.0176486 ], [ 38.8199606, 9.0189684 ], [ 38.8214779, 9.0198759 ], [ 38.8234308, 9.0217676 ], [ 38.8257265, 9.0233455 ], [ 38.8265798, 9.0254264 ], [ 38.8296675, 9.0268584 ], [ 38.8320971, 9.0281925 ], [ 38.8336554, 9.0302421 ], [ 38.8353069, 9.0322908 ], [ 38.8360451, 9.0345061 ], [ 38.837967, 9.0342755 ], [ 38.8400357, 9.0328395 ], [ 38.8436427, 9.0326368 ], [ 38.8442592, 9.0324403 ], [ 38.8454603, 9.0319907 ], [ 38.8470943, 9.031215 ], [ 38.8477281, 9.0308761 ], [ 38.8495109, 9.0288525 ], [ 38.8504599, 9.0269378 ], [ 38.8526943, 9.0237145 ], [ 38.8537211, 9.0224795 ], [ 38.8541256, 9.0206948 ], [ 38.8540127, 9.0182575 ], [ 38.8539399, 9.0165809 ], [ 38.8520321, 9.0138164 ], [ 38.8495917, 9.0114717 ], [ 38.8489451, 9.0109631 ], [ 38.847826, 9.0102352 ], [ 38.8466544, 9.0103372 ], [ 38.8434183, 9.0086094 ], [ 38.8432065, 9.0076345 ], [ 38.8431904, 9.0075458 ], [ 38.8414704, 9.0058192 ], [ 38.8386052, 9.0043614 ], [ 38.8350485, 9.0029058 ], [ 38.833772, 9.0031353 ], [ 38.832365, 9.0038105 ], [ 38.8289485, 9.0034542 ], [ 38.827472, 9.0052887 ], [ 38.8267102, 9.0063457 ], [ 38.8266224, 9.0072861 ], [ 38.8265068, 9.0084036 ], [ 38.8260511, 9.0104564 ], [ 38.8249502, 9.0115923 ], [ 38.8213333, 9.0110947 ], [ 38.8212563, 9.0111273 ], [ 38.8208147, 9.013098 ], [ 38.8196501, 9.0156462 ], [ 38.819362, 9.0164901 ], [ 38.8194273, 9.0176486 ] ] ] } },
{ "type": "Feature", "properties": { "threshold_s": 900, "time_label": "15 min drive" }, "geometry": { "type": "Polygon", "coordinates": [ [ [ 38.8096449, 9.0204194 ], [ 38.8129946, 9.0250146 ], [ 38.8185783, 9.0276477 ], [ 38.8219205, 9.0322375 ], [ 38.8263568, 9.0345103 ], [ 38.827771, 9.0378714 ], [ 38.828069, 9.0396587 ], [ 38.8288784, 9.0413308 ], [ 38.8353037, 9.0418997 ], [ 38.8357251, 9.0418533 ], [ 38.8366171, 9.0415537 ], [ 38.8427717, 9.042037 ], [ 38.8447957, 9.040289 ], [ 38.8495593, 9.0389459 ], [ 38.852754, 9.0378566 ], [ 38.8550878, 9.036132 ], [ 38.8580807, 9.0309077 ], [ 38.8613248, 9.0292706 ], [ 38.8636325, 9.0233232 ], [ 38.865731, 9.0207837 ], [ 38.86631, 9.0184389 ], [ 38.8643469, 9.016452 ], [ 38.8618223, 9.0115659 ], [ 38.8569271, 9.0073326 ], [ 38.8520229, 9.0038196 ], [ 38.8509664, 9.0017808 ], [ 38.8458976, 8.9993 ], [ 38.8436022, 8.9970319 ], [ 38.8427425, 8.996165 ], [ 38.838026, 8.9945437 ], [ 38.8371992, 8.9948055 ], [ 38.8312705, 8.9949229 ], [ 38.8277469, 8.9927898 ], [ 38.8268229, 8.9932554 ], [ 38.824895, 8.9955635 ], [ 38.8216547, 8.9979647 ], [ 38.8200369, 9.0003493 ], [ 38.8158741, 9.0039065 ], [ 38.8135379, 9.0068735 ], [ 38.8105828, 9.0115618 ], [ 38.8107811, 9.013385 ], [ 38.811054, 9.0201534 ], [ 38.8096449, 9.0204194 ] ] ] } },
{ "type": "Feature", "properties": { "threshold_s": 300, "time_label": "5 min drive" }, "geometry": { "type": "Polygon", "coordinates": [ [ [ 38.7722297, 9.0251154 ], [ 38.7722787, 9.0259286 ], [ 38.7725207, 9.0260996 ], [ 38.773884, 9.0258131 ], [ 38.7752165, 9.0276289 ], [ 38.7761492, 9.027044 ], [ 38.7768635, 9.0267257 ], [ 38.7785228, 9.0266245 ], [ 38.7783603, 9.0264075 ], [ 38.778014, 9.025166 ], [ 38.7787771, 9.0234759 ], [ 38.7806577, 9.0238498 ], [ 38.7811059, 9.0234327 ], [ 38.7814649, 9.022194 ], [ 38.7814131, 9.0221508 ], [ 38.7799554, 9.0211994 ], [ 38.7800579, 9.019619 ], [ 38.7804623, 9.0179874 ], [ 38.7798819, 9.0169092 ], [ 38.7795994, 9.0155365 ], [ 38.7781044, 9.0145299 ], [ 38.777837, 9.0134105 ], [ 38.7756928, 9.012622 ], [ 38.7745506, 9.0111448 ], [ 38.7745133, 9.0110996 ], [ 38.7732789, 9.0121882 ], [ 38.7742634, 9.0124589 ], [ 38.7743465, 9.0124832 ], [ 38.7761538, 9.0139141 ], [ 38.7760706, 9.0156092 ], [ 38.7741335, 9.0152535 ], [ 38.7732235, 9.0146348 ], [ 38.773148, 9.0145762 ], [ 38.7712012, 9.0155134 ], [ 38.7699102, 9.014068 ], [ 38.7698139, 9.0132732 ], [ 38.7696976, 9.0130606 ], [ 38.7684856, 9.0141974 ], [ 38.7684944, 9.0142876 ], [ 38.7686282, 9.015342 ], [ 38.7674265, 9.0166327 ], [ 38.7693392, 9.0177338 ], [ 38.7683061, 9.0191895 ], [ 38.7676275, 9.0197284 ], [ 38.7686595, 9.0207369 ], [ 38.7708838, 9.0203264 ], [ 38.7713573, 9.0204686 ], [ 38.7723687, 9.02177 ], [ 38.7717222, 9.0232818 ], [ 38.7722297, 9.0251154 ] ] ] } },
{ "type": "Feature", "properties": { "threshold_s": 600, "time_label": "10 min drive" }, "geometry": { "type": "Polygon", "coordinates": [ [ [ 38.7633917, 9.0291295 ], [ 38.7631958, 9.029803 ], [ 38.7637138, 9.0300983 ], [ 38.7684305, 9.0329237 ], [ 38.769884, 9.0342295 ], [ 38.771258, 9.0349868 ], [ 38.7722643, 9.0352881 ], [ 38.7779067, 9.0359559 ], [ 38.7828374, 9.0322795 ], [ 38.7859405, 9.0306672 ], [ 38.7867588, 9.0301967 ], [ 38.7884042, 9.0291921 ], [ 38.7891555, 9.0285121 ], [ 38.7901173, 9.0243729 ], [ 38.7929798, 9.0211669 ], [ 38.7895982, 9.0173518 ], [ 38.7872721, 9.0151271 ], [ 38.7866215, 9.0149869 ], [ 38.7834518, 9.0134488 ], [ 38.7823498, 9.0091425 ], [ 38.7807231, 9.0031349 ], [ 38.7802617, 9.0027226 ], [ 38.780006899999989, 9.0025548 ], [ 38.7772268, 9.0028263 ], [ 38.7727683, 9.0030296 ], [ 38.7715399, 9.004392 ], [ 38.771041, 9.0056867 ], [ 38.7700137, 9.0073279 ], [ 38.7699708, 9.0073954 ], [ 38.7672577, 9.0104737 ], [ 38.7636137, 9.009863 ], [ 38.76206, 9.0111118 ], [ 38.7627136, 9.0143638 ], [ 38.7576248, 9.0176281 ], [ 38.7570594, 9.0187168 ], [ 38.7600498, 9.0221853 ], [ 38.7602254, 9.0222978 ], [ 38.7605536, 9.0224021 ], [ 38.7645123, 9.0221623 ], [ 38.7664952, 9.0274613 ], [ 38.7633917, 9.0291295 ] ] ] } },
{ "type": "Feature", "properties": { "threshold_s": 900, "time_label": "15 min drive" }, "geometry": { "type": "Polygon", "coordinates": [ [ [ 38.7540847, 9.0327214 ], [ 38.7579791, 9.0380662 ], [ 38.7620077, 9.0410376 ], [ 38.7652115, 9.0437 ], [ 38.7694638, 9.0449786 ], [ 38.7735437, 9.0461664 ], [ 38.7744268, 9.0462291 ], [ 38.7770125, 9.045045 ], [ 38.7834598, 9.0439548 ], [ 38.7839977, 9.0439166 ], [ 38.788646, 9.0371199 ], [ 38.788999, 9.0366321 ], [ 38.7898711, 9.0353037 ], [ 38.7947311, 9.0312946 ], [ 38.7988474, 9.0307862 ], [ 38.8000767, 9.0287239 ], [ 38.8000908, 9.0286678 ], [ 38.8010242, 9.0215233 ], [ 38.8035447, 9.0196294 ], [ 38.8021061, 9.0173173 ], [ 38.7961516, 9.0125743 ], [ 38.7959244, 9.0111848 ], [ 38.7957932, 9.0106801 ], [ 38.7956005, 9.0103345 ], [ 38.7942441, 9.0087988 ], [ 38.7917389, 9.0056483 ], [ 38.7897293, 8.9996859 ], [ 38.7891596, 8.9951631 ], [ 38.7816045, 8.9919559 ], [ 38.7748148, 8.9924547 ], [ 38.7737218, 8.9925375 ], [ 38.7734938, 8.9926488 ], [ 38.7700593, 8.9948012 ], [ 38.7652306, 8.9972696 ], [ 38.7651727, 8.9973575 ], [ 38.7618234, 9.000837 ], [ 38.757624, 9.0022881 ], [ 38.7534437, 9.0051707 ], [ 38.7526578, 9.0074973 ], [ 38.7473376, 9.0123175 ], [ 38.7472759, 9.012391 ], [ 38.7449654, 9.0165766 ], [ 38.7475765, 9.0210798 ], [ 38.7478263, 9.0214295 ], [ 38.7488745, 9.0229183 ], [ 38.7523777, 9.0300754 ], [ 38.7540847, 9.0327214 ] ] ] } },
{ "type": "Feature", "properties": { "threshold_s": 300, "time_label": "5 min drive" }, "geometry": { "type": "Polygon", "coordinates": [ [ [ 38.7166148, 8.9786797 ], [ 38.7171412, 8.9798381 ], [ 38.7197882, 8.9819198 ], [ 38.7223984, 8.9810641 ], [ 38.7230837, 8.980366 ], [ 38.7230371, 8.9777789 ], [ 38.724079, 8.9771595 ], [ 38.7258704, 8.9763704 ], [ 38.727001, 8.9760068 ], [ 38.7282267, 8.9758101 ], [ 38.7296868, 8.9752961 ], [ 38.7312003, 8.9741872 ], [ 38.7294433, 8.971329 ], [ 38.7272136, 8.9698644 ], [ 38.7264578, 8.9692085 ], [ 38.7236219, 8.9705643 ], [ 38.7226302, 8.9684315 ], [ 38.7211067, 8.9678238 ], [ 38.7182221, 8.9675577 ], [ 38.7175886, 8.9692367 ], [ 38.7172198, 8.9707216 ], [ 38.7184154, 8.9718832 ], [ 38.7187499, 8.972423 ], [ 38.7190926, 8.9729571 ], [ 38.7195794, 8.9737333 ], [ 38.7206829, 8.9750566 ], [ 38.7214795, 8.9768647 ], [ 38.7196929, 8.9792853 ], [ 38.7189332, 8.9793883 ], [ 38.7166148, 8.9786797 ] ] ] } },
{ "type": "Feature", "properties": { "threshold_s": 600, "time_label": "10 min drive" }, "geometry": { "type": "Polygon", "coordinates": [ [ [ 38.7069728, 8.9844382 ], [ 38.7070188, 8.9848127 ], [ 38.7075504, 8.9852546 ], [ 38.7079333, 8.9848878 ], [ 38.7111506, 8.982655 ], [ 38.7129021, 8.9832206 ], [ 38.7159783, 8.9847957 ], [ 38.7165458, 8.9869257 ], [ 38.7163385, 8.9880063 ], [ 38.7156765, 8.9901822 ], [ 38.7164894, 8.9911652 ], [ 38.7173352, 8.9916251 ], [ 38.7210613, 8.9911041 ], [ 38.7235233, 8.9913037 ], [ 38.7255622, 8.9913882 ], [ 38.7256426, 8.9913092 ], [ 38.7260596, 8.9887195 ], [ 38.7262524, 8.9869032 ], [ 38.7258375, 8.9863936 ], [ 38.7257884, 8.9863389 ], [ 38.7250746, 8.9859916 ], [ 38.7235008, 8.9856657 ], [ 38.7217467, 8.9856792 ], [ 38.7201629, 8.9848828 ], [ 38.7215909, 8.9811187 ], [ 38.7223984, 8.9810641 ], [ 38.7230837, 8.980366 ], [ 38.724079, 8.9771595 ], [ 38.7258704, 8.9763704 ], [ 38.727001, 8.9760068 ], [ 38.7282267, 8.9758101 ], [ 38.7315005, 8.9774815 ], [ 38.7315124, 8.9784199 ], [ 38.7312524, 8.9791888 ], [ 38.7318328, 8.9802179 ], [ 38.7343322, 8.9825996 ], [ 38.7357746, 8.982398 ], [ 38.7367037, 8.9803676 ], [ 38.7381248, 8.9779864 ], [ 38.7385499, 8.9759133 ], [ 38.7384252, 8.9736465 ], [ 38.7377431, 8.9730167 ], [ 38.7352703, 8.9721039 ], [ 38.7329476, 8.9698573 ], [ 38.7327157, 8.9682691 ], [ 38.7335819, 8.9654407 ], [ 38.7338065, 8.9651427 ], [ 38.7338521, 8.9650684 ], [ 38.7328483, 8.9624614 ], [ 38.7298586, 8.9615515 ], [ 38.7276544, 8.9604039 ], [ 38.7257525, 8.9603312 ], [ 38.7244731, 8.960367 ], [ 38.7216393, 8.9599861 ], [ 38.718778, 8.960086 ], [ 38.7184945, 8.9601974 ], [ 38.7183066, 8.96028 ], [ 38.7150158, 8.9614105 ], [ 38.7140259, 8.9603411 ], [ 38.7135471, 8.9609676 ], [ 38.7135092, 8.9614044 ], [ 38.7114121, 8.9645081 ], [ 38.7113571, 8.9645981 ], [ 38.710841, 8.9673156 ], [ 38.7089031, 8.9680852 ], [ 38.7086921, 8.9683717 ], [ 38.7086973, 8.9715818 ], [ 38.7078663, 8.9748684 ], [ 38.7060397, 8.9757687 ], [ 38.7058908, 8.9758363 ], [ 38.705359, 8.9760753 ], [ 38.7056878, 8.976874 ], [ 38.708349, 8.9791605 ], [ 38.70771, 8.9818356 ], [ 38.7069728, 8.9844382 ] ] ] } },
{ "type": "Feature", "properties": { "threshold_s": 900, "time_label": "15 min drive" }, "geometry": { "type": "Polygon", "coordinates": [ [ [ 38.7024845, 8.9876965 ], [ 38.7040213, 8.9922732 ], [ 38.7054934, 8.9934763 ], [ 38.705946, 8.9935003 ], [ 38.7083559, 8.993551 ], [ 38.7093247, 8.9936113 ], [ 38.7098554, 8.9936617 ], [ 38.7105737, 8.9937041 ], [ 38.7160403, 8.9927609 ], [ 38.7186047, 8.9964866 ], [ 38.7187348, 8.9973036 ], [ 38.7188513, 8.9979545 ], [ 38.7189357, 9.0001877 ], [ 38.7190194, 9.0001837 ], [ 38.7191164, 9.0001686 ], [ 38.719909, 8.9998875 ], [ 38.7268985, 8.9991841 ], [ 38.7274674, 8.99912 ], [ 38.7307139, 8.9976947 ], [ 38.7308209, 8.9976433 ], [ 38.7335164, 8.9958438 ], [ 38.7383214, 8.9925488 ], [ 38.7417046, 8.9885902 ], [ 38.746394, 8.983574 ], [ 38.7468322, 8.9817306 ], [ 38.7467168, 8.9763062 ], [ 38.7466576, 8.9749068 ], [ 38.7469284, 8.9680825 ], [ 38.7456802, 8.9668079 ], [ 38.7442893, 8.9666697 ], [ 38.7428784, 8.9669177 ], [ 38.7372129, 8.9662997 ], [ 38.7355458, 8.9629714 ], [ 38.7352396, 8.9611247 ], [ 38.7364709, 8.9560006 ], [ 38.732519, 8.9518222 ], [ 38.7318567, 8.9516713 ], [ 38.7313974, 8.9515806 ], [ 38.728762, 8.9552402 ], [ 38.7232722, 8.9528105 ], [ 38.7226813, 8.9520452 ], [ 38.722259, 8.951672 ], [ 38.7209645, 8.9513047 ], [ 38.7192912, 8.9509525 ], [ 38.715132, 8.9523883 ], [ 38.70881760000001, 8.9545068 ], [ 38.7029762, 8.9578823 ], [ 38.7015584, 8.9642617 ], [ 38.7001897, 8.9677934 ], [ 38.7011528, 8.9722359 ], [ 38.7013119, 8.9740367 ], [ 38.6997734, 8.9797443 ], [ 38.6959225, 8.9824999 ], [ 38.6971844, 8.9829184 ], [ 38.7024845, 8.9876965 ] ] ] } },
{ "type": "Feature", "properties": { "threshold_s": 300, "time_label": "5 min drive" }, "geometry": { "type": "Polygon", "coordinates": [ [ [ 38.7075467, 8.9675465 ], [ 38.7085132, 8.9686422 ], [ 38.7094574, 8.9683464 ], [ 38.7116967, 8.9693639 ], [ 38.711817, 8.9698172 ], [ 38.7141412, 8.9698228 ], [ 38.7141794, 8.9697601 ], [ 38.7142405, 8.9696599 ], [ 38.7147608, 8.9687085 ], [ 38.7146692, 8.9676457 ], [ 38.7148153, 8.9665411 ], [ 38.7165685, 8.9653121 ], [ 38.7166624, 8.9652527 ], [ 38.7168659, 8.9651244 ], [ 38.7169833, 8.9650594 ], [ 38.7173702, 8.9648452 ], [ 38.7197162, 8.9653009 ], [ 38.7199082, 8.9651799 ], [ 38.7211378, 8.9643517 ], [ 38.7210918, 8.9627066 ], [ 38.7214727, 8.9607792 ], [ 38.7211244, 8.9583427 ], [ 38.7209742, 8.9580897 ], [ 38.7204492, 8.9572919 ], [ 38.7193358, 8.9556942 ], [ 38.718764, 8.9553369 ], [ 38.7180653, 8.9552998 ], [ 38.7166151, 8.9555162 ], [ 38.714075, 8.9548655 ], [ 38.7139443, 8.9548284 ], [ 38.7127281, 8.9547367 ], [ 38.7112694, 8.9546488 ], [ 38.7093868, 8.9554634 ], [ 38.7084783, 8.9569867 ], [ 38.7047407, 8.9583863 ], [ 38.7048435, 8.9584197 ], [ 38.7066028, 8.9589294 ], [ 38.7066794, 8.9589522 ], [ 38.7082998, 8.9591877 ], [ 38.7097852, 8.9596157 ], [ 38.7103525, 8.9597938 ], [ 38.7117541, 8.9617023 ], [ 38.7114597, 8.962623 ], [ 38.7114208, 8.963849 ], [ 38.7113571, 8.9645981 ], [ 38.7097062, 8.9659719 ], [ 38.7077826, 8.9653489 ], [ 38.7068414, 8.965587 ], [ 38.7069412, 8.9665315 ], [ 38.7075467, 8.9675465 ] ] ] } },
{ "type": "Feature", "properties": { "threshold_s": 600, "time_label": "10 min drive" }, "geometry": { "type": "Polygon", "coordinates": [ [ [ 38.7006018, 8.9743566 ], [ 38.7011674, 8.9759992 ], [ 38.7025917, 8.9764794 ], [ 38.7039784, 8.9764145 ], [ 38.7057853, 8.9756135 ], [ 38.7065117, 8.9752925 ], [ 38.7076208, 8.974797 ], [ 38.7079365, 8.9746578 ], [ 38.7085293, 8.9743943 ], [ 38.7089684, 8.9741971 ], [ 38.7092046, 8.9740936 ], [ 38.7097858, 8.9738359 ], [ 38.7107423, 8.973403 ], [ 38.7110888, 8.9732445 ], [ 38.7120216, 8.9728206 ], [ 38.7131167, 8.9723742 ], [ 38.7195794, 8.9737333 ], [ 38.7203753, 8.9744772 ], [ 38.7210115, 8.9749255 ], [ 38.7215597, 8.9751549 ], [ 38.7233107, 8.975741 ], [ 38.7256413, 8.9758612 ], [ 38.7267113, 8.9749511 ], [ 38.7278244, 8.9733004 ], [ 38.7280208, 8.9705749 ], [ 38.728233, 8.9679219 ], [ 38.73053, 8.9629873 ], [ 38.7299066, 8.9609893 ], [ 38.7290285, 8.9599678 ], [ 38.7280874, 8.9583069 ], [ 38.7290916, 8.9523734 ], [ 38.7290636, 8.9519809 ], [ 38.7286462, 8.9516399 ], [ 38.7245224, 8.948293 ], [ 38.7227379, 8.9474424 ], [ 38.7207708, 8.9466268 ], [ 38.7168926, 8.9458755 ], [ 38.7157618, 8.9461813 ], [ 38.7097463, 8.9487392 ], [ 38.7053463, 8.9498908 ], [ 38.7026042, 8.9508445 ], [ 38.6967489, 8.9534902 ], [ 38.6957145, 8.9536041 ], [ 38.6952031, 8.9546876 ], [ 38.6953, 8.9566272 ], [ 38.69564, 8.9586806 ], [ 38.6965704, 8.959076 ], [ 38.6984839, 8.9604146 ], [ 38.6986901, 8.9671433 ], [ 38.6988325, 8.9684998 ], [ 38.7006018, 8.9743566 ] ] ] } },
{ "type": "Feature", "properties": { "threshold_s": 900, "time_label": "15 min drive" }, "geometry": { "type": "Polygon", "coordinates": [ [ [ 38.6925599, 8.9789865 ], [ 38.6950553, 8.9823921 ], [ 38.6963983, 8.9825788 ], [ 38.6973466, 8.9822669 ], [ 38.6978172, 8.9818372 ], [ 38.6979901, 8.9816283 ], [ 38.6985553, 8.9808574 ], [ 38.6993848, 8.9798635 ], [ 38.6997792, 8.9793816 ], [ 38.7062874, 8.9777359 ], [ 38.7098325, 8.9780203 ], [ 38.714999, 8.9805731 ], [ 38.719303, 8.9836928 ], [ 38.7223984, 8.9810641 ], [ 38.7230837, 8.980366 ], [ 38.727001, 8.9760068 ], [ 38.7282267, 8.9758101 ], [ 38.7340154, 8.9782922 ], [ 38.7344728, 8.9778061 ], [ 38.7345893, 8.9773059 ], [ 38.7348683, 8.9754504 ], [ 38.7354362, 8.9691904 ], [ 38.7387184, 8.9695725 ], [ 38.7388259, 8.969511 ], [ 38.7372129, 8.9662997 ], [ 38.7355458, 8.9629714 ], [ 38.7352396, 8.9611247 ], [ 38.7364709, 8.9560006 ], [ 38.732519, 8.9518222 ], [ 38.7369266, 8.9491363 ], [ 38.7370929, 8.9481831 ], [ 38.7369655, 8.947526 ], [ 38.7338198, 8.9447581 ], [ 38.7304383, 8.9414413 ], [ 38.7255168, 8.9391986 ], [ 38.7236356, 8.9382527 ], [ 38.7226346, 8.9379497 ], [ 38.7212375, 8.9375894 ], [ 38.7203271, 8.9374098 ], [ 38.7187305, 8.9405788 ], [ 38.7185287, 8.9422212 ], [ 38.7126721, 8.9439332 ], [ 38.706592, 8.9420225 ], [ 38.7047534, 8.9399916 ], [ 38.7038671, 8.9400165 ], [ 38.7019385, 8.9415868 ], [ 38.6966338, 8.9437687 ], [ 38.6935446, 8.9429701 ], [ 38.6895604, 8.9471246 ], [ 38.6882305, 8.9480621 ], [ 38.6848025, 8.9510048 ], [ 38.684802, 8.9512162 ], [ 38.6858795, 8.9530148 ], [ 38.6869499, 8.9589574 ], [ 38.6873272, 8.9636669 ], [ 38.690342, 8.9652592 ], [ 38.6897797, 8.9703087 ], [ 38.6896166, 8.9709388 ], [ 38.6900463, 8.9727762 ], [ 38.6907757, 8.9762731 ], [ 38.6925599, 8.9789865 ] ] ] } },
{ "type": "Feature", "properties": { "threshold_s": 300, "time_label": "5 min drive" }, "geometry": { "type": "Polygon", "coordinates": [ [ [ 38.7780561, 9.0303012 ], [ 38.7782877, 9.031042 ], [ 38.7800837, 9.0326359 ], [ 38.7809407, 9.0329393 ], [ 38.7820987, 9.0327323 ], [ 38.7847393, 9.0337449 ], [ 38.785141, 9.0334743 ], [ 38.7860223, 9.0306152 ], [ 38.7867588, 9.0301967 ], [ 38.7895501, 9.0295027 ], [ 38.7905778, 9.0297413 ], [ 38.7916626, 9.0285942 ], [ 38.7919374, 9.0256425 ], [ 38.7894086, 9.0239549 ], [ 38.7876648, 9.0232365 ], [ 38.7862093, 9.0222595 ], [ 38.7854865, 9.0225353 ], [ 38.7831854, 9.0201498 ], [ 38.7827905, 9.0187878 ], [ 38.7821732, 9.018387 ], [ 38.7813556, 9.0188907 ], [ 38.7800908, 9.0202484 ], [ 38.7803991, 9.020821 ], [ 38.7788296, 9.023438 ], [ 38.7778352, 9.0234959 ], [ 38.7764838, 9.0227621 ], [ 38.7754273, 9.0227795 ], [ 38.7764432, 9.0256874 ], [ 38.7777275, 9.0282723 ], [ 38.7780561, 9.0303012 ] ] ] } },
{ "type": "Feature", "properties": { "threshold_s": 600, "time_label": "10 min drive" }, "geometry": { "type": "Polygon", "coordinates": [ [ [ 38.7709504, 9.0340645 ], [ 38.7734143, 9.0388789 ], [ 38.7777758, 9.0401384 ], [ 38.7818758, 9.0411522 ], [ 38.7828712, 9.0413032 ], [ 38.7832034, 9.0412485 ], [ 38.784006, 9.0409412 ], [ 38.788646, 9.0371199 ], [ 38.788999, 9.0366321 ], [ 38.7898711, 9.0353037 ], [ 38.7913411, 9.0328014 ], [ 38.7947311, 9.0312946 ], [ 38.7988474, 9.0307862 ], [ 38.8011234, 9.0303124 ], [ 38.8022468, 9.0290022 ], [ 38.8022679, 9.0289403 ], [ 38.8020118, 9.0282786 ], [ 38.8018846, 9.028053 ], [ 38.8006361, 9.0234734 ], [ 38.8014876, 9.0217608 ], [ 38.8016071, 9.0216033 ], [ 38.8020513, 9.0210223 ], [ 38.797182, 9.0184257 ], [ 38.7967567, 9.0182941 ], [ 38.7947434, 9.0176284 ], [ 38.7915556, 9.0156549 ], [ 38.7890701, 9.0126731 ], [ 38.7880908, 9.0106422 ], [ 38.7823498, 9.0091425 ], [ 38.7816411, 9.0083637 ], [ 38.7810148, 9.0078206 ], [ 38.7809236, 9.0077517 ], [ 38.7803711, 9.0080397 ], [ 38.7793008, 9.0087445 ], [ 38.775033, 9.0113597 ], [ 38.773148, 9.0145762 ], [ 38.7700074, 9.0148215 ], [ 38.7699191, 9.014831 ], [ 38.7692811, 9.0152555 ], [ 38.7682007, 9.0165141 ], [ 38.766175, 9.0194163 ], [ 38.7664473, 9.0226405 ], [ 38.7696171, 9.026581 ], [ 38.7673563, 9.028805 ], [ 38.7660695, 9.0292297 ], [ 38.7657206, 9.0293019 ], [ 38.7696665, 9.0317334 ], [ 38.7709504, 9.0340645 ] ] ] } },
{ "type": "Feature", "properties": { "threshold_s": 900, "time_label": "15 min drive" }, "geometry": { "type": "Polygon", "coordinates": [ [ [ 38.7596169, 9.0366557 ], [ 38.7630674, 9.0433818 ], [ 38.7673458, 9.0478868 ], [ 38.7720477, 9.0473428 ], [ 38.7779641, 9.0485114 ], [ 38.7803797, 9.0490786 ], [ 38.7830713, 9.0491877 ], [ 38.7892183, 9.0480524 ], [ 38.7906995, 9.0454025 ], [ 38.7918929, 9.0415089 ], [ 38.7898711, 9.0353037 ], [ 38.7947311, 9.0312946 ], [ 38.7997189, 9.0335465 ], [ 38.8042312, 9.0365115 ], [ 38.8081541, 9.0338291 ], [ 38.8116564, 9.0325841 ], [ 38.810141, 9.0310664 ], [ 38.8102636, 9.0243078 ], [ 38.8106941, 9.0237117 ], [ 38.8113499, 9.0229316 ], [ 38.8119681, 9.0221034 ], [ 38.8120899, 9.0212209 ], [ 38.8120747, 9.0206652 ], [ 38.8098596, 9.0156041 ], [ 38.8061032, 9.0115015 ], [ 38.8012158, 9.0086368 ], [ 38.7946308, 9.0046325 ], [ 38.7883566, 9.0003414 ], [ 38.7845898, 8.998985 ], [ 38.7788648, 8.9968111 ], [ 38.7783889, 8.9982605 ], [ 38.7734655, 9.0030482 ], [ 38.7717075, 9.0049966 ], [ 38.7672577, 9.0104737 ], [ 38.7629096, 9.0108249 ], [ 38.7626954, 9.0108388 ], [ 38.76206, 9.0111118 ], [ 38.7576248, 9.0176281 ], [ 38.7575894, 9.0177418 ], [ 38.7605536, 9.0224021 ], [ 38.7572128, 9.026898 ], [ 38.75534, 9.028952 ], [ 38.7559373, 9.0307996 ], [ 38.7580195, 9.0345421 ], [ 38.7596169, 9.0366557 ] ] ] } },
{ "type": "Feature", "properties": { "threshold_s": 300, "time_label": "5 min drive" }, "geometry": { "type": "Polygon", "coordinates": [ [ [ 38.7060329, 9.0391369 ], [ 38.7065856, 9.0399212 ], [ 38.7085965, 9.0415372 ], [ 38.7104224, 9.0431006 ], [ 38.7125735, 9.0418557 ], [ 38.7134157, 9.0419583 ], [ 38.7153013, 9.0410981 ], [ 38.7175329, 9.0400167 ], [ 38.7190352, 9.0400993 ], [ 38.719052, 9.0396456 ], [ 38.7203447, 9.0372676 ], [ 38.7196316, 9.036118 ], [ 38.7183827, 9.0341124 ], [ 38.7180719, 9.0321873 ], [ 38.7188229, 9.0312253 ], [ 38.720068, 9.029228 ], [ 38.7199633, 9.0291598 ], [ 38.7178695, 9.0283501 ], [ 38.7170336, 9.0285625 ], [ 38.7147665, 9.0283196 ], [ 38.714852, 9.0268221 ], [ 38.7148898, 9.0260835 ], [ 38.7149162, 9.0254453 ], [ 38.7149263, 9.0253368 ], [ 38.7150192, 9.0236091 ], [ 38.715065, 9.0231544 ], [ 38.7134602, 9.0231438 ], [ 38.7127804, 9.0232168 ], [ 38.7120412, 9.0235873 ], [ 38.7114282, 9.0244084 ], [ 38.7110057, 9.0257422 ], [ 38.7108492, 9.0261124 ], [ 38.7083363, 9.0267296 ], [ 38.7081519, 9.0267832 ], [ 38.707272, 9.0282036 ], [ 38.7059645, 9.0298706 ], [ 38.7045389, 9.0308971 ], [ 38.7036773, 9.031362 ], [ 38.7035804, 9.0322421 ], [ 38.7036635, 9.0346131 ], [ 38.7028776, 9.0354336 ], [ 38.7050288, 9.0366167 ], [ 38.7052864, 9.0371992 ], [ 38.7060329, 9.0391369 ] ] ] } },
{ "type": "Feature", "properties": { "threshold_s": 600, "time_label": "10 min drive" }, "geometry": { "type": "Polygon", "coordinates": [ [ [ 38.699436, 9.0474739 ], [ 38.7004472, 9.0486732 ], [ 38.7048393, 9.0511902 ], [ 38.7057278, 9.0517604 ], [ 38.7107317, 9.0522764 ], [ 38.7113584, 9.0518981 ], [ 38.7155816, 9.0502631 ], [ 38.7168157, 9.050139 ], [ 38.720305, 9.0477991 ], [ 38.7222077, 9.0479755 ], [ 38.7234043, 9.0472872 ], [ 38.7257449, 9.0446856 ], [ 38.7285066, 9.0402072 ], [ 38.7299865, 9.037071 ], [ 38.7296317, 9.0337325 ], [ 38.7298892, 9.0311468 ], [ 38.7292416, 9.0281443 ], [ 38.7267955, 9.0251324 ], [ 38.7249975, 9.0225726 ], [ 38.7225894, 9.0205489 ], [ 38.7185117, 9.0189136 ], [ 38.7192655, 9.0157897 ], [ 38.7197277, 9.0153199 ], [ 38.7199187, 9.0151687 ], [ 38.7206671, 9.0136904 ], [ 38.7200854, 9.0136355 ], [ 38.7168731, 9.0144546 ], [ 38.7151492, 9.0155415 ], [ 38.713527, 9.0174057 ], [ 38.7119277, 9.0185845 ], [ 38.7072292, 9.0183925 ], [ 38.7066431, 9.0181488 ], [ 38.7043753, 9.0177554 ], [ 38.7011198, 9.0221289 ], [ 38.7005485, 9.0237859 ], [ 38.7004533, 9.024713 ], [ 38.7003976, 9.02517 ], [ 38.6973673, 9.0297498 ], [ 38.6923724, 9.0323236 ], [ 38.693252, 9.037365 ], [ 38.6957587, 9.0420716 ], [ 38.6964928, 9.0427617 ], [ 38.699436, 9.0474739 ] ] ] } },
{ "type": "Feature", "properties": { "threshold_s": 900, "time_label": "15 min drive" }, "geometry": { "type": "Polygon", "coordinates": [ [ [ 38.686607, 9.0432185 ], [ 38.6877993, 9.0473163 ], [ 38.6908506, 9.0498208 ], [ 38.69231, 9.0509735 ], [ 38.6933756, 9.0514554 ], [ 38.6937929, 9.0502591 ], [ 38.699713, 9.0483354 ], [ 38.7006564, 9.0488665 ], [ 38.7021819, 9.0503737 ], [ 38.7031314, 9.0556818 ], [ 38.7005751, 9.0580084 ], [ 38.7006786, 9.0583777 ], [ 38.7016307, 9.0595954 ], [ 38.7035425, 9.0579234 ], [ 38.7088545, 9.0579977 ], [ 38.7110449, 9.061498 ], [ 38.7147419, 9.0627772 ], [ 38.7148011, 9.0620899 ], [ 38.719053, 9.057589 ], [ 38.7206783, 9.058177 ], [ 38.7258937, 9.0573798 ], [ 38.7289147, 9.0555844 ], [ 38.7312594, 9.0530117 ], [ 38.7337368, 9.0499003 ], [ 38.7356083, 9.0468011 ], [ 38.7385494, 9.0408915 ], [ 38.7378842, 9.0374214 ], [ 38.7402905, 9.0337396 ], [ 38.7402157, 9.0316487 ], [ 38.7399708, 9.0300819 ], [ 38.7392206, 9.0274594 ], [ 38.7385894, 9.026343 ], [ 38.7359445, 9.0234488 ], [ 38.733828, 9.0191488 ], [ 38.7337924, 9.0190342 ], [ 38.732627, 9.0164094 ], [ 38.7308068, 9.0146302 ], [ 38.7286855, 9.0089895 ], [ 38.726517, 9.0109459 ], [ 38.7201735, 9.0095651 ], [ 38.7197471, 9.0087074 ], [ 38.7190564, 9.0070821 ], [ 38.7186681, 9.0042571 ], [ 38.7186832, 9.004024 ], [ 38.7179585, 9.0038253 ], [ 38.7155615, 9.0065709 ], [ 38.7145161, 9.0075199 ], [ 38.7139575, 9.0091895 ], [ 38.7132493, 9.0104497 ], [ 38.7103541, 9.0135396 ], [ 38.7053349, 9.014028 ], [ 38.7034982, 9.0135973 ], [ 38.7010816, 9.0148619 ], [ 38.6959296, 9.0117743 ], [ 38.6958783, 9.0118463 ], [ 38.6943412, 9.0157514 ], [ 38.6940025, 9.0170559 ], [ 38.6939979, 9.0176362 ], [ 38.6937457, 9.0212057 ], [ 38.6942725, 9.026217 ], [ 38.6885758, 9.0273382 ], [ 38.6876819, 9.0273104 ], [ 38.686776, 9.027315 ], [ 38.6860941, 9.0282729 ], [ 38.6843937, 9.03088 ], [ 38.6824527, 9.0358739 ], [ 38.6821318, 9.036787 ], [ 38.6844009, 9.0388254 ], [ 38.686607, 9.0432185 ] ] ] } }
]
}
