{
"type": "FeatureCollection",
"name": "isochrone_amenity_marketplace_drive",
"crs": { "type": "name", "properties": { "name": "urn:ogc:def:crs:OGC:1.3:CRS84" } },
"features": [
{ "type": "Feature", "properties": { "threshold_s": 300, "time_label": "5 min drive" }, "geometry": { "type": "Polygon", "coordinates": [ [ [ 38.7325788, 9.0315183 ], [ 38.7339365, 9.0331668 ], [ 38.7357049, 9.0343764 ], [ 38.7366399, 9.0346148 ], [ 38.7377366, 9.0355394 ], [ 38.7385896, 9.035751 ], [ 38.7403128, 9.0359261 ], [ 38.7407925, 9.0364402 ], [ 38.7421026, 9.038028 ], [ 38.7424476, 9.0374529 ], [ 38.7446185, 9.0368082 ], [ 38.7427477, 9.0364837 ], [ 38.7428422, 9.0353794 ], [ 38.7439918, 9.0343989 ], [ 38.745832, 9.0344079 ], [ 38.7461888, 9.0344437 ], [ 38.7466615, 9.0344848 ], [ 38.7471559, 9.0325573 ], [ 38.7475825, 9.0323943 ], [ 38.7485994, 9.0316501 ], [ 38.7491403, 9.0314182 ], [ 38.7484038, 9.0311236 ], [ 38.7479223, 9.0308362 ], [ 38.7472081, 9.0293312 ], [ 38.7480031, 9.0281187 ], [ 38.7501956, 9.027699 ], [ 38.7508772, 9.0273428 ], [ 38.7502819, 9.0275903 ], [ 38.748782, 9.0262905 ], [ 38.7490247, 9.0251276 ], [ 38.748433, 9.0240763 ], [ 38.7471967, 9.022532 ], [ 38.74713830000001, 9.0224901 ], [ 38.7466739, 9.0231346 ], [ 38.7462137, 9.0235673 ], [ 38.744300699999989, 9.0223826 ], [ 38.7444281, 9.0216667 ], [ 38.7444643, 9.0213137 ], [ 38.7444817, 9.0211057 ], [ 38.7442877, 9.0209837 ], [ 38.7435385, 9.0210257 ], [ 38.7418058, 9.0208555 ], [ 38.7410156, 9.0203514 ], [ 38.7409647, 9.0205077 ], [ 38.7409479, 9.0205726 ], [ 38.7402489, 9.0220986 ], [ 38.7383985, 9.0217793 ], [ 38.7389694, 9.0228345 ], [ 38.7376964, 9.024566 ], [ 38.7360555, 9.0233601 ], [ 38.7353951, 9.0222044 ], [ 38.7349658, 9.0222472 ], [ 38.7344777, 9.0239488 ], [ 38.7339661, 9.0243499 ], [ 38.7335289, 9.0249806 ], [ 38.733439, 9.0256799 ], [ 38.7333459, 9.0264886 ], [ 38.7332821, 9.0271852 ], [ 38.733189, 9.0278925 ], [ 38.7317151, 9.0288665 ], [ 38.7314012, 9.028828 ], [ 38.7326901, 9.0307945 ], [ 38.7325788, 9.0315183 ] ] ] } },
{ "type": "Feature", "properties": { "threshold_s": 600, "time_label": "10 min drive" }, "geometry": { "type": "Polygon", "coordinates": [ [ [ 38.7307241, 9.0417843 ], [ 38.7330246, 9.0449407 ], [ 38.7354401, 9.0470626 ], [ 38.739417, 9.0465899 ], [ 38.7397607, 9.0466531 ], [ 38.7411967, 9.0460409 ], [ 38.7445286, 9.0461045 ], [ 38.7471864, 9.046054 ], [ 38.7485637, 9.0452148 ], [ 38.7486606, 9.0444969 ], [ 38.751545, 9.04216 ], [ 38.7536837, 9.0411308 ], [ 38.7559159, 9.0397791 ], [ 38.7555497, 9.0379841 ], [ 38.7550527, 9.0350946 ], [ 38.7558521, 9.0318884 ], [ 38.7575971, 9.0292881 ], [ 38.76061210000001, 9.0274013 ], [ 38.76061330000001, 9.0273217 ], [ 38.7576048, 9.024946 ], [ 38.7575279, 9.0235574 ], [ 38.7564925, 9.0198092 ], [ 38.7565524, 9.0195638 ], [ 38.755531, 9.0174041 ], [ 38.7527738, 9.0154758 ], [ 38.7511127, 9.0142091 ], [ 38.748495, 9.0131042 ], [ 38.7473376, 9.0123175 ], [ 38.7443043, 9.0100188 ], [ 38.7441227, 9.0100953 ], [ 38.7440647, 9.0101702 ], [ 38.741383, 9.0126028 ], [ 38.7407528, 9.0125592 ], [ 38.7377172, 9.0106108 ], [ 38.7360117, 9.0122933 ], [ 38.7330361, 9.0140917 ], [ 38.7314063, 9.0144722 ], [ 38.7289514, 9.0141945 ], [ 38.728192, 9.0146268 ], [ 38.7269885, 9.0179453 ], [ 38.7258437, 9.0192984 ], [ 38.7255433, 9.0216256 ], [ 38.7225781, 9.0237289 ], [ 38.721402, 9.0259654 ], [ 38.7214765, 9.0293057 ], [ 38.7226369, 9.0322508 ], [ 38.7240786, 9.0347561 ], [ 38.7267482, 9.0376592 ], [ 38.7278053, 9.0391915 ], [ 38.7280387, 9.0395359 ], [ 38.7282668, 9.0398745 ], [ 38.7285066, 9.0402072 ], [ 38.7300345, 9.0414291 ], [ 38.7307241, 9.0417843 ] ] ] } },
{ "type": "Feature", "properties": { "threshold_s": 900, "time_label": "15 min drive" }, "geometry": { "type": "Polygon", "coordinates": [ [ [ 38.7253503, 9.0505078 ], [ 38.7268682, 9.0536379 ], [ 38.7300074, 9.0553602 ], [ 38.7319874, 9.0553044 ], [ 38.7351906, 9.0553483 ], [ 38.7373622, 9.0555475 ], [ 38.7407419, 9.0553647 ], [ 38.7436159, 9.0553227 ], [ 38.7460593, 9.0552983 ], [ 38.7495685, 9.0545069 ], [ 38.7537123, 9.0544042 ], [ 38.756331, 9.0509065 ], [ 38.7588879, 9.0497151 ], [ 38.7580652, 9.0488412 ], [ 38.7568986, 9.0481555 ], [ 38.7562092, 9.047044 ], [ 38.7573255, 9.0439475 ], [ 38.7600057, 9.0440359 ], [ 38.7611534, 9.0441026 ], [ 38.7613074, 9.0440921 ], [ 38.7614694, 9.0439155 ], [ 38.7614471, 9.0437227 ], [ 38.7609062, 9.0407658 ], [ 38.7625107, 9.0387169 ], [ 38.763485, 9.0378991 ], [ 38.7634966, 9.0378188 ], [ 38.7629161, 9.0365657 ], [ 38.7632315, 9.0343164 ], [ 38.7663647, 9.032801 ], [ 38.7664081, 9.0326913 ], [ 38.7654192, 9.0307943 ], [ 38.7633917, 9.0291295 ], [ 38.7625209, 9.0267749 ], [ 38.7624111, 9.0266163 ], [ 38.7616201, 9.0233396 ], [ 38.7638895, 9.0199177 ], [ 38.7659352, 9.0168131 ], [ 38.7655491, 9.0161733 ], [ 38.7632994, 9.0143168 ], [ 38.7636137, 9.009863 ], [ 38.76206, 9.0111118 ], [ 38.7588742, 9.0086394 ], [ 38.7587462, 9.0073761 ], [ 38.7587103, 9.0068983 ], [ 38.7544001, 9.0055835 ], [ 38.7534437, 9.0051707 ], [ 38.7501171, 9.0043078 ], [ 38.7487359, 9.0029341 ], [ 38.7471344, 9.0010553 ], [ 38.7457383, 8.9999466 ], [ 38.7456058, 8.9999417 ], [ 38.743207, 9.0023614 ], [ 38.7399427, 9.0000384 ], [ 38.7398733, 8.9999034 ], [ 38.7397509, 8.9999673 ], [ 38.7394057, 9.0002786 ], [ 38.7380223, 9.0030952 ], [ 38.7359355, 9.0037336 ], [ 38.7330776, 9.0026316 ], [ 38.7329972, 9.0026872 ], [ 38.730315, 9.0050548 ], [ 38.7287807, 9.0080888 ], [ 38.7286855, 9.0089895 ], [ 38.7270118, 9.0118618 ], [ 38.7225071, 9.0114307 ], [ 38.7206414, 9.0105108 ], [ 38.719577, 9.0122374 ], [ 38.7188622, 9.016363 ], [ 38.716879, 9.0190493 ], [ 38.7160489, 9.0210002 ], [ 38.7156287, 9.0220832 ], [ 38.7153381, 9.0230401 ], [ 38.7152763, 9.0236018 ], [ 38.715158, 9.0253611 ], [ 38.7151311, 9.0261072 ], [ 38.7150762, 9.0272182 ], [ 38.7150309, 9.0279479 ], [ 38.7149748, 9.0286311 ], [ 38.7149476, 9.0290394 ], [ 38.7140975, 9.0336022 ], [ 38.7145114, 9.0352096 ], [ 38.7152268, 9.0376028 ], [ 38.7156888, 9.0386345 ], [ 38.7173233, 9.0421761 ], [ 38.7175617, 9.0424941 ], [ 38.7183845, 9.0434854 ], [ 38.7203331, 9.0457813 ], [ 38.7222077, 9.0479755 ], [ 38.7253503, 9.0505078 ] ] ] } },
{ "type": "Feature", "properties": { "threshold_s": 300, "time_label": "5 min drive" }, "geometry": { "type": "Polygon", "coordinates": [ [ [ 38.7849595, 9.0282937 ], [ 38.7847756, 9.0284891 ], [ 38.7857026, 9.0282428 ], [ 38.7867588, 9.0301967 ], [ 38.7884042, 9.0291921 ], [ 38.7900916, 9.0290698 ], [ 38.7918447, 9.0297488 ], [ 38.7925582, 9.0307516 ], [ 38.7943505, 9.0307929 ], [ 38.7954111, 9.0306171 ], [ 38.7968678, 9.0306899 ], [ 38.7988474, 9.0307862 ], [ 38.8003041, 9.0301796 ], [ 38.802081, 9.0289241 ], [ 38.8018192, 9.0288947 ], [ 38.80157, 9.0288663 ], [ 38.8011353, 9.0288661 ], [ 38.7992545, 9.0277266 ], [ 38.799208, 9.0254482 ], [ 38.7995709, 9.0246374 ], [ 38.8006361, 9.0234734 ], [ 38.8014876, 9.0217608 ], [ 38.8027586, 9.0219534 ], [ 38.8025061, 9.0215206 ], [ 38.8018595, 9.0192341 ], [ 38.8014734, 9.019214 ], [ 38.7992848, 9.0191203 ], [ 38.7986449, 9.01891 ], [ 38.797182, 9.0184257 ], [ 38.7967567, 9.0182941 ], [ 38.7954471, 9.0178669 ], [ 38.7947434, 9.0176284 ], [ 38.7937514, 9.0173155 ], [ 38.7925888, 9.0170411 ], [ 38.7921221, 9.0169416 ], [ 38.7917798, 9.0168777 ], [ 38.7954484, 9.0144599 ], [ 38.7956759, 9.013702 ], [ 38.7907635, 9.0166364 ], [ 38.7902737, 9.0165384 ], [ 38.7889856, 9.016248 ], [ 38.7886453, 9.0177173 ], [ 38.7878468, 9.0195093 ], [ 38.787837, 9.0208872 ], [ 38.7862093, 9.0222595 ], [ 38.7862048, 9.0223421 ], [ 38.7862275, 9.0229698 ], [ 38.7860295, 9.0246382 ], [ 38.7856655, 9.0255148 ], [ 38.7855101, 9.0259326 ], [ 38.7849595, 9.0282937 ] ] ] } },
{ "type": "Feature", "properties": { "threshold_s": 600, "time_label": "10 min drive" }, "geometry": { "type": "Polygon", "coordinates": [ [ [ 38.774781, 9.0284029 ], [ 38.777345, 9.035025 ], [ 38.7795494, 9.0368103 ], [ 38.7866579, 9.0379459 ], [ 38.7884075, 9.037232 ], [ 38.788646, 9.0371199 ], [ 38.7894697, 9.0358202 ], [ 38.7898711, 9.0353037 ], [ 38.7947311, 9.0312946 ], [ 38.7997189, 9.0335465 ], [ 38.8048161, 9.0292985 ], [ 38.808201, 9.0306966 ], [ 38.8101278, 9.0326481 ], [ 38.8103267, 9.0327174 ], [ 38.8105209, 9.0319502 ], [ 38.810141, 9.0310664 ], [ 38.809383, 9.0265432 ], [ 38.8119006, 9.0226128 ], [ 38.8136935, 9.0215161 ], [ 38.8137814, 9.0214542 ], [ 38.813926, 9.0209635 ], [ 38.8108201, 9.0148705 ], [ 38.8077063, 9.0111581 ], [ 38.8027111, 9.0071769 ], [ 38.799906900000011, 9.0060768 ], [ 38.7970275, 9.0050917 ], [ 38.7946308, 9.0046325 ], [ 38.7917389, 9.0056483 ], [ 38.7901946, 9.0062781 ], [ 38.7890131, 9.0068663 ], [ 38.7829445, 9.010364 ], [ 38.7790322, 9.0148252 ], [ 38.7800908, 9.0202484 ], [ 38.7764838, 9.0227621 ], [ 38.7754273, 9.0227795 ], [ 38.774781, 9.0284029 ] ] ] } },
{ "type": "Feature", "properties": { "threshold_s": 900, "time_label": "15 min drive" }, "geometry": { "type": "Polygon", "coordinates": [ [ [ 38.7692711, 9.0401381 ], [ 38.7693345, 9.0402439 ], [ 38.7745828, 9.0428996 ], [ 38.7811059, 9.0451188 ], [ 38.7828359, 9.0453659 ], [ 38.7834792, 9.0454452 ], [ 38.7858014, 9.0448877 ], [ 38.7864934, 9.0444374 ], [ 38.7869235, 9.0434758 ], [ 38.788646, 9.0371199 ], [ 38.7971052, 9.0385115 ], [ 38.8042312, 9.0365115 ], [ 38.8097365, 9.0345983 ], [ 38.8144658, 9.0377323 ], [ 38.8157836, 9.0387644 ], [ 38.8167852, 9.0389229 ], [ 38.8181024, 9.0384271 ], [ 38.8214511, 9.0364996 ], [ 38.8212861, 9.0354493 ], [ 38.8240372, 9.0259656 ], [ 38.8243443, 9.0245301 ], [ 38.8237634, 9.0179832 ], [ 38.822107699999989, 9.0163244 ], [ 38.8167143, 9.008314 ], [ 38.8148917, 9.0036416 ], [ 38.8137578, 9.0020839 ], [ 38.8134095, 9.0017895 ], [ 38.8105694, 9.0001755 ], [ 38.8049696, 8.9990194 ], [ 38.8004776, 8.9984045 ], [ 38.7911622, 8.9984227 ], [ 38.7862862, 8.9969378 ], [ 38.7787355, 9.0030202 ], [ 38.7747095, 9.005959 ], [ 38.7692515, 9.0104413 ], [ 38.768797, 9.0113452 ], [ 38.766175, 9.0194163 ], [ 38.7664473, 9.0226405 ], [ 38.7633917, 9.0291295 ], [ 38.7631958, 9.029803 ], [ 38.7637138, 9.0300983 ], [ 38.7672949, 9.0333336 ], [ 38.7689706, 9.0396359 ], [ 38.7692711, 9.0401381 ] ] ] } },
{ "type": "Feature", "properties": { "threshold_s": 300, "time_label": "5 min drive" }, "geometry": { "type": "Polygon", "coordinates": [ [ [ 38.7322328, 9.0679197 ], [ 38.7325013, 9.0684364 ], [ 38.7329426, 9.0684944 ], [ 38.7348768, 9.0680556 ], [ 38.7349199, 9.0680188 ], [ 38.7364934, 9.0670152 ], [ 38.7381139, 9.0668089 ], [ 38.7396665, 9.0674244 ], [ 38.7403949, 9.0675189 ], [ 38.7422124, 9.0661807 ], [ 38.7434205, 9.0655438 ], [ 38.7446514, 9.063695 ], [ 38.7445897, 9.0636327 ], [ 38.7438799, 9.0618138 ], [ 38.7443676, 9.0608851 ], [ 38.7439044, 9.0592462 ], [ 38.7438718, 9.0586511 ], [ 38.7436036, 9.0586689 ], [ 38.7421707, 9.0577633 ], [ 38.7428, 9.0562738 ], [ 38.7419509, 9.0547522 ], [ 38.741849, 9.0546897 ], [ 38.7402374, 9.054053 ], [ 38.7395797, 9.0537895 ], [ 38.7391446, 9.0540754 ], [ 38.7371003, 9.0536817 ], [ 38.7358755, 9.0531916 ], [ 38.735557, 9.0531724 ], [ 38.7345264, 9.0532829 ], [ 38.7325484, 9.0532583 ], [ 38.7318406, 9.0535663 ], [ 38.7313277, 9.0540947 ], [ 38.7302284, 9.0551549 ], [ 38.7289998, 9.0562224 ], [ 38.7284695, 9.0580844 ], [ 38.7283651, 9.0599226 ], [ 38.7282904, 9.06185 ], [ 38.7284897, 9.062452 ], [ 38.7291474, 9.0629183 ], [ 38.730207, 9.0632998 ], [ 38.7312075, 9.0652871 ], [ 38.7308706, 9.0655205 ], [ 38.7302296, 9.0659928 ], [ 38.7318847, 9.066792 ], [ 38.7322328, 9.0679197 ] ] ] } },
{ "type": "Feature", "properties": { "threshold_s": 600, "time_label": "10 min drive" }, "geometry": { "type": "Polygon", "coordinates": [ [ [ 38.7196749, 9.0666974 ], [ 38.7198517, 9.0699181 ], [ 38.7215124, 9.0716122 ], [ 38.7257969, 9.0726548 ], [ 38.7291224, 9.0709316 ], [ 38.7305483, 9.0709061 ], [ 38.732525099999989, 9.0719682 ], [ 38.7324589, 9.0764417 ], [ 38.7348948, 9.0733919 ], [ 38.7377219, 9.0759888 ], [ 38.7382369, 9.0758127 ], [ 38.7389919, 9.0740699 ], [ 38.7436485, 9.0747601 ], [ 38.7441498, 9.0752923 ], [ 38.7453353, 9.0750155 ], [ 38.7478419, 9.0712001 ], [ 38.7504163, 9.0706119 ], [ 38.7528978, 9.0679661 ], [ 38.7551117, 9.0655313 ], [ 38.7550935, 9.0655018 ], [ 38.7544176, 9.0643645 ], [ 38.7519973, 9.0609798 ], [ 38.7527865, 9.0560788 ], [ 38.7533629, 9.05423 ], [ 38.7518816, 9.0510309 ], [ 38.7516136, 9.0506008 ], [ 38.7496544, 9.0476597 ], [ 38.7486606, 9.0444969 ], [ 38.7485409, 9.0442839 ], [ 38.7474544, 9.0441901 ], [ 38.744017, 9.0442946 ], [ 38.7403545, 9.045184 ], [ 38.736129, 9.0447854 ], [ 38.7330246, 9.0449407 ], [ 38.7306895, 9.0442016 ], [ 38.7272066, 9.0467182 ], [ 38.7254709, 9.0461084 ], [ 38.7250096, 9.0457555 ], [ 38.7233144, 9.0470726 ], [ 38.7213459, 9.0513229 ], [ 38.7202065, 9.0528853 ], [ 38.7202049, 9.0529697 ], [ 38.720632, 9.0552255 ], [ 38.7189725, 9.0584989 ], [ 38.7190834, 9.0625462 ], [ 38.7189063, 9.0637102 ], [ 38.7196749, 9.0666974 ] ] ] } },
{ "type": "Feature", "properties": { "threshold_s": 900, "time_label": "15 min drive" }, "geometry": { "type": "Polygon", "coordinates": [ [ [ 38.7157707, 9.0714928 ], [ 38.7182799, 9.0763662 ], [ 38.722216, 9.0782878 ], [ 38.7279962, 9.0819581 ], [ 38.7287586, 9.0812933 ], [ 38.7324589, 9.0764417 ], [ 38.7377219, 9.0759888 ], [ 38.7382369, 9.0758127 ], [ 38.7445479, 9.0766414 ], [ 38.7465249, 9.0792228 ], [ 38.7478956, 9.0789074 ], [ 38.7559891, 9.0770476 ], [ 38.7567401, 9.0780534 ], [ 38.7569319, 9.0781488 ], [ 38.7601271, 9.0730164 ], [ 38.7624453, 9.0692829 ], [ 38.7630828, 9.0677903 ], [ 38.7635474, 9.0666278 ], [ 38.7637204, 9.0629397 ], [ 38.7626772, 9.0557355 ], [ 38.7624706, 9.0535973 ], [ 38.7620455, 9.0508657 ], [ 38.7588975, 9.043584 ], [ 38.7565413, 9.0397014 ], [ 38.7526403, 9.0356299 ], [ 38.752205, 9.0354908 ], [ 38.749852, 9.0349057 ], [ 38.7487176, 9.0350745 ], [ 38.7408499, 9.0347798 ], [ 38.7381544, 9.0343341 ], [ 38.7321411, 9.0336282 ], [ 38.7281773, 9.0340688 ], [ 38.7250376, 9.0349452 ], [ 38.7199844, 9.0393922 ], [ 38.7161489, 9.0439629 ], [ 38.716158299999989, 9.0446251 ], [ 38.7158673, 9.0528311 ], [ 38.7135317, 9.0563533 ], [ 38.7131065, 9.0568466 ], [ 38.7132052, 9.0575036 ], [ 38.7144677, 9.0620141 ], [ 38.714509, 9.0682505 ], [ 38.7146036, 9.0688953 ], [ 38.7157707, 9.0714928 ] ] ] } },
{ "type": "Feature", "properties": { "threshold_s": 300, "time_label": "5 min drive" }, "geometry": { "type": "Polygon", "coordinates": [ [ [ 38.6853172, 9.0661976 ], [ 38.6858651, 9.0677998 ], [ 38.6873973, 9.0693067 ], [ 38.6893412, 9.069898 ], [ 38.6908646, 9.0702075 ], [ 38.6926328, 9.0708429 ], [ 38.6937147, 9.0711275 ], [ 38.6949601, 9.070665 ], [ 38.6952025, 9.0702369 ], [ 38.6953996, 9.0696928 ], [ 38.6950548, 9.0687711 ], [ 38.6963716, 9.0673118 ], [ 38.6973106, 9.0674507 ], [ 38.6979246, 9.0672075 ], [ 38.6982179, 9.0657228 ], [ 38.6964191, 9.0650237 ], [ 38.6949087, 9.0637396 ], [ 38.6954913, 9.0616455 ], [ 38.6964282, 9.0617 ], [ 38.6964729, 9.059862 ], [ 38.6986917, 9.0585525 ], [ 38.6987997, 9.0584836 ], [ 38.6986326, 9.0584558 ], [ 38.696446, 9.0593073 ], [ 38.6955824, 9.0578386 ], [ 38.6960578, 9.0567023 ], [ 38.6962718, 9.0560974 ], [ 38.6951722, 9.0548378 ], [ 38.6945517, 9.0541158 ], [ 38.6942472, 9.0539026 ], [ 38.6938051, 9.0535962 ], [ 38.6928709, 9.0531059 ], [ 38.6915735, 9.0541893 ], [ 38.6905285, 9.0549828 ], [ 38.6887237, 9.0547257 ], [ 38.6881546, 9.0539566 ], [ 38.6869407, 9.0542206 ], [ 38.6858849, 9.0548353 ], [ 38.685872, 9.0564501 ], [ 38.6850129, 9.0568931 ], [ 38.6847682, 9.0584843 ], [ 38.6847206, 9.0589202 ], [ 38.684761, 9.0605151 ], [ 38.6847507, 9.0616361 ], [ 38.6847578, 9.0622835 ], [ 38.6848146, 9.0633976 ], [ 38.6847681, 9.0654203 ], [ 38.6853172, 9.0661976 ] ] ] } },
{ "type": "Feature", "properties": { "threshold_s": 600, "time_label": "10 min drive" }, "geometry": { "type": "Polygon", "coordinates": [ [ [ 38.6852767, 9.0690918 ], [ 38.6848046, 9.0744871 ], [ 38.689663, 9.0762027 ], [ 38.6938391, 9.0730859 ], [ 38.6945052, 9.0723955 ], [ 38.6946523, 9.0720662 ], [ 38.698357799999989, 9.0683166 ], [ 38.6992261, 9.0679087 ], [ 38.7001384, 9.0673675 ], [ 38.7047361, 9.0671463 ], [ 38.7051867, 9.0669423 ], [ 38.7064393, 9.0656273 ], [ 38.7057553, 9.0617894 ], [ 38.7066177, 9.0581016 ], [ 38.7078032, 9.0538893 ], [ 38.7077549, 9.0538172 ], [ 38.7064415, 9.0529447 ], [ 38.7011238, 9.0523895 ], [ 38.6999396, 9.0510697 ], [ 38.698911699999989, 9.049344 ], [ 38.697487700000011, 9.05022 ], [ 38.6936334, 9.0470007 ], [ 38.6941092, 9.0458687 ], [ 38.6955012, 9.0446396 ], [ 38.6951834, 9.0444092 ], [ 38.6950265, 9.0442973 ], [ 38.6937917, 9.0440089 ], [ 38.6926545, 9.0441374 ], [ 38.6922363, 9.0443981 ], [ 38.6911494, 9.0467124 ], [ 38.6905687, 9.0493811 ], [ 38.6872937, 9.0512525 ], [ 38.684895, 9.0518267 ], [ 38.6846724, 9.0563468 ], [ 38.6847206, 9.0589202 ], [ 38.6847507, 9.0616361 ], [ 38.6847362, 9.0650724 ], [ 38.6847681, 9.0654203 ], [ 38.6848503, 9.0662366 ], [ 38.6851587, 9.0687948 ], [ 38.6852767, 9.0690918 ] ] ] } },
{ "type": "Feature", "properties": { "threshold_s": 900, "time_label": "15 min drive" }, "geometry": { "type": "Polygon", "coordinates": [ [ [ 38.6848503, 9.0662366 ], [ 38.6848046, 9.0744871 ], [ 38.689663, 9.0762027 ], [ 38.6938391, 9.0730859 ], [ 38.6945052, 9.0723955 ], [ 38.6946523, 9.0720662 ], [ 38.6947811, 9.0717378 ], [ 38.698357799999989, 9.0683166 ], [ 38.7049681, 9.0734342 ], [ 38.7040883, 9.075675 ], [ 38.7066767, 9.0720331 ], [ 38.7064393, 9.0656273 ], [ 38.7110449, 9.061498 ], [ 38.713122, 9.0590505 ], [ 38.7135377, 9.0568903 ], [ 38.7138824, 9.055029 ], [ 38.712318, 9.0481149 ], [ 38.7121869, 9.0453989 ], [ 38.7117789, 9.0442966 ], [ 38.7093428, 9.0437774 ], [ 38.7034614, 9.0423153 ], [ 38.7017896, 9.0371099 ], [ 38.7008502, 9.0365337 ], [ 38.6992308, 9.0366195 ], [ 38.6956394, 9.0369936 ], [ 38.6898599, 9.038251 ], [ 38.684698, 9.0400531 ], [ 38.68424, 9.0404041 ], [ 38.6808517, 9.0436993 ], [ 38.6806176, 9.0455197 ], [ 38.6814183, 9.0461415 ], [ 38.6848922, 9.0525543 ], [ 38.6848619, 9.0553593 ], [ 38.684765, 9.0559001 ], [ 38.6846724, 9.0563468 ], [ 38.6847206, 9.0589202 ], [ 38.684761, 9.0605151 ], [ 38.6847507, 9.0616361 ], [ 38.6847578, 9.0622835 ], [ 38.6847362, 9.0650724 ], [ 38.6847681, 9.0654203 ], [ 38.6848503, 9.0662366 ] ] ] } },
{ "type": "Feature", "properties": { "threshold_s": 300, "time_label": "5 min drive" }, "geometry": { "type": "Polygon", "coordinates": [ [ [ 38.6934493, 9.0674275 ], [ 38.6938879, 9.0681007 ], [ 38.6957356, 9.0682504 ], [ 38.698357799999989, 9.0683166 ], [ 38.6992261, 9.0679087 ], [ 38.7001384, 9.0673675 ], [ 38.7002325, 9.0669452 ], [ 38.7020686, 9.0652843 ], [ 38.7043412, 9.0666829 ], [ 38.7047361, 9.0671463 ], [ 38.7051867, 9.0669423 ], [ 38.7064393, 9.0656273 ], [ 38.7071273, 9.0631653 ], [ 38.707658, 9.0628554 ], [ 38.7078967, 9.0623726 ], [ 38.7079938, 9.0620327 ], [ 38.7080747, 9.0616768 ], [ 38.7082397, 9.0607552 ], [ 38.7077774, 9.0606464 ], [ 38.7054858, 9.0595392 ], [ 38.7035425, 9.0579234 ], [ 38.701688, 9.0568197 ], [ 38.7005264, 9.0562931 ], [ 38.699888799999989, 9.0560736 ], [ 38.6979475, 9.0578898 ], [ 38.6972836, 9.0598782 ], [ 38.6994728, 9.061271 ], [ 38.6985998, 9.063679 ], [ 38.6969639, 9.064293 ], [ 38.6964191, 9.0650237 ], [ 38.695077, 9.0660904 ], [ 38.6934013, 9.065551 ], [ 38.6927469, 9.0655731 ], [ 38.6928904, 9.0660773 ], [ 38.6934493, 9.0674275 ] ] ] } },
{ "type": "Feature", "properties": { "threshold_s": 600, "time_label": "10 min drive" }, "geometry": { "type": "Polygon", "coordinates": [ [ [ 38.6864601, 9.070055 ], [ 38.6866401, 9.0733579 ], [ 38.6884663, 9.0751061 ], [ 38.6892316, 9.0752247 ], [ 38.6894957, 9.0748463 ], [ 38.6900282, 9.0740514 ], [ 38.6938391, 9.0730859 ], [ 38.6945052, 9.0723955 ], [ 38.6946523, 9.0720662 ], [ 38.6947811, 9.0717378 ], [ 38.6951271, 9.0706887 ], [ 38.698357799999989, 9.0683166 ], [ 38.6992261, 9.0679087 ], [ 38.7001384, 9.0673675 ], [ 38.7043412, 9.0666829 ], [ 38.7047361, 9.0671463 ], [ 38.7049681, 9.0734342 ], [ 38.7040883, 9.075675 ], [ 38.7066767, 9.0720331 ], [ 38.7051867, 9.0669423 ], [ 38.7064393, 9.0656273 ], [ 38.707658, 9.0628554 ], [ 38.7110449, 9.061498 ], [ 38.7142127, 9.0594514 ], [ 38.7135377, 9.0568903 ], [ 38.7157332, 9.0546701 ], [ 38.7157554, 9.0546448 ], [ 38.7157822, 9.0546119 ], [ 38.7160095, 9.054288 ], [ 38.7159558, 9.0542542 ], [ 38.7122067, 9.0534927 ], [ 38.7119027, 9.0522056 ], [ 38.7108839, 9.0500878 ], [ 38.7098759, 9.0496572 ], [ 38.7068188, 9.0510816 ], [ 38.7056668, 9.0514471 ], [ 38.7056962, 9.0522748 ], [ 38.7013686, 9.0529159 ], [ 38.7011238, 9.0523895 ], [ 38.7005753, 9.0501161 ], [ 38.698911699999989, 9.049344 ], [ 38.6974378, 9.0491639 ], [ 38.6962332, 9.0505908 ], [ 38.6932593, 9.0510511 ], [ 38.692572, 9.0518929 ], [ 38.692115, 9.0527345 ], [ 38.691803299999989, 9.0533427 ], [ 38.6881036, 9.0557874 ], [ 38.6869192, 9.0588453 ], [ 38.6863645, 9.0617318 ], [ 38.6859844, 9.0657272 ], [ 38.6864601, 9.070055 ] ] ] } },
{ "type": "Feature", "properties": { "threshold_s": 900, "time_label": "15 min drive" }, "geometry": { "type": "Polygon", "coordinates": [ [ [ 38.6851587, 9.0687948 ], [ 38.6848046, 9.0744871 ], [ 38.689663, 9.0762027 ], [ 38.6938391, 9.0730859 ], [ 38.6945052, 9.0723955 ], [ 38.6946523, 9.0720662 ], [ 38.6947811, 9.0717378 ], [ 38.698357799999989, 9.0683166 ], [ 38.6992261, 9.0679087 ], [ 38.7001384, 9.0673675 ], [ 38.7047361, 9.0671463 ], [ 38.7049681, 9.0734342 ], [ 38.7040883, 9.075675 ], [ 38.7066767, 9.0720331 ], [ 38.7051867, 9.0669423 ], [ 38.7064393, 9.0656273 ], [ 38.707658, 9.0628554 ], [ 38.7110449, 9.061498 ], [ 38.7147419, 9.0627772 ], [ 38.7154944, 9.0661054 ], [ 38.714509, 9.0682505 ], [ 38.7146036, 9.0688953 ], [ 38.7151902, 9.0700342 ], [ 38.715507, 9.070681 ], [ 38.7157707, 9.0714928 ], [ 38.7160362, 9.0719192 ], [ 38.7166478, 9.0718531 ], [ 38.7186165, 9.0711339 ], [ 38.7197901, 9.0703112 ], [ 38.7199586, 9.0680694 ], [ 38.7197779, 9.0667521 ], [ 38.7189063, 9.0637102 ], [ 38.7206783, 9.058177 ], [ 38.7229759, 9.0544204 ], [ 38.723872299999989, 9.0504942 ], [ 38.7226291, 9.0484301 ], [ 38.7212618, 9.0485374 ], [ 38.7205437, 9.048989 ], [ 38.7170796, 9.0492473 ], [ 38.714793, 9.0457469 ], [ 38.7147702, 9.0456575 ], [ 38.7146017, 9.0452434 ], [ 38.7127297, 9.0400464 ], [ 38.7098232, 9.0402577 ], [ 38.7085939, 9.0409598 ], [ 38.7073345, 9.0424437 ], [ 38.70414, 9.0449443 ], [ 38.6997056, 9.0448939 ], [ 38.6966313, 9.0426304 ], [ 38.6918912, 9.0441741 ], [ 38.6877993, 9.0473163 ], [ 38.684895, 9.0518267 ], [ 38.6846724, 9.0563468 ], [ 38.6847206, 9.0589202 ], [ 38.6847507, 9.0616361 ], [ 38.6847362, 9.0650724 ], [ 38.6847681, 9.0654203 ], [ 38.6848503, 9.0662366 ], [ 38.6851587, 9.0687948 ] ] ] } },
{ "type": "Feature", "properties": { "threshold_s": 300, "time_label": "5 min drive" }, "geometry": { "type": "Polygon", "coordinates": [ [ [ 38.7399448, 9.040324 ], [ 38.7399562, 9.0406862 ], [ 38.7413221, 9.040716 ], [ 38.743777, 9.0414001 ], [ 38.7438561, 9.041361 ], [ 38.7457761, 9.0389735 ], [ 38.748194, 9.0381923 ], [ 38.7490513, 9.0377356 ], [ 38.7499883, 9.0367735 ], [ 38.7526189, 9.0360384 ], [ 38.7526403, 9.0356299 ], [ 38.752205, 9.0354908 ], [ 38.7527272, 9.0324999 ], [ 38.7529134, 9.0324932 ], [ 38.7540847, 9.0327214 ], [ 38.7543443, 9.0327333 ], [ 38.7541779, 9.0325832 ], [ 38.7533217, 9.0320304 ], [ 38.7542995, 9.0292944 ], [ 38.7519917, 9.0274854 ], [ 38.7516244, 9.0268449 ], [ 38.7514392, 9.0270313 ], [ 38.7493904, 9.0279921 ], [ 38.7475835, 9.0271264 ], [ 38.7472759, 9.0267435 ], [ 38.7446363, 9.0266686 ], [ 38.7422454, 9.0269872 ], [ 38.7415548, 9.0262879 ], [ 38.7414669, 9.0261991 ], [ 38.7408818, 9.026716 ], [ 38.7408274, 9.0267846 ], [ 38.7404256, 9.0274322 ], [ 38.7388286, 9.0297935 ], [ 38.7383887, 9.0303941 ], [ 38.7384931, 9.0315053 ], [ 38.7387485, 9.0325818 ], [ 38.7366399, 9.0346148 ], [ 38.7350242, 9.0343964 ], [ 38.7370819, 9.0363699 ], [ 38.7378842, 9.0374214 ], [ 38.7399621, 9.0381132 ], [ 38.7399448, 9.040324 ] ] ] } },
{ "type": "Feature", "properties": { "threshold_s": 600, "time_label": "10 min drive" }, "geometry": { "type": "Polygon", "coordinates": [ [ [ 38.7297705, 9.0436907 ], [ 38.7318606, 9.0469547 ], [ 38.7338927, 9.0488748 ], [ 38.735841, 9.0491314 ], [ 38.7401003, 9.0493725 ], [ 38.7411208, 9.0500081 ], [ 38.7427175, 9.0501644 ], [ 38.7473445, 9.0493374 ], [ 38.7492131, 9.048846 ], [ 38.7519653, 9.0479608 ], [ 38.7556493, 9.0456004 ], [ 38.7570809, 9.04219 ], [ 38.7565413, 9.0397014 ], [ 38.7586829, 9.0362997 ], [ 38.7620102, 9.0334911 ], [ 38.7634174, 9.031659 ], [ 38.7636394, 9.0308323 ], [ 38.7637138, 9.0300983 ], [ 38.7636532, 9.0296992 ], [ 38.7624111, 9.0266163 ], [ 38.76061330000001, 9.0273217 ], [ 38.7576048, 9.024946 ], [ 38.7575279, 9.0235574 ], [ 38.7562849, 9.0198801 ], [ 38.7562676, 9.0198411 ], [ 38.7548211, 9.0173518 ], [ 38.7526934, 9.0162866 ], [ 38.7514878, 9.0159781 ], [ 38.7507568, 9.0169852 ], [ 38.746012, 9.0163151 ], [ 38.7427584, 9.0162719 ], [ 38.7387877, 9.0168914 ], [ 38.7381812, 9.0170798 ], [ 38.7346511, 9.0189003 ], [ 38.7326105, 9.0193875 ], [ 38.732933, 9.0204298 ], [ 38.7319531, 9.0247548 ], [ 38.7312259, 9.0253617 ], [ 38.7301689, 9.0260456 ], [ 38.7285072, 9.0272322 ], [ 38.7279777, 9.0278929 ], [ 38.7274235, 9.0285839 ], [ 38.7264565, 9.0306668 ], [ 38.7240786, 9.0347561 ], [ 38.7265248, 9.0373437 ], [ 38.7275301, 9.039367 ], [ 38.7294442, 9.0424277 ], [ 38.7297705, 9.0436907 ] ] ] } },
{ "type": "Feature", "properties": { "threshold_s": 900, "time_label": "15 min drive" }, "geometry": { "type": "Polygon", "coordinates": [ [ [ 38.7247542, 9.0543109 ], [ 38.7249244, 9.0551343 ], [ 38.7270019, 9.0565835 ], [ 38.733105, 9.0579814 ], [ 38.7399752, 9.0587551 ], [ 38.7439161, 9.05981 ], [ 38.7484489, 9.0588421 ], [ 38.7539978, 9.0561037 ], [ 38.7569102, 9.0555767 ], [ 38.7612673, 9.0537576 ], [ 38.7616979, 9.0529527 ], [ 38.7619097, 9.0490886 ], [ 38.7647924, 9.0457577 ], [ 38.7652703, 9.0454849 ], [ 38.7678988, 9.0418997 ], [ 38.7690862, 9.0396591 ], [ 38.7717547, 9.0348206 ], [ 38.772458, 9.0321153 ], [ 38.7724758, 9.0319876 ], [ 38.7696348, 9.0316607 ], [ 38.7654192, 9.0307943 ], [ 38.7625209, 9.0267749 ], [ 38.7645123, 9.0221623 ], [ 38.7666902, 9.0194705 ], [ 38.7649382, 9.0162277 ], [ 38.7629096, 9.0108249 ], [ 38.7587462, 9.0073761 ], [ 38.7544001, 9.0055835 ], [ 38.7526578, 9.0074973 ], [ 38.7465009, 9.0067847 ], [ 38.7451953, 9.0051276 ], [ 38.7450837, 9.0051057 ], [ 38.7421776, 9.0048644 ], [ 38.7420561, 9.0049155 ], [ 38.7356838, 9.007897 ], [ 38.7352931, 9.0078239 ], [ 38.7351604, 9.0079034 ], [ 38.7341747, 9.0089551 ], [ 38.7338199, 9.0093084 ], [ 38.7285514, 9.0122122 ], [ 38.7270118, 9.0118618 ], [ 38.7264951, 9.0122563 ], [ 38.7247722, 9.0152427 ], [ 38.7210533, 9.0210667 ], [ 38.7191261, 9.0231952 ], [ 38.7185573, 9.0239564 ], [ 38.7177693, 9.0251704 ], [ 38.7169578, 9.0300459 ], [ 38.7158411, 9.0367357 ], [ 38.7152268, 9.0376028 ], [ 38.7156888, 9.0386345 ], [ 38.7173233, 9.0421761 ], [ 38.7191851, 9.0449694 ], [ 38.7212618, 9.0485374 ], [ 38.7247542, 9.0543109 ] ] ] } },
{ "type": "Feature", "properties": { "threshold_s": 300, "time_label": "5 min drive" }, "geometry": { "type": "Polygon", "coordinates": [ [ [ 38.7323964, 9.0329355 ], [ 38.7328184, 9.0339688 ], [ 38.7341184, 9.0347785 ], [ 38.7345023, 9.0349672 ], [ 38.7366399, 9.0346148 ], [ 38.7377366, 9.0355394 ], [ 38.7385896, 9.035751 ], [ 38.7403128, 9.0359261 ], [ 38.7403574, 9.0358883 ], [ 38.7424704, 9.0363845 ], [ 38.7424476, 9.0374529 ], [ 38.7446185, 9.0368082 ], [ 38.7428422, 9.0353794 ], [ 38.7439918, 9.0343989 ], [ 38.745832, 9.0344079 ], [ 38.7461888, 9.0344437 ], [ 38.7466615, 9.0344848 ], [ 38.7474608, 9.0322284 ], [ 38.7476809, 9.032044 ], [ 38.74741, 9.0306647 ], [ 38.7472081, 9.0293312 ], [ 38.7480031, 9.0281187 ], [ 38.7483515, 9.0274422 ], [ 38.7477466, 9.0260289 ], [ 38.747689, 9.0250316 ], [ 38.7463107, 9.0236352 ], [ 38.7462137, 9.0235673 ], [ 38.744300699999989, 9.0223826 ], [ 38.7444281, 9.0216667 ], [ 38.7444643, 9.0213137 ], [ 38.7444817, 9.0211057 ], [ 38.7436919, 9.021312 ], [ 38.7415722, 9.0208654 ], [ 38.7410156, 9.0203514 ], [ 38.7409647, 9.0205077 ], [ 38.7409479, 9.0205726 ], [ 38.7402489, 9.0220986 ], [ 38.7383985, 9.0217793 ], [ 38.7389694, 9.0228345 ], [ 38.7376964, 9.024566 ], [ 38.7360555, 9.0233601 ], [ 38.735892, 9.0230719 ], [ 38.7353951, 9.0222044 ], [ 38.7349658, 9.0222472 ], [ 38.7342042, 9.023068 ], [ 38.7335966, 9.0242952 ], [ 38.732361, 9.0263653 ], [ 38.7316273, 9.0269667 ], [ 38.730594, 9.0275317 ], [ 38.7298293, 9.0286235 ], [ 38.7305841, 9.029825 ], [ 38.7308474, 9.0312832 ], [ 38.7312039, 9.032052 ], [ 38.7323964, 9.0329355 ] ] ] } },
{ "type": "Feature", "properties": { "threshold_s": 600, "time_label": "10 min drive" }, "geometry": { "type": "Polygon", "coordinates": [ [ [ 38.726096, 9.0398349 ], [ 38.727266, 9.0414365 ], [ 38.7301347, 9.0436058 ], [ 38.7308733, 9.0439125 ], [ 38.7330246, 9.0449407 ], [ 38.735383, 9.0468779 ], [ 38.7356083, 9.0468011 ], [ 38.739417, 9.0465899 ], [ 38.7397607, 9.0466531 ], [ 38.7411967, 9.0460409 ], [ 38.7446032, 9.0460594 ], [ 38.7468321, 9.0460111 ], [ 38.7473114, 9.0458147 ], [ 38.7479803, 9.0455204 ], [ 38.7485637, 9.0452148 ], [ 38.7486606, 9.0444969 ], [ 38.751545, 9.04216 ], [ 38.7536837, 9.0411308 ], [ 38.7556919, 9.0394787 ], [ 38.7555497, 9.0379841 ], [ 38.7550527, 9.0350946 ], [ 38.7558521, 9.0318884 ], [ 38.7568262, 9.030107 ], [ 38.7582228, 9.0285769 ], [ 38.7581126, 9.0269965 ], [ 38.7576048, 9.024946 ], [ 38.7567715, 9.0239365 ], [ 38.755685, 9.0209076 ], [ 38.7547988, 9.0187984 ], [ 38.7540046, 9.0176558 ], [ 38.7526404, 9.0171476 ], [ 38.7518654, 9.0166783 ], [ 38.7498254, 9.0140209 ], [ 38.748495, 9.0131042 ], [ 38.7473376, 9.0123175 ], [ 38.7445255, 9.010739 ], [ 38.7440647, 9.0101702 ], [ 38.7441169, 9.0104975 ], [ 38.7429415, 9.0127486 ], [ 38.7407528, 9.0125592 ], [ 38.7403619, 9.0125466 ], [ 38.7374698, 9.0110916 ], [ 38.7374108, 9.0110446 ], [ 38.7373792, 9.0111042 ], [ 38.7363091, 9.0129335 ], [ 38.7344268, 9.0137251 ], [ 38.7330361, 9.0140917 ], [ 38.7314063, 9.0144722 ], [ 38.7286815, 9.0130056 ], [ 38.7275192, 9.0146994 ], [ 38.7266323, 9.0168388 ], [ 38.7255172, 9.019411 ], [ 38.723970199999989, 9.0211223 ], [ 38.7231347, 9.0217607 ], [ 38.7210158, 9.022924 ], [ 38.7208481, 9.0231084 ], [ 38.7203815, 9.0244886 ], [ 38.7202459, 9.0250154 ], [ 38.7200756, 9.0271793 ], [ 38.7199633, 9.0291598 ], [ 38.7200108, 9.0318025 ], [ 38.7211489, 9.0326361 ], [ 38.7223555, 9.0361142 ], [ 38.7250616, 9.0383272 ], [ 38.7252774, 9.0386562 ], [ 38.726096, 9.0398349 ] ] ] } },
{ "type": "Feature", "properties": { "threshold_s": 900, "time_label": "15 min drive" }, "geometry": { "type": "Polygon", "coordinates": [ [ [ 38.7191925, 9.04707 ], [ 38.7203166, 9.0491233 ], [ 38.7235954, 9.0507595 ], [ 38.7268682, 9.0536379 ], [ 38.7300074, 9.0553602 ], [ 38.7319874, 9.0553044 ], [ 38.7351906, 9.0553483 ], [ 38.7373622, 9.0555475 ], [ 38.7407419, 9.0553647 ], [ 38.7436159, 9.0553227 ], [ 38.7461992, 9.0548863 ], [ 38.7495685, 9.0545069 ], [ 38.7537123, 9.0544042 ], [ 38.756331, 9.0509065 ], [ 38.7579202, 9.0499171 ], [ 38.7580652, 9.0488412 ], [ 38.7568986, 9.0481555 ], [ 38.7562092, 9.047044 ], [ 38.7573255, 9.0439475 ], [ 38.7600057, 9.0440359 ], [ 38.7611534, 9.0441026 ], [ 38.7613074, 9.0440921 ], [ 38.7614694, 9.0439155 ], [ 38.7614471, 9.0437227 ], [ 38.7609062, 9.0407658 ], [ 38.7625107, 9.0387169 ], [ 38.763485, 9.0378991 ], [ 38.7634966, 9.0378188 ], [ 38.7632315, 9.0343164 ], [ 38.7654192, 9.0307943 ], [ 38.7633917, 9.0291295 ], [ 38.7625209, 9.0267749 ], [ 38.7616201, 9.0233396 ], [ 38.7605536, 9.0224021 ], [ 38.76068, 9.0184747 ], [ 38.7636571, 9.0176742 ], [ 38.7645019, 9.0170063 ], [ 38.7636993, 9.017064 ], [ 38.7631065, 9.0171496 ], [ 38.7629355, 9.0171841 ], [ 38.7623398, 9.017288 ], [ 38.7587022, 9.0179263 ], [ 38.7566767, 9.0148583 ], [ 38.7586435, 9.0127141 ], [ 38.7593389, 9.0118938 ], [ 38.7601319, 9.011234 ], [ 38.7588742, 9.0086394 ], [ 38.7550777, 9.0071838 ], [ 38.7543417, 9.0064809 ], [ 38.7500717, 9.0048308 ], [ 38.7470486, 9.0019362 ], [ 38.7457383, 8.9999466 ], [ 38.7456058, 8.9999417 ], [ 38.743207, 9.0023614 ], [ 38.7399916, 9.0004632 ], [ 38.7399871, 9.0004525 ], [ 38.739811, 9.0001027 ], [ 38.7397509, 8.9999673 ], [ 38.739574, 9.0020448 ], [ 38.7359355, 9.0037336 ], [ 38.7325948, 9.0017547 ], [ 38.732501, 9.001813 ], [ 38.730182, 9.0046135 ], [ 38.7287512, 9.0066265 ], [ 38.7287807, 9.0080888 ], [ 38.7286855, 9.0089895 ], [ 38.7270118, 9.0118618 ], [ 38.7225071, 9.0114307 ], [ 38.7206414, 9.0105108 ], [ 38.7191591, 9.0121974 ], [ 38.7191807, 9.0122896 ], [ 38.7188622, 9.016363 ], [ 38.7172717, 9.0182925 ], [ 38.7171452, 9.0185363 ], [ 38.716879, 9.0190493 ], [ 38.7160489, 9.0210002 ], [ 38.7156287, 9.0220832 ], [ 38.7153381, 9.0230401 ], [ 38.7152763, 9.0236018 ], [ 38.7152353, 9.0242892 ], [ 38.7152166, 9.0245608 ], [ 38.715158, 9.0253611 ], [ 38.7151311, 9.0261072 ], [ 38.7150762, 9.0272182 ], [ 38.7150309, 9.0279479 ], [ 38.7131247, 9.0322438 ], [ 38.7130251, 9.0325118 ], [ 38.7128796, 9.0329324 ], [ 38.7124322, 9.034344 ], [ 38.7138967, 9.0380452 ], [ 38.714797, 9.0400876 ], [ 38.7153013, 9.0410981 ], [ 38.716158299999989, 9.0446251 ], [ 38.7191925, 9.04707 ] ] ] } },
{ "type": "Feature", "properties": { "threshold_s": 300, "time_label": "5 min drive" }, "geometry": { "type": "Polygon", "coordinates": [ [ [ 38.8194273, 9.0176486 ], [ 38.8199606, 9.0189684 ], [ 38.8228887, 9.0194977 ], [ 38.8251564, 9.01968 ], [ 38.826303, 9.0218102 ], [ 38.8263137, 9.0225126 ], [ 38.8264118, 9.0231496 ], [ 38.8265137, 9.0234793 ], [ 38.8268289, 9.0218945 ], [ 38.8265759, 9.0200041 ], [ 38.827891, 9.0176995 ], [ 38.8292756, 9.0182121 ], [ 38.8299657, 9.0172269 ], [ 38.8318777, 9.0154561 ], [ 38.8321608, 9.0151984 ], [ 38.8322389, 9.0134539 ], [ 38.8320995, 9.011677 ], [ 38.8314168, 9.0094266 ], [ 38.8308042, 9.0073006 ], [ 38.8304128, 9.0058999 ], [ 38.8301631, 9.0050556 ], [ 38.827365, 9.0040439 ], [ 38.8253637, 9.0037138 ], [ 38.8236431, 9.0045589 ], [ 38.822076, 9.0057826 ], [ 38.8213968, 9.0070747 ], [ 38.8205452, 9.0095604 ], [ 38.8193872, 9.0104136 ], [ 38.8198282, 9.0115553 ], [ 38.8186794, 9.0137801 ], [ 38.8175437, 9.0163151 ], [ 38.8194273, 9.0176486 ] ] ] } },
{ "type": "Feature", "properties": { "threshold_s": 600, "time_label": "10 min drive" }, "geometry": { "type": "Polygon", "coordinates": [ [ [ 38.8135538, 9.0232472 ], [ 38.8137871, 9.0235202 ], [ 38.8168929, 9.0242509 ], [ 38.8187987, 9.0256022 ], [ 38.8193408, 9.0259309 ], [ 38.8201207, 9.0263461 ], [ 38.8228669, 9.0278268 ], [ 38.8249282, 9.0291742 ], [ 38.8269597, 9.0306289 ], [ 38.8291359, 9.0315013 ], [ 38.8298739, 9.0316458 ], [ 38.83234, 9.030435 ], [ 38.8344597, 9.0293538 ], [ 38.8347538, 9.0284478 ], [ 38.8340186, 9.0270336 ], [ 38.8353941, 9.0233442 ], [ 38.8392593, 9.0214433 ], [ 38.8408486, 9.021363 ], [ 38.8405569, 9.017096 ], [ 38.841055, 9.0162992 ], [ 38.8418507, 9.0153651 ], [ 38.8427934, 9.0123367 ], [ 38.8441724, 9.0106055 ], [ 38.8441673, 9.0105137 ], [ 38.8424648, 9.0086399 ], [ 38.8417219, 9.0079153 ], [ 38.8386856, 9.0051973 ], [ 38.835301, 9.0032933 ], [ 38.8349131, 9.0008394 ], [ 38.8332387, 8.9997931 ], [ 38.8312817, 8.9977512 ], [ 38.8304788, 8.9967932 ], [ 38.8279827, 8.995279 ], [ 38.825929, 8.9948165 ], [ 38.8236478, 8.9950741 ], [ 38.8200536, 8.995641 ], [ 38.8188793, 8.9961121 ], [ 38.8193013, 8.9977327 ], [ 38.8171664, 9.0016092 ], [ 38.8137598, 9.0020084 ], [ 38.812179, 9.0038137 ], [ 38.8121405, 9.0038958 ], [ 38.8102325, 9.0073943 ], [ 38.8080794, 9.0104469 ], [ 38.80839, 9.0144276 ], [ 38.809157, 9.014593 ], [ 38.8103853, 9.0150813 ], [ 38.811495, 9.0158517 ], [ 38.811567599999989, 9.0200756 ], [ 38.8135538, 9.0232472 ] ] ] } },
{ "type": "Feature", "properties": { "threshold_s": 900, "time_label": "15 min drive" }, "geometry": { "type": "Polygon", "coordinates": [ [ [ 38.8012768, 9.0197874 ], [ 38.8033248, 9.0230951 ], [ 38.8045232, 9.0243492 ], [ 38.8055473, 9.0248504 ], [ 38.8071703, 9.0253631 ], [ 38.8092436, 9.0249536 ], [ 38.8144722, 9.0294405 ], [ 38.8148688, 9.0299234 ], [ 38.815954, 9.0315147 ], [ 38.8177432, 9.0342808 ], [ 38.8191119, 9.0357024 ], [ 38.8209174, 9.0362103 ], [ 38.828245, 9.0375128 ], [ 38.8284426, 9.0383259 ], [ 38.8295336, 9.0405085 ], [ 38.830456, 9.0411756 ], [ 38.8311864, 9.0412218 ], [ 38.8325299, 9.0404763 ], [ 38.8375676, 9.0372689 ], [ 38.8400239, 9.0358904 ], [ 38.8453727, 9.033456 ], [ 38.8466613, 9.0262802 ], [ 38.846637, 9.0239986 ], [ 38.8517316, 9.0205898 ], [ 38.8519286, 9.020363 ], [ 38.8515688, 9.0167343 ], [ 38.8537623, 9.0119238 ], [ 38.8545463, 9.0110878 ], [ 38.855057, 9.010531 ], [ 38.8557698, 9.0097522 ], [ 38.8520682, 9.0056456 ], [ 38.8503072, 9.0039494 ], [ 38.8497481, 9.0034047 ], [ 38.84888680000001, 9.0026292 ], [ 38.8427215, 8.9988356 ], [ 38.8386949, 8.9968581 ], [ 38.8348438, 8.9917416 ], [ 38.8352429, 8.9890778 ], [ 38.8348866, 8.987573 ], [ 38.8348569, 8.9875182 ], [ 38.8324275, 8.9859891 ], [ 38.8314886, 8.9857273 ], [ 38.828459, 8.9867431 ], [ 38.8235769, 8.9858801 ], [ 38.8175784, 8.9874966 ], [ 38.8127899, 8.9893411 ], [ 38.8113646, 8.9901127 ], [ 38.8101482, 8.9919129 ], [ 38.8088812, 8.993766 ], [ 38.8043088, 8.9993655 ], [ 38.8025653, 9.0029326 ], [ 38.801182, 9.0096667 ], [ 38.8008659, 9.0103917 ], [ 38.8023704, 9.017401 ], [ 38.801438, 9.0192316 ], [ 38.8012379, 9.0196774 ], [ 38.8012768, 9.0197874 ] ] ] } },
{ "type": "Feature", "properties": { "threshold_s": 300, "time_label": "5 min drive" }, "geometry": { "type": "Polygon", "coordinates": [ [ [ 38.7781307, 8.9965431 ], [ 38.7782501, 8.9988141 ], [ 38.7794474, 8.9988227 ], [ 38.7822788, 8.9989671 ], [ 38.7831283, 8.9981565 ], [ 38.7842488, 8.9969213 ], [ 38.7845103, 8.9958517 ], [ 38.7860621, 8.9936699 ], [ 38.7872777, 8.9926361 ], [ 38.788291, 8.9915527 ], [ 38.7893008, 8.9887511 ], [ 38.7900922, 8.9876942 ], [ 38.7888132, 8.9859297 ], [ 38.7879749, 8.9856538 ], [ 38.7855757, 8.9849273 ], [ 38.7842988, 8.9845215 ], [ 38.7829895, 8.9840922 ], [ 38.7824454, 8.9839019 ], [ 38.781234, 8.9834683 ], [ 38.7784405, 8.9816191 ], [ 38.7754878, 8.9822921 ], [ 38.7753103, 8.982628 ], [ 38.7745166, 8.984983 ], [ 38.775293, 8.9867802 ], [ 38.7750361, 8.9888151 ], [ 38.7734067, 8.9914327 ], [ 38.7734496, 8.993719 ], [ 38.7745337, 8.9941602 ], [ 38.7746638, 8.9941942 ], [ 38.7770092, 8.9949946 ], [ 38.7781307, 8.9965431 ] ] ] } },
{ "type": "Feature", "properties": { "threshold_s": 600, "time_label": "10 min drive" }, "geometry": { "type": "Polygon", "coordinates": [ [ [ 38.7658497, 8.9998495 ], [ 38.7665433, 9.0010165 ], [ 38.7672642, 9.0017771 ], [ 38.769043, 9.0027762 ], [ 38.7757529, 9.0073272 ], [ 38.7763593, 9.0077319 ], [ 38.780713, 9.0097015 ], [ 38.7808196, 9.0096836 ], [ 38.7825194, 9.0091421 ], [ 38.7894034, 9.0046542 ], [ 38.7941482, 8.9979968 ], [ 38.7946719, 8.9978068 ], [ 38.7951352, 8.9973643 ], [ 38.797957, 8.9920335 ], [ 38.7976136, 8.9913002 ], [ 38.7962973, 8.9896849 ], [ 38.7899075, 8.9859732 ], [ 38.7880106, 8.9854871 ], [ 38.7855757, 8.9849273 ], [ 38.7842988, 8.9845215 ], [ 38.7787516, 8.9794447 ], [ 38.7777914, 8.9763594 ], [ 38.7755072, 8.9716351 ], [ 38.7752672, 8.9716781 ], [ 38.774991, 8.9719637 ], [ 38.7710859, 8.9752898 ], [ 38.766807300000011, 8.9766861 ], [ 38.7664319, 8.9778719 ], [ 38.7652811, 8.9832833 ], [ 38.7650845, 8.9880264 ], [ 38.7646631, 8.9960887 ], [ 38.7649383, 8.997765 ], [ 38.7658497, 8.9998495 ] ] ] } },
{ "type": "Feature", "properties": { "threshold_s": 900, "time_label": "15 min drive" }, "geometry": { "type": "Polygon", "coordinates": [ [ [ 38.7596811, 9.0077021 ], [ 38.762877, 9.0129834 ], [ 38.7700742, 9.0161859 ], [ 38.7720021, 9.0165267 ], [ 38.7727337, 9.0165182 ], [ 38.7741335, 9.0152535 ], [ 38.7815692, 9.0184746 ], [ 38.7821863, 9.0204951 ], [ 38.7822623, 9.0205134 ], [ 38.7823931, 9.0205435 ], [ 38.7875552, 9.0160411 ], [ 38.7899191, 9.0137655 ], [ 38.7950341, 9.0117579 ], [ 38.7953645, 9.0109659 ], [ 38.7962659, 9.0091786 ], [ 38.8012192, 9.004282 ], [ 38.8016061, 9.0039712 ], [ 38.8024677, 9.0009613 ], [ 38.8038209, 8.9942184 ], [ 38.8052069, 8.9919328 ], [ 38.8062731, 8.9893109 ], [ 38.8035562, 8.9852867 ], [ 38.8021619, 8.9853275 ], [ 38.7996331, 8.9854045 ], [ 38.7971379, 8.9861223 ], [ 38.7899075, 8.9859732 ], [ 38.7880106, 8.9854871 ], [ 38.7855757, 8.9849273 ], [ 38.7842988, 8.9845215 ], [ 38.7787516, 8.9794447 ], [ 38.7777914, 8.9763594 ], [ 38.7773623, 8.9752898 ], [ 38.7804589, 8.9680504 ], [ 38.7828796, 8.9680649 ], [ 38.7828581, 8.9679775 ], [ 38.7775834, 8.9635925 ], [ 38.7726275, 8.964449 ], [ 38.7660424, 8.9663201 ], [ 38.7647743, 8.9676345 ], [ 38.7609422, 8.9727954 ], [ 38.7607317, 8.9735508 ], [ 38.7606675, 8.9737722 ], [ 38.7605834, 8.9740789 ], [ 38.7604122, 8.974693 ], [ 38.7602367, 8.9753929 ], [ 38.759932, 8.9764989 ], [ 38.7553965, 8.9820855 ], [ 38.7564533, 8.9874301 ], [ 38.7558825, 8.9942136 ], [ 38.7555328, 8.9966276 ], [ 38.7588645, 9.0036389 ], [ 38.7588747, 9.0040341 ], [ 38.7590709, 9.0058808 ], [ 38.7596811, 9.0077021 ] ] ] } },
{ "type": "Feature", "properties": { "threshold_s": 300, "time_label": "5 min drive" }, "geometry": { "type": "Polygon", "coordinates": [ [ [ 38.7747833, 9.0070232 ], [ 38.7751776, 9.0098829 ], [ 38.7759849, 9.0099015 ], [ 38.7778035, 9.0124771 ], [ 38.7793668, 9.0132882 ], [ 38.782059, 9.014438 ], [ 38.7832979, 9.0148016 ], [ 38.7834846, 9.01484 ], [ 38.7845609, 9.0137358 ], [ 38.7852602, 9.0117982 ], [ 38.7864448, 9.0109446 ], [ 38.7882279, 9.0102038 ], [ 38.7896763, 9.0092286 ], [ 38.7903686, 9.0080762 ], [ 38.7901946, 9.0062781 ], [ 38.7892042, 9.0040436 ], [ 38.7882698, 9.0017096 ], [ 38.78788440000001, 9.0005935 ], [ 38.7860298, 8.998377 ], [ 38.7831216, 8.9974816 ], [ 38.7806037, 8.9964146 ], [ 38.7786997, 8.9959215 ], [ 38.7785756, 8.9959215 ], [ 38.7781307, 8.9965431 ], [ 38.777362, 8.9984848 ], [ 38.7779966, 8.9994625 ], [ 38.7795597, 9.0006527 ], [ 38.7787355, 9.0030202 ], [ 38.7768754, 9.0031859 ], [ 38.7753379, 9.0044741 ], [ 38.773414, 9.0061278 ], [ 38.773443, 9.0062162 ], [ 38.7735448, 9.0064593 ], [ 38.7747833, 9.0070232 ] ] ] } },
{ "type": "Feature", "properties": { "threshold_s": 600, "time_label": "10 min drive" }, "geometry": { "type": "Polygon", "coordinates": [ [ [ 38.7674265, 9.0166327 ], [ 38.7683945, 9.0192425 ], [ 38.7713573, 9.0204686 ], [ 38.7745247, 9.0195546 ], [ 38.7778352, 9.0234959 ], [ 38.7806417, 9.0258586 ], [ 38.7818747, 9.0258742 ], [ 38.7848897, 9.0225805 ], [ 38.7862048, 9.0223421 ], [ 38.7876736, 9.021887 ], [ 38.7909671, 9.0208857 ], [ 38.7912801, 9.0205633 ], [ 38.7942433, 9.0173075 ], [ 38.7952426, 9.0151258 ], [ 38.7979855, 9.0132711 ], [ 38.7993051, 9.0096285 ], [ 38.8006423, 9.0056999 ], [ 38.8007464, 9.0019057 ], [ 38.7993438, 9.0015425 ], [ 38.7977966, 9.0017538 ], [ 38.7965052, 8.9969379 ], [ 38.7956395, 8.9945489 ], [ 38.7932496, 8.9902193 ], [ 38.7931797, 8.9901665 ], [ 38.7913071, 8.9904803 ], [ 38.7876549, 8.9893973 ], [ 38.7838559, 8.9877536 ], [ 38.7790112, 8.986333 ], [ 38.7760235, 8.9862013 ], [ 38.7755492, 8.9871715 ], [ 38.7750361, 8.9888151 ], [ 38.7725376, 8.9931435 ], [ 38.7719314, 8.9937078 ], [ 38.7699596, 8.9968619 ], [ 38.7663914, 9.0000105 ], [ 38.7663276, 9.0000911 ], [ 38.7657356, 9.0008423 ], [ 38.7657918, 9.0013837 ], [ 38.7663704, 9.0019672 ], [ 38.7663964, 9.0070441 ], [ 38.7661556, 9.0073141 ], [ 38.7658891, 9.0123181 ], [ 38.7674265, 9.0166327 ] ] ] } },
{ "type": "Feature", "properties": { "threshold_s": 900, "time_label": "15 min drive" }, "geometry": { "type": "Polygon", "coordinates": [ [ [ 38.7555162, 9.0160017 ], [ 38.760309, 9.0221661 ], [ 38.7645123, 9.0221623 ], [ 38.7664952, 9.0274613 ], [ 38.7724072, 9.0321943 ], [ 38.7734187, 9.0325067 ], [ 38.7735107, 9.0325106 ], [ 38.7762109, 9.0324478 ], [ 38.7806555, 9.0328219 ], [ 38.7847393, 9.0337449 ], [ 38.7905778, 9.0297413 ], [ 38.7977484, 9.028048 ], [ 38.7978297, 9.0280291 ], [ 38.7982342, 9.0272258 ], [ 38.8010437, 9.0214108 ], [ 38.8045576, 9.0198433 ], [ 38.804643, 9.0191079 ], [ 38.8045262, 9.0183018 ], [ 38.8042417, 9.0123665 ], [ 38.8075481, 9.0093358 ], [ 38.8079575, 9.0091341 ], [ 38.809308, 9.0019691 ], [ 38.8094676, 8.9959788 ], [ 38.8090572, 8.99479 ], [ 38.8083397, 8.9941443 ], [ 38.8068346, 8.9939528 ], [ 38.8057198, 8.9938876 ], [ 38.8050085, 8.9938124 ], [ 38.8045138, 8.9937707 ], [ 38.8040663, 8.9937184 ], [ 38.7992705, 8.9883311 ], [ 38.8021714, 8.9855567 ], [ 38.8021619, 8.9853275 ], [ 38.7996331, 8.9854045 ], [ 38.7971379, 8.9861223 ], [ 38.789819799999989, 8.986366 ], [ 38.788826, 8.985809 ], [ 38.7855757, 8.9849273 ], [ 38.7842988, 8.9845215 ], [ 38.7787516, 8.9794447 ], [ 38.7769645, 8.9775777 ], [ 38.7767224, 8.9774806 ], [ 38.7754002, 8.9775296 ], [ 38.7697098, 8.9786677 ], [ 38.7652811, 8.9832833 ], [ 38.7643374, 8.9873668 ], [ 38.7597052, 8.9938001 ], [ 38.7586621, 8.999279 ], [ 38.7586856, 8.9999436 ], [ 38.7587616, 9.0011842 ], [ 38.7563425, 9.0078847 ], [ 38.7531539, 9.0118897 ], [ 38.7555162, 9.0160017 ] ] ] } },
{ "type": "Feature", "properties": { "threshold_s": 300, "time_label": "5 min drive" }, "geometry": { "type": "Polygon", "coordinates": [ [ [ 38.7785505, 8.9925918 ], [ 38.7792901, 8.9935064 ], [ 38.7805353, 8.9943244 ], [ 38.7821738, 8.9945403 ], [ 38.7831292, 8.9955145 ], [ 38.7845103, 8.9958517 ], [ 38.7860546, 8.996506 ], [ 38.788114299999989, 8.9962622 ], [ 38.788491, 8.9960225 ], [ 38.790482, 8.9965207 ], [ 38.7907287, 8.9971431 ], [ 38.79154650000001, 8.9972637 ], [ 38.7919628, 8.9965426 ], [ 38.7923594, 8.995765 ], [ 38.7924577, 8.9953847 ], [ 38.7925811, 8.9942786 ], [ 38.7924798, 8.9935091 ], [ 38.7918435, 8.9923162 ], [ 38.7930034, 8.9904073 ], [ 38.7941338, 8.9900363 ], [ 38.7942992, 8.9887271 ], [ 38.7933953, 8.9891541 ], [ 38.7920318, 8.9875297 ], [ 38.791375, 8.9871117 ], [ 38.789819799999989, 8.986366 ], [ 38.788826, 8.985809 ], [ 38.7879749, 8.9856538 ], [ 38.7868774, 8.9866064 ], [ 38.7855757, 8.9849273 ], [ 38.7842988, 8.9845215 ], [ 38.7824454, 8.9839019 ], [ 38.7810382, 8.9833915 ], [ 38.7807425, 8.9839147 ], [ 38.779468, 8.9858295 ], [ 38.7793551, 8.9859527 ], [ 38.7791261, 8.9871819 ], [ 38.7788101, 8.9895706 ], [ 38.7784314, 8.9900595 ], [ 38.7786812, 8.9916294 ], [ 38.7785505, 8.9925918 ] ] ] } },
{ "type": "Feature", "properties": { "threshold_s": 600, "time_label": "10 min drive" }, "geometry": { "type": "Polygon", "coordinates": [ [ [ 38.7698496, 8.9967179 ], [ 38.7706407, 8.9997545 ], [ 38.7747263, 9.000099 ], [ 38.7791347, 9.0046913 ], [ 38.780947, 9.005392 ], [ 38.7867191, 9.0066497 ], [ 38.7894939, 9.0070331 ], [ 38.7901946, 9.0062781 ], [ 38.7898343, 9.0055715 ], [ 38.792624, 8.9985777 ], [ 38.798838, 9.0004149 ], [ 38.7991837, 8.9991818 ], [ 38.797957, 8.9920335 ], [ 38.8018267, 8.9898213 ], [ 38.8035396, 8.9855276 ], [ 38.8035562, 8.9852867 ], [ 38.8021619, 8.9853275 ], [ 38.7996331, 8.9854045 ], [ 38.7971379, 8.9861223 ], [ 38.788826, 8.985809 ], [ 38.7879749, 8.9856538 ], [ 38.7855757, 8.9849273 ], [ 38.7842988, 8.9845215 ], [ 38.7787516, 8.9794447 ], [ 38.7777914, 8.9763594 ], [ 38.7774548, 8.9759568 ], [ 38.7773636, 8.975878 ], [ 38.7725665, 8.9780968 ], [ 38.7708268, 8.9803929 ], [ 38.7709102, 8.9816138 ], [ 38.7711213, 8.982576 ], [ 38.7704844, 8.9906366 ], [ 38.770249, 8.9931077 ], [ 38.7700593, 8.9948012 ], [ 38.7698496, 8.9967179 ] ] ] } },
{ "type": "Feature", "properties": { "threshold_s": 900, "time_label": "15 min drive" }, "geometry": { "type": "Polygon", "coordinates": [ [ [ 38.7620759, 9.0032468 ], [ 38.764761, 9.0088177 ], [ 38.7732789, 9.0121882 ], [ 38.7743465, 9.0124832 ], [ 38.776373, 9.0129175 ], [ 38.7870015, 9.0175376 ], [ 38.7878711, 9.017641 ], [ 38.7886453, 9.0177173 ], [ 38.7955126, 9.0135726 ], [ 38.8042796, 9.0101637 ], [ 38.806483, 9.0036926 ], [ 38.807631, 9.0004119 ], [ 38.8138819, 8.9902571 ], [ 38.8141627, 8.9895817 ], [ 38.8097735, 8.9869675 ], [ 38.8079529, 8.9863615 ], [ 38.8066972, 8.9860036 ], [ 38.8035562, 8.9852867 ], [ 38.8021619, 8.9853275 ], [ 38.7996331, 8.9854045 ], [ 38.7971379, 8.9861223 ], [ 38.7899075, 8.9859732 ], [ 38.7880106, 8.9854871 ], [ 38.7855757, 8.9849273 ], [ 38.7777914, 8.9763594 ], [ 38.7792846, 8.9680911 ], [ 38.7770206, 8.9660067 ], [ 38.7762229, 8.9655186 ], [ 38.7748945, 8.9656073 ], [ 38.7655318, 8.9710292 ], [ 38.7618717, 8.9728547 ], [ 38.7614384, 8.9810966 ], [ 38.7608696, 8.9875656 ], [ 38.7608216, 8.9937933 ], [ 38.7611096, 8.9987565 ], [ 38.7620759, 9.0032468 ] ] ] } }
]
}
