{
"type": "FeatureCollection",
"name": "isochrone_shop_seafood_drive",
"crs": { "type": "name", "properties": { "name": "urn:ogc:def:crs:OGC:1.3:CRS84" } },
"features": [
{ "type": "Feature", "properties": { "threshold_s": 300, "time_label": "5 min drive" }, "geometry": { "type": "Polygon", "coordinates": [ [ [ 38.7636337, 8.9537958 ], [ 38.7636721, 8.9542947 ], [ 38.7692264, 8.9514427 ], [ 38.7695735, 8.9517635 ], [ 38.7703202, 8.9514064 ], [ 38.7713982, 8.9505587 ], [ 38.7717443, 8.9500782 ], [ 38.771745, 8.9499193 ], [ 38.7714319, 8.9487243 ], [ 38.771338, 8.9480016 ], [ 38.7713005, 8.9475638 ], [ 38.7709176, 8.9468934 ], [ 38.7707309, 8.9445414 ], [ 38.7721293, 8.9438537 ], [ 38.7731861, 8.9433383 ], [ 38.7740061, 8.9417784 ], [ 38.7737989, 8.941475 ], [ 38.773277899999989, 8.940861 ], [ 38.7716934, 8.9390288 ], [ 38.7719512, 8.938257 ], [ 38.7719697, 8.9380461 ], [ 38.7710331, 8.9386429 ], [ 38.7710994, 8.9387713 ], [ 38.7715063, 8.9401065 ], [ 38.7718545, 8.9407492 ], [ 38.7707335, 8.9430338 ], [ 38.7702075, 8.9429287 ], [ 38.7700493, 8.9428857 ], [ 38.7697956, 8.9428309 ], [ 38.768943, 8.9425753 ], [ 38.7682387, 8.9435755 ], [ 38.7664135, 8.943651 ], [ 38.7649015, 8.9419151 ], [ 38.7660152, 8.9436894 ], [ 38.7657954, 8.9457131 ], [ 38.7654933, 8.9463752 ], [ 38.7628957, 8.9451813 ], [ 38.7622239, 8.945001 ], [ 38.7614381, 8.9447283 ], [ 38.7611121, 8.9449997 ], [ 38.7611698, 8.9457594 ], [ 38.7613843, 8.9464251 ], [ 38.7623253, 8.9463102 ], [ 38.7626817, 8.9456225 ], [ 38.7648323, 8.947793 ], [ 38.7650031, 8.9478818 ], [ 38.765693, 8.9464065 ], [ 38.7676073, 8.9464888 ], [ 38.7678722, 8.9487095 ], [ 38.7689072, 8.9510421 ], [ 38.7636337, 8.9537958 ] ] ] } },
{ "type": "Feature", "properties": { "threshold_s": 600, "time_label": "10 min drive" }, "geometry": { "type": "Polygon", "coordinates": [ [ [ 38.7566045, 8.959288 ], [ 38.7573119, 8.960343 ], [ 38.7580243, 8.9610853 ], [ 38.7597316, 8.9620983 ], [ 38.7632587, 8.9641906 ], [ 38.7642007, 8.9642484 ], [ 38.7682748, 8.9628075 ], [ 38.7696023, 8.9623863 ], [ 38.7723252, 8.9613283 ], [ 38.7746049, 8.9599046 ], [ 38.775242, 8.9583361 ], [ 38.7755169, 8.9575612 ], [ 38.7788795, 8.9553509 ], [ 38.7790044, 8.9553408 ], [ 38.7804985, 8.9526709 ], [ 38.7816307, 8.9503209 ], [ 38.7808579, 8.9485282 ], [ 38.7815572, 8.9456611 ], [ 38.781302599999989, 8.9447898 ], [ 38.7812714, 8.9447016 ], [ 38.781222, 8.9446248 ], [ 38.7795965, 8.943602 ], [ 38.7789381, 8.9431158 ], [ 38.7771423, 8.9412531 ], [ 38.7792063, 8.9382432 ], [ 38.7821319, 8.9398252 ], [ 38.7821202, 8.9395398 ], [ 38.7788342, 8.937519 ], [ 38.7786296, 8.9346516 ], [ 38.7787342, 8.9333201 ], [ 38.7786108, 8.930677 ], [ 38.7770201, 8.9287389 ], [ 38.7748735, 8.9298225 ], [ 38.7740136, 8.9302251 ], [ 38.770694, 8.9310142 ], [ 38.7682445, 8.9295578 ], [ 38.7667501, 8.9317034 ], [ 38.7664081, 8.9322098 ], [ 38.7621219, 8.9326265 ], [ 38.7599319, 8.9349152 ], [ 38.7573999, 8.9376337 ], [ 38.7588604, 8.9404185 ], [ 38.7593029, 8.9433821 ], [ 38.7601362, 8.9458737 ], [ 38.7599544, 8.9471517 ], [ 38.7597544, 8.9484631 ], [ 38.7560588, 8.9495278 ], [ 38.7555076, 8.9500644 ], [ 38.7550221, 8.9516792 ], [ 38.7551063, 8.952354 ], [ 38.7554647, 8.9537485 ], [ 38.7562482, 8.9578487 ], [ 38.7566045, 8.959288 ] ] ] } },
{ "type": "Feature", "properties": { "threshold_s": 900, "time_label": "15 min drive" }, "geometry": { "type": "Polygon", "coordinates": [ [ [ 38.7486182, 8.9642293 ], [ 38.7493093, 8.9653864 ], [ 38.7502682, 8.9660419 ], [ 38.7527791, 8.9679138 ], [ 38.7547973, 8.9695155 ], [ 38.755781399999989, 8.9695229 ], [ 38.7604122, 8.974693 ], [ 38.7602367, 8.9753929 ], [ 38.7630346, 8.9743979 ], [ 38.7676397, 8.9735213 ], [ 38.7700135, 8.97141 ], [ 38.7711804, 8.9673105 ], [ 38.7726464, 8.9617668 ], [ 38.7728872, 8.9614966 ], [ 38.7737249, 8.9605879 ], [ 38.7805062, 8.9613459 ], [ 38.781147, 8.9615179 ], [ 38.7850032, 8.9632621 ], [ 38.7863466, 8.9620023 ], [ 38.7868595, 8.9606521 ], [ 38.7871447, 8.9596534 ], [ 38.7883694, 8.9550158 ], [ 38.7898909, 8.9526887 ], [ 38.7915682, 8.9461147 ], [ 38.7904421, 8.9442075 ], [ 38.7880415, 8.9438762 ], [ 38.7855926, 8.941632 ], [ 38.7862085, 8.9366371 ], [ 38.7872114, 8.9356624 ], [ 38.7888944, 8.9340646 ], [ 38.7910489, 8.93304 ], [ 38.7915686, 8.9302001 ], [ 38.7896334, 8.9318244 ], [ 38.788127, 8.933209 ], [ 38.7857187, 8.9351855 ], [ 38.7801692, 8.9332949 ], [ 38.7819461, 8.9291482 ], [ 38.7830064, 8.9257519 ], [ 38.7849435, 8.9241203 ], [ 38.7847035, 8.922135 ], [ 38.7844674, 8.9214944 ], [ 38.7840289, 8.9212838 ], [ 38.7814748, 8.921874 ], [ 38.7760439, 8.9212732 ], [ 38.7741182, 8.9218004 ], [ 38.7734222, 8.922559 ], [ 38.7667828, 8.9219933 ], [ 38.7637316, 8.9213882 ], [ 38.7628566, 8.9221732 ], [ 38.7599706, 8.924931 ], [ 38.7588987, 8.9285794 ], [ 38.7550425, 8.9308073 ], [ 38.753863, 8.9311467 ], [ 38.7525392, 8.9318241 ], [ 38.7503852, 8.9328834 ], [ 38.7499658, 8.9330847 ], [ 38.7486599, 8.9352915 ], [ 38.7486292, 8.9354899 ], [ 38.7500909, 8.9417632 ], [ 38.7492489, 8.9465652 ], [ 38.7488553, 8.9491181 ], [ 38.7489388, 8.9514326 ], [ 38.7490782, 8.9529902 ], [ 38.7464974, 8.9584282 ], [ 38.7486182, 8.9642293 ] ] ] } },
{ "type": "Feature", "properties": { "threshold_s": 300, "time_label": "5 min drive" }, "geometry": { "type": "Polygon", "coordinates": [ [ [ 38.7274925, 9.0263393 ], [ 38.7279777, 9.0278929 ], [ 38.7292182, 9.0285928 ], [ 38.7304595, 9.0287023 ], [ 38.7307736, 9.0287436 ], [ 38.7329254, 9.0293058 ], [ 38.7338709, 9.0291547 ], [ 38.7352941, 9.0281731 ], [ 38.7371384, 9.0278527 ], [ 38.7388882, 9.0272425 ], [ 38.7408818, 9.026716 ], [ 38.7404802, 9.0252066 ], [ 38.7405194, 9.0243091 ], [ 38.7401426, 9.0229157 ], [ 38.7402526, 9.0209866 ], [ 38.7409479, 9.0205726 ], [ 38.7410156, 9.0203514 ], [ 38.7395361, 9.0197636 ], [ 38.7395934, 9.0180534 ], [ 38.739568, 9.0171281 ], [ 38.7409272, 9.0161368 ], [ 38.7403109, 9.0156679 ], [ 38.7397404, 9.0152374 ], [ 38.7392753, 9.0151459 ], [ 38.7378143, 9.013647 ], [ 38.7366728, 9.0129864 ], [ 38.7360117, 9.0122933 ], [ 38.7343531, 9.0114249 ], [ 38.7340005, 9.0108205 ], [ 38.7339737, 9.011497 ], [ 38.7340052, 9.0117332 ], [ 38.7340657, 9.0117861 ], [ 38.7344752, 9.0132766 ], [ 38.7330361, 9.0140917 ], [ 38.7314063, 9.0144722 ], [ 38.7308068, 9.0146302 ], [ 38.7289514, 9.0141945 ], [ 38.7286815, 9.0130056 ], [ 38.7285514, 9.0122122 ], [ 38.7281463, 9.0122149 ], [ 38.7281746, 9.0128188 ], [ 38.7282282, 9.0131857 ], [ 38.7269328, 9.0147644 ], [ 38.7260014, 9.0147848 ], [ 38.7262984, 9.0161752 ], [ 38.7266323, 9.0168388 ], [ 38.7259972, 9.0187935 ], [ 38.7241003, 9.0192945 ], [ 38.7234107, 9.0201196 ], [ 38.7236027, 9.0212865 ], [ 38.7234364, 9.0227223 ], [ 38.7242957, 9.0236465 ], [ 38.725766, 9.024962 ], [ 38.7260677, 9.0254177 ], [ 38.7274925, 9.0263393 ] ] ] } },
{ "type": "Feature", "properties": { "threshold_s": 600, "time_label": "10 min drive" }, "geometry": { "type": "Polygon", "coordinates": [ [ [ 38.7195483, 9.0309808 ], [ 38.720165, 9.0329125 ], [ 38.7232152, 9.0356268 ], [ 38.726057, 9.0381212 ], [ 38.7277025, 9.039767 ], [ 38.7315959, 9.0404924 ], [ 38.7324587, 9.0402293 ], [ 38.7350135, 9.0386062 ], [ 38.7365276, 9.0382717 ], [ 38.736693, 9.0362823 ], [ 38.7398837, 9.0337646 ], [ 38.7417706, 9.0340836 ], [ 38.7428963, 9.0345213 ], [ 38.7439918, 9.0343989 ], [ 38.7475825, 9.0323943 ], [ 38.7491403, 9.0314182 ], [ 38.7501956, 9.027699 ], [ 38.7508772, 9.0273428 ], [ 38.7490247, 9.0251276 ], [ 38.7494123, 9.0211759 ], [ 38.7494138, 9.0211226 ], [ 38.750742, 9.0170997 ], [ 38.7515909, 9.0170547 ], [ 38.7520763, 9.0170797 ], [ 38.7518654, 9.0166783 ], [ 38.7506068, 9.0145586 ], [ 38.7498254, 9.0140209 ], [ 38.7485647, 9.0131598 ], [ 38.7462365, 9.010408 ], [ 38.7448514, 9.0085099 ], [ 38.7436921, 9.00817 ], [ 38.7405633, 9.0055545 ], [ 38.7394138, 9.0033881 ], [ 38.7368803, 9.0018037 ], [ 38.7353683, 9.0005664 ], [ 38.7325948, 9.0017547 ], [ 38.732501, 9.001813 ], [ 38.730182, 9.0046135 ], [ 38.7292146, 9.0052443 ], [ 38.7285474, 9.0064755 ], [ 38.7284978, 9.0065722 ], [ 38.7287807, 9.0080888 ], [ 38.726517, 9.0109459 ], [ 38.7225071, 9.0114307 ], [ 38.7201735, 9.0095651 ], [ 38.7197471, 9.0087074 ], [ 38.718933, 9.0094108 ], [ 38.7184912, 9.0101752 ], [ 38.7191591, 9.0121974 ], [ 38.7191807, 9.0122896 ], [ 38.7188622, 9.016363 ], [ 38.7172717, 9.0182925 ], [ 38.7171452, 9.0185363 ], [ 38.716879, 9.0190493 ], [ 38.7160489, 9.0210002 ], [ 38.7156287, 9.0220832 ], [ 38.7153381, 9.0230401 ], [ 38.7152763, 9.0236018 ], [ 38.715158, 9.0253611 ], [ 38.7151311, 9.0261072 ], [ 38.7154665, 9.027189 ], [ 38.7170336, 9.0285625 ], [ 38.7195483, 9.0309808 ] ] ] } },
{ "type": "Feature", "properties": { "threshold_s": 900, "time_label": "15 min drive" }, "geometry": { "type": "Polygon", "coordinates": [ [ [ 38.7177066, 9.0438 ], [ 38.7194909, 9.0461905 ], [ 38.7217462, 9.0482593 ], [ 38.7242559, 9.0489294 ], [ 38.7310689, 9.050217 ], [ 38.7324007, 9.0503455 ], [ 38.7342819, 9.0504586 ], [ 38.7369601, 9.0470998 ], [ 38.7417962, 9.045185 ], [ 38.7478687, 9.04249 ], [ 38.7521131, 9.0406747 ], [ 38.7556919, 9.0394787 ], [ 38.7555497, 9.0379841 ], [ 38.7558521, 9.0318884 ], [ 38.76061210000001, 9.0274013 ], [ 38.76061330000001, 9.0273217 ], [ 38.7600956, 9.0220791 ], [ 38.7623666, 9.0174082 ], [ 38.7623398, 9.017288 ], [ 38.7601319, 9.011234 ], [ 38.7560328, 9.0070649 ], [ 38.7547566, 9.0057969 ], [ 38.7544001, 9.0055835 ], [ 38.7501819, 9.0020696 ], [ 38.7488598, 9.0009957 ], [ 38.7463083, 8.995148 ], [ 38.7462509, 8.9950686 ], [ 38.7397219, 8.9928068 ], [ 38.7393484, 8.9926713 ], [ 38.7358524, 8.9916612 ], [ 38.730778, 8.9914943 ], [ 38.7256426, 8.9913092 ], [ 38.7255622, 8.9913882 ], [ 38.7251981, 8.9923487 ], [ 38.7242852, 8.9953717 ], [ 38.7185878, 8.9978946 ], [ 38.7178655, 8.9979836 ], [ 38.7172674, 8.9980617 ], [ 38.7154676, 8.9989784 ], [ 38.7143733, 9.0001679 ], [ 38.7142619, 9.0021177 ], [ 38.7091872, 9.006355 ], [ 38.7093334, 9.007922 ], [ 38.7089059, 9.0123129 ], [ 38.707382, 9.0155326 ], [ 38.7081457, 9.0179749 ], [ 38.7093134, 9.0183425 ], [ 38.7099331, 9.0183852 ], [ 38.7119646, 9.0186485 ], [ 38.7152763, 9.0236018 ], [ 38.7152353, 9.0242892 ], [ 38.7152166, 9.0245608 ], [ 38.715158, 9.0253611 ], [ 38.7151311, 9.0261072 ], [ 38.7121076, 9.031553 ], [ 38.7100433, 9.0333649 ], [ 38.711851, 9.036037 ], [ 38.7155957, 9.0402207 ], [ 38.7177066, 9.0438 ] ] ] } }
]
}
