{
"type": "FeatureCollection",
"name": "isochrone_shop_coffee_drive",
"crs": { "type": "name", "properties": { "name": "urn:ogc:def:crs:OGC:1.3:CRS84" } },
"features": [
{ "type": "Feature", "properties": { "threshold_s": 300, "time_label": "5 min drive" }, "geometry": { "type": "Polygon", "coordinates": [ [ [ 38.7627134, 9.0043138 ], [ 38.7637538, 9.0054358 ], [ 38.7645722, 9.0057059 ], [ 38.7661556, 9.0073141 ], [ 38.7687166, 9.0066328 ], [ 38.7699708, 9.0073954 ], [ 38.7703865, 9.0079723 ], [ 38.7715262, 9.0057579 ], [ 38.7718892, 9.0054106 ], [ 38.7725712, 9.0035157 ], [ 38.7734655, 9.0030482 ], [ 38.7734899, 9.0014308 ], [ 38.7728595, 9.0004235 ], [ 38.7705998, 8.9995274 ], [ 38.7714849, 8.997922 ], [ 38.7717256, 8.9974435 ], [ 38.7724357, 8.9962689 ], [ 38.7741547, 8.9942423 ], [ 38.7746638, 8.9941942 ], [ 38.774816199999989, 8.9941075 ], [ 38.7748685, 8.9939269 ], [ 38.7747749, 8.9936803 ], [ 38.7742053, 8.9932382 ], [ 38.7725376, 8.9931435 ], [ 38.7700673, 8.992499 ], [ 38.7690329, 8.9931543 ], [ 38.7681505, 8.9938395 ], [ 38.7666601, 8.9953316 ], [ 38.7646631, 8.9960887 ], [ 38.7634031, 8.9964943 ], [ 38.7633437, 8.9965623 ], [ 38.7632473, 8.9967653 ], [ 38.7630087, 8.9993346 ], [ 38.7616126, 9.0004111 ], [ 38.7620078, 9.0019117 ], [ 38.7620759, 9.0032468 ], [ 38.7627134, 9.0043138 ] ] ] } },
{ "type": "Feature", "properties": { "threshold_s": 600, "time_label": "10 min drive" }, "geometry": { "type": "Polygon", "coordinates": [ [ [ 38.7543659, 9.0086832 ], [ 38.7535663, 9.009591 ], [ 38.7543717, 9.010126 ], [ 38.7586435, 9.0127141 ], [ 38.7637032, 9.0172024 ], [ 38.7691702, 9.0142051 ], [ 38.7743465, 9.0124832 ], [ 38.776373, 9.0129175 ], [ 38.7778035, 9.0124771 ], [ 38.7770095, 9.0108942 ], [ 38.778296, 9.0051979 ], [ 38.7782481, 9.0051158 ], [ 38.7772268, 9.0028263 ], [ 38.7766984, 8.9999864 ], [ 38.780365, 8.9959179 ], [ 38.7822003, 8.9957636 ], [ 38.782616, 8.9950866 ], [ 38.7858171, 8.9901332 ], [ 38.7856251, 8.9896706 ], [ 38.7840738, 8.987376 ], [ 38.7813853, 8.9856571 ], [ 38.7780281, 8.986051 ], [ 38.7760235, 8.9862013 ], [ 38.7693325, 8.985905 ], [ 38.767618, 8.9854072 ], [ 38.7643047, 8.985346 ], [ 38.7619202, 8.9856735 ], [ 38.7608696, 8.9875656 ], [ 38.7593683, 8.989876 ], [ 38.7555326, 8.992433 ], [ 38.7532926, 8.9942168 ], [ 38.7521073, 8.9952324 ], [ 38.7555122, 8.999626 ], [ 38.7576883, 9.0047943 ], [ 38.7543659, 9.0086832 ] ] ] } },
{ "type": "Feature", "properties": { "threshold_s": 900, "time_label": "15 min drive" }, "geometry": { "type": "Polygon", "coordinates": [ [ [ 38.7487686, 9.0189104 ], [ 38.7502035, 9.0212671 ], [ 38.752181899999989, 9.0217133 ], [ 38.7546091, 9.0217117 ], [ 38.7555976, 9.0217609 ], [ 38.7614021, 9.0232701 ], [ 38.7616201, 9.0233396 ], [ 38.7673037, 9.0253571 ], [ 38.7681837, 9.0238363 ], [ 38.7732625, 9.0224856 ], [ 38.7753358, 9.0224459 ], [ 38.7789904, 9.020294 ], [ 38.7793942, 9.0198778 ], [ 38.7828065, 9.0165446 ], [ 38.7872844, 9.0160666 ], [ 38.7874547, 9.016091 ], [ 38.7889022, 9.0159914 ], [ 38.7866333, 9.0102849 ], [ 38.7871896, 9.007947 ], [ 38.7873394, 9.0074464 ], [ 38.7883516, 9.0046885 ], [ 38.7882698, 9.0017096 ], [ 38.7918951, 8.9981743 ], [ 38.7922475, 8.9975302 ], [ 38.7931524, 8.9954781 ], [ 38.7941338, 8.9900363 ], [ 38.7942992, 8.9887271 ], [ 38.791375, 8.9871117 ], [ 38.788826, 8.985809 ], [ 38.7855757, 8.9849273 ], [ 38.7842988, 8.9845215 ], [ 38.7829895, 8.9840922 ], [ 38.7787516, 8.9794447 ], [ 38.7771428, 8.9770548 ], [ 38.7761088, 8.9772281 ], [ 38.7739959, 8.977532 ], [ 38.7725665, 8.9780968 ], [ 38.7697098, 8.9786677 ], [ 38.7638058, 8.9768236 ], [ 38.7596897, 8.9769291 ], [ 38.759463599999989, 8.9769388 ], [ 38.759488, 8.9783088 ], [ 38.7553965, 8.9820855 ], [ 38.7498189, 8.9837713 ], [ 38.7480312, 8.9858545 ], [ 38.7444835, 8.9890716 ], [ 38.7434942, 8.9914052 ], [ 38.7424788, 8.9961176 ], [ 38.7429171, 8.9977021 ], [ 38.7429701, 8.9977686 ], [ 38.7470504, 9.0010446 ], [ 38.7467176, 9.0045045 ], [ 38.7458126, 9.0066229 ], [ 38.7441169, 9.0104975 ], [ 38.7458578, 9.0156628 ], [ 38.7487686, 9.0189104 ] ] ] } },
{ "type": "Feature", "properties": { "threshold_s": 300, "time_label": "5 min drive" }, "geometry": { "type": "Polygon", "coordinates": [ [ [ 38.7751776, 9.0098829 ], [ 38.7748415, 9.0108268 ], [ 38.774881, 9.0108722 ], [ 38.7770095, 9.0108942 ], [ 38.7778035, 9.0124771 ], [ 38.7793668, 9.0132882 ], [ 38.782059, 9.014438 ], [ 38.7835138, 9.0134781 ], [ 38.7836253, 9.0118787 ], [ 38.7855563, 9.0108907 ], [ 38.7866333, 9.0102849 ], [ 38.7883565, 9.0096317 ], [ 38.7895234, 9.0088889 ], [ 38.7901014, 9.0077425 ], [ 38.7901946, 9.0062781 ], [ 38.7892042, 9.0040436 ], [ 38.7882698, 9.0017096 ], [ 38.7883566, 9.0003414 ], [ 38.7880436, 8.9997064 ], [ 38.7863321, 8.9980775 ], [ 38.7837318, 8.9974862 ], [ 38.7809383, 8.9959589 ], [ 38.7794371, 8.9957638 ], [ 38.7785756, 8.9959215 ], [ 38.7781307, 8.9965431 ], [ 38.777362, 8.9984848 ], [ 38.7779966, 8.9994625 ], [ 38.7788891, 8.9997858 ], [ 38.7795597, 9.0006527 ], [ 38.7772268, 9.0028263 ], [ 38.7768754, 9.0031859 ], [ 38.7753379, 9.0044741 ], [ 38.7728032, 9.0057086 ], [ 38.7734878, 9.0068822 ], [ 38.7754892, 9.0093199 ], [ 38.7751776, 9.0098829 ] ] ] } },
{ "type": "Feature", "properties": { "threshold_s": 600, "time_label": "10 min drive" }, "geometry": { "type": "Polygon", "coordinates": [ [ [ 38.7674265, 9.0166327 ], [ 38.7683061, 9.0191895 ], [ 38.7683945, 9.0192425 ], [ 38.7713573, 9.0204686 ], [ 38.774444, 9.0200616 ], [ 38.775059, 9.0189164 ], [ 38.7800908, 9.0202484 ], [ 38.7788296, 9.023438 ], [ 38.7787771, 9.0234759 ], [ 38.7812063, 9.0252209 ], [ 38.7812609, 9.0251757 ], [ 38.7828895, 9.0215465 ], [ 38.7863129, 9.0211792 ], [ 38.7866543, 9.0211264 ], [ 38.7874637, 9.0209639 ], [ 38.787837, 9.0208872 ], [ 38.7904462, 9.020033 ], [ 38.7934182, 9.0170489 ], [ 38.7949421, 9.0145161 ], [ 38.7975274, 9.0125425 ], [ 38.7990177, 9.0090624 ], [ 38.799906900000011, 9.0060768 ], [ 38.8009754, 9.0029979 ], [ 38.8012889, 9.0015944 ], [ 38.8002281, 9.0010613 ], [ 38.7993438, 9.0015425 ], [ 38.7977966, 9.0017538 ], [ 38.7965052, 8.9969379 ], [ 38.7956395, 8.9945489 ], [ 38.7952264, 8.9934812 ], [ 38.7949535, 8.9927309 ], [ 38.7935246, 8.9897445 ], [ 38.792569, 8.9896677 ], [ 38.7876549, 8.9893973 ], [ 38.7840738, 8.987376 ], [ 38.7793551, 8.9859527 ], [ 38.7780281, 8.986051 ], [ 38.7760235, 8.9862013 ], [ 38.775627, 8.9865062 ], [ 38.7729816, 8.9907565 ], [ 38.7719314, 8.9937078 ], [ 38.7698496, 8.9967179 ], [ 38.7663914, 9.0000105 ], [ 38.7653333, 9.0005965 ], [ 38.7654833, 9.001129 ], [ 38.7657918, 9.0013837 ], [ 38.7663704, 9.0019672 ], [ 38.7663964, 9.0070441 ], [ 38.7661556, 9.0073141 ], [ 38.764761, 9.0088177 ], [ 38.7658891, 9.0123181 ], [ 38.7674265, 9.0166327 ] ] ] } },
{ "type": "Feature", "properties": { "threshold_s": 900, "time_label": "15 min drive" }, "geometry": { "type": "Polygon", "coordinates": [ [ [ 38.7570594, 9.0187168 ], [ 38.7600498, 9.0221853 ], [ 38.7602254, 9.0222978 ], [ 38.7605536, 9.0224021 ], [ 38.7664952, 9.0274613 ], [ 38.7720568, 9.0301421 ], [ 38.7734187, 9.0325067 ], [ 38.7735107, 9.0325106 ], [ 38.7808223, 9.0319061 ], [ 38.7820987, 9.0327323 ], [ 38.7834835, 9.0321406 ], [ 38.7905778, 9.0297413 ], [ 38.7973991, 9.0272539 ], [ 38.7986196, 9.0231216 ], [ 38.8035447, 9.0196294 ], [ 38.8037421, 9.0189254 ], [ 38.8037945, 9.0186417 ], [ 38.8056166, 9.0117535 ], [ 38.8075481, 9.0093358 ], [ 38.8089761, 9.0046984 ], [ 38.8097799, 9.001739 ], [ 38.810144, 8.9947923 ], [ 38.8086132, 8.9937786 ], [ 38.8066818, 8.9934673 ], [ 38.8052905, 8.993525 ], [ 38.8038621, 8.9932965 ], [ 38.7992705, 8.9883311 ], [ 38.8021714, 8.9855567 ], [ 38.8021619, 8.9853275 ], [ 38.7996331, 8.9854045 ], [ 38.7971379, 8.9861223 ], [ 38.789819799999989, 8.986366 ], [ 38.788826, 8.985809 ], [ 38.7855757, 8.9849273 ], [ 38.7842988, 8.9845215 ], [ 38.7787516, 8.9794447 ], [ 38.7771428, 8.9770548 ], [ 38.7739959, 8.977532 ], [ 38.7697098, 8.9786677 ], [ 38.7652811, 8.9832833 ], [ 38.7638103, 8.9869976 ], [ 38.7601219, 8.9929975 ], [ 38.7597052, 8.9938001 ], [ 38.7586621, 8.999279 ], [ 38.7586856, 8.9999436 ], [ 38.7587616, 9.0011842 ], [ 38.7563425, 9.0078847 ], [ 38.7530028, 9.0117021 ], [ 38.7528261, 9.0118685 ], [ 38.7539955, 9.0138275 ], [ 38.7570594, 9.0187168 ] ] ] } },
{ "type": "Feature", "properties": { "threshold_s": 300, "time_label": "5 min drive" }, "geometry": { "type": "Polygon", "coordinates": [ [ [ 38.7555497, 9.0379841 ], [ 38.7557028, 9.0397766 ], [ 38.7572659, 9.0406034 ], [ 38.7581499, 9.0417016 ], [ 38.7598478, 9.0417817 ], [ 38.7624014, 9.0425864 ], [ 38.7620077, 9.0410376 ], [ 38.7644568, 9.0404404 ], [ 38.7647638, 9.0406035 ], [ 38.7667914, 9.0405272 ], [ 38.7672893, 9.0381433 ], [ 38.767127, 9.0371605 ], [ 38.766493, 9.037754 ], [ 38.7639577, 9.0366488 ], [ 38.7632315, 9.0343164 ], [ 38.7636485, 9.0328556 ], [ 38.7663647, 9.032801 ], [ 38.7672949, 9.0333336 ], [ 38.7678971, 9.0339079 ], [ 38.7681332, 9.0340919 ], [ 38.7690897, 9.034443 ], [ 38.7694288, 9.034481 ], [ 38.769884, 9.0342295 ], [ 38.7696665, 9.0317334 ], [ 38.7696348, 9.0316607 ], [ 38.7683848, 9.0328415 ], [ 38.7664014, 9.0314507 ], [ 38.7654192, 9.0307943 ], [ 38.7633917, 9.0291295 ], [ 38.7625209, 9.0267749 ], [ 38.7624111, 9.0266163 ], [ 38.76061330000001, 9.0273217 ], [ 38.7586122, 9.0287572 ], [ 38.7578226, 9.0286039 ], [ 38.7576302, 9.0286031 ], [ 38.7593016, 9.0295105 ], [ 38.7598172, 9.0314772 ], [ 38.7590509, 9.0331043 ], [ 38.7579095, 9.0339593 ], [ 38.7570673, 9.0349685 ], [ 38.7573179, 9.0358262 ], [ 38.7555497, 9.0379841 ] ] ] } },
{ "type": "Feature", "properties": { "threshold_s": 600, "time_label": "10 min drive" }, "geometry": { "type": "Polygon", "coordinates": [ [ [ 38.7452756, 9.0425768 ], [ 38.7456875, 9.0454928 ], [ 38.745965, 9.0457722 ], [ 38.7471673, 9.0469322 ], [ 38.7504449, 9.049246 ], [ 38.7518816, 9.0510309 ], [ 38.7531123, 9.0510492 ], [ 38.7551597, 9.0514617 ], [ 38.7575429, 9.0527258 ], [ 38.760117, 9.0523689 ], [ 38.7624706, 9.0535973 ], [ 38.7638493, 9.0498777 ], [ 38.7652991, 9.0499347 ], [ 38.7669492, 9.0499581 ], [ 38.7701541, 9.0481491 ], [ 38.7712129, 9.0478766 ], [ 38.7720654, 9.0464541 ], [ 38.7745828, 9.0428996 ], [ 38.775777, 9.0422005 ], [ 38.7773078, 9.0393449 ], [ 38.7791536, 9.0381632 ], [ 38.7804737, 9.033912 ], [ 38.7799938, 9.0303326 ], [ 38.7795637, 9.0295252 ], [ 38.7778281, 9.0263133 ], [ 38.7764797, 9.0254299 ], [ 38.7739329, 9.0250723 ], [ 38.7722787, 9.0259286 ], [ 38.7696171, 9.026581 ], [ 38.7673563, 9.028805 ], [ 38.7660695, 9.0292297 ], [ 38.7625209, 9.0267749 ], [ 38.7624111, 9.0266163 ], [ 38.7616201, 9.0233396 ], [ 38.7645123, 9.0221623 ], [ 38.7650922, 9.0223314 ], [ 38.7666902, 9.0194705 ], [ 38.7668012, 9.0191922 ], [ 38.7657801, 9.0168339 ], [ 38.7649382, 9.0162277 ], [ 38.7623398, 9.017288 ], [ 38.7587022, 9.0179263 ], [ 38.7576248, 9.0176281 ], [ 38.7547988, 9.0187984 ], [ 38.7547264, 9.0189117 ], [ 38.7536067, 9.0215262 ], [ 38.7517903, 9.0249097 ], [ 38.7490952, 9.028018 ], [ 38.748161, 9.0290428 ], [ 38.7471956, 9.0323047 ], [ 38.7455097, 9.0345712 ], [ 38.7443637, 9.0371691 ], [ 38.7447332, 9.040759 ], [ 38.7452756, 9.0425768 ] ] ] } },
{ "type": "Feature", "properties": { "threshold_s": 900, "time_label": "15 min drive" }, "geometry": { "type": "Polygon", "coordinates": [ [ [ 38.7398715, 9.0544037 ], [ 38.7410129, 9.0559353 ], [ 38.7410798, 9.0559945 ], [ 38.7436166, 9.0569715 ], [ 38.7449682, 9.0581992 ], [ 38.7455443, 9.0590299 ], [ 38.7481661, 9.0608624 ], [ 38.7504113, 9.0593642 ], [ 38.7526061, 9.0608775 ], [ 38.7526571, 9.0610173 ], [ 38.7528911, 9.0614244 ], [ 38.755926, 9.0617105 ], [ 38.7570644, 9.0625596 ], [ 38.7612187, 9.0630289 ], [ 38.7611765, 9.0636103 ], [ 38.7611437, 9.0638717 ], [ 38.7610903, 9.0644677 ], [ 38.761953, 9.0643387 ], [ 38.7637204, 9.0629397 ], [ 38.7648083, 9.0611662 ], [ 38.7678422, 9.0606812 ], [ 38.7691273, 9.0610003 ], [ 38.7696614, 9.0606323 ], [ 38.7727665, 9.0582167 ], [ 38.7750165, 9.0591596 ], [ 38.7771909, 9.0569486 ], [ 38.7764247, 9.0553808 ], [ 38.7770176, 9.0520471 ], [ 38.7805336, 9.0516264 ], [ 38.7816928, 9.0511698 ], [ 38.7823471, 9.0504218 ], [ 38.7822559, 9.0487745 ], [ 38.7850703, 9.0458998 ], [ 38.7864317, 9.0451248 ], [ 38.7870159, 9.0440162 ], [ 38.7869235, 9.0434758 ], [ 38.7853727, 9.0402983 ], [ 38.7873481, 9.0375579 ], [ 38.7884865, 9.0369472 ], [ 38.7887482, 9.0361844 ], [ 38.7880696, 9.0351791 ], [ 38.7869981, 9.033897 ], [ 38.7863892, 9.0328944 ], [ 38.7874505, 9.0295787 ], [ 38.7884042, 9.0291921 ], [ 38.7898626, 9.0285236 ], [ 38.7898506, 9.0284755 ], [ 38.788861, 9.027759 ], [ 38.7866944, 9.0259578 ], [ 38.7848897, 9.0225805 ], [ 38.7843028, 9.0202711 ], [ 38.7827905, 9.0187878 ], [ 38.782235, 9.0183828 ], [ 38.7795994, 9.0155365 ], [ 38.7771373, 9.0148378 ], [ 38.7744038, 9.0122967 ], [ 38.7738585, 9.0107737 ], [ 38.7697679, 9.0102067 ], [ 38.7678266, 9.0080481 ], [ 38.7663164, 9.0057167 ], [ 38.7638592, 9.0053009 ], [ 38.7624464, 9.0054975 ], [ 38.7587462, 9.0073761 ], [ 38.7579128, 9.0080385 ], [ 38.7576903, 9.0118964 ], [ 38.755338, 9.0119598 ], [ 38.7533592, 9.010613 ], [ 38.7498135, 9.0113847 ], [ 38.7495149, 9.011528 ], [ 38.7484279, 9.0131606 ], [ 38.7458373, 9.0155904 ], [ 38.7449654, 9.0165766 ], [ 38.7445428, 9.0193766 ], [ 38.7445602, 9.0201826 ], [ 38.7462137, 9.0235673 ], [ 38.7433659, 9.024515 ], [ 38.7401624, 9.0247706 ], [ 38.7387908, 9.0253958 ], [ 38.7385894, 9.026343 ], [ 38.7375489, 9.0298709 ], [ 38.7380256, 9.0328911 ], [ 38.7350242, 9.0343964 ], [ 38.7341841, 9.0341678 ], [ 38.7341834, 9.0342732 ], [ 38.7348936, 9.0348074 ], [ 38.7365762, 9.0379959 ], [ 38.734836799999989, 9.0401816 ], [ 38.734404, 9.040722 ], [ 38.7340116, 9.0421426 ], [ 38.734670199999989, 9.0434483 ], [ 38.7362547, 9.0439907 ], [ 38.739417, 9.0465899 ], [ 38.7387244, 9.0475686 ], [ 38.7376063, 9.0487515 ], [ 38.7374034, 9.0488487 ], [ 38.7374805, 9.0494284 ], [ 38.7387959, 9.0517774 ], [ 38.7398715, 9.0544037 ] ] ] } },
{ "type": "Feature", "properties": { "threshold_s": 300, "time_label": "5 min drive" }, "geometry": { "type": "Polygon", "coordinates": [ [ [ 38.8114987, 9.0030211 ], [ 38.8115832, 9.0041456 ], [ 38.8129082, 9.0048262 ], [ 38.8131676, 9.0048286 ], [ 38.8146785, 9.0049602 ], [ 38.81506, 9.0060411 ], [ 38.8154839, 9.0061205 ], [ 38.8155613, 9.0055535 ], [ 38.8156354, 9.0051258 ], [ 38.8168907, 9.0039882 ], [ 38.8178348, 9.0041654 ], [ 38.8192986, 9.0050052 ], [ 38.819705399999989, 9.0040656 ], [ 38.8209683, 9.0028963 ], [ 38.8210512, 9.0028113 ], [ 38.82133, 9.0025541 ], [ 38.82156950000001, 9.0023335 ], [ 38.8232475, 9.0027763 ], [ 38.824948, 9.0023077 ], [ 38.825101, 9.001087 ], [ 38.8251413, 9.0002383 ], [ 38.8249847, 8.9984478 ], [ 38.8243356, 8.997982 ], [ 38.8237502, 8.9974591 ], [ 38.8239933, 8.9957738 ], [ 38.8250345, 8.995349 ], [ 38.8236846, 8.9949151 ], [ 38.8233677, 8.9949506 ], [ 38.8225985, 8.9950427 ], [ 38.8217005, 8.9954251 ], [ 38.8200536, 8.995641 ], [ 38.8194763, 8.9959199 ], [ 38.8183712, 8.9958642 ], [ 38.817709, 8.9947404 ], [ 38.8159907, 8.9955023 ], [ 38.8157295, 8.9949998 ], [ 38.8149445, 8.9958984 ], [ 38.8138037, 8.9971025 ], [ 38.8134382, 8.9985406 ], [ 38.8125428, 8.9993979 ], [ 38.8122156, 8.9997147 ], [ 38.8118793, 9.0002865 ], [ 38.8105441, 9.0014742 ], [ 38.8109505, 9.0019175 ], [ 38.8114987, 9.0030211 ] ] ] } },
{ "type": "Feature", "properties": { "threshold_s": 600, "time_label": "10 min drive" }, "geometry": { "type": "Polygon", "coordinates": [ [ [ 38.8017493, 9.0093791 ], [ 38.8016497, 9.0094333 ], [ 38.8042796, 9.0101637 ], [ 38.8056166, 9.0117535 ], [ 38.8069504, 9.0129683 ], [ 38.8080729, 9.0132681 ], [ 38.8097058, 9.0137634 ], [ 38.8115097, 9.0148216 ], [ 38.8132313, 9.0149019 ], [ 38.8132233, 9.0144189 ], [ 38.8129994, 9.0138904 ], [ 38.8152355, 9.0119172 ], [ 38.8161268, 9.0119246 ], [ 38.8172691, 9.0119811 ], [ 38.8186794, 9.0137801 ], [ 38.8208147, 9.013098 ], [ 38.8232273, 9.0147013 ], [ 38.8235384, 9.015215 ], [ 38.823589, 9.0151629 ], [ 38.8244028, 9.013401 ], [ 38.8268833, 9.0126441 ], [ 38.8270598, 9.0118905 ], [ 38.8283048, 9.0092346 ], [ 38.830579899999989, 9.0094153 ], [ 38.8310436, 9.0083342 ], [ 38.83187, 9.0056226 ], [ 38.8323814, 9.0029206 ], [ 38.8334755, 9.0014574 ], [ 38.833964, 9.0005222 ], [ 38.8336715, 9.0002098 ], [ 38.8321106, 8.9977634 ], [ 38.831749, 8.9949583 ], [ 38.8323018, 8.9934581 ], [ 38.8335326, 8.9919851 ], [ 38.8335999, 8.9914841 ], [ 38.8337141, 8.9904254 ], [ 38.8336094, 8.9895774 ], [ 38.8330749, 8.9887201 ], [ 38.8327726, 8.988922 ], [ 38.8310145, 8.9893455 ], [ 38.8291491, 8.9877386 ], [ 38.8289319, 8.9866753 ], [ 38.828459, 8.9867431 ], [ 38.8280132, 8.9868716 ], [ 38.8273051, 8.9870493 ], [ 38.8243435, 8.9870493 ], [ 38.8240832, 8.986593 ], [ 38.8239984, 8.9864212 ], [ 38.8235769, 8.9858801 ], [ 38.8209425, 8.9867708 ], [ 38.8205229, 8.9864815 ], [ 38.8196728, 8.9858488 ], [ 38.8190351, 8.9862093 ], [ 38.8175372, 8.9873423 ], [ 38.8166645, 8.988021 ], [ 38.8158998, 8.9886047 ], [ 38.8151393, 8.9891745 ], [ 38.8127899, 8.9893411 ], [ 38.8103143, 8.9883096 ], [ 38.80954, 8.9893398 ], [ 38.807634299999989, 8.9913228 ], [ 38.8067452, 8.9919282 ], [ 38.8047226, 8.9935532 ], [ 38.8047277, 8.9950795 ], [ 38.8037968, 8.9973995 ], [ 38.8034868, 9.0000001 ], [ 38.8024677, 9.0009613 ], [ 38.8021955, 9.0011235 ], [ 38.8019402, 9.0036834 ], [ 38.8019364, 9.0054341 ], [ 38.8030658, 9.0047334 ], [ 38.8034796, 9.0044801 ], [ 38.805528099999989, 9.0043363 ], [ 38.8056402, 9.0071786 ], [ 38.8049791, 9.0076544 ], [ 38.8049162, 9.0076893 ], [ 38.8038324, 9.0088005 ], [ 38.8017493, 9.0093791 ] ] ] } },
{ "type": "Feature", "properties": { "threshold_s": 900, "time_label": "15 min drive" }, "geometry": { "type": "Polygon", "coordinates": [ [ [ 38.7929784, 9.012718 ], [ 38.7953575, 9.0169243 ], [ 38.8014603, 9.0212545 ], [ 38.8015199, 9.021295 ], [ 38.807704, 9.0203778 ], [ 38.8110784, 9.0214064 ], [ 38.8148975, 9.0223145 ], [ 38.8151143, 9.0219123 ], [ 38.8234308, 9.0217676 ], [ 38.8265798, 9.0254264 ], [ 38.8285495, 9.0210826 ], [ 38.8319609, 9.0179864 ], [ 38.8324139, 9.0176328 ], [ 38.838038, 9.0135597 ], [ 38.8401131, 9.0108522 ], [ 38.8413912, 9.0091783 ], [ 38.8417219, 9.0079153 ], [ 38.8408287, 9.0013282 ], [ 38.8414939, 8.9932938 ], [ 38.8436814, 8.9895324 ], [ 38.8419177, 8.9820854 ], [ 38.8410306, 8.9806387 ], [ 38.8402788, 8.9799951 ], [ 38.8388063, 8.9797725 ], [ 38.8374652, 8.982443 ], [ 38.8304619, 8.9779273 ], [ 38.8302928, 8.9775749 ], [ 38.8296479, 8.9770834 ], [ 38.8268535, 8.977765 ], [ 38.8211882, 8.9830776 ], [ 38.8200144, 8.9840292 ], [ 38.817983, 8.985495 ], [ 38.8097735, 8.9869675 ], [ 38.8079529, 8.9863615 ], [ 38.8066972, 8.9860036 ], [ 38.8035562, 8.9852867 ], [ 38.8021619, 8.9853275 ], [ 38.7996331, 8.9854045 ], [ 38.7979616, 8.9880834 ], [ 38.7980917, 8.9885152 ], [ 38.8022096, 8.9940263 ], [ 38.7965052, 8.9969379 ], [ 38.7949274, 8.9968629 ], [ 38.7936953, 9.0050935 ], [ 38.7928272, 9.0113517 ], [ 38.7929784, 9.012718 ] ] ] } },
{ "type": "Feature", "properties": { "threshold_s": 300, "time_label": "5 min drive" }, "geometry": { "type": "Polygon", "coordinates": [ [ [ 38.764029, 9.0002724 ], [ 38.7643906, 9.0014444 ], [ 38.7648436, 9.0018977 ], [ 38.7654508, 9.0023872 ], [ 38.7680657, 9.0039884 ], [ 38.7683436, 9.0041373 ], [ 38.769043, 9.0027762 ], [ 38.7710524, 9.0010739 ], [ 38.7714849, 8.997922 ], [ 38.7731964, 8.9969276 ], [ 38.7753912, 8.9966925 ], [ 38.7758743, 8.9963788 ], [ 38.7763041, 8.9957546 ], [ 38.7770756, 8.992736 ], [ 38.7780153, 8.9925672 ], [ 38.778576, 8.992462 ], [ 38.7787551, 8.991903 ], [ 38.7764195, 8.9911022 ], [ 38.7734872, 8.9905748 ], [ 38.7725604, 8.990016 ], [ 38.7716921, 8.9892484 ], [ 38.7706285, 8.9900889 ], [ 38.76804, 8.9900825 ], [ 38.7673199, 8.9905863 ], [ 38.766946, 8.9915539 ], [ 38.7662967, 8.9928308 ], [ 38.7648233, 8.9943716 ], [ 38.763602, 8.9952706 ], [ 38.7640184, 8.9969784 ], [ 38.7641369, 8.9997092 ], [ 38.764029, 9.0002724 ] ] ] } },
{ "type": "Feature", "properties": { "threshold_s": 600, "time_label": "10 min drive" }, "geometry": { "type": "Polygon", "coordinates": [ [ [ 38.76206, 9.0111118 ], [ 38.762877, 9.0129834 ], [ 38.7672256, 9.0115334 ], [ 38.7706225, 9.010122 ], [ 38.7742127, 9.0105641 ], [ 38.7767099, 9.0071045 ], [ 38.7776747, 9.0055086 ], [ 38.7775795, 9.0043913 ], [ 38.7772268, 9.0028263 ], [ 38.7794906, 8.9991652 ], [ 38.7816457, 8.9992002 ], [ 38.7822667, 8.9992671 ], [ 38.7827763, 8.9993254 ], [ 38.7849529, 8.9969014 ], [ 38.7860621, 8.9936699 ], [ 38.788291, 8.9915527 ], [ 38.7893008, 8.9887511 ], [ 38.7886764, 8.9882605 ], [ 38.7855757, 8.9849273 ], [ 38.7810382, 8.9833915 ], [ 38.7786342, 8.9830658 ], [ 38.7757844, 8.9831065 ], [ 38.7733497, 8.983102 ], [ 38.7729578, 8.9832075 ], [ 38.7720865, 8.9839641 ], [ 38.76691, 8.9832305 ], [ 38.7658906, 8.9818314 ], [ 38.763834, 8.9819059 ], [ 38.7598874, 8.9826072 ], [ 38.7585221, 8.9862381 ], [ 38.7586171, 8.9869071 ], [ 38.7588793, 8.9875864 ], [ 38.7593683, 8.989876 ], [ 38.7565699, 8.9926533 ], [ 38.7556499, 8.9931228 ], [ 38.7534142, 8.9955503 ], [ 38.7533887, 8.9956298 ], [ 38.7555253, 8.9985161 ], [ 38.7587985, 9.0020734 ], [ 38.7588645, 9.0036389 ], [ 38.7588747, 9.0040341 ], [ 38.7587103, 9.0068983 ], [ 38.7587462, 9.0073761 ], [ 38.7591165, 9.0088639 ], [ 38.76206, 9.0111118 ] ] ] } },
{ "type": "Feature", "properties": { "threshold_s": 900, "time_label": "15 min drive" }, "geometry": { "type": "Polygon", "coordinates": [ [ [ 38.7484279, 9.0131606 ], [ 38.751575699999989, 9.0171898 ], [ 38.7547988, 9.0187984 ], [ 38.7603636, 9.0186068 ], [ 38.7645123, 9.0221623 ], [ 38.7650922, 9.0223314 ], [ 38.7714391, 9.0195628 ], [ 38.7740742, 9.0190452 ], [ 38.774797, 9.0185944 ], [ 38.7760797, 9.0175791 ], [ 38.782059, 9.014438 ], [ 38.7832979, 9.0148016 ], [ 38.7834846, 9.01484 ], [ 38.7834729, 9.0142678 ], [ 38.7856355, 9.0081908 ], [ 38.7873394, 9.0074464 ], [ 38.7894034, 9.0046542 ], [ 38.792624, 8.9985777 ], [ 38.7931544, 8.9983837 ], [ 38.7936291, 8.9982041 ], [ 38.7941482, 8.9979968 ], [ 38.7946719, 8.9978068 ], [ 38.7951352, 8.9973643 ], [ 38.7976136, 8.9913002 ], [ 38.79654, 8.9900417 ], [ 38.7942992, 8.9887271 ], [ 38.791375, 8.9871117 ], [ 38.788826, 8.985809 ], [ 38.7879749, 8.9856538 ], [ 38.7855757, 8.9849273 ], [ 38.7842988, 8.9845215 ], [ 38.7829895, 8.9840922 ], [ 38.7787516, 8.9794447 ], [ 38.7777914, 8.9763594 ], [ 38.7774548, 8.9759568 ], [ 38.7773636, 8.975878 ], [ 38.7758334, 8.9749255 ], [ 38.77469210000001, 8.9744785 ], [ 38.7723068, 8.975148 ], [ 38.77070650000001, 8.9754968 ], [ 38.7701434, 8.9757714 ], [ 38.7632888, 8.9736929 ], [ 38.757237, 8.9730796 ], [ 38.7540968, 8.9794135 ], [ 38.749979, 8.9842547 ], [ 38.7454378, 8.9894532 ], [ 38.7446282, 8.9907519 ], [ 38.7433207, 8.995185 ], [ 38.743202, 8.9960376 ], [ 38.7438853, 8.9969221 ], [ 38.7439552, 8.9970066 ], [ 38.7458811, 8.998566 ], [ 38.7471426, 9.0000833 ], [ 38.7483563, 9.0064761 ], [ 38.748271, 9.0080491 ], [ 38.7482888, 9.0109348 ], [ 38.7484279, 9.0131606 ] ] ] } },
{ "type": "Feature", "properties": { "threshold_s": 300, "time_label": "5 min drive" }, "geometry": { "type": "Polygon", "coordinates": [ [ [ 38.7823378, 9.0013971 ], [ 38.7832102, 9.0025374 ], [ 38.7855785, 9.0032038 ], [ 38.7862196, 9.0034032 ], [ 38.7875667, 9.0037098 ], [ 38.7892042, 9.0040436 ], [ 38.7882641, 9.0032555 ], [ 38.7882698, 9.0017096 ], [ 38.7897293, 8.9996859 ], [ 38.7906855, 8.9993148 ], [ 38.7913789, 8.9990156 ], [ 38.7920983, 8.9987684 ], [ 38.792624, 8.9985777 ], [ 38.7931544, 8.9983837 ], [ 38.7936291, 8.9982041 ], [ 38.7941482, 8.9979968 ], [ 38.7946719, 8.9978068 ], [ 38.7949274, 8.9968629 ], [ 38.7956395, 8.9945489 ], [ 38.7949535, 8.9927309 ], [ 38.7948242, 8.9923398 ], [ 38.7941338, 8.9900363 ], [ 38.7942992, 8.9887271 ], [ 38.7933953, 8.9891541 ], [ 38.7916591, 8.9890332 ], [ 38.7906399, 8.9883331 ], [ 38.7886316, 8.987331 ], [ 38.7883132, 8.9874833 ], [ 38.7878494, 8.9877103 ], [ 38.7867261, 8.9892235 ], [ 38.7852551, 8.9888688 ], [ 38.7841757, 8.988441 ], [ 38.7836802, 8.989196 ], [ 38.7817463, 8.9897697 ], [ 38.7816987, 8.9917573 ], [ 38.7808029, 8.9921666 ], [ 38.7804589, 8.9928799 ], [ 38.7802631, 8.9933389 ], [ 38.7798823, 8.9953285 ], [ 38.779685, 8.9965742 ], [ 38.7796315, 8.9976555 ], [ 38.7806393, 8.9975317 ], [ 38.7816457, 8.9992002 ], [ 38.7820454, 9.000199 ], [ 38.7823378, 9.0013971 ] ] ] } },
{ "type": "Feature", "properties": { "threshold_s": 600, "time_label": "10 min drive" }, "geometry": { "type": "Polygon", "coordinates": [ [ [ 38.773414, 9.0061278 ], [ 38.7748415, 9.0108268 ], [ 38.7814606, 9.0122943 ], [ 38.7831329, 9.0133339 ], [ 38.7874085, 9.0152361 ], [ 38.7897772, 9.0133568 ], [ 38.7948138, 9.0115059 ], [ 38.7970892, 9.0075365 ], [ 38.797621, 9.0063149 ], [ 38.7994259, 8.9995528 ], [ 38.7991837, 8.9991818 ], [ 38.797957, 8.9920335 ], [ 38.8020439, 8.9901737 ], [ 38.8035396, 8.9855276 ], [ 38.8035562, 8.9852867 ], [ 38.8021619, 8.9853275 ], [ 38.7996331, 8.9854045 ], [ 38.7971379, 8.9861223 ], [ 38.789819799999989, 8.986366 ], [ 38.788826, 8.985809 ], [ 38.7855757, 8.9849273 ], [ 38.7842988, 8.9845215 ], [ 38.7784405, 8.9816191 ], [ 38.7747851, 8.9823095 ], [ 38.7718993, 8.9891153 ], [ 38.7708546, 8.9939276 ], [ 38.7707889, 8.9960261 ], [ 38.7712938, 8.9985856 ], [ 38.7736869, 8.9994737 ], [ 38.773414, 9.0061278 ] ] ] } },
{ "type": "Feature", "properties": { "threshold_s": 900, "time_label": "15 min drive" }, "geometry": { "type": "Polygon", "coordinates": [ [ [ 38.7658891, 9.0123181 ], [ 38.7683061, 9.0191895 ], [ 38.7683945, 9.0192425 ], [ 38.7713573, 9.0204686 ], [ 38.7808659, 9.0231144 ], [ 38.7865193, 9.0257525 ], [ 38.7949134, 9.0210762 ], [ 38.7994298, 9.0188571 ], [ 38.8034284, 9.0138029 ], [ 38.8059445, 9.0070212 ], [ 38.8070302, 9.004284 ], [ 38.8076454, 9.001485 ], [ 38.8107579, 8.9937651 ], [ 38.8138819, 8.9902571 ], [ 38.8141627, 8.9895817 ], [ 38.8097735, 8.9869675 ], [ 38.8079529, 8.9863615 ], [ 38.8066972, 8.9860036 ], [ 38.8035562, 8.9852867 ], [ 38.8021619, 8.9853275 ], [ 38.7996331, 8.9854045 ], [ 38.7971379, 8.9861223 ], [ 38.7880106, 8.9854871 ], [ 38.7855757, 8.9849273 ], [ 38.7787516, 8.9794447 ], [ 38.7777914, 8.9763594 ], [ 38.7756114, 8.9726492 ], [ 38.774991, 8.9719637 ], [ 38.7664554, 8.976657 ], [ 38.763834, 8.9819059 ], [ 38.7622147, 8.9858887 ], [ 38.7619851, 8.9958804 ], [ 38.7632006, 9.0023557 ], [ 38.7658891, 9.0123181 ] ] ] } },
{ "type": "Feature", "properties": { "threshold_s": 300, "time_label": "5 min drive" }, "geometry": { "type": "Polygon", "coordinates": [ [ [ 38.8247456, 9.0175555 ], [ 38.8243115, 9.0177309 ], [ 38.8257765, 9.0184475 ], [ 38.827891, 9.0176995 ], [ 38.8295125, 9.0191713 ], [ 38.8315603, 9.0210402 ], [ 38.83203240000001, 9.021741 ], [ 38.8348874, 9.0216123 ], [ 38.8375525, 9.0214989 ], [ 38.8386374, 9.020792 ], [ 38.8392892, 9.0175557 ], [ 38.8388144, 9.0172851 ], [ 38.8387551, 9.0172787 ], [ 38.8356915, 9.0159299 ], [ 38.8368326, 9.0138754 ], [ 38.8376445, 9.013587 ], [ 38.8379266, 9.0135641 ], [ 38.838038, 9.0135597 ], [ 38.8397905, 9.0108774 ], [ 38.8393205, 9.0104231 ], [ 38.8366805, 9.0077965 ], [ 38.8334531, 9.0067732 ], [ 38.832777, 9.0062461 ], [ 38.830126, 9.0060406 ], [ 38.8295783, 9.0065799 ], [ 38.8285318, 9.0098196 ], [ 38.828155, 9.0107397 ], [ 38.8272128, 9.013053 ], [ 38.8272559, 9.0132902 ], [ 38.8274257, 9.0148666 ], [ 38.8253001, 9.01728 ], [ 38.8252142, 9.0173218 ], [ 38.8247456, 9.0175555 ] ] ] } },
{ "type": "Feature", "properties": { "threshold_s": 600, "time_label": "10 min drive" }, "geometry": { "type": "Polygon", "coordinates": [ [ [ 38.8235143, 9.0262415 ], [ 38.8249282, 9.0291742 ], [ 38.8281022, 9.0285546 ], [ 38.8302698, 9.0274732 ], [ 38.8303388, 9.027232 ], [ 38.8303647, 9.0271502 ], [ 38.8303568, 9.0270475 ], [ 38.8299201, 9.0249443 ], [ 38.83203240000001, 9.021741 ], [ 38.8353941, 9.0233442 ], [ 38.8374518, 9.0253806 ], [ 38.8396163, 9.0272045 ], [ 38.8405702, 9.0283575 ], [ 38.8428495, 9.0271846 ], [ 38.844009, 9.0263363 ], [ 38.8451017, 9.0230863 ], [ 38.8462862, 9.018599 ], [ 38.8466367, 9.0185819 ], [ 38.8472489, 9.0185543 ], [ 38.8475981, 9.0185385 ], [ 38.8481101, 9.0185153 ], [ 38.8486883, 9.0184892 ], [ 38.8502714, 9.0168071 ], [ 38.8479993, 9.015472 ], [ 38.8488138, 9.0122333 ], [ 38.8492917, 9.0119354 ], [ 38.8495917, 9.0114717 ], [ 38.8501641, 9.0106506 ], [ 38.8507134, 9.0100298 ], [ 38.8497397, 9.0090008 ], [ 38.8472617, 9.0055208 ], [ 38.8464673, 9.0049435 ], [ 38.8459218, 9.0046198 ], [ 38.8449139, 9.0042819 ], [ 38.843529, 9.0039668 ], [ 38.8396599, 9.0013672 ], [ 38.8382562, 9.0007181 ], [ 38.8349131, 9.0008394 ], [ 38.8332387, 8.9997931 ], [ 38.8301106, 8.997804 ], [ 38.8282243, 8.9959768 ], [ 38.82529670000001, 8.9976624 ], [ 38.8228749, 9.0001999 ], [ 38.8218561, 9.0020851 ], [ 38.8212444, 9.0047426 ], [ 38.8185341, 9.0084452 ], [ 38.8172691, 9.0119811 ], [ 38.8174128, 9.0151084 ], [ 38.8168859, 9.0171779 ], [ 38.8169497, 9.0197374 ], [ 38.8196572, 9.0225474 ], [ 38.8219882, 9.0245452 ], [ 38.8235143, 9.0262415 ] ] ] } },
{ "type": "Feature", "properties": { "threshold_s": 900, "time_label": "15 min drive" }, "geometry": { "type": "Polygon", "coordinates": [ [ [ 38.8064724, 9.0211697 ], [ 38.8071142, 9.0228651 ], [ 38.8084495, 9.0242274 ], [ 38.8102636, 9.0243078 ], [ 38.8107857, 9.0242689 ], [ 38.8129946, 9.0250146 ], [ 38.8143496, 9.0279621 ], [ 38.8144722, 9.0294405 ], [ 38.8148688, 9.0299234 ], [ 38.8149015, 9.0299632 ], [ 38.8167917, 9.0307973 ], [ 38.818501, 9.0306999 ], [ 38.8211113, 9.0331374 ], [ 38.82228520000001, 9.033648 ], [ 38.8245369, 9.0342374 ], [ 38.8250372, 9.0343063 ], [ 38.8257238, 9.0344096 ], [ 38.8281029, 9.0353208 ], [ 38.8294213, 9.0363605 ], [ 38.8299657, 9.0368718 ], [ 38.8337872, 9.0370987 ], [ 38.8375676, 9.0372689 ], [ 38.8398001, 9.0376201 ], [ 38.8421664, 9.0356258 ], [ 38.8433721, 9.0350247 ], [ 38.8462525, 9.0346821 ], [ 38.8477326, 9.0344158 ], [ 38.8487782, 9.0339485 ], [ 38.8497408, 9.0325791 ], [ 38.8516821, 9.030867 ], [ 38.8525953, 9.0280481 ], [ 38.8541116, 9.025734 ], [ 38.8542502, 9.0254448 ], [ 38.8563547, 9.0225111 ], [ 38.8596607, 9.0204593 ], [ 38.8581946, 9.0183492 ], [ 38.8594073, 9.0149064 ], [ 38.8600314, 9.0115971 ], [ 38.8616108, 9.0101591 ], [ 38.8617346, 9.009599 ], [ 38.8613047, 9.0088591 ], [ 38.8604736, 9.007871 ], [ 38.8591442, 9.0064317 ], [ 38.8562293, 9.0055649 ], [ 38.8541231, 9.0079006 ], [ 38.8520834, 9.0059043 ], [ 38.8520747, 9.0057922 ], [ 38.8520682, 9.0056456 ], [ 38.8519758, 9.0039611 ], [ 38.8520229, 9.0038196 ], [ 38.8537518, 9.001211 ], [ 38.8518728, 8.9993868 ], [ 38.8487442, 8.9977586 ], [ 38.8459919, 8.9957649 ], [ 38.8450585, 8.9942628 ], [ 38.8437998, 8.993316 ], [ 38.8425064, 8.9927607 ], [ 38.8396445, 8.991432 ], [ 38.8381218, 8.9894523 ], [ 38.837433, 8.9905048 ], [ 38.8336094, 8.9895774 ], [ 38.8334667, 8.9893531 ], [ 38.8331133, 8.9887953 ], [ 38.8330749, 8.9887201 ], [ 38.8327726, 8.988922 ], [ 38.8291491, 8.9877386 ], [ 38.8289319, 8.9866753 ], [ 38.828459, 8.9867431 ], [ 38.8273051, 8.9870493 ], [ 38.8242677, 8.9890413 ], [ 38.8237084, 8.9898498 ], [ 38.8221686, 8.9921195 ], [ 38.8193455, 8.9939846 ], [ 38.8173123, 8.9931804 ], [ 38.8170434, 8.9931632 ], [ 38.8153417, 8.9945278 ], [ 38.8149445, 8.9958984 ], [ 38.8149612, 8.9962087 ], [ 38.8157386, 8.9971488 ], [ 38.8137773, 9.0001069 ], [ 38.8134335, 9.0002885 ], [ 38.8130757, 9.0006165 ], [ 38.8125344, 9.0011847 ], [ 38.8122192, 9.0014706 ], [ 38.81185, 9.0023583 ], [ 38.8103972, 9.0047468 ], [ 38.8090353, 9.0061352 ], [ 38.8075481, 9.0093358 ], [ 38.8067184, 9.011178 ], [ 38.8072348, 9.0134368 ], [ 38.8071923, 9.0155557 ], [ 38.808492, 9.015833 ], [ 38.8090574, 9.016016 ], [ 38.8103169, 9.0165151 ], [ 38.8096449, 9.0204194 ], [ 38.8089635, 9.0205448 ], [ 38.8078818, 9.0205801 ], [ 38.8064869, 9.0210836 ], [ 38.8064724, 9.0211697 ] ] ] } }
]
}
