{
"type": "FeatureCollection",
"name": "isochrone_shop_health_food_drive",
"crs": { "type": "name", "properties": { "name": "urn:ogc:def:crs:OGC:1.3:CRS84" } },
"features": [
{ "type": "Feature", "properties": { "threshold_s": 300, "time_label": "5 min drive" }, "geometry": { "type": "Polygon", "coordinates": [ [ [ 38.7694764, 9.0373855 ], [ 38.7706733, 9.0395278 ], [ 38.7728901, 9.0400549 ], [ 38.7733433, 9.041089 ], [ 38.7743931, 9.0409883 ], [ 38.7768235, 9.0401254 ], [ 38.7777758, 9.0401384 ], [ 38.7778774, 9.0397628 ], [ 38.7791536, 9.0381632 ], [ 38.7801888, 9.0380316 ], [ 38.7816332, 9.0394631 ], [ 38.7821976, 9.0400112 ], [ 38.7820203, 9.0383468 ], [ 38.7817703, 9.0374467 ], [ 38.7812806, 9.0371532 ], [ 38.7810683, 9.037102 ], [ 38.7799479, 9.037053 ], [ 38.7799358, 9.0345924 ], [ 38.7804737, 9.033912 ], [ 38.7817318, 9.0329631 ], [ 38.7820987, 9.0327323 ], [ 38.7834835, 9.0321406 ], [ 38.7845581, 9.0313118 ], [ 38.7829637, 9.0303831 ], [ 38.7814889, 9.0295103 ], [ 38.7801866, 9.0281985 ], [ 38.7799342, 9.0280776 ], [ 38.7778281, 9.0263133 ], [ 38.7764797, 9.0254299 ], [ 38.7739329, 9.0250723 ], [ 38.7738726, 9.0262877 ], [ 38.7723979, 9.0278156 ], [ 38.7717946, 9.0280784 ], [ 38.7706975, 9.0282685 ], [ 38.7686882, 9.0283996 ], [ 38.767883, 9.0286497 ], [ 38.7673563, 9.028805 ], [ 38.7679401, 9.0287723 ], [ 38.7701755, 9.0299115 ], [ 38.7696348, 9.0316607 ], [ 38.7683848, 9.0328415 ], [ 38.7664081, 9.0326913 ], [ 38.7663647, 9.032801 ], [ 38.7672949, 9.0333336 ], [ 38.7678971, 9.0339079 ], [ 38.7688052, 9.0364392 ], [ 38.7688952, 9.0367952 ], [ 38.7694764, 9.0373855 ] ] ] } },
{ "type": "Feature", "properties": { "threshold_s": 600, "time_label": "10 min drive" }, "geometry": { "type": "Polygon", "coordinates": [ [ [ 38.7609601, 9.0437661 ], [ 38.7610127, 9.0440194 ], [ 38.7611534, 9.0441026 ], [ 38.7633023, 9.0453081 ], [ 38.7639091, 9.0457048 ], [ 38.7657775, 9.0471413 ], [ 38.7676639, 9.0498369 ], [ 38.7679429, 9.0501205 ], [ 38.7702489, 9.0500487 ], [ 38.7703563, 9.0500188 ], [ 38.7711241, 9.0483539 ], [ 38.772725, 9.0469788 ], [ 38.7770637, 9.0488362 ], [ 38.7783756, 9.049188 ], [ 38.7797534, 9.049189 ], [ 38.7822264, 9.0489175 ], [ 38.7863618, 9.0469064 ], [ 38.7881461, 9.0481785 ], [ 38.7887992, 9.047307 ], [ 38.7893323, 9.046174 ], [ 38.7888638, 9.0443872 ], [ 38.7883687, 9.0411166 ], [ 38.788999, 9.0366321 ], [ 38.7898711, 9.0353037 ], [ 38.7914952, 9.032615 ], [ 38.7935214, 9.0301317 ], [ 38.7937076, 9.0297792 ], [ 38.7940713, 9.0283586 ], [ 38.7941556, 9.0256189 ], [ 38.7940937, 9.0255635 ], [ 38.7916929, 9.0247087 ], [ 38.7894086, 9.0239549 ], [ 38.7876648, 9.0232365 ], [ 38.7862093, 9.0222595 ], [ 38.7840036, 9.0191911 ], [ 38.7827485, 9.0183763 ], [ 38.7795994, 9.0155365 ], [ 38.7771373, 9.0148378 ], [ 38.7721413, 9.0163029 ], [ 38.7693392, 9.0177338 ], [ 38.7676275, 9.0197284 ], [ 38.7686595, 9.0207369 ], [ 38.7673037, 9.0253571 ], [ 38.7624111, 9.0266163 ], [ 38.7616201, 9.0233396 ], [ 38.7614021, 9.0232701 ], [ 38.76061330000001, 9.0273217 ], [ 38.7576451, 9.0285006 ], [ 38.7573454, 9.0285605 ], [ 38.7565032, 9.0287242 ], [ 38.7568262, 9.030107 ], [ 38.7570673, 9.0349685 ], [ 38.7573179, 9.0358262 ], [ 38.7579791, 9.0380662 ], [ 38.7599283, 9.0398541 ], [ 38.7609601, 9.0437661 ] ] ] } },
{ "type": "Feature", "properties": { "threshold_s": 900, "time_label": "15 min drive" }, "geometry": { "type": "Polygon", "coordinates": [ [ [ 38.7542311, 9.0499549 ], [ 38.7571361, 9.053727 ], [ 38.7575758, 9.0539344 ], [ 38.758995, 9.0546066 ], [ 38.7615513, 9.0556329 ], [ 38.7658428, 9.0577181 ], [ 38.7681542, 9.0592667 ], [ 38.771739, 9.0590677 ], [ 38.7750336, 9.0596606 ], [ 38.7774719, 9.0589039 ], [ 38.7801437, 9.0592813 ], [ 38.7802957, 9.0593364 ], [ 38.7816886, 9.058182 ], [ 38.7819834, 9.0579019 ], [ 38.7824511, 9.056754 ], [ 38.7870759, 9.0554455 ], [ 38.7875402, 9.0553401 ], [ 38.7876136, 9.0553217 ], [ 38.7883158, 9.0551371 ], [ 38.7873548, 9.0536933 ], [ 38.7866829, 9.0534973 ], [ 38.7850186, 9.049336 ], [ 38.7881461, 9.0481785 ], [ 38.7892183, 9.0480524 ], [ 38.792129, 9.0494167 ], [ 38.7906995, 9.0454025 ], [ 38.7967241, 9.0428703 ], [ 38.7918929, 9.0415089 ], [ 38.788016399999989, 9.0400262 ], [ 38.788646, 9.0371199 ], [ 38.788999, 9.0366321 ], [ 38.7894697, 9.0358202 ], [ 38.7898711, 9.0353037 ], [ 38.7913411, 9.0328014 ], [ 38.7947311, 9.0312946 ], [ 38.7968678, 9.0306899 ], [ 38.7997189, 9.0335465 ], [ 38.8011234, 9.0303124 ], [ 38.8044796, 9.0290393 ], [ 38.8045819, 9.0289723 ], [ 38.8040529, 9.0281892 ], [ 38.8013133, 9.0261732 ], [ 38.802524, 9.0226289 ], [ 38.8034654, 9.021046 ], [ 38.8019712, 9.0193152 ], [ 38.8018595, 9.0192341 ], [ 38.8014734, 9.019214 ], [ 38.797182, 9.0184257 ], [ 38.7967567, 9.0182941 ], [ 38.7954471, 9.0178669 ], [ 38.7947434, 9.0176284 ], [ 38.7912393, 9.0152125 ], [ 38.7887416, 9.011563 ], [ 38.7881269, 9.0106485 ], [ 38.7880908, 9.0106422 ], [ 38.7837584, 9.0105215 ], [ 38.7825194, 9.0091421 ], [ 38.7818469, 9.0080756 ], [ 38.7805977, 9.0074831 ], [ 38.7768298, 9.0066669 ], [ 38.7743828, 9.0071904 ], [ 38.774206, 9.0073034 ], [ 38.7736581, 9.0079186 ], [ 38.7697679, 9.0102067 ], [ 38.7672577, 9.0104737 ], [ 38.7658891, 9.0123181 ], [ 38.7627136, 9.0143638 ], [ 38.7623398, 9.017288 ], [ 38.7587022, 9.0179263 ], [ 38.7576248, 9.0176281 ], [ 38.755531, 9.0174041 ], [ 38.7536536, 9.0182268 ], [ 38.7524033, 9.0192765 ], [ 38.7512899, 9.0212942 ], [ 38.7508048, 9.0245939 ], [ 38.7483515, 9.0274422 ], [ 38.7480859, 9.027872 ], [ 38.7462922, 9.0314434 ], [ 38.7469049, 9.0323628 ], [ 38.7471559, 9.0325573 ], [ 38.7487176, 9.0350745 ], [ 38.7476843, 9.0378059 ], [ 38.748408499999989, 9.0409431 ], [ 38.7486602, 9.0417728 ], [ 38.7506317, 9.0456619 ], [ 38.7536851, 9.0492766 ], [ 38.7542311, 9.0499549 ] ] ] } }
]
}
