{
"type": "FeatureCollection",
"name": "isochrone_amenity_vending_machine_drive",
"crs": { "type": "name", "properties": { "name": "urn:ogc:def:crs:OGC:1.3:CRS84" } },
"features": [
{ "type": "Feature", "properties": { "threshold_s": 300, "time_label": "5 min drive" }, "geometry": { "type": "Polygon", "coordinates": [ [ [ 38.7593029, 8.9433821 ], [ 38.7595323, 8.9436815 ], [ 38.7604855, 8.9441333 ], [ 38.7620693, 8.9454414 ], [ 38.7626817, 8.9456225 ], [ 38.7628957, 8.9451813 ], [ 38.7614381, 8.9447283 ], [ 38.7605821, 8.943594 ], [ 38.7624679, 8.9420878 ], [ 38.7639706, 8.942036 ], [ 38.7660152, 8.9436894 ], [ 38.7664135, 8.943651 ], [ 38.7649015, 8.9419151 ], [ 38.7633346, 8.9403366 ], [ 38.7629749, 8.9379093 ], [ 38.7644369, 8.936242 ], [ 38.7654849, 8.9350003 ], [ 38.767202, 8.9351298 ], [ 38.7681933, 8.9357829 ], [ 38.7703039, 8.9373162 ], [ 38.7703637, 8.937262 ], [ 38.767584, 8.9309732 ], [ 38.7679884, 8.9301183 ], [ 38.7677414, 8.9285071 ], [ 38.7676372, 8.9285381 ], [ 38.7652629, 8.9297203 ], [ 38.7644273, 8.9306227 ], [ 38.765818, 8.9329306 ], [ 38.7653642, 8.9333945 ], [ 38.7626158, 8.9330447 ], [ 38.7621219, 8.9326265 ], [ 38.7600432, 8.9335745 ], [ 38.7592359, 8.9312294 ], [ 38.7575599, 8.933409 ], [ 38.7559931, 8.9338063 ], [ 38.7557282, 8.9338093 ], [ 38.7555318, 8.9338 ], [ 38.7556807, 8.9348462 ], [ 38.7557116, 8.9349931 ], [ 38.7568614, 8.9340678 ], [ 38.7576368, 8.9340032 ], [ 38.7599156, 8.9353096 ], [ 38.7593767, 8.9365235 ], [ 38.7573999, 8.9376337 ], [ 38.7588751, 8.9397005 ], [ 38.7588067, 8.9401575 ], [ 38.7588604, 8.9404185 ], [ 38.7593754, 8.9429105 ], [ 38.7593029, 8.9433821 ] ] ] } },
{ "type": "Feature", "properties": { "threshold_s": 600, "time_label": "10 min drive" }, "geometry": { "type": "Polygon", "coordinates": [ [ [ 38.7568648, 8.953775 ], [ 38.7575533, 8.9552783 ], [ 38.7583783, 8.9557775 ], [ 38.7625686, 8.9544556 ], [ 38.7633968, 8.9532148 ], [ 38.7650031, 8.9478818 ], [ 38.7700067, 8.9466207 ], [ 38.7752353, 8.9448798 ], [ 38.7753128, 8.9447178 ], [ 38.7756208, 8.9404072 ], [ 38.7792063, 8.9382432 ], [ 38.7783037, 8.9326126 ], [ 38.7762034, 8.9294299 ], [ 38.7743514, 8.9265391 ], [ 38.7734222, 8.922559 ], [ 38.768427, 8.9210203 ], [ 38.7633703, 8.9187415 ], [ 38.7589368, 8.9225986 ], [ 38.7589558, 8.9240405 ], [ 38.7589171, 8.9271134 ], [ 38.7550425, 8.9308073 ], [ 38.753863, 8.9311467 ], [ 38.7525392, 8.9318241 ], [ 38.7503852, 8.9328834 ], [ 38.7499658, 8.9330847 ], [ 38.748243, 8.9339575 ], [ 38.7472702, 8.9344655 ], [ 38.7460205, 8.9352317 ], [ 38.7457651, 8.9364811 ], [ 38.7471375, 8.9381912 ], [ 38.7482171, 8.9392368 ], [ 38.7493833, 8.9401641 ], [ 38.7495044, 8.9402512 ], [ 38.7502438, 8.9406284 ], [ 38.7511073, 8.9410961 ], [ 38.7514888, 8.941306 ], [ 38.7524182, 8.9418394 ], [ 38.7548051, 8.9422793 ], [ 38.7551555, 8.9424456 ], [ 38.7555659, 8.9425462 ], [ 38.7562734, 8.9428018 ], [ 38.7599544, 8.9471517 ], [ 38.7565441, 8.950121 ], [ 38.7562682, 8.9524804 ], [ 38.7565377, 8.9530673 ], [ 38.7568648, 8.953775 ] ] ] } },
{ "type": "Feature", "properties": { "threshold_s": 900, "time_label": "15 min drive" }, "geometry": { "type": "Polygon", "coordinates": [ [ [ 38.7490115, 8.9593292 ], [ 38.7507775, 8.9616943 ], [ 38.7514499, 8.962329 ], [ 38.7537374, 8.9637344 ], [ 38.7549926, 8.9643066 ], [ 38.7609627, 8.9654006 ], [ 38.7616037, 8.9650785 ], [ 38.7623257, 8.9643852 ], [ 38.7632151, 8.9633794 ], [ 38.7668627, 8.9595852 ], [ 38.7714862, 8.9567234 ], [ 38.7719821, 8.9560915 ], [ 38.7722235, 8.9558178 ], [ 38.779052, 8.9539221 ], [ 38.781788, 8.9509189 ], [ 38.7829962, 8.9491369 ], [ 38.7882872, 8.9451883 ], [ 38.7892511, 8.9446446 ], [ 38.7880415, 8.9438762 ], [ 38.7855926, 8.941632 ], [ 38.7872114, 8.9356624 ], [ 38.7888944, 8.9340646 ], [ 38.7910489, 8.93304 ], [ 38.7909088, 8.9328273 ], [ 38.7896334, 8.9318244 ], [ 38.788127, 8.933209 ], [ 38.7876306, 8.9342 ], [ 38.7801692, 8.9332949 ], [ 38.7819461, 8.9291482 ], [ 38.7830064, 8.9257519 ], [ 38.7849435, 8.9241203 ], [ 38.7831885, 8.9177875 ], [ 38.7825711, 8.9168377 ], [ 38.7806212, 8.9156159 ], [ 38.7749335, 8.9137199 ], [ 38.7704777, 8.9113409 ], [ 38.7650597, 8.9077217 ], [ 38.7613334, 8.9098234 ], [ 38.7572819, 8.9122175 ], [ 38.7532371, 8.9176522 ], [ 38.7524539, 8.9186552 ], [ 38.7526886, 8.9189573 ], [ 38.7531437, 8.9246421 ], [ 38.7465303, 8.9272788 ], [ 38.7449545, 8.9273318 ], [ 38.7423244, 8.9267677 ], [ 38.742109, 8.926803 ], [ 38.7413456, 8.9269237 ], [ 38.740189, 8.9275 ], [ 38.7391904, 8.9306984 ], [ 38.7382661, 8.934166 ], [ 38.7352226, 8.9376203 ], [ 38.7348421, 8.9379356 ], [ 38.7396598, 8.9431675 ], [ 38.7438972, 8.947097 ], [ 38.7443552, 8.9476928 ], [ 38.7455436, 8.9485501 ], [ 38.7463944, 8.9493344 ], [ 38.7478928, 8.951352 ], [ 38.7479847, 8.9578427 ], [ 38.7479981, 8.9578798 ], [ 38.7490115, 8.9593292 ] ] ] } }
]
}
