{
"type": "FeatureCollection",
"name": "isochrone_healthy_offers_drive",
"crs": { "type": "name", "properties": { "name": "urn:ogc:def:crs:OGC:1.3:CRS84" } },
"features": [
{ "type": "Feature", "properties": { "index": 300 }, "geometry": { "type": "MultiPolygon", "coordinates": [ [ [ [ 38.7717443, 8.9500782 ], [ 38.771745, 8.9499193 ], [ 38.7714319, 8.9487243 ], [ 38.771338, 8.9480016 ], [ 38.7713005, 8.9475638 ], [ 38.7709176, 8.9468934 ], [ 38.7707309, 8.9445414 ], [ 38.7721293, 8.9438537 ], [ 38.7731861, 8.9433383 ], [ 38.7740061, 8.9417784 ], [ 38.7737989, 8.941475 ], [ 38.773277899999989, 8.940861 ], [ 38.7716934, 8.9390288 ], [ 38.7719512, 8.938257 ], [ 38.7719697, 8.9380461 ], [ 38.7710331, 8.9386429 ], [ 38.7710994, 8.9387713 ], [ 38.7715063, 8.9401065 ], [ 38.7718545, 8.9407492 ], [ 38.7707335, 8.9430338 ], [ 38.7702075, 8.9429287 ], [ 38.7700493, 8.9428857 ], [ 38.7697956, 8.9428309 ], [ 38.768943, 8.9425753 ], [ 38.7682387, 8.9435755 ], [ 38.7664135, 8.943651 ], [ 38.7649015, 8.9419151 ], [ 38.7660152, 8.9436894 ], [ 38.7657954, 8.9457131 ], [ 38.7654933, 8.9463752 ], [ 38.7628957, 8.9451813 ], [ 38.7622239, 8.945001 ], [ 38.7614381, 8.9447283 ], [ 38.7611121, 8.9449997 ], [ 38.7611698, 8.9457594 ], [ 38.7613843, 8.9464251 ], [ 38.7623253, 8.9463102 ], [ 38.7626817, 8.9456225 ], [ 38.7648323, 8.947793 ], [ 38.7650031, 8.9478818 ], [ 38.765693, 8.9464065 ], [ 38.7676073, 8.9464888 ], [ 38.7678722, 8.9487095 ], [ 38.7689072, 8.9510421 ], [ 38.7636337, 8.9537958 ], [ 38.7636721, 8.9542947 ], [ 38.7692264, 8.9514427 ], [ 38.7695735, 8.9517635 ], [ 38.7703202, 8.9514064 ], [ 38.7713982, 8.9505587 ], [ 38.7717443, 8.9500782 ] ] ], [ [ [ 38.7255393, 8.9509809 ], [ 38.7254296, 8.950166 ], [ 38.7254414, 8.9482004 ], [ 38.7248289, 8.9475592 ], [ 38.7238302, 8.9459732 ], [ 38.7229332, 8.9454463 ], [ 38.721034, 8.9451564 ], [ 38.7204755, 8.9450497 ], [ 38.7182753, 8.9445271 ], [ 38.7169259, 8.9451545 ], [ 38.7157618, 8.9461813 ], [ 38.715178, 8.9474874 ], [ 38.7135835, 8.9481014 ], [ 38.7111602, 8.9483774 ], [ 38.7097463, 8.9487392 ], [ 38.7091566, 8.9491127 ], [ 38.7084953, 8.9503518 ], [ 38.7085998, 8.9514719 ], [ 38.7087649, 8.9521945 ], [ 38.7088591, 8.9526057 ], [ 38.7090022, 8.9531007 ], [ 38.7093868, 8.9554634 ], [ 38.7085889, 8.9560004 ], [ 38.7080373, 8.9563716 ], [ 38.7047407, 8.9583863 ], [ 38.7048435, 8.9584197 ], [ 38.7066028, 8.9589294 ], [ 38.7066794, 8.9589522 ], [ 38.7082998, 8.9591877 ], [ 38.7097852, 8.9596157 ], [ 38.7103525, 8.9597938 ], [ 38.711548358047011, 8.96142214980217 ], [ 38.7114597, 8.962623 ], [ 38.7114208, 8.963849 ], [ 38.7097062, 8.9659719 ], [ 38.7077826, 8.9653489 ], [ 38.7075511, 8.9638947 ], [ 38.7052834, 8.9636222 ], [ 38.7059028, 8.9616931 ], [ 38.7059901, 8.9615764 ], [ 38.7061007, 8.9608228 ], [ 38.7064034, 8.959663 ], [ 38.7041751, 8.9603363 ], [ 38.702921, 8.960042 ], [ 38.7027645, 8.9600065 ], [ 38.7026118, 8.9602087 ], [ 38.7023662, 8.9614045 ], [ 38.7027848, 8.9627965 ], [ 38.7017026, 8.964079 ], [ 38.7015584, 8.9642617 ], [ 38.7013595, 8.9668015 ], [ 38.7021558, 8.9674436 ], [ 38.7026037, 8.9679609 ], [ 38.7033042, 8.9688567 ], [ 38.7038798, 8.9707111 ], [ 38.7030396, 8.9723662 ], [ 38.7032911, 8.9744652 ], [ 38.7035975, 8.9744844 ], [ 38.7057853, 8.9756135 ], [ 38.7078233, 8.9742831 ], [ 38.7085293, 8.9743943 ], [ 38.7092046, 8.9740936 ], [ 38.7097858, 8.9738359 ], [ 38.7107423, 8.973403 ], [ 38.7110888, 8.9732445 ], [ 38.7120216, 8.9728206 ], [ 38.713758, 8.9722018 ], [ 38.7149674, 8.9715603 ], [ 38.7161401, 8.9698102 ], [ 38.7155005, 8.9684485 ], [ 38.7149107, 8.966471 ], [ 38.7145731, 8.9664342 ], [ 38.7144134, 8.9664039 ], [ 38.7139912, 8.9664064 ], [ 38.7137368, 8.9664115 ], [ 38.7134827, 8.9664139 ], [ 38.7130286, 8.966315 ], [ 38.711444302146582, 8.964544095087323 ], [ 38.7129534, 8.9636095 ], [ 38.7136356, 8.9631317 ], [ 38.7157965, 8.9643437 ], [ 38.7156802, 8.9658749 ], [ 38.715807, 8.9657946 ], [ 38.7159779, 8.9656863 ], [ 38.7162717, 8.9655001 ], [ 38.7165685, 8.9653121 ], [ 38.7166624, 8.9652527 ], [ 38.7168659, 8.9651244 ], [ 38.7169833, 8.9650594 ], [ 38.7173702, 8.9648452 ], [ 38.7197162, 8.9653009 ], [ 38.7207948, 8.9668155 ], [ 38.7210893, 8.9673608 ], [ 38.7212064, 8.9665525 ], [ 38.721406, 8.9648525 ], [ 38.7222308, 8.9626084 ], [ 38.722286, 8.9618665 ], [ 38.7221953, 8.9596211 ], [ 38.7226097, 8.9586005 ], [ 38.7228305, 8.957818 ], [ 38.7227826, 8.9570454 ], [ 38.7227502, 8.9565485 ], [ 38.7227253, 8.9562607 ], [ 38.7233466, 8.954489 ], [ 38.7240869, 8.9542307 ], [ 38.7249059, 8.9536692 ], [ 38.7248746, 8.9532825 ], [ 38.7255393, 8.9509809 ] ] ], [ [ [ 38.7302428, 8.9644781 ], [ 38.7313496, 8.9646863 ], [ 38.729296, 8.9648433 ], [ 38.7274935, 8.9655921 ], [ 38.7267258, 8.9660696 ], [ 38.7264039, 8.966268 ], [ 38.7260745, 8.9664712 ], [ 38.7259297, 8.9677269 ], [ 38.7259041, 8.9701262 ], [ 38.725397, 8.9725041 ], [ 38.7255694, 8.9736391 ], [ 38.7266952, 8.975401 ], [ 38.727043, 8.975157 ], [ 38.7296868, 8.9752961 ], [ 38.7305717, 8.9746057 ], [ 38.7322075, 8.9738249 ], [ 38.7319924, 8.9736661 ], [ 38.7319405, 8.9736278 ], [ 38.7310847, 8.9722338 ], [ 38.7313365, 8.970098 ], [ 38.7329476, 8.9698573 ], [ 38.7327157, 8.9682691 ], [ 38.7326726, 8.9658718 ], [ 38.7335819, 8.9654407 ], [ 38.7338065, 8.9651427 ], [ 38.7338521, 8.9650684 ], [ 38.733417097223366, 8.963991744331183 ], [ 38.7337236, 8.9625548 ], [ 38.7347155, 8.9619706 ], [ 38.7352396, 8.9611247 ], [ 38.7351846, 8.9609923 ], [ 38.7348681, 8.9596248 ], [ 38.7334362, 8.9591808 ], [ 38.733176899999989, 8.9569398 ], [ 38.7335671, 8.9563225 ], [ 38.7364709, 8.9560006 ], [ 38.733087, 8.9556029 ], [ 38.732454, 8.9546242 ], [ 38.7324205, 8.9523999 ], [ 38.732519, 8.9518222 ], [ 38.7330755, 8.9499822 ], [ 38.733206, 8.9497495 ], [ 38.7322864, 8.9497901 ], [ 38.7311321, 8.9504265 ], [ 38.7300864, 8.9512903 ], [ 38.7301135, 8.9516866 ], [ 38.7301407, 8.9521526 ], [ 38.731062, 8.9531298 ], [ 38.7311816, 8.9554112 ], [ 38.7306932, 8.9555078 ], [ 38.7292903, 8.9552506 ], [ 38.728762, 8.9552402 ], [ 38.7272777, 8.9556214 ], [ 38.7266015, 8.9562245 ], [ 38.7255286, 8.9576791 ], [ 38.7248902, 8.9588554 ], [ 38.7245228, 8.9604517 ], [ 38.7236738, 8.9611234 ], [ 38.7231038, 8.9613597 ], [ 38.7231113, 8.9625946 ], [ 38.7248078, 8.963049 ], [ 38.7251359, 8.9647645 ], [ 38.7270441, 8.9655836 ], [ 38.727375, 8.9653815 ], [ 38.727859, 8.965116 ], [ 38.7288639, 8.9647068 ], [ 38.7302428, 8.9644781 ] ] ], [ [ [ 38.7512463, 8.9870877 ], [ 38.751491, 8.9864276 ], [ 38.7520243, 8.9850979 ], [ 38.7532425, 8.9839796 ], [ 38.7531757, 8.9836321 ], [ 38.7531529, 8.9835029 ], [ 38.7529195, 8.9815501 ], [ 38.7542657, 8.9801767 ], [ 38.7545104, 8.9790531 ], [ 38.753462399999989, 8.977608 ], [ 38.7531719, 8.9751756 ], [ 38.7527936, 8.9738075 ], [ 38.7506072, 8.9722513 ], [ 38.7478308, 8.9722231 ], [ 38.7453481, 8.9734379 ], [ 38.7439171, 8.9739495 ], [ 38.7427163, 8.9755959 ], [ 38.741234, 8.9774999 ], [ 38.7402713, 8.9784505 ], [ 38.7390094, 8.9805037 ], [ 38.7400372, 8.9805206 ], [ 38.7412755, 8.9806774 ], [ 38.7429655, 8.9814508 ], [ 38.743529, 8.9827014 ], [ 38.7434792, 8.9838322 ], [ 38.743505, 8.9842753 ], [ 38.7435155, 8.9846347 ], [ 38.7446144, 8.9851407 ], [ 38.7452303, 8.9877313 ], [ 38.7458333, 8.9871828 ], [ 38.7484661, 8.9879114 ], [ 38.7483404, 8.9891444 ], [ 38.7484336, 8.9894281 ], [ 38.7501145, 8.9873647 ], [ 38.7512463, 8.9870877 ] ] ], [ [ [ 38.7007732, 8.9851538 ], [ 38.7008104, 8.9835302 ], [ 38.7016462, 8.9825158 ], [ 38.7043217, 8.9845778 ], [ 38.7056176, 8.9852563 ], [ 38.7071906, 8.9860857 ], [ 38.7083752, 8.9874839 ], [ 38.708532, 8.9873345 ], [ 38.7086718, 8.9871707 ], [ 38.7079333, 8.9848878 ], [ 38.7084384, 8.9835185 ], [ 38.7085032, 8.9833689 ], [ 38.7084134, 8.9828232 ], [ 38.7077742, 8.9798921 ], [ 38.7079883, 8.9792135 ], [ 38.706071799999989, 8.9767311 ], [ 38.705359, 8.9760753 ], [ 38.7040856, 8.976641 ], [ 38.7029967, 8.9771245 ], [ 38.7022738, 8.9774597 ], [ 38.699339, 8.977336 ], [ 38.6972304, 8.9779161 ], [ 38.6946158, 8.9787356 ], [ 38.6924254, 8.9801494 ], [ 38.6909841, 8.9819416 ], [ 38.6915857, 8.9831226 ], [ 38.6927118, 8.9862837 ], [ 38.692866, 8.9869257 ], [ 38.694849499999989, 8.987429 ], [ 38.6969119, 8.9877447 ], [ 38.6975153, 8.9877243 ], [ 38.6981846, 8.9875973 ], [ 38.7002181, 8.9854493 ], [ 38.7007732, 8.9851538 ] ] ], [ [ [ 38.7328074, 8.9925421 ], [ 38.733715, 8.9918419 ], [ 38.735666, 8.99357 ], [ 38.7356848, 8.9929262 ], [ 38.7357491, 8.9923739 ], [ 38.7358524, 8.9916612 ], [ 38.7356628, 8.9906408 ], [ 38.7361859, 8.9903311 ], [ 38.7371454, 8.9903463 ], [ 38.7378312, 8.9901859 ], [ 38.7382583, 8.9913632 ], [ 38.7383214, 8.9925488 ], [ 38.7385318, 8.9913353 ], [ 38.7388081, 8.9908793 ], [ 38.7387546, 8.9904328 ], [ 38.739468, 8.9895629 ], [ 38.7394059, 8.9890209 ], [ 38.7388766, 8.9880609 ], [ 38.7382566, 8.9884032 ], [ 38.7375093, 8.9878106 ], [ 38.7375328, 8.9866713 ], [ 38.7375167, 8.9854513 ], [ 38.7381422, 8.9843072 ], [ 38.7392856, 8.9844684 ], [ 38.7393433, 8.9852712 ], [ 38.7394246, 8.9858788 ], [ 38.7399909, 8.9851374 ], [ 38.7392813, 8.9844006 ], [ 38.7399642, 8.9833478 ], [ 38.7399087, 8.9830778 ], [ 38.7389101, 8.9822218 ], [ 38.7387921, 8.9816575 ], [ 38.7387747, 8.9814628 ], [ 38.7377205, 8.9809091 ], [ 38.7367037, 8.9803676 ], [ 38.7364587, 8.9806848 ], [ 38.7358698, 8.9813358 ], [ 38.7347433, 8.9809237 ], [ 38.7345958, 8.9803627 ], [ 38.7343044, 8.9793256 ], [ 38.7330856, 8.9794174 ], [ 38.7324151, 8.9804653 ], [ 38.7311625, 8.9804746 ], [ 38.7306013, 8.9808713 ], [ 38.73054470000001, 8.9810628 ], [ 38.7304638, 8.9817171 ], [ 38.7294422, 8.9825095 ], [ 38.7298107, 8.9830012 ], [ 38.7302318, 8.9830577 ], [ 38.730893, 8.9833279 ], [ 38.7311773, 8.9840114 ], [ 38.730087, 8.9846804 ], [ 38.7300695, 8.9848539 ], [ 38.7300174, 8.985363 ], [ 38.7299555, 8.9859373 ], [ 38.7292729, 8.9868235 ], [ 38.7287772, 8.9867815 ], [ 38.7295921, 8.9878849 ], [ 38.7293139, 8.9882505 ], [ 38.7305637, 8.9885507 ], [ 38.7301973, 8.9894671 ], [ 38.7303544, 8.9902604 ], [ 38.730883, 8.9914023 ], [ 38.7309507, 8.9915089 ], [ 38.7315459, 8.990608 ], [ 38.732326, 8.9908307 ], [ 38.7324733, 8.9921344 ], [ 38.7322589, 8.9922963 ], [ 38.7328074, 8.9925421 ] ] ], [ [ [ 38.7544636, 9.0003718 ], [ 38.7566735, 9.001497 ], [ 38.758485, 8.999819 ], [ 38.758229, 8.9975481 ], [ 38.7595939, 8.9955921 ], [ 38.759665576829356, 8.99559831644032 ], [ 38.7597039, 8.9959808 ], [ 38.759554, 8.9967245 ], [ 38.7611096, 8.9987565 ], [ 38.7616126, 9.0004111 ], [ 38.7620078, 9.0019117 ], [ 38.7620759, 9.0032468 ], [ 38.7627134, 9.0043138 ], [ 38.763349, 9.0045134 ], [ 38.7643041, 9.0046681 ], [ 38.7645144, 9.0045259 ], [ 38.7653659, 9.0042173 ], [ 38.766098, 9.0042608 ], [ 38.7674794, 9.0056217 ], [ 38.7663964, 9.0070441 ], [ 38.7661556, 9.0073141 ], [ 38.7687166, 9.0066328 ], [ 38.7699708, 9.0073954 ], [ 38.7688528, 9.0085028 ], [ 38.7692515, 9.0104413 ], [ 38.7672577, 9.0104737 ], [ 38.7636057, 9.0109899 ], [ 38.7643986, 9.0090118 ], [ 38.7636137, 9.009863 ], [ 38.76206, 9.0111118 ], [ 38.7598898, 9.0114568 ], [ 38.762877, 9.0129834 ], [ 38.7632751, 9.0121755 ], [ 38.7658891, 9.0123181 ], [ 38.7654814, 9.0154268 ], [ 38.763645449124404, 9.016694059701354 ], [ 38.7632994, 9.0143168 ], [ 38.7627136, 9.0143638 ], [ 38.763095764036336, 9.017073478219467 ], [ 38.7629355, 9.0171841 ], [ 38.7623398, 9.017288 ], [ 38.7606025, 9.0183832 ], [ 38.7603349, 9.0184885 ], [ 38.7603636, 9.0186068 ], [ 38.7605842, 9.0185252 ], [ 38.76068, 9.0184747 ], [ 38.7638895, 9.0199177 ], [ 38.7645123, 9.0221623 ], [ 38.7650922, 9.0223314 ], [ 38.7664473, 9.0226405 ], [ 38.7677974, 9.0236685 ], [ 38.7681837, 9.0238363 ], [ 38.7707329, 9.0240985 ], [ 38.7722787, 9.0259286 ], [ 38.7725207, 9.0260996 ], [ 38.7735065, 9.0265939 ], [ 38.773592643065726, 9.026577756418169 ], [ 38.7723979, 9.0278156 ], [ 38.7717946, 9.0280784 ], [ 38.7706975, 9.0282685 ], [ 38.7686882, 9.0283996 ], [ 38.767883, 9.0286497 ], [ 38.7673563, 9.028805 ], [ 38.7679401, 9.0287723 ], [ 38.7701755, 9.0299115 ], [ 38.7696348, 9.0316607 ], [ 38.7683848, 9.0328415 ], [ 38.7664081, 9.0326913 ], [ 38.7663647, 9.032801 ], [ 38.7672949, 9.0333336 ], [ 38.7678971, 9.0339079 ], [ 38.7688052, 9.0364392 ], [ 38.7688952, 9.0367952 ], [ 38.7694764, 9.0373855 ], [ 38.7706733, 9.0395278 ], [ 38.7728901, 9.0400549 ], [ 38.7733433, 9.041089 ], [ 38.7743931, 9.0409883 ], [ 38.7768235, 9.0401254 ], [ 38.7777758, 9.0401384 ], [ 38.7778774, 9.0397628 ], [ 38.7791536, 9.0381632 ], [ 38.7801888, 9.0380316 ], [ 38.7816332, 9.0394631 ], [ 38.7821976, 9.0400112 ], [ 38.7820203, 9.0383468 ], [ 38.7817703, 9.0374467 ], [ 38.7812806, 9.0371532 ], [ 38.7810683, 9.037102 ], [ 38.7799479, 9.037053 ], [ 38.7799358, 9.0345924 ], [ 38.7804737, 9.033912 ], [ 38.7817318, 9.0329631 ], [ 38.7820987, 9.0327323 ], [ 38.7834835, 9.0321406 ], [ 38.7845581, 9.0313118 ], [ 38.7829637, 9.0303831 ], [ 38.7814889, 9.0295103 ], [ 38.7801866, 9.0281985 ], [ 38.7799342, 9.0280776 ], [ 38.7778281, 9.0263133 ], [ 38.7781887, 9.0261563 ], [ 38.778014, 9.025166 ], [ 38.778150968823198, 9.024015117710364 ], [ 38.77831169587683, 9.023830694796253 ], [ 38.7804016, 9.0252991 ], [ 38.7806417, 9.0258586 ], [ 38.7818747, 9.0258742 ], [ 38.7812609, 9.0251757 ], [ 38.7811059, 9.0234327 ], [ 38.7828895, 9.0215465 ], [ 38.7846348, 9.0227478 ], [ 38.786140405913748, 9.023703677643978 ], [ 38.7860295, 9.0246382 ], [ 38.7856655, 9.0255148 ], [ 38.7855101, 9.0259326 ], [ 38.7849595, 9.0282937 ], [ 38.7847756, 9.0284891 ], [ 38.7857026, 9.0282428 ], [ 38.7867588, 9.0301967 ], [ 38.7884042, 9.0291921 ], [ 38.7900916, 9.0290698 ], [ 38.7918447, 9.0297488 ], [ 38.7925582, 9.0307516 ], [ 38.7943505, 9.0307929 ], [ 38.7954111, 9.0306171 ], [ 38.7968678, 9.0306899 ], [ 38.7988474, 9.0307862 ], [ 38.8003041, 9.0301796 ], [ 38.802081, 9.0289241 ], [ 38.8018192, 9.0288947 ], [ 38.80157, 9.0288663 ], [ 38.8011353, 9.0288661 ], [ 38.7992545, 9.0277266 ], [ 38.799208, 9.0254482 ], [ 38.7995709, 9.0246374 ], [ 38.8006361, 9.0234734 ], [ 38.8014876, 9.0217608 ], [ 38.8027586, 9.0219534 ], [ 38.8025061, 9.0215206 ], [ 38.801878315956905, 9.019300636785442 ], [ 38.8019712, 9.0193152 ], [ 38.802462, 9.0194301 ], [ 38.8021061, 9.0173173 ], [ 38.80231, 9.0167802 ], [ 38.8024877, 9.0163197 ], [ 38.8027788, 9.0155716 ], [ 38.8030901, 9.0149569 ], [ 38.8034284, 9.0138029 ], [ 38.8041047, 9.011598 ], [ 38.8033146, 9.0081789 ], [ 38.8049162, 9.0076893 ], [ 38.8049791, 9.0076544 ], [ 38.805683, 9.007259 ], [ 38.8071023, 9.0065099 ], [ 38.8070616, 9.0064311 ], [ 38.8059445, 9.0070212 ], [ 38.8056402, 9.0071786 ], [ 38.805089, 9.0074997 ], [ 38.8021486, 9.0062351 ], [ 38.801541, 9.0052635 ], [ 38.8004732, 9.0033982 ], [ 38.7978869, 9.0019288 ], [ 38.7955181, 9.0020965 ], [ 38.7943165, 9.0036151 ], [ 38.7917389, 9.0056483 ], [ 38.790242849369719, 9.006776704549962 ], [ 38.7901946, 9.0062781 ], [ 38.7892042, 9.0040436 ], [ 38.7882698, 9.0017096 ], [ 38.7897293, 8.9996859 ], [ 38.7906855, 8.9993148 ], [ 38.792624, 8.9985777 ], [ 38.7931544, 8.9983837 ], [ 38.7936291, 8.9982041 ], [ 38.7946719, 8.9978068 ], [ 38.7965052, 8.9969379 ], [ 38.7948523, 8.9966292 ], [ 38.7956395, 8.9945489 ], [ 38.7952264, 8.9934812 ], [ 38.795884459647517, 8.992867020272586 ], [ 38.7970592, 8.9929145 ], [ 38.797341, 8.9927148 ], [ 38.797957, 8.9920335 ], [ 38.7976136, 8.9913002 ], [ 38.8018267, 8.9898213 ], [ 38.7992705, 8.9883311 ], [ 38.7976586, 8.9872854 ], [ 38.7971379, 8.9861223 ], [ 38.7967554, 8.986409 ], [ 38.7962286, 8.9869708 ], [ 38.7948121, 8.988467 ], [ 38.7942992, 8.9887271 ], [ 38.7933953, 8.9891541 ], [ 38.7920318, 8.9875297 ], [ 38.791375, 8.9871117 ], [ 38.789819799999989, 8.986366 ], [ 38.788826, 8.985809 ], [ 38.7879749, 8.9856538 ], [ 38.7855757, 8.9849273 ], [ 38.7842988, 8.9845215 ], [ 38.7824454, 8.9839019 ], [ 38.781214678458426, 8.983455509810391 ], [ 38.7784405, 8.9816191 ], [ 38.7754878, 8.9822921 ], [ 38.7753103, 8.982628 ], [ 38.7745166, 8.984983 ], [ 38.775293, 8.9867802 ], [ 38.7750361, 8.9888151 ], [ 38.77381893196231, 8.99077045722073 ], [ 38.7734872, 8.9905748 ], [ 38.7718676, 8.9877508 ], [ 38.7715766, 8.987731 ], [ 38.7714964, 8.9878394 ], [ 38.7711981, 8.9882736 ], [ 38.7711194, 8.9883651 ], [ 38.76804, 8.9900825 ], [ 38.7671041, 8.9879364 ], [ 38.7666345, 8.9868082 ], [ 38.7653051, 8.9847209 ], [ 38.761954328952434, 8.985663895214012 ], [ 38.7615543, 8.9853726 ], [ 38.7612221, 8.9851544 ], [ 38.7592917, 8.9842459 ], [ 38.7587528, 8.9844655 ], [ 38.7569849, 8.9851859 ], [ 38.7549914, 8.9857531 ], [ 38.7533136, 8.9875452 ], [ 38.7519498, 8.9890651 ], [ 38.7515381, 8.9909965 ], [ 38.751011, 8.9919451 ], [ 38.7508098, 8.9934276 ], [ 38.7499626, 8.9956028 ], [ 38.7508894, 8.9967315 ], [ 38.7513274, 8.9971902 ], [ 38.7527298, 8.997626 ], [ 38.7538192, 8.9991228 ], [ 38.7540243, 8.9994539 ], [ 38.7544636, 9.0003718 ] ], [ [ 38.7793668, 9.0132882 ], [ 38.777808017706306, 9.012602975434861 ], [ 38.7778035, 9.0124771 ], [ 38.7793668, 9.0132882 ] ], [ [ 38.789585605497237, 9.012866401446612 ], [ 38.789428685437912, 9.013211057056031 ], [ 38.789262429910792, 9.012961637184326 ], [ 38.789585605497237, 9.012866401446612 ] ], [ [ 38.7714849, 8.997922 ], [ 38.7717256, 8.9974435 ], [ 38.7724357, 8.9962689 ], [ 38.773024973397241, 8.99573386302424 ], [ 38.7730194, 8.9957645 ], [ 38.7753912, 8.9966925 ], [ 38.777362, 8.9984848 ], [ 38.7766126, 8.999646 ], [ 38.7749536, 8.9996857 ], [ 38.7739914, 8.9989883 ], [ 38.7722506, 8.9984578 ], [ 38.7727757, 8.9993983 ], [ 38.7736869, 8.9994737 ], [ 38.772562165492886, 9.000305589900506 ], [ 38.770690581360775, 8.999563399989995 ], [ 38.7714849, 8.997922 ] ], [ [ 38.770692560849028, 9.010176494701952 ], [ 38.770595321335989, 9.01017149418672 ], [ 38.7706225, 9.010122 ], [ 38.770692560849028, 9.010176494701952 ] ], [ [ 38.7986449, 9.01891 ], [ 38.797182, 9.0184257 ], [ 38.7967567, 9.0182941 ], [ 38.796212347595961, 9.018116528720981 ], [ 38.796247, 9.0179322 ], [ 38.7982742, 9.0186008 ], [ 38.7986357, 9.0187146 ], [ 38.7994298, 9.0188571 ], [ 38.8007335, 9.0190982 ], [ 38.801307555140951, 9.019206899724347 ], [ 38.7992848, 9.0191203 ], [ 38.7986449, 9.01891 ] ], [ [ 38.7925888, 9.0170411 ], [ 38.7921221, 9.0169416 ], [ 38.79184303104438, 9.016889503867182 ], [ 38.791997, 9.0167392 ], [ 38.7942433, 9.0173075 ], [ 38.794288437312566, 9.017484894128126 ], [ 38.7937514, 9.0173155 ], [ 38.7925888, 9.0170411 ] ], [ [ 38.7807383, 9.0166185 ], [ 38.7813904, 9.0177361 ], [ 38.780111926836177, 9.020207559010068 ], [ 38.7804623, 9.0179874 ], [ 38.7795994, 9.0155365 ], [ 38.77898265066213, 9.014792509366595 ], [ 38.7790322, 9.0148252 ], [ 38.7807383, 9.0166185 ] ], [ [ 38.77864454405384, 9.02344877507973 ], [ 38.778648032819838, 9.023444771967766 ], [ 38.778662661277757, 9.023447720185056 ], [ 38.77864454405384, 9.02344877507973 ] ], [ [ 38.780102153701101, 9.020269487023192 ], [ 38.7803991, 9.020821 ], [ 38.780063952068609, 9.021379829013339 ], [ 38.7799554, 9.0211994 ], [ 38.780102153701101, 9.020269487023192 ] ] ], [ [ [ 38.6827558, 9.0018986 ], [ 38.683953, 9.0016938 ], [ 38.6864233, 9.0008937 ], [ 38.6868927, 9.0007255 ], [ 38.6883786, 8.9984734 ], [ 38.6891028, 8.997977 ], [ 38.6892435, 8.9957267 ], [ 38.6895916, 8.9941912 ], [ 38.6894549, 8.9937426 ], [ 38.6893504, 8.9926156 ], [ 38.6907094, 8.9902955 ], [ 38.6912374, 8.9896405 ], [ 38.6911204, 8.9888835 ], [ 38.6900986, 8.9889219 ], [ 38.6884366, 8.9889081 ], [ 38.6857622, 8.988466 ], [ 38.6832509, 8.9878363 ], [ 38.6818042, 8.9870798 ], [ 38.6795862, 8.9886155 ], [ 38.6779697, 8.9901814 ], [ 38.6766884, 8.9903938 ], [ 38.6757357, 8.9912427 ], [ 38.6753456, 8.9927498 ], [ 38.6744033, 8.99468 ], [ 38.6742204, 8.9966721 ], [ 38.6743746, 8.9987577 ], [ 38.6752017, 9.0009985 ], [ 38.6756006, 9.0031151 ], [ 38.6769319, 9.0043748 ], [ 38.6792685, 9.0037939 ], [ 38.6802857, 9.0040767 ], [ 38.6806304, 9.0037449 ], [ 38.6827558, 9.0018986 ] ] ], [ [ [ 38.7323964, 9.0329355 ], [ 38.7328184, 9.0339688 ], [ 38.7341184, 9.0347785 ], [ 38.7345023, 9.0349672 ], [ 38.735455505452855, 9.034810056660936 ], [ 38.7370819, 9.0363699 ], [ 38.7378842, 9.0374214 ], [ 38.7399621, 9.0381132 ], [ 38.7399448, 9.040324 ], [ 38.7399562, 9.0406862 ], [ 38.7413221, 9.040716 ], [ 38.743777, 9.0414001 ], [ 38.7438561, 9.041361 ], [ 38.745418105045069, 9.039418662997344 ], [ 38.7457088, 9.0400194 ], [ 38.7463036, 9.041451 ], [ 38.7470241, 9.0416954 ], [ 38.748031, 9.0406956 ], [ 38.749723, 9.0405922 ], [ 38.749973, 9.0403928 ], [ 38.75133, 9.0394709 ], [ 38.7531208, 9.0396428 ], [ 38.7555497, 9.0379841 ], [ 38.754862, 9.0375543 ], [ 38.7550527, 9.0350946 ], [ 38.7549, 9.0340673 ], [ 38.7558521, 9.0318884 ], [ 38.7568262, 9.030107 ], [ 38.7549855, 9.028112 ], [ 38.753217960437617, 9.028446620700082 ], [ 38.7519917, 9.0274854 ], [ 38.7519896, 9.026877 ], [ 38.751757499999989, 9.0253567 ], [ 38.750227869369994, 9.027543477536581 ], [ 38.748782, 9.0262905 ], [ 38.7490247, 9.0251276 ], [ 38.748433, 9.0240763 ], [ 38.7471967, 9.022532 ], [ 38.74713830000001, 9.0224901 ], [ 38.7466739, 9.0231346 ], [ 38.7462137, 9.0235673 ], [ 38.744300699999989, 9.0223826 ], [ 38.7444281, 9.0216667 ], [ 38.7444643, 9.0213137 ], [ 38.7444817, 9.0211057 ], [ 38.7442877, 9.0209837 ], [ 38.7435385, 9.0210257 ], [ 38.7418058, 9.0208555 ], [ 38.7410156, 9.0203514 ], [ 38.7395361, 9.0197636 ], [ 38.7395934, 9.0180534 ], [ 38.739568, 9.0171281 ], [ 38.7409272, 9.0161368 ], [ 38.7403109, 9.0156679 ], [ 38.7397404, 9.0152374 ], [ 38.7392753, 9.0151459 ], [ 38.7378143, 9.013647 ], [ 38.7366728, 9.0129864 ], [ 38.7360117, 9.0122933 ], [ 38.7343531, 9.0114249 ], [ 38.7340005, 9.0108205 ], [ 38.7339737, 9.011497 ], [ 38.7340052, 9.0117332 ], [ 38.7340657, 9.0117861 ], [ 38.7344752, 9.0132766 ], [ 38.7330361, 9.0140917 ], [ 38.7314063, 9.0144722 ], [ 38.7308068, 9.0146302 ], [ 38.7289514, 9.0141945 ], [ 38.7286815, 9.0130056 ], [ 38.7285514, 9.0122122 ], [ 38.7281463, 9.0122149 ], [ 38.7281746, 9.0128188 ], [ 38.7282282, 9.0131857 ], [ 38.7269328, 9.0147644 ], [ 38.7260014, 9.0147848 ], [ 38.7262984, 9.0161752 ], [ 38.7266323, 9.0168388 ], [ 38.7259972, 9.0187935 ], [ 38.7241003, 9.0192945 ], [ 38.7234107, 9.0201196 ], [ 38.7236027, 9.0212865 ], [ 38.7234364, 9.0227223 ], [ 38.7242957, 9.0236465 ], [ 38.725766, 9.024962 ], [ 38.7260677, 9.0254177 ], [ 38.7274925, 9.0263393 ], [ 38.7279777, 9.0278929 ], [ 38.7292182, 9.0285928 ], [ 38.729844734677307, 9.028648069110744 ], [ 38.7305841, 9.029825 ], [ 38.7308474, 9.0312832 ], [ 38.7312039, 9.032052 ], [ 38.7323964, 9.0329355 ] ], [ [ 38.7402489, 9.0220986 ], [ 38.740189773961511, 9.022088397371331 ], [ 38.7402526, 9.0209866 ], [ 38.7409479, 9.0205726 ], [ 38.7402489, 9.0220986 ] ], [ [ 38.749183155463712, 9.02789280751283 ], [ 38.749742790376381, 9.027785679224188 ], [ 38.749294915666894, 9.027946352705092 ], [ 38.749183155463712, 9.02789280751283 ] ] ], [ [ [ 38.7046403, 9.0559903 ], [ 38.7043163, 9.0554984 ], [ 38.7019271, 9.0549932 ], [ 38.7013686, 9.0529159 ], [ 38.7011238, 9.0523895 ], [ 38.7005753, 9.0501161 ], [ 38.698911699999989, 9.049344 ], [ 38.6974378, 9.0491639 ], [ 38.6962332, 9.0505908 ], [ 38.6963144, 9.0517702 ], [ 38.6984234, 9.0526575 ], [ 38.6989615, 9.0537428 ], [ 38.6978128, 9.0557983 ], [ 38.6975437, 9.0580471 ], [ 38.696132844499452, 9.058774725331572 ], [ 38.6955824, 9.0578386 ], [ 38.6960578, 9.0567023 ], [ 38.6962718, 9.0560974 ], [ 38.6951722, 9.0548378 ], [ 38.6945517, 9.0541158 ], [ 38.6942472, 9.0539026 ], [ 38.6938051, 9.0535962 ], [ 38.6928709, 9.0531059 ], [ 38.6915735, 9.0541893 ], [ 38.6905285, 9.0549828 ], [ 38.6887237, 9.0547257 ], [ 38.6881546, 9.0539566 ], [ 38.6869407, 9.0542206 ], [ 38.6858849, 9.0548353 ], [ 38.685872, 9.0564501 ], [ 38.6850129, 9.0568931 ], [ 38.6847682, 9.0584843 ], [ 38.6847206, 9.0589202 ], [ 38.684761, 9.0605151 ], [ 38.6847507, 9.0616361 ], [ 38.6847578, 9.0622835 ], [ 38.6848146, 9.0633976 ], [ 38.6847681, 9.0654203 ], [ 38.6853172, 9.0661976 ], [ 38.6858651, 9.0677998 ], [ 38.6873973, 9.0693067 ], [ 38.6893412, 9.069898 ], [ 38.6908646, 9.0702075 ], [ 38.6926328, 9.0708429 ], [ 38.6937147, 9.0711275 ], [ 38.6949601, 9.070665 ], [ 38.6952025, 9.0702369 ], [ 38.6953996, 9.0696928 ], [ 38.6950548, 9.0687711 ], [ 38.695539025095556, 9.06823447357082 ], [ 38.6957356, 9.0682504 ], [ 38.698357799999989, 9.0683166 ], [ 38.6992261, 9.0679087 ], [ 38.7001384, 9.0673675 ], [ 38.7002325, 9.0669452 ], [ 38.7020686, 9.0652843 ], [ 38.7043412, 9.0666829 ], [ 38.7047361, 9.0671463 ], [ 38.7051867, 9.0669423 ], [ 38.7064393, 9.0656273 ], [ 38.7071273, 9.0631653 ], [ 38.707658, 9.0628554 ], [ 38.7078967, 9.0623726 ], [ 38.7079938, 9.0620327 ], [ 38.7080747, 9.0616768 ], [ 38.7082397, 9.0607552 ], [ 38.7077774, 9.0606464 ], [ 38.7054858, 9.0595392 ], [ 38.7035425, 9.0579234 ], [ 38.7042338, 9.0564871 ], [ 38.7046905, 9.0562136 ], [ 38.7046403, 9.0559903 ] ], [ [ 38.6964191, 9.0650237 ], [ 38.6949087, 9.0637396 ], [ 38.6954913, 9.0616455 ], [ 38.6964282, 9.0617 ], [ 38.696458458583734, 9.060455810360159 ], [ 38.6984112, 9.0610208 ], [ 38.699419746165646, 9.06141733864046 ], [ 38.6985998, 9.063679 ], [ 38.6969639, 9.064293 ], [ 38.6964191, 9.0650237 ] ] ], [ [ [ 38.7381139, 9.0668089 ], [ 38.7396665, 9.0674244 ], [ 38.7403949, 9.0675189 ], [ 38.7422124, 9.0661807 ], [ 38.7434205, 9.0655438 ], [ 38.7446514, 9.063695 ], [ 38.7445897, 9.0636327 ], [ 38.7438799, 9.0618138 ], [ 38.7443676, 9.0608851 ], [ 38.7439044, 9.0592462 ], [ 38.7438718, 9.0586511 ], [ 38.7436036, 9.0586689 ], [ 38.7421707, 9.0577633 ], [ 38.7428, 9.0562738 ], [ 38.7419509, 9.0547522 ], [ 38.741849, 9.0546897 ], [ 38.7402374, 9.054053 ], [ 38.7395797, 9.0537895 ], [ 38.7391446, 9.0540754 ], [ 38.7371003, 9.0536817 ], [ 38.7358755, 9.0531916 ], [ 38.735557, 9.0531724 ], [ 38.7345264, 9.0532829 ], [ 38.7325484, 9.0532583 ], [ 38.7318406, 9.0535663 ], [ 38.7313277, 9.0540947 ], [ 38.7302284, 9.0551549 ], [ 38.7289998, 9.0562224 ], [ 38.7284695, 9.0580844 ], [ 38.7283651, 9.0599226 ], [ 38.7282904, 9.06185 ], [ 38.7284897, 9.062452 ], [ 38.7291474, 9.0629183 ], [ 38.730207, 9.0632998 ], [ 38.7312075, 9.0652871 ], [ 38.7308706, 9.0655205 ], [ 38.7302296, 9.0659928 ], [ 38.7318847, 9.066792 ], [ 38.7322328, 9.0679197 ], [ 38.7325013, 9.0684364 ], [ 38.7329426, 9.0684944 ], [ 38.7348768, 9.0680556 ], [ 38.7349199, 9.0680188 ], [ 38.7364934, 9.0670152 ], [ 38.7381139, 9.0668089 ] ] ], [ [ [ 38.7888719, 8.8733133 ], [ 38.7886957, 8.8740127 ], [ 38.7885051, 8.8745339 ], [ 38.787232, 8.8762251 ], [ 38.7891117, 8.8755951 ], [ 38.7899096, 8.875391 ], [ 38.7901014, 8.8750384 ], [ 38.7914184, 8.8734101 ], [ 38.7932409, 8.8738553 ], [ 38.794414, 8.8723742 ], [ 38.7945242, 8.8720429 ], [ 38.794619, 8.8717568 ], [ 38.7944867, 8.8710786 ], [ 38.7949891, 8.8690055 ], [ 38.7952184, 8.8685293 ], [ 38.7952005, 8.8666481 ], [ 38.7950449, 8.8660804 ], [ 38.794685800000011, 8.8650745 ], [ 38.7942379, 8.865075 ], [ 38.7937301, 8.8653709 ], [ 38.7917762, 8.864454 ], [ 38.7929183, 8.8632167 ], [ 38.7932211, 8.8629091 ], [ 38.7948964, 8.8620543 ], [ 38.794821, 8.8612175 ], [ 38.7941262, 8.8613157 ], [ 38.7928687, 8.8612573 ], [ 38.792013, 8.8604527 ], [ 38.7909974, 8.8595955 ], [ 38.7904895, 8.8590109 ], [ 38.7901631, 8.8588641 ], [ 38.7889509, 8.8600568 ], [ 38.7877702, 8.8597095 ], [ 38.7868586, 8.8614592 ], [ 38.7856821, 8.8617568 ], [ 38.7852439, 8.8617282 ], [ 38.7835496, 8.8611377 ], [ 38.7825554, 8.8616446 ], [ 38.7818782, 8.8624079 ], [ 38.78088790000001, 8.863661 ], [ 38.7825041, 8.8649203 ], [ 38.7821674, 8.8657512 ], [ 38.7806171, 8.8660652 ], [ 38.7814291, 8.867629 ], [ 38.77991440000001, 8.8683443 ], [ 38.7788193, 8.8699389 ], [ 38.7808894, 8.8703558 ], [ 38.780888, 8.8712184 ], [ 38.7808344, 8.8723937 ], [ 38.7822479, 8.8708858 ], [ 38.7837177, 8.8714079 ], [ 38.7849167, 8.8720943 ], [ 38.7865558, 8.8712502 ], [ 38.7876252, 8.8719989 ], [ 38.7888719, 8.8733133 ] ] ], [ [ [ 38.8187528, 8.8385423 ], [ 38.8194555, 8.8384522 ], [ 38.8188037, 8.8381182 ], [ 38.8187528, 8.8385423 ] ] ], [ [ [ 38.8603692, 8.9981434 ], [ 38.8620264, 8.9982205 ], [ 38.8641715, 8.9962063 ], [ 38.8648751, 8.9953168 ], [ 38.8638084, 8.9931033 ], [ 38.8638173, 8.9912566 ], [ 38.8659556, 8.990281 ], [ 38.8637757, 8.988145 ], [ 38.8636013, 8.9870832 ], [ 38.8634779, 8.9846274 ], [ 38.8627614, 8.983308 ], [ 38.8616093, 8.9828706 ], [ 38.8598227, 8.9823993 ], [ 38.8580051, 8.9836492 ], [ 38.8551102, 8.9833849 ], [ 38.853838, 8.9823195 ], [ 38.8531952, 8.9824888 ], [ 38.8525846, 8.9831407 ], [ 38.8545683, 8.9841937 ], [ 38.8549442, 8.986173 ], [ 38.8546241, 8.9872988 ], [ 38.8544359, 8.9879859 ], [ 38.8542296, 8.9887146 ], [ 38.8520765, 8.9906188 ], [ 38.8520014, 8.9906585 ], [ 38.8503555, 8.9917868 ], [ 38.8495869, 8.9928933 ], [ 38.8500308, 8.993895 ], [ 38.8515964, 8.9960086 ], [ 38.8522509, 8.9948575 ], [ 38.8549742, 8.9957103 ], [ 38.8565029, 8.9972534 ], [ 38.8586364, 8.9982815 ], [ 38.8603692, 8.9981434 ] ] ], [ [ [ 38.8097735, 8.9869675 ], [ 38.8094608, 8.9871787 ], [ 38.806898638366881, 8.987973195867674 ], [ 38.8062832, 8.9878092 ], [ 38.8048106, 8.9875098 ], [ 38.8042841, 8.9879258 ], [ 38.8036376, 8.9884913 ], [ 38.80187, 8.9896704 ], [ 38.8018267, 8.9898213 ], [ 38.8024711, 8.9914824 ], [ 38.8022096, 8.9940263 ], [ 38.8040898, 8.9947794 ], [ 38.8026126, 8.9969332 ], [ 38.8012956, 8.9984883 ], [ 38.8021955, 9.0011235 ], [ 38.8012598, 9.0016915 ], [ 38.8015064, 9.0021336 ], [ 38.801759, 9.0025316 ], [ 38.8030595, 9.0026741 ], [ 38.8057265, 9.0030926 ], [ 38.807563573769954, 9.003237636034363 ], [ 38.8086087, 9.0040038 ], [ 38.807627, 9.0054003 ], [ 38.807956, 9.0060618 ], [ 38.808213, 9.0065682 ], [ 38.8094981, 9.0070458 ], [ 38.8099822, 9.0077667 ], [ 38.810883, 9.0092075 ], [ 38.812315, 9.0105082 ], [ 38.8127388, 9.0105059 ], [ 38.8132188, 9.0105012 ], [ 38.8138905, 9.0100125 ], [ 38.8152041, 9.0109634 ], [ 38.815215, 9.0114295 ], [ 38.8152355, 9.0119172 ], [ 38.8162523, 9.0108916 ], [ 38.8156193, 9.0095021 ], [ 38.8167143, 9.008314 ], [ 38.817747, 9.0087776 ], [ 38.8185341, 9.0084452 ], [ 38.8198317, 9.0078703 ], [ 38.8205452, 9.0095604 ], [ 38.8193872, 9.0104136 ], [ 38.8198282, 9.0115553 ], [ 38.8186794, 9.0137801 ], [ 38.8175437, 9.0163151 ], [ 38.8168859, 9.0171779 ], [ 38.8171611, 9.0191599 ], [ 38.8151325, 9.0204597 ], [ 38.8133688, 9.0197109 ], [ 38.8116947, 9.0198284 ], [ 38.8107899, 9.0186719 ], [ 38.8108409, 9.0176114 ], [ 38.8110989, 9.0165559 ], [ 38.8104827, 9.0152752 ], [ 38.8103853, 9.0150813 ], [ 38.809157, 9.014593 ], [ 38.80839, 9.0144276 ], [ 38.8075053, 9.013942 ], [ 38.8067256, 9.0137114 ], [ 38.8074242, 9.0149396 ], [ 38.8065164, 9.0154162 ], [ 38.8061084, 9.0155969 ], [ 38.8057726, 9.0157653 ], [ 38.8054571, 9.0159235 ], [ 38.8050866, 9.0161148 ], [ 38.8043103, 9.0174651 ], [ 38.8031721, 9.0170176 ], [ 38.8027118, 9.0169641 ], [ 38.8025355, 9.0170072 ], [ 38.8023704, 9.017401 ], [ 38.8036287, 9.0177872 ], [ 38.8037945, 9.0186417 ], [ 38.8037421, 9.0189254 ], [ 38.8035447, 9.0196294 ], [ 38.8045576, 9.0198433 ], [ 38.805639, 9.019272 ], [ 38.8066547, 9.0201329 ], [ 38.8076165, 9.0203631 ], [ 38.807704, 9.0203778 ], [ 38.8083148, 9.0203995 ], [ 38.8088993, 9.0203582 ], [ 38.809637, 9.0202318 ], [ 38.810139, 9.0201299 ], [ 38.8110194, 9.0199451 ], [ 38.8116207, 9.0198412 ], [ 38.812443365208424, 9.019898278452413 ], [ 38.811567599999989, 9.0200756 ], [ 38.811054, 9.0201534 ], [ 38.8096449, 9.0204194 ], [ 38.8078818, 9.0205801 ], [ 38.8077958, 9.0213498 ], [ 38.8091269, 9.0234127 ], [ 38.8102636, 9.0243078 ], [ 38.8107857, 9.0242689 ], [ 38.8129946, 9.0250146 ], [ 38.8140818, 9.0259528 ], [ 38.8143496, 9.0279621 ], [ 38.8163433, 9.0259836 ], [ 38.8191069, 9.0273668 ], [ 38.8191392, 9.0273882 ], [ 38.8202976, 9.0275475 ], [ 38.8201207, 9.0263461 ], [ 38.8219882, 9.0245452 ], [ 38.8220186, 9.023904 ], [ 38.821077099999989, 9.0225039 ], [ 38.8203659, 9.020502 ], [ 38.8199606, 9.0189684 ], [ 38.8214779, 9.0198759 ], [ 38.8225251, 9.0205433 ], [ 38.8232996, 9.0204045 ], [ 38.8251564, 9.01968 ], [ 38.826133003361562, 9.021494373347984 ], [ 38.8257156, 9.022524 ], [ 38.8257265, 9.0233455 ], [ 38.8265798, 9.0254264 ], [ 38.8265137, 9.0234793 ], [ 38.8268289, 9.0218945 ], [ 38.8285495, 9.0210826 ], [ 38.8265759, 9.0200041 ], [ 38.827891, 9.0176995 ], [ 38.8292756, 9.0182121 ], [ 38.829751031382372, 9.017533365037083 ], [ 38.8319827, 9.0193047 ], [ 38.8331042, 9.0198414 ], [ 38.833899, 9.0198191 ], [ 38.8344424, 9.0197942 ], [ 38.8353449, 9.0190101 ], [ 38.8388775, 9.0203366 ], [ 38.8390236, 9.0214427 ], [ 38.8403292, 9.0199054 ], [ 38.8418154, 9.0187105 ], [ 38.8431681, 9.0171258 ], [ 38.843333420135153, 9.016635108762205 ], [ 38.844074, 9.0170032 ], [ 38.8452267, 9.0180744 ], [ 38.8466367, 9.0185819 ], [ 38.8472489, 9.0185543 ], [ 38.8486883, 9.0184892 ], [ 38.849573489819555, 9.018135945213013 ], [ 38.8500344, 9.0184398 ], [ 38.8485722, 9.0212117 ], [ 38.847197799999989, 9.0212844 ], [ 38.8470876, 9.0220415 ], [ 38.8486332, 9.0231775 ], [ 38.8504699, 9.0221315 ], [ 38.8526943, 9.0237145 ], [ 38.8527671, 9.0250063 ], [ 38.8525147, 9.0259371 ], [ 38.8525511, 9.0263638 ], [ 38.85256, 9.0264992 ], [ 38.8528376, 9.0264879 ], [ 38.8529791, 9.0264362 ], [ 38.8541116, 9.025734 ], [ 38.8542502, 9.0254448 ], [ 38.8563547, 9.0225111 ], [ 38.8596607, 9.0204593 ], [ 38.8605466, 9.0204936 ], [ 38.8613409, 9.0205415 ], [ 38.8622165, 9.0206089 ], [ 38.8626257, 9.0206366 ], [ 38.8631122, 9.0206697 ], [ 38.86369, 9.0207089 ], [ 38.8640811, 9.0207354 ], [ 38.8649712, 9.0207781 ], [ 38.8642837, 9.0190138 ], [ 38.8637006, 9.0184231 ], [ 38.8627997, 9.0176102 ], [ 38.8613154, 9.0171249 ], [ 38.8596886, 9.0148992 ], [ 38.8590277, 9.0143315 ], [ 38.858957516926914, 9.014275504331884 ], [ 38.8603945, 9.0127165 ], [ 38.8626433, 9.0104215 ], [ 38.8627434, 9.0099876 ], [ 38.8622546, 9.0089558 ], [ 38.8610121, 9.0076803 ], [ 38.8591442, 9.0064317 ], [ 38.8562293, 9.0055649 ], [ 38.8541231, 9.0079006 ], [ 38.8520834, 9.0059043 ], [ 38.8520747, 9.0057922 ], [ 38.8520682, 9.0056456 ], [ 38.8519758, 9.0039611 ], [ 38.8520229, 9.0038196 ], [ 38.8521116, 9.0016345 ], [ 38.8520668, 9.0013272 ], [ 38.8516412, 8.9998021 ], [ 38.8492016, 9.001935 ], [ 38.848643859896896, 9.002427151263339 ], [ 38.8467644, 9.0021269 ], [ 38.8453033, 9.0021971 ], [ 38.8434519, 9.0021879 ], [ 38.842725, 9.002972 ], [ 38.8418104, 9.0055026 ], [ 38.841224036675307, 9.005580546841065 ], [ 38.8401092, 9.0045006 ], [ 38.8398108, 9.0042449 ], [ 38.8386052, 9.0043614 ], [ 38.835301, 9.0032933 ], [ 38.8350485, 9.0029058 ], [ 38.8347494, 9.0025864 ], [ 38.8333416, 9.0027636 ], [ 38.8320313, 9.0036904 ], [ 38.8292794, 9.004143 ], [ 38.829346371101167, 9.004760297963994 ], [ 38.827365, 9.0040439 ], [ 38.8253637, 9.0037138 ], [ 38.824734585212575, 9.004022799713384 ], [ 38.8251673, 9.0028349 ], [ 38.8241194, 9.0013522 ], [ 38.8241522, 8.9994724 ], [ 38.8235302, 8.9982675 ], [ 38.8232394, 8.9968861 ], [ 38.8219962, 8.9956238 ], [ 38.82168642822279, 8.995375814071375 ], [ 38.8214167, 8.9944311 ], [ 38.8200858, 8.9919752 ], [ 38.8195093, 8.9898071 ], [ 38.8192988, 8.9884962 ], [ 38.8166645, 8.988021 ], [ 38.8158998, 8.9886047 ], [ 38.8127899, 8.9893411 ], [ 38.8103143, 8.9883096 ], [ 38.8097735, 8.9869675 ] ], [ [ 38.8177464, 9.0169227 ], [ 38.8176978075943, 9.016424200911553 ], [ 38.8194273, 9.0176486 ], [ 38.8199606, 9.0189684 ], [ 38.8177464, 9.0169227 ] ] ], [ [ [ 38.8392543, 9.0375006 ], [ 38.8411733, 9.039514 ], [ 38.8395457, 9.0414545 ], [ 38.8395098, 9.0416962 ], [ 38.8396154, 9.0432269 ], [ 38.8407137, 9.0449231 ], [ 38.8401769, 9.0463548 ], [ 38.8394097, 9.0464862 ], [ 38.8405487, 9.0480595 ], [ 38.837956, 9.0495638 ], [ 38.8405245, 9.0490252 ], [ 38.8419441, 9.0503506 ], [ 38.8423777, 9.0510737 ], [ 38.8438708, 9.050832 ], [ 38.8457277, 9.0501837 ], [ 38.8462717, 9.0497834 ], [ 38.8467606, 9.0494644 ], [ 38.8495097, 9.0495413 ], [ 38.8491305, 9.0489273 ], [ 38.8489383, 9.0480514 ], [ 38.849285, 9.0467733 ], [ 38.8516621, 9.0458277 ], [ 38.8527789, 9.0436022 ], [ 38.853774023574466, 9.043892463443063 ], [ 38.8539653, 9.0446349 ], [ 38.8531571, 9.045512 ], [ 38.8531103, 9.0461421 ], [ 38.853138, 9.0471918 ], [ 38.8546703, 9.0485943 ], [ 38.8570453, 9.0487996 ], [ 38.8573752, 9.0488562 ], [ 38.8578781, 9.0489559 ], [ 38.8601862, 9.0500287 ], [ 38.8611813, 9.0496817 ], [ 38.8615139, 9.0491519 ], [ 38.8620771, 9.0479971 ], [ 38.8644568, 9.0471352 ], [ 38.864908, 9.0474997 ], [ 38.8651161, 9.047613 ], [ 38.8659955, 9.0479541 ], [ 38.866767, 9.0462568 ], [ 38.8666471, 9.0446423 ], [ 38.8674416, 9.0431642 ], [ 38.8679901, 9.0413286 ], [ 38.8673427, 9.0401281 ], [ 38.8675797, 9.0383181 ], [ 38.8668743, 9.0391631 ], [ 38.8646204, 9.0383765 ], [ 38.8639924, 9.0378354 ], [ 38.8624756, 9.0366788 ], [ 38.8620956, 9.0352 ], [ 38.8598327, 9.0363672 ], [ 38.8583172, 9.0371603 ], [ 38.8580072, 9.0381341 ], [ 38.8557371, 9.0384416 ], [ 38.8544491, 9.0374327 ], [ 38.8536206, 9.036021 ], [ 38.8535656, 9.0358154 ], [ 38.853540099999989, 9.0357091 ], [ 38.85198363428907, 9.036564521863244 ], [ 38.8517428, 9.0360889 ], [ 38.8512269, 9.0351682 ], [ 38.8503209, 9.033205 ], [ 38.84921, 9.0314487 ], [ 38.8482917, 9.0308104 ], [ 38.8467914, 9.0287197 ], [ 38.8459702, 9.0280977 ], [ 38.8445368, 9.0261559 ], [ 38.844009, 9.0263363 ], [ 38.8427642, 9.0268135 ], [ 38.8399696, 9.027806 ], [ 38.8385591, 9.0292689 ], [ 38.8363641, 9.0296097 ], [ 38.8363402, 9.0297042 ], [ 38.8363252, 9.0299163 ], [ 38.8362977, 9.0307735 ], [ 38.8357675, 9.032302 ], [ 38.8342501, 9.0330166 ], [ 38.8347551, 9.034241 ], [ 38.8347468, 9.0370347 ], [ 38.8348367, 9.037034 ], [ 38.8362384, 9.0370978 ], [ 38.8370374, 9.0371658 ], [ 38.8375676, 9.0372689 ], [ 38.8392543, 9.0375006 ] ], [ [ 38.852984610726224, 9.041525652839431 ], [ 38.8527188, 9.0403322 ], [ 38.85319354283132, 9.040036948374008 ], [ 38.8535732, 9.04111 ], [ 38.852984610726224, 9.041525652839431 ] ] ] ] } },
{ "type": "Feature", "properties": { "index": 600 }, "geometry": { "type": "MultiPolygon", "coordinates": [ [ [ [ 38.7682748, 8.9628075 ], [ 38.7696023, 8.9623863 ], [ 38.7723252, 8.9613283 ], [ 38.7746049, 8.9599046 ], [ 38.775242, 8.9583361 ], [ 38.7755169, 8.9575612 ], [ 38.7788795, 8.9553509 ], [ 38.7790044, 8.9553408 ], [ 38.7804985, 8.9526709 ], [ 38.7816307, 8.9503209 ], [ 38.7808579, 8.9485282 ], [ 38.7815572, 8.9456611 ], [ 38.781302599999989, 8.9447898 ], [ 38.7812714, 8.9447016 ], [ 38.781222, 8.9446248 ], [ 38.7795965, 8.943602 ], [ 38.7789381, 8.9431158 ], [ 38.7771423, 8.9412531 ], [ 38.7792063, 8.9382432 ], [ 38.7821319, 8.9398252 ], [ 38.7821202, 8.9395398 ], [ 38.7788342, 8.937519 ], [ 38.7786296, 8.9346516 ], [ 38.7787342, 8.9333201 ], [ 38.7786108, 8.930677 ], [ 38.7770201, 8.9287389 ], [ 38.7748735, 8.9298225 ], [ 38.7740136, 8.9302251 ], [ 38.770694, 8.9310142 ], [ 38.7682445, 8.9295578 ], [ 38.7667501, 8.9317034 ], [ 38.7664081, 8.9322098 ], [ 38.7621219, 8.9326265 ], [ 38.7599319, 8.9349152 ], [ 38.7573999, 8.9376337 ], [ 38.7588604, 8.9404185 ], [ 38.7593029, 8.9433821 ], [ 38.7601362, 8.9458737 ], [ 38.7599544, 8.9471517 ], [ 38.7597544, 8.9484631 ], [ 38.7560588, 8.9495278 ], [ 38.7555076, 8.9500644 ], [ 38.7550221, 8.9516792 ], [ 38.7551063, 8.952354 ], [ 38.7554647, 8.9537485 ], [ 38.7562482, 8.9578487 ], [ 38.7566045, 8.959288 ], [ 38.7573119, 8.960343 ], [ 38.7580243, 8.9610853 ], [ 38.7597316, 8.9620983 ], [ 38.7632587, 8.9641906 ], [ 38.7642007, 8.9642484 ], [ 38.7682748, 8.9628075 ] ] ], [ [ [ 38.7182757, 8.9384784 ], [ 38.7175544, 8.9401426 ], [ 38.7173063, 8.9406093 ], [ 38.7173586, 8.9414413 ], [ 38.715917890489429, 8.945717955235553 ], [ 38.71384361778513, 8.946877428239469 ], [ 38.7113665, 8.9477764 ], [ 38.7083825, 8.9462516 ], [ 38.7058638, 8.9437249 ], [ 38.7042759, 8.9441276 ], [ 38.7006733, 8.9488456 ], [ 38.6996061, 8.9503064 ], [ 38.6993143, 8.9511374 ], [ 38.6990292, 8.9520488 ], [ 38.699147138047479, 8.952406563226102 ], [ 38.6967489, 8.9534902 ], [ 38.6957145, 8.9536041 ], [ 38.6949377, 8.9543928 ], [ 38.695034812736047, 8.954991719948751 ], [ 38.6934453, 8.9582368 ], [ 38.693562, 8.9605524 ], [ 38.6949742, 8.9614784 ], [ 38.6973037, 8.9678437 ], [ 38.6929491, 8.9700675 ], [ 38.6919154, 8.9705047 ], [ 38.691983788840908, 8.971785114063666 ], [ 38.6880975, 8.9715131 ], [ 38.6850221, 8.9739013 ], [ 38.6817193, 8.9755981 ], [ 38.681275149700099, 8.979747503375238 ], [ 38.6805144, 8.979697 ], [ 38.6763068, 8.9798212 ], [ 38.6722867, 8.9820311 ], [ 38.671657, 8.982182 ], [ 38.6712299, 8.982304 ], [ 38.66874, 8.9856598 ], [ 38.6667577, 8.9896758 ], [ 38.6659679, 8.9914574 ], [ 38.6650817, 8.9938911 ], [ 38.6656496, 8.9981478 ], [ 38.6654444, 9.0024464 ], [ 38.6668807, 9.004833 ], [ 38.6671905, 9.0070034 ], [ 38.6671691, 9.0077046 ], [ 38.6696997, 9.0084836 ], [ 38.671073, 9.0104254 ], [ 38.6711597, 9.0107059 ], [ 38.6712961, 9.0111145 ], [ 38.6719602, 9.0117335 ], [ 38.674743, 9.013411 ], [ 38.6767494, 9.0139728 ], [ 38.6786784, 9.013297 ], [ 38.6800851, 9.0119121 ], [ 38.6832798, 9.0113804 ], [ 38.6852123, 9.0110916 ], [ 38.6875373, 9.0079658 ], [ 38.6893233, 9.006919 ], [ 38.6939538, 9.0068815 ], [ 38.6940091, 9.0069179 ], [ 38.6961047, 9.0061279 ], [ 38.6982274, 9.0041267 ], [ 38.6995661, 9.0010156 ], [ 38.6995424, 8.9983635 ], [ 38.699263, 8.9946262 ], [ 38.699186674068791, 8.994468946850327 ], [ 38.703397699999989, 8.995898 ], [ 38.7036552, 8.9959927 ], [ 38.7084322, 8.9973378 ], [ 38.7100275, 8.9970837 ], [ 38.7101307, 8.99704 ], [ 38.7107611, 8.9965727 ], [ 38.7124069, 8.994555 ], [ 38.7174222, 8.9933596 ], [ 38.7176198, 8.992324 ], [ 38.717421, 8.9901426 ], [ 38.7162468, 8.9847824 ], [ 38.7168194, 8.9822457 ], [ 38.7175114, 8.9806295 ], [ 38.7176258, 8.979304 ], [ 38.7175921, 8.9788318 ], [ 38.7174562, 8.9781784 ], [ 38.7168061, 8.9769062 ], [ 38.7158324, 8.9755627 ], [ 38.7110888, 8.9732445 ], [ 38.7137725, 8.9724536 ], [ 38.7206829, 8.9750566 ], [ 38.7189332, 8.9793883 ], [ 38.7197882, 8.9819198 ], [ 38.7223984, 8.9810641 ], [ 38.7230837, 8.980366 ], [ 38.726803860779228, 8.980094887896881 ], [ 38.7239528, 8.9834432 ], [ 38.722532, 8.9843766 ], [ 38.7209886, 8.98606 ], [ 38.7204421, 8.9888541 ], [ 38.7203358, 8.9898732 ], [ 38.7208168, 8.9933947 ], [ 38.7210667, 8.9937515 ], [ 38.7211037, 8.9937953 ], [ 38.721388, 8.994096 ], [ 38.7218671, 8.9944618 ], [ 38.725977, 8.9973217 ], [ 38.7274674, 8.99912 ], [ 38.7289264, 8.9982376 ], [ 38.7307139, 8.9976947 ], [ 38.7308209, 8.9976433 ], [ 38.7344089, 8.9966973 ], [ 38.7371778, 8.998569 ], [ 38.73762, 9.0013467 ], [ 38.7376749, 9.0014169 ], [ 38.7378668, 9.0015854 ], [ 38.7383125, 9.0019776 ], [ 38.7383449, 9.0020032 ], [ 38.7410113, 9.0026659 ], [ 38.7411363, 9.0026067 ], [ 38.7406738, 9.0016086 ], [ 38.7429701, 8.9977686 ], [ 38.7454493, 9.0011653 ], [ 38.7453268, 9.0025716 ], [ 38.7466215, 9.0053198 ], [ 38.748271, 9.0080491 ], [ 38.7502626, 9.0077974 ], [ 38.7513155, 9.0081678 ], [ 38.752195610384369, 9.010323913133488 ], [ 38.7519181, 9.0117755 ], [ 38.7503444, 9.0116155 ], [ 38.7499394, 9.0114004 ], [ 38.7498135, 9.0113847 ], [ 38.7495149, 9.011528 ], [ 38.75049910989614, 9.013950110923423 ], [ 38.748530245454617, 9.013119076686715 ], [ 38.7462365, 9.010408 ], [ 38.7448514, 9.0085099 ], [ 38.7436921, 9.00817 ], [ 38.7405633, 9.0055545 ], [ 38.7394138, 9.0033881 ], [ 38.7368803, 9.0018037 ], [ 38.7353683, 9.0005664 ], [ 38.7325948, 9.0017547 ], [ 38.732501, 9.001813 ], [ 38.730182, 9.0046135 ], [ 38.7292146, 9.0052443 ], [ 38.7285474, 9.0064755 ], [ 38.7284978, 9.0065722 ], [ 38.7287807, 9.0080888 ], [ 38.726517, 9.0109459 ], [ 38.7225071, 9.0114307 ], [ 38.7201735, 9.0095651 ], [ 38.7197471, 9.0087074 ], [ 38.718933, 9.0094108 ], [ 38.7184912, 9.0101752 ], [ 38.7191591, 9.0121974 ], [ 38.7191807, 9.0122896 ], [ 38.7188622, 9.016363 ], [ 38.7172717, 9.0182925 ], [ 38.7171452, 9.0185363 ], [ 38.716879, 9.0190493 ], [ 38.7160489, 9.0210002 ], [ 38.7156287, 9.0220832 ], [ 38.7153381, 9.0230401 ], [ 38.7152763, 9.0236018 ], [ 38.715158, 9.0253611 ], [ 38.7151311, 9.0261072 ], [ 38.7154665, 9.027189 ], [ 38.7170336, 9.0285625 ], [ 38.7195483, 9.0309808 ], [ 38.720165, 9.0329125 ], [ 38.721726988459778, 9.03430247615775 ], [ 38.7223555, 9.0361142 ], [ 38.7250616, 9.0383272 ], [ 38.7252774, 9.0386562 ], [ 38.726096, 9.0398349 ], [ 38.727266, 9.0414365 ], [ 38.729654812234337, 9.043242910701689 ], [ 38.7297705, 9.0436907 ], [ 38.730284871838542, 9.044493967633612 ], [ 38.7272066, 9.0467182 ], [ 38.7254709, 9.0461084 ], [ 38.7250096, 9.0457555 ], [ 38.7233144, 9.0470726 ], [ 38.7213459, 9.0513229 ], [ 38.7202065, 9.0528853 ], [ 38.7202049, 9.0529697 ], [ 38.720632, 9.0552255 ], [ 38.7189725, 9.0584989 ], [ 38.7190834, 9.0625462 ], [ 38.7189063, 9.0637102 ], [ 38.7196749, 9.0666974 ], [ 38.7198517, 9.0699181 ], [ 38.7215124, 9.0716122 ], [ 38.7257969, 9.0726548 ], [ 38.7291224, 9.0709316 ], [ 38.7305483, 9.0709061 ], [ 38.732525099999989, 9.0719682 ], [ 38.7324589, 9.0764417 ], [ 38.7348948, 9.0733919 ], [ 38.7377219, 9.0759888 ], [ 38.7382369, 9.0758127 ], [ 38.7389919, 9.0740699 ], [ 38.7436485, 9.0747601 ], [ 38.7441498, 9.0752923 ], [ 38.7453353, 9.0750155 ], [ 38.7478419, 9.0712001 ], [ 38.7504163, 9.0706119 ], [ 38.7528978, 9.0679661 ], [ 38.7551117, 9.0655313 ], [ 38.7550935, 9.0655018 ], [ 38.7544176, 9.0643645 ], [ 38.7519973, 9.0609798 ], [ 38.7527865, 9.0560788 ], [ 38.7533629, 9.05423 ], [ 38.7518816, 9.0510309 ], [ 38.7516136, 9.0506008 ], [ 38.751171180133824, 9.049936650822577 ], [ 38.7524777, 9.0497518 ], [ 38.7570539, 9.0486957 ], [ 38.757098, 9.0486706 ], [ 38.7568986, 9.0481555 ], [ 38.7600057, 9.0440359 ], [ 38.7600234, 9.0439033 ], [ 38.7595116, 9.0405678 ], [ 38.759999402117202, 9.040123678874297 ], [ 38.7609601, 9.0437661 ], [ 38.7610127, 9.0440194 ], [ 38.7611534, 9.0441026 ], [ 38.7633023, 9.0453081 ], [ 38.7639091, 9.0457048 ], [ 38.7657775, 9.0471413 ], [ 38.7676639, 9.0498369 ], [ 38.7679429, 9.0501205 ], [ 38.7702489, 9.0500487 ], [ 38.7703563, 9.0500188 ], [ 38.7711241, 9.0483539 ], [ 38.772725, 9.0469788 ], [ 38.7770637, 9.0488362 ], [ 38.7783756, 9.049188 ], [ 38.7797534, 9.049189 ], [ 38.7822264, 9.0489175 ], [ 38.7863618, 9.0469064 ], [ 38.7881461, 9.0481785 ], [ 38.7887992, 9.047307 ], [ 38.7893323, 9.046174 ], [ 38.7888638, 9.0443872 ], [ 38.7883687, 9.0411166 ], [ 38.788999, 9.0366321 ], [ 38.7898711, 9.0353037 ], [ 38.7947311, 9.0312946 ], [ 38.7997189, 9.0335465 ], [ 38.8048161, 9.0292985 ], [ 38.808201, 9.0306966 ], [ 38.8101278, 9.0326481 ], [ 38.8103267, 9.0327174 ], [ 38.8105209, 9.0319502 ], [ 38.810141, 9.0310664 ], [ 38.809383, 9.0265432 ], [ 38.8143496, 9.0279621 ], [ 38.8144997, 9.0290358 ], [ 38.8144722, 9.0294405 ], [ 38.8116564, 9.0325841 ], [ 38.8129082, 9.0334593 ], [ 38.8131091, 9.0333978 ], [ 38.8167679, 9.0323597 ], [ 38.8208636, 9.0339018 ], [ 38.82420118323072, 9.034206728247687 ], [ 38.824153, 9.0342365 ], [ 38.82487, 9.0376093 ], [ 38.8253194, 9.0403359 ], [ 38.8258203, 9.041608 ], [ 38.8265489, 9.043374 ], [ 38.8295261, 9.0453123 ], [ 38.8307291, 9.0448386 ], [ 38.8342291, 9.0444675 ], [ 38.8347106, 9.0444106 ], [ 38.8334654, 9.0492351 ], [ 38.8327324, 9.052157 ], [ 38.8328679, 9.0538721 ], [ 38.8332729, 9.0541741 ], [ 38.8340896, 9.0540959 ], [ 38.8341376, 9.0540813 ], [ 38.8379064, 9.0536854 ], [ 38.8397585, 9.0570348 ], [ 38.8406691, 9.0567526 ], [ 38.8385418, 9.0535897 ], [ 38.8423777, 9.0510737 ], [ 38.8438708, 9.050832 ], [ 38.8457277, 9.0501837 ], [ 38.8484814, 9.0533788 ], [ 38.8481572, 9.0576546 ], [ 38.8434865, 9.0603961 ], [ 38.84366510000001, 9.0608013 ], [ 38.8436423, 9.0606204 ], [ 38.8436339, 9.0605114 ], [ 38.8479806, 9.0587243 ], [ 38.8480478, 9.0588075 ], [ 38.851721812180763, 9.058514133774985 ], [ 38.8528946, 9.0591061 ], [ 38.8534793, 9.0604848 ], [ 38.853946, 9.0604914 ], [ 38.8543698, 9.0598689 ], [ 38.8553005, 9.0583366 ], [ 38.8554799, 9.056709 ], [ 38.8542894, 9.0539052 ], [ 38.8601862, 9.0500287 ], [ 38.8611813, 9.0496817 ], [ 38.8659955, 9.0479541 ], [ 38.8716953, 9.0526346 ], [ 38.8724747, 9.0542244 ], [ 38.8755371, 9.0495277 ], [ 38.8734818, 9.0473127 ], [ 38.8733882, 9.04726 ], [ 38.871941, 9.0470693 ], [ 38.8679901, 9.0413286 ], [ 38.8683777, 9.0387989 ], [ 38.8681483, 9.0364148 ], [ 38.8642685, 9.0370267 ], [ 38.8636881, 9.0301716 ], [ 38.8648603, 9.0291935 ], [ 38.8672354, 9.0255657 ], [ 38.8711553, 9.0240474 ], [ 38.8752516, 9.0212513 ], [ 38.8757868, 9.0208335 ], [ 38.8723236, 9.0167624 ], [ 38.8713304, 9.0158969 ], [ 38.870593668407523, 9.014799180865605 ], [ 38.8741303, 9.010825 ], [ 38.8702878, 9.0045169 ], [ 38.8678579, 9.004212 ], [ 38.8621925, 8.9992314 ], [ 38.863330499999989, 8.9968197 ], [ 38.8673329, 8.996602 ], [ 38.8685319, 8.9965702 ], [ 38.8683298, 8.9954969 ], [ 38.8658631, 8.9953807 ], [ 38.8647621, 8.9947766 ], [ 38.8638084, 8.9931033 ], [ 38.8659556, 8.990281 ], [ 38.8637757, 8.988145 ], [ 38.8644268, 8.9854301 ], [ 38.8656975, 8.9832292 ], [ 38.8694492, 8.9826364 ], [ 38.8692842, 8.9776795 ], [ 38.8683736, 8.9810879 ], [ 38.8653253, 8.9813012 ], [ 38.8639602, 8.9815304 ], [ 38.8630052, 8.9775974 ], [ 38.8632211, 8.9748911 ], [ 38.8611719, 8.9752872 ], [ 38.8585998, 8.9765871 ], [ 38.8551297, 8.9748164 ], [ 38.8549588, 8.9743086 ], [ 38.8542589, 8.9723237 ], [ 38.8539979, 8.9723627 ], [ 38.8540339, 8.9724259 ], [ 38.8546712, 8.974416 ], [ 38.8548589, 8.9749055 ], [ 38.8555617, 8.9771388 ], [ 38.8518164, 8.9790824 ], [ 38.8512316, 8.9791592 ], [ 38.8494104, 8.9788651 ], [ 38.8456259, 8.9797438 ], [ 38.8437442, 8.9818019 ], [ 38.8435753, 8.9824046 ], [ 38.8439348, 8.9838831 ], [ 38.8440632, 8.9842888 ], [ 38.8420799, 8.9878397 ], [ 38.8410903, 8.9883045 ], [ 38.8408998, 8.9896213 ], [ 38.8392475, 8.9932561 ], [ 38.83978354861236, 8.993857735973021 ], [ 38.838526595679951, 8.994641441869151 ], [ 38.8375408, 8.9944347 ], [ 38.8363755, 8.994472 ], [ 38.831342827770264, 8.994108465225251 ], [ 38.8316189, 8.9909998 ], [ 38.8318874, 8.9895575 ], [ 38.831862, 8.9894858 ], [ 38.8310145, 8.9893455 ], [ 38.8284344, 8.9887398 ], [ 38.8282371, 8.9889643 ], [ 38.8243435, 8.9870493 ], [ 38.8236563, 8.9829914 ], [ 38.8211882, 8.9830776 ], [ 38.8200144, 8.9840292 ], [ 38.817983, 8.985495 ], [ 38.8172293, 8.987135 ], [ 38.8158998, 8.9886047 ], [ 38.8097735, 8.9869675 ], [ 38.8079529, 8.9863615 ], [ 38.8066972, 8.9860036 ], [ 38.8035562, 8.9852867 ], [ 38.8021619, 8.9853275 ], [ 38.7996331, 8.9854045 ], [ 38.7971379, 8.9861223 ], [ 38.789342753595477, 8.985828477965503 ], [ 38.7880106, 8.9854871 ], [ 38.7855757, 8.9849273 ], [ 38.7842988, 8.9845215 ], [ 38.7787516, 8.9794447 ], [ 38.7777914, 8.9763594 ], [ 38.7755072, 8.9716351 ], [ 38.7752672, 8.9716781 ], [ 38.774991, 8.9719637 ], [ 38.7710859, 8.9752898 ], [ 38.766807300000011, 8.9766861 ], [ 38.7664319, 8.9778719 ], [ 38.766275890807165, 8.9786055011002 ], [ 38.7646558, 8.9779692 ], [ 38.7638058, 8.9768236 ], [ 38.7624457, 8.9749601 ], [ 38.7584311, 8.9727864 ], [ 38.756673, 8.9690124 ], [ 38.7566851, 8.9669946 ], [ 38.7560391, 8.966296 ], [ 38.7547301, 8.9651931 ], [ 38.7517772, 8.9621726 ], [ 38.7495841, 8.9609017 ], [ 38.7475643, 8.9601159 ], [ 38.7468403, 8.9614726 ], [ 38.7436026, 8.9638351 ], [ 38.742887, 8.9641089 ], [ 38.7417376, 8.9644179 ], [ 38.7415858, 8.9646898 ], [ 38.7428784, 8.9669177 ], [ 38.7428134, 8.968824 ], [ 38.740313202593157, 8.969254755014044 ], [ 38.7372129, 8.9662997 ], [ 38.7355458, 8.9629714 ], [ 38.7352396, 8.9611247 ], [ 38.7364709, 8.9560006 ], [ 38.7416386, 8.9527331 ], [ 38.7419392, 8.951485 ], [ 38.7420845, 8.9508667 ], [ 38.7422418, 8.9502442 ], [ 38.7423251, 8.9499041 ], [ 38.7423969, 8.9496075 ], [ 38.7424729, 8.9492846 ], [ 38.7426053, 8.948739 ], [ 38.7423963, 8.9468909 ], [ 38.7417747, 8.945377 ], [ 38.7407958, 8.9439545 ], [ 38.7396323, 8.9425541 ], [ 38.737807, 8.9407308 ], [ 38.7340245, 8.9393792 ], [ 38.7336878, 8.9394434 ], [ 38.732283746382194, 8.940533881643164 ], [ 38.7321951, 8.9402901 ], [ 38.7267946, 8.9386062 ], [ 38.7254373, 8.9376871 ], [ 38.7204711, 8.9354637 ], [ 38.7182757, 8.9384784 ] ], [ [ 38.758338010612995, 9.025200807583147 ], [ 38.7614021, 9.0232701 ], [ 38.760855858940772, 9.026075817895007 ], [ 38.758338010612995, 9.025200807583147 ] ], [ [ 38.762227541334511, 9.025855912289236 ], [ 38.76246577950927, 9.026602227229271 ], [ 38.7624111, 9.0266163 ], [ 38.762227541334511, 9.025855912289236 ] ] ], [ [ [ 38.7049681, 9.0734342 ], [ 38.7040883, 9.075675 ], [ 38.7066767, 9.0720331 ], [ 38.7051867, 9.0669423 ], [ 38.7064393, 9.0656273 ], [ 38.707658, 9.0628554 ], [ 38.7110449, 9.061498 ], [ 38.7142127, 9.0594514 ], [ 38.7135377, 9.0568903 ], [ 38.7157332, 9.0546701 ], [ 38.7157554, 9.0546448 ], [ 38.7157822, 9.0546119 ], [ 38.7160095, 9.054288 ], [ 38.7159558, 9.0542542 ], [ 38.712419760651635, 9.053535975902541 ], [ 38.7119027, 9.0522056 ], [ 38.712318, 9.0481149 ], [ 38.7108133, 9.04617 ], [ 38.7091868, 9.0461864 ], [ 38.7060577, 9.0477547 ], [ 38.7044853, 9.0480302 ], [ 38.7039743, 9.0488434 ], [ 38.7005753, 9.0501161 ], [ 38.698911699999989, 9.049344 ], [ 38.6974378, 9.0491639 ], [ 38.695908606791534, 9.048901064067136 ], [ 38.6936334, 9.0470007 ], [ 38.6941092, 9.0458687 ], [ 38.6955012, 9.0446396 ], [ 38.6951834, 9.0444092 ], [ 38.6950265, 9.0442973 ], [ 38.6937917, 9.0440089 ], [ 38.6926545, 9.0441374 ], [ 38.6922363, 9.0443981 ], [ 38.6911494, 9.0467124 ], [ 38.6905687, 9.0493811 ], [ 38.6872937, 9.0512525 ], [ 38.684895, 9.0518267 ], [ 38.6846724, 9.0563468 ], [ 38.6847206, 9.0589202 ], [ 38.6847507, 9.0616361 ], [ 38.6847362, 9.0650724 ], [ 38.6847681, 9.0654203 ], [ 38.6848503, 9.0662366 ], [ 38.6851587, 9.0687948 ], [ 38.6852767, 9.0690918 ], [ 38.6848046, 9.0744871 ], [ 38.689663, 9.0762027 ], [ 38.6938391, 9.0730859 ], [ 38.6945052, 9.0723955 ], [ 38.6946523, 9.0720662 ], [ 38.698357799999989, 9.0683166 ], [ 38.6992261, 9.0679087 ], [ 38.7001384, 9.0673675 ], [ 38.7047361, 9.0671463 ], [ 38.7049681, 9.0734342 ] ] ], [ [ [ 38.7865004, 8.8858379 ], [ 38.7868808, 8.8849666 ], [ 38.7923162, 8.8846006 ], [ 38.792441, 8.8844337 ], [ 38.7963174, 8.8804884 ], [ 38.8011561, 8.8787089 ], [ 38.8021982, 8.8784711 ], [ 38.8027601, 8.8783434 ], [ 38.805058699999989, 8.8764153 ], [ 38.8051084, 8.8728526 ], [ 38.8043889, 8.8685799 ], [ 38.8042917, 8.8679057 ], [ 38.8038681, 8.8663585 ], [ 38.8035346, 8.8657084 ], [ 38.8023495, 8.8631638 ], [ 38.8021157, 8.8583197 ], [ 38.8032721, 8.8546094 ], [ 38.8030921, 8.854625 ], [ 38.802383, 8.8549078 ], [ 38.797271, 8.8559494 ], [ 38.7943795, 8.8552338 ], [ 38.7902337, 8.8528086 ], [ 38.7858394, 8.8535129 ], [ 38.782649, 8.8554641 ], [ 38.7800407, 8.8580502 ], [ 38.7768864, 8.8606748 ], [ 38.7771423, 8.8609212 ], [ 38.7802722, 8.862418 ], [ 38.7806171, 8.8660652 ], [ 38.77991440000001, 8.8683443 ], [ 38.7788193, 8.8699389 ], [ 38.7808344, 8.8723937 ], [ 38.779733, 8.8775777 ], [ 38.7786087, 8.8779224 ], [ 38.7774463, 8.8782305 ], [ 38.7780548, 8.8802088 ], [ 38.7786681, 8.8810635 ], [ 38.7794059, 8.8815554 ], [ 38.7843939, 8.8836614 ], [ 38.7842911, 8.8855262 ], [ 38.7855839, 8.8858713 ], [ 38.7860608, 8.8858918 ], [ 38.7865004, 8.8858379 ] ] ], [ [ [ 38.8187528, 8.8385423 ], [ 38.8194555, 8.8384522 ], [ 38.8188037, 8.8381182 ], [ 38.8187528, 8.8385423 ] ] ] ] } },
{ "type": "Feature", "properties": { "index": 900 }, "geometry": { "type": "MultiPolygon", "coordinates": [ [ [ [ 38.7455144, 8.9347312 ], [ 38.7399185, 8.9330791 ], [ 38.7338218, 8.9279367 ], [ 38.7332416, 8.9279218 ], [ 38.7321389, 8.9288938 ], [ 38.73078920418692, 8.930727536827215 ], [ 38.727274, 8.9291083 ], [ 38.7265894, 8.928616 ], [ 38.7240963, 8.9264508 ], [ 38.7235384, 8.926101 ], [ 38.7222866, 8.9253297 ], [ 38.7222737, 8.9254631 ], [ 38.716904, 8.93066 ], [ 38.7163543, 8.9307024 ], [ 38.7156326, 8.9307128 ], [ 38.7151672, 8.9307128 ], [ 38.71189420000001, 8.9305843 ], [ 38.7068953, 8.9339767 ], [ 38.7064915, 8.9343053 ], [ 38.6994189, 8.935998 ], [ 38.6965513, 8.9405073 ], [ 38.695312827813169, 8.942640603258088 ], [ 38.6935446, 8.9429701 ], [ 38.6898465, 8.9466566 ], [ 38.6883714, 8.9475344 ], [ 38.6876347, 8.948052 ], [ 38.6861764, 8.9493039 ], [ 38.6848025, 8.9510048 ], [ 38.6846478, 8.9518315 ], [ 38.6853801, 8.9529762 ], [ 38.686197203477832, 8.956089500625298 ], [ 38.6859083, 8.9599987 ], [ 38.6854872, 8.9606094 ], [ 38.6851023, 8.9612095 ], [ 38.684478186130988, 8.964120707793912 ], [ 38.6843382, 8.9641996 ], [ 38.6830531, 8.9652274 ], [ 38.676766, 8.9679733 ], [ 38.673167630601398, 8.973568547645591 ], [ 38.6676423, 8.9759802 ], [ 38.662215, 8.9798818 ], [ 38.6597843, 8.9816913 ], [ 38.6591364, 8.9831608 ], [ 38.6599191, 8.9867243 ], [ 38.6597476, 8.9909745 ], [ 38.6592607, 8.9944693 ], [ 38.6571979, 8.9981492 ], [ 38.6564447, 8.9994631 ], [ 38.6563329, 8.9997596 ], [ 38.6566052, 9.0007335 ], [ 38.6571336, 9.0025919 ], [ 38.6611086, 9.0062185 ], [ 38.6628655, 9.0098147 ], [ 38.6639424, 9.0100505 ], [ 38.6642481, 9.0100611 ], [ 38.6686255, 9.0143765 ], [ 38.6679003, 9.0164846 ], [ 38.6677543, 9.0181673 ], [ 38.6717224, 9.0220721 ], [ 38.677785, 9.0248726 ], [ 38.6787924, 9.0245554 ], [ 38.6796463, 9.0239578 ], [ 38.6823705, 9.0218124 ], [ 38.6844423, 9.0202877 ], [ 38.6852301, 9.019413 ], [ 38.686601, 9.017423 ], [ 38.6895534, 9.0148149 ], [ 38.6952014, 9.0125375 ], [ 38.6988273, 9.0143871 ], [ 38.6996707, 9.0155123 ], [ 38.6997398, 9.0155845 ], [ 38.700685, 9.0162201 ], [ 38.7011211, 9.0149513 ], [ 38.7049651, 9.0102282 ], [ 38.7052274, 9.009949 ], [ 38.707457082155003, 9.007367752880231 ], [ 38.709241562835132, 9.006937671427144 ], [ 38.7093334, 9.007922 ], [ 38.7089059, 9.0123129 ], [ 38.707382, 9.0155326 ], [ 38.7081457, 9.0179749 ], [ 38.7093134, 9.0183425 ], [ 38.7099331, 9.0183852 ], [ 38.7119646, 9.0186485 ], [ 38.7152763, 9.0236018 ], [ 38.715158, 9.0253611 ], [ 38.7151311, 9.0261072 ], [ 38.7121076, 9.031553 ], [ 38.7100433, 9.0333649 ], [ 38.711851, 9.036037 ], [ 38.7099631, 9.0366873 ], [ 38.7086769, 9.0371504 ], [ 38.7070977, 9.0380291 ], [ 38.7061254, 9.0390185 ], [ 38.7060584, 9.0391024 ], [ 38.7060329, 9.0391369 ], [ 38.7058464, 9.0394712 ], [ 38.7038563, 9.0414067 ], [ 38.703193198178212, 9.041480213408821 ], [ 38.7017896, 9.0371099 ], [ 38.7008502, 9.0365337 ], [ 38.6992308, 9.0366195 ], [ 38.6956394, 9.0369936 ], [ 38.6898599, 9.038251 ], [ 38.684698, 9.0400531 ], [ 38.68424, 9.0404041 ], [ 38.6808517, 9.0436993 ], [ 38.6806176, 9.0455197 ], [ 38.6814183, 9.0461415 ], [ 38.684861920761676, 9.052498404695145 ], [ 38.6846724, 9.0563468 ], [ 38.6847206, 9.0589202 ], [ 38.6847507, 9.0616361 ], [ 38.6847362, 9.0650724 ], [ 38.6847681, 9.0654203 ], [ 38.6848503, 9.0662366 ], [ 38.6848046, 9.0744871 ], [ 38.689663, 9.0762027 ], [ 38.6938391, 9.0730859 ], [ 38.6945052, 9.0723955 ], [ 38.6946523, 9.0720662 ], [ 38.6947811, 9.0717378 ], [ 38.698357799999989, 9.0683166 ], [ 38.7049681, 9.0734342 ], [ 38.7040883, 9.075675 ], [ 38.7066767, 9.0720331 ], [ 38.7064393, 9.0656273 ], [ 38.7110449, 9.061498 ], [ 38.714472135416834, 9.062683858681421 ], [ 38.714509, 9.0682505 ], [ 38.7146036, 9.0688953 ], [ 38.7157707, 9.0714928 ], [ 38.7182799, 9.0763662 ], [ 38.722216, 9.0782878 ], [ 38.7279962, 9.0819581 ], [ 38.7287586, 9.0812933 ], [ 38.7324589, 9.0764417 ], [ 38.7377219, 9.0759888 ], [ 38.7382369, 9.0758127 ], [ 38.7445479, 9.0766414 ], [ 38.7465249, 9.0792228 ], [ 38.7478956, 9.0789074 ], [ 38.7559891, 9.0770476 ], [ 38.7567401, 9.0780534 ], [ 38.7569319, 9.0781488 ], [ 38.7601271, 9.0730164 ], [ 38.7624453, 9.0692829 ], [ 38.7630828, 9.0677903 ], [ 38.7635474, 9.0666278 ], [ 38.7637204, 9.0629397 ], [ 38.76278479363171, 9.056478527263787 ], [ 38.762968901741772, 9.056321699522764 ], [ 38.7658428, 9.0577181 ], [ 38.7681542, 9.0592667 ], [ 38.771739, 9.0590677 ], [ 38.7750336, 9.0596606 ], [ 38.7774719, 9.0589039 ], [ 38.7801437, 9.0592813 ], [ 38.7802957, 9.0593364 ], [ 38.7816886, 9.058182 ], [ 38.7819834, 9.0579019 ], [ 38.7824511, 9.056754 ], [ 38.7870759, 9.0554455 ], [ 38.7875402, 9.0553401 ], [ 38.7876136, 9.0553217 ], [ 38.7883158, 9.0551371 ], [ 38.7873548, 9.0536933 ], [ 38.7866829, 9.0534973 ], [ 38.7850186, 9.049336 ], [ 38.7881461, 9.0481785 ], [ 38.7892183, 9.0480524 ], [ 38.792129, 9.0494167 ], [ 38.7906995, 9.0454025 ], [ 38.7967241, 9.0428703 ], [ 38.7918929, 9.0415089 ], [ 38.788016399999989, 9.0400262 ], [ 38.788646, 9.0371199 ], [ 38.7971052, 9.0385115 ], [ 38.8042312, 9.0365115 ], [ 38.8097365, 9.0345983 ], [ 38.8144658, 9.0377323 ], [ 38.816387255300398, 9.040351961949911 ], [ 38.8164635, 9.0438609 ], [ 38.8166174, 9.046587 ], [ 38.8172729, 9.0474726 ], [ 38.8231803, 9.0462342 ], [ 38.8256755, 9.0502843 ], [ 38.8248065, 9.0523318 ], [ 38.8243626, 9.0528934 ], [ 38.8237444, 9.0539635 ], [ 38.8274968, 9.0551727 ], [ 38.8285455, 9.0551872 ], [ 38.8313578, 9.0541423 ], [ 38.832198114398643, 9.054777905100099 ], [ 38.8294991, 9.058428 ], [ 38.8272232, 9.0595312 ], [ 38.8269415, 9.0600186 ], [ 38.8268343, 9.0602318 ], [ 38.8277715, 9.0616619 ], [ 38.8304083, 9.062813 ], [ 38.832145, 9.0587657 ], [ 38.8371769, 9.0588359 ], [ 38.843521, 9.0630858 ], [ 38.8446374, 9.0675065 ], [ 38.8448721, 9.0682839 ], [ 38.8450371, 9.0690732 ], [ 38.8486406, 9.0681064 ], [ 38.8488768, 9.0677 ], [ 38.8489987, 9.0674429 ], [ 38.846572524713189, 9.064584511814482 ], [ 38.847952140917926, 9.060089054695691 ], [ 38.848469399805658, 9.059739236630401 ], [ 38.8534793, 9.0604848 ], [ 38.8597329, 9.0644142 ], [ 38.8627798, 9.0661636 ], [ 38.8633472, 9.0656047 ], [ 38.86577377505612, 9.061482811608567 ], [ 38.8682529, 9.0602358 ], [ 38.871349, 9.0626494 ], [ 38.8735183, 9.0640267 ], [ 38.8736118, 9.0640332 ], [ 38.8743908, 9.0630486 ], [ 38.879104, 9.0568719 ], [ 38.881856, 9.0508919 ], [ 38.884281799999989, 9.0483931 ], [ 38.884189, 9.0475815 ], [ 38.8839143, 9.0463164 ], [ 38.8838345, 9.0462575 ], [ 38.8834589, 9.0459975 ], [ 38.8828401, 9.0456507 ], [ 38.8819824, 9.0451493 ], [ 38.8777726, 9.0387014 ], [ 38.8750247, 9.0371262 ], [ 38.8745373, 9.0368206 ], [ 38.8736915, 9.0364258 ], [ 38.873326443215717, 9.032921412147626 ], [ 38.8745945, 9.0328456 ], [ 38.8785159, 9.0307424 ], [ 38.8795409, 9.0300968 ], [ 38.8811779, 9.028538 ], [ 38.8839988, 9.0258385 ], [ 38.884326, 9.0254171 ], [ 38.8857296, 9.0229269 ], [ 38.8859947, 9.021978 ], [ 38.8860051, 9.0216916 ], [ 38.8856591, 9.0199594 ], [ 38.8852036, 9.019263 ], [ 38.8837811, 9.0177558 ], [ 38.881609077166146, 9.015410613759157 ], [ 38.8846399, 9.0113327 ], [ 38.8850489, 9.0106787 ], [ 38.8850409, 9.0106075 ], [ 38.8845398, 9.0097782 ], [ 38.8829159, 9.0084696 ], [ 38.8794391, 9.0011745 ], [ 38.879364, 9.0010116 ], [ 38.8777077, 8.9988472 ], [ 38.87197780000001, 8.9972456 ], [ 38.8710961, 8.9968484 ], [ 38.8659556, 8.990281 ], [ 38.8694492, 8.9826364 ], [ 38.8775994, 8.9815828 ], [ 38.8781248, 8.9776941 ], [ 38.8769406, 8.9731478 ], [ 38.8757913, 8.9712919 ], [ 38.8683575, 8.973622 ], [ 38.8619397, 8.9685915 ], [ 38.8627933, 8.9648805 ], [ 38.8631319, 8.9641831 ], [ 38.8617231, 8.9654777 ], [ 38.8542589, 8.9723237 ], [ 38.8539979, 8.9723627 ], [ 38.8470313, 8.9708627 ], [ 38.8475228, 8.9742559 ], [ 38.8436849, 8.9799373 ], [ 38.8395883, 8.9799969 ], [ 38.8388284, 8.9798434 ], [ 38.837783511816852, 8.980908877575994 ], [ 38.831003780857763, 8.978147969963768 ], [ 38.8302928, 8.9775749 ], [ 38.8285251, 8.9717354 ], [ 38.8252518, 8.970978 ], [ 38.8232046, 8.9723026 ], [ 38.8221742, 8.9731118 ], [ 38.8211327, 8.9767138 ], [ 38.8208006, 8.9803978 ], [ 38.812318356803637, 8.985451331130319 ], [ 38.807949444053484, 8.985880569201868 ], [ 38.8035562, 8.9852867 ], [ 38.8021619, 8.9853275 ], [ 38.7996331, 8.9854045 ], [ 38.791303549019595, 8.985716267576091 ], [ 38.7880106, 8.9854871 ], [ 38.7777914, 8.9763594 ], [ 38.778439253417588, 8.972772039691513 ], [ 38.7804589, 8.9680504 ], [ 38.7828796, 8.9680649 ], [ 38.7828581, 8.9679775 ], [ 38.7775834, 8.9635925 ], [ 38.7726275, 8.964449 ], [ 38.771881017000219, 8.964661106777559 ], [ 38.7726464, 8.9617668 ], [ 38.7728872, 8.9614966 ], [ 38.7737249, 8.9605879 ], [ 38.7805062, 8.9613459 ], [ 38.781147, 8.9615179 ], [ 38.7850032, 8.9632621 ], [ 38.7863466, 8.9620023 ], [ 38.7868595, 8.9606521 ], [ 38.7871447, 8.9596534 ], [ 38.7883694, 8.9550158 ], [ 38.7898909, 8.9526887 ], [ 38.7915682, 8.9461147 ], [ 38.7904421, 8.9442075 ], [ 38.7880415, 8.9438762 ], [ 38.7855926, 8.941632 ], [ 38.7862085, 8.9366371 ], [ 38.7872114, 8.9356624 ], [ 38.7888944, 8.9340646 ], [ 38.7910489, 8.93304 ], [ 38.7915686, 8.9302001 ], [ 38.7896334, 8.9318244 ], [ 38.788127, 8.933209 ], [ 38.7857187, 8.9351855 ], [ 38.7801692, 8.9332949 ], [ 38.7819461, 8.9291482 ], [ 38.7830064, 8.9257519 ], [ 38.7849435, 8.9241203 ], [ 38.7847035, 8.922135 ], [ 38.7844674, 8.9214944 ], [ 38.7840289, 8.9212838 ], [ 38.7814748, 8.921874 ], [ 38.7760439, 8.9212732 ], [ 38.7741182, 8.9218004 ], [ 38.7734222, 8.922559 ], [ 38.7667828, 8.9219933 ], [ 38.7637316, 8.9213882 ], [ 38.7628566, 8.9221732 ], [ 38.7599706, 8.924931 ], [ 38.7588987, 8.9285794 ], [ 38.7550425, 8.9308073 ], [ 38.753863, 8.9311467 ], [ 38.7525392, 8.9318241 ], [ 38.7503852, 8.9328834 ], [ 38.7499658, 8.9330847 ], [ 38.7486599, 8.9352915 ], [ 38.7486292, 8.9354899 ], [ 38.7500909, 8.9417632 ], [ 38.750026235874273, 8.942131985192072 ], [ 38.7472455, 8.9384746 ], [ 38.7455144, 8.9347312 ] ], [ [ 38.716050266732331, 9.047671563898305 ], [ 38.714793, 9.0457469 ], [ 38.7147702, 9.0456575 ], [ 38.7146017, 9.0452434 ], [ 38.713613115081692, 9.042498915053182 ], [ 38.7138514, 9.0420144 ], [ 38.7153013, 9.0410981 ], [ 38.716158299999989, 9.0446251 ], [ 38.716050266732331, 9.047671563898305 ] ] ], [ [ [ 38.7870089, 8.8932018 ], [ 38.7873803, 8.8924811 ], [ 38.7875721, 8.8918364 ], [ 38.7963925, 8.8898808 ], [ 38.7990632, 8.8925801 ], [ 38.801, 8.8919615 ], [ 38.8014109, 8.8892375 ], [ 38.7967285, 8.88545 ], [ 38.8021687, 8.8792217 ], [ 38.8048308, 8.8792495 ], [ 38.8057253, 8.8793277 ], [ 38.8092007, 8.8809197 ], [ 38.8135318, 8.8794589 ], [ 38.81435, 8.8785464 ], [ 38.8164662, 8.8761728 ], [ 38.8158874, 8.8748688 ], [ 38.8147019, 8.8718578 ], [ 38.8137472, 8.8653394 ], [ 38.8131121, 8.8639239 ], [ 38.8098102, 8.8582804 ], [ 38.8121545, 8.8521185 ], [ 38.8123952, 8.8511677 ], [ 38.8122176, 8.8507205 ], [ 38.8113366, 8.8485996 ], [ 38.8082787, 8.8497028 ], [ 38.8067847, 8.8519833 ], [ 38.7988347, 8.849957 ], [ 38.7967586, 8.8483962 ], [ 38.7915721, 8.8521695 ], [ 38.7866011, 8.8466523 ], [ 38.7853516, 8.8460614 ], [ 38.781221, 8.8453 ], [ 38.7803194, 8.8475878 ], [ 38.7825108, 8.8509325 ], [ 38.7808323, 8.8568008 ], [ 38.7768864, 8.8606748 ], [ 38.7771423, 8.8609212 ], [ 38.77991440000001, 8.8683443 ], [ 38.7728602, 8.8704088 ], [ 38.7701659, 8.8697372 ], [ 38.7690203, 8.8696547 ], [ 38.7689914, 8.8696862 ], [ 38.7677211, 8.8753776 ], [ 38.7675665, 8.8785866 ], [ 38.7691569, 8.8821876 ], [ 38.7706809, 8.8855235 ], [ 38.7750549, 8.8911342 ], [ 38.7767275, 8.8925609 ], [ 38.7832882, 8.8941488 ], [ 38.7849261, 8.8945215 ], [ 38.7863436, 8.8944844 ], [ 38.786703, 8.893923 ], [ 38.7870089, 8.8932018 ] ] ], [ [ [ 38.8187528, 8.8385423 ], [ 38.8194555, 8.8384522 ], [ 38.8188037, 8.8381182 ], [ 38.8187528, 8.8385423 ] ] ] ] } }
]
}
