{
"type": "FeatureCollection",
"name": "isochrone_shop_spices_drive",
"crs": { "type": "name", "properties": { "name": "urn:ogc:def:crs:OGC:1.3:CRS84" } },
"features": [
{ "type": "Feature", "properties": { "threshold_s": 300, "time_label": "5 min drive" }, "geometry": { "type": "Polygon", "coordinates": [ [ [ 38.7752482, 9.0271537 ], [ 38.7752165, 9.0276289 ], [ 38.7761492, 9.027044 ], [ 38.7786913, 9.0267849 ], [ 38.7811591, 9.0269391 ], [ 38.7818751, 9.0269915 ], [ 38.7836556, 9.0283014 ], [ 38.7840727, 9.0293788 ], [ 38.7857026, 9.0282428 ], [ 38.7850625, 9.0271958 ], [ 38.7849554, 9.0271178 ], [ 38.7860295, 9.0246382 ], [ 38.7863276, 9.0246843 ], [ 38.7874492, 9.0239546 ], [ 38.7876648, 9.0232365 ], [ 38.7888875, 9.0215812 ], [ 38.7874214, 9.0201178 ], [ 38.7860842, 9.0182336 ], [ 38.7857034, 9.0172699 ], [ 38.7833401, 9.0160574 ], [ 38.7825032, 9.0156702 ], [ 38.7817509, 9.0160428 ], [ 38.7795994, 9.0155365 ], [ 38.7771373, 9.0148378 ], [ 38.7760706, 9.0156092 ], [ 38.7742102, 9.0174735 ], [ 38.7740742, 9.0190452 ], [ 38.7728602, 9.0202455 ], [ 38.7723687, 9.02177 ], [ 38.7726157, 9.0232898 ], [ 38.7738381, 9.0235314 ], [ 38.7745161, 9.0236071 ], [ 38.7765878, 9.0251981 ], [ 38.7764432, 9.0256874 ], [ 38.7754401, 9.0268163 ], [ 38.7752508, 9.0269569 ], [ 38.7752482, 9.0271537 ] ] ] } },
{ "type": "Feature", "properties": { "threshold_s": 600, "time_label": "10 min drive" }, "geometry": { "type": "Polygon", "coordinates": [ [ [ 38.7664952, 9.0274613 ], [ 38.7636532, 9.0296992 ], [ 38.7639705, 9.0296349 ], [ 38.7661201, 9.0294042 ], [ 38.7683848, 9.0328415 ], [ 38.7684305, 9.0329237 ], [ 38.769884, 9.0342295 ], [ 38.771258, 9.0349868 ], [ 38.7722643, 9.0352881 ], [ 38.7725503, 9.0352767 ], [ 38.7749371, 9.0353666 ], [ 38.7779067, 9.0359559 ], [ 38.7795494, 9.0368103 ], [ 38.7797197, 9.0361348 ], [ 38.7804737, 9.033912 ], [ 38.7847393, 9.0337449 ], [ 38.7855725, 9.0348864 ], [ 38.7859775, 9.0355527 ], [ 38.7864758, 9.0378832 ], [ 38.7866579, 9.0379459 ], [ 38.7882839, 9.036338 ], [ 38.7880696, 9.0351791 ], [ 38.7913411, 9.0328014 ], [ 38.7933345, 9.0314512 ], [ 38.7943505, 9.0307929 ], [ 38.7951178, 9.030151 ], [ 38.7964456, 9.0288702 ], [ 38.7964648, 9.0288238 ], [ 38.7963524, 9.0252368 ], [ 38.7974667, 9.0235442 ], [ 38.7992964, 9.0204626 ], [ 38.797182, 9.0184257 ], [ 38.7945459, 9.0160394 ], [ 38.7939321, 9.0148977 ], [ 38.7929784, 9.012718 ], [ 38.7919485, 9.0120027 ], [ 38.7905071, 9.0089001 ], [ 38.7887931, 9.0078893 ], [ 38.7887402, 9.0078729 ], [ 38.7870385, 9.0084513 ], [ 38.7836044, 9.0063722 ], [ 38.7824454, 9.0050943 ], [ 38.7806044, 9.0049721 ], [ 38.7801361, 9.0051451 ], [ 38.7794724, 9.0056821 ], [ 38.7790846, 9.007266 ], [ 38.7781482, 9.0088664 ], [ 38.77456, 9.0081061 ], [ 38.7739673, 9.0082511 ], [ 38.7725128, 9.0102701 ], [ 38.7692515, 9.0104413 ], [ 38.7672256, 9.0115334 ], [ 38.7654814, 9.0154268 ], [ 38.7629355, 9.0171841 ], [ 38.7629595, 9.017323 ], [ 38.7638895, 9.0199177 ], [ 38.7645123, 9.0221623 ], [ 38.7650922, 9.0223314 ], [ 38.7673037, 9.0253571 ], [ 38.7664952, 9.0274613 ] ] ] } },
{ "type": "Feature", "properties": { "threshold_s": 900, "time_label": "15 min drive" }, "geometry": { "type": "Polygon", "coordinates": [ [ [ 38.7531912, 9.0297342 ], [ 38.7541779, 9.0325832 ], [ 38.7573179, 9.0358262 ], [ 38.7584061, 9.0370047 ], [ 38.7602091, 9.0388101 ], [ 38.7644759, 9.0426916 ], [ 38.7645267, 9.0428021 ], [ 38.7652115, 9.0437 ], [ 38.7694638, 9.0449786 ], [ 38.7732643, 9.0464944 ], [ 38.7744268, 9.0462291 ], [ 38.7770125, 9.045045 ], [ 38.7811059, 9.0451188 ], [ 38.7828359, 9.0453659 ], [ 38.7864934, 9.0444374 ], [ 38.7869235, 9.0434758 ], [ 38.7853727, 9.0402983 ], [ 38.7878993, 9.0373684 ], [ 38.7884075, 9.037232 ], [ 38.788646, 9.0371199 ], [ 38.788999, 9.0366321 ], [ 38.7898711, 9.0353037 ], [ 38.7913411, 9.0328014 ], [ 38.7947311, 9.0312946 ], [ 38.7997189, 9.0335465 ], [ 38.8011234, 9.0303124 ], [ 38.8048161, 9.0292985 ], [ 38.8055684, 9.0283197 ], [ 38.8068437, 9.0231375 ], [ 38.810139, 9.0201299 ], [ 38.8092932, 9.0158973 ], [ 38.8056166, 9.0117535 ], [ 38.802184, 9.0074508 ], [ 38.8007586, 9.0056499 ], [ 38.7959731, 9.0027659 ], [ 38.7958496, 9.0027295 ], [ 38.7958042, 9.0028503 ], [ 38.7937877, 9.0050546 ], [ 38.7936953, 9.0050935 ], [ 38.7892042, 9.0040436 ], [ 38.7906855, 8.9993148 ], [ 38.7913789, 8.9990156 ], [ 38.79043, 8.9986976 ], [ 38.7860546, 8.996506 ], [ 38.7831292, 8.9955145 ], [ 38.7805353, 8.9943244 ], [ 38.7792163, 8.9939508 ], [ 38.7772892, 8.9944502 ], [ 38.7770092, 8.9949946 ], [ 38.7729631, 8.9990413 ], [ 38.7716421, 9.0009861 ], [ 38.76827990000001, 9.0036892 ], [ 38.7642314, 9.0062111 ], [ 38.7627101, 9.0070834 ], [ 38.7591779, 9.0112723 ], [ 38.7576903, 9.0118964 ], [ 38.7555162, 9.0160017 ], [ 38.7520763, 9.0170797 ], [ 38.752169, 9.0172379 ], [ 38.7555976, 9.0217609 ], [ 38.7548785, 9.0265448 ], [ 38.7531912, 9.0297342 ] ] ] } }
]
}
