{
"type": "FeatureCollection",
"name": "isochrone_shop_confectionery_drive",
"crs": { "type": "name", "properties": { "name": "urn:ogc:def:crs:OGC:1.3:CRS84" } },
"features": [
{ "type": "Feature", "properties": { "threshold_s": 300, "time_label": "5 min drive" }, "geometry": { "type": "Polygon", "coordinates": [ [ [ 38.7233747, 8.9976743 ], [ 38.7224929, 8.9990797 ], [ 38.7236724, 8.9987142 ], [ 38.7268985, 8.9991841 ], [ 38.7274674, 8.99912 ], [ 38.7289264, 8.9982376 ], [ 38.7302594, 8.9977804 ], [ 38.7307139, 8.9976947 ], [ 38.7308209, 8.9976433 ], [ 38.7325948, 9.0017547 ], [ 38.732501, 9.001813 ], [ 38.7329972, 9.0026872 ], [ 38.7336018, 9.003818 ], [ 38.7338206, 9.0041681 ], [ 38.7346404, 9.0011646 ], [ 38.7316547, 8.9970266 ], [ 38.7344089, 8.9966973 ], [ 38.7351872, 8.9964457 ], [ 38.7363319, 8.9957165 ], [ 38.7357491, 8.9923739 ], [ 38.7358524, 8.9916612 ], [ 38.7361859, 8.9903311 ], [ 38.7362266, 8.9892398 ], [ 38.7350048, 8.9882145 ], [ 38.7334344, 8.9873191 ], [ 38.7314361, 8.9869853 ], [ 38.729859, 8.9868761 ], [ 38.726567, 8.9872729 ], [ 38.7248034, 8.987239 ], [ 38.721735099999989, 8.9873103 ], [ 38.7210349, 8.9901775 ], [ 38.7204002, 8.9937038 ], [ 38.7218671, 8.9944618 ], [ 38.7233747, 8.9976743 ] ] ] } },
{ "type": "Feature", "properties": { "threshold_s": 600, "time_label": "10 min drive" }, "geometry": { "type": "Polygon", "coordinates": [ [ [ 38.7188894, 9.0059185 ], [ 38.7190919, 9.0068716 ], [ 38.7193413, 9.0071959 ], [ 38.7199702, 9.0042617 ], [ 38.7224929, 8.9990797 ], [ 38.7236724, 8.9987142 ], [ 38.7268985, 8.9991841 ], [ 38.7274674, 8.99912 ], [ 38.732501, 9.001813 ], [ 38.730182, 9.0046135 ], [ 38.7292146, 9.0052443 ], [ 38.7285474, 9.0064755 ], [ 38.7284978, 9.0065722 ], [ 38.7286855, 9.0089895 ], [ 38.7321181, 9.0117201 ], [ 38.734748, 9.01525 ], [ 38.7378225, 9.0128122 ], [ 38.74049, 9.0107113 ], [ 38.7410089, 9.0086816 ], [ 38.74219990000001, 9.0049176 ], [ 38.7439897, 9.0024543 ], [ 38.7434307, 8.9973006 ], [ 38.7452549, 8.9933223 ], [ 38.7457274, 8.9902239 ], [ 38.7452968, 8.9874874 ], [ 38.7441847, 8.9862839 ], [ 38.7405449, 8.9819251 ], [ 38.7387747, 8.9814628 ], [ 38.7343044, 8.9793256 ], [ 38.7332414, 8.9782144 ], [ 38.7328836, 8.9778363 ], [ 38.7313138, 8.9771965 ], [ 38.7288472, 8.9786214 ], [ 38.7283872, 8.9787856 ], [ 38.7270547, 8.9798003 ], [ 38.7219078, 8.9782685 ], [ 38.7171412, 8.9798381 ], [ 38.7173092, 8.9803274 ], [ 38.7180908, 8.9841611 ], [ 38.7165458, 8.9869257 ], [ 38.7125153, 8.9887289 ], [ 38.7112759, 8.9887158 ], [ 38.7118692, 8.9897204 ], [ 38.7136137, 8.9922004 ], [ 38.7167689, 8.9939947 ], [ 38.7188513, 8.9979545 ], [ 38.7189357, 9.0001877 ], [ 38.7189773, 9.0029713 ], [ 38.7188894, 9.0059185 ] ] ] } },
{ "type": "Feature", "properties": { "threshold_s": 900, "time_label": "15 min drive" }, "geometry": { "type": "Polygon", "coordinates": [ [ [ 38.7157746, 9.0132195 ], [ 38.718958, 9.0166534 ], [ 38.7201279, 9.0170163 ], [ 38.726306, 9.0197155 ], [ 38.7312551, 9.0229574 ], [ 38.7335289, 9.0249806 ], [ 38.7341387, 9.0250681 ], [ 38.7374238, 9.0254659 ], [ 38.743323, 9.0222097 ], [ 38.7436919, 9.021312 ], [ 38.7466469, 9.0166938 ], [ 38.7497617, 9.0140877 ], [ 38.7498254, 9.0140209 ], [ 38.7520489, 9.0075772 ], [ 38.7528471, 9.0056701 ], [ 38.7531698, 9.0041116 ], [ 38.752732, 9.0012941 ], [ 38.7547728, 8.9967299 ], [ 38.7555028, 8.9954064 ], [ 38.7554826, 8.9950496 ], [ 38.7551761, 8.9935003 ], [ 38.7544392, 8.9918386 ], [ 38.7538783, 8.9855538 ], [ 38.7546939, 8.9829714 ], [ 38.7546444, 8.9828867 ], [ 38.7521887, 8.9813524 ], [ 38.7493453, 8.9797206 ], [ 38.7445888, 8.9747177 ], [ 38.7443585, 8.9744539 ], [ 38.7439171, 8.9739495 ], [ 38.7377529, 8.9713496 ], [ 38.7313134, 8.9690899 ], [ 38.7276923, 8.9702858 ], [ 38.722114, 8.9693857 ], [ 38.7195961, 8.9689539 ], [ 38.7185034, 8.9700807 ], [ 38.7181224, 8.9714796 ], [ 38.7135418, 8.9763191 ], [ 38.7098325, 8.9780203 ], [ 38.7092462, 8.9784889 ], [ 38.7085113, 8.9811118 ], [ 38.7033878, 8.985784 ], [ 38.7030097, 8.9870815 ], [ 38.7038568, 8.9911203 ], [ 38.7081411, 8.9962316 ], [ 38.7087007, 8.9970398 ], [ 38.7143733, 9.0001679 ], [ 38.716688, 9.0022051 ], [ 38.717238, 9.0089737 ], [ 38.7157501, 9.0130971 ], [ 38.7157746, 9.0132195 ] ] ] } },
{ "type": "Feature", "properties": { "threshold_s": 300, "time_label": "5 min drive" }, "geometry": { "type": "Polygon", "coordinates": [ [ [ 38.7834549, 9.0004129 ], [ 38.7842683, 9.0014401 ], [ 38.784741, 9.0019017 ], [ 38.7877479, 9.002645 ], [ 38.7879201, 9.0024097 ], [ 38.7882698, 9.0017096 ], [ 38.7897293, 8.9996859 ], [ 38.7906855, 8.9993148 ], [ 38.7913789, 8.9990156 ], [ 38.7920983, 8.9987684 ], [ 38.792624, 8.9985777 ], [ 38.7931544, 8.9983837 ], [ 38.7936291, 8.9982041 ], [ 38.7941482, 8.9979968 ], [ 38.7946719, 8.9978068 ], [ 38.7965052, 8.9969379 ], [ 38.7956395, 8.9945489 ], [ 38.7966211, 8.9916862 ], [ 38.7966919, 8.9912265 ], [ 38.7964267, 8.9910463 ], [ 38.7960656, 8.9910328 ], [ 38.7942992, 8.9887271 ], [ 38.7920807, 8.9883178 ], [ 38.791375, 8.9871117 ], [ 38.7888132, 8.9859297 ], [ 38.7873733, 8.9867546 ], [ 38.7865421, 8.9882794 ], [ 38.7847861, 8.9907155 ], [ 38.7838371, 8.9909241 ], [ 38.7830666, 8.9913983 ], [ 38.783081, 8.9918757 ], [ 38.7831055, 8.9938415 ], [ 38.7831277, 8.9950529 ], [ 38.7831292, 8.9955145 ], [ 38.7831297, 8.9956881 ], [ 38.7831216, 8.9974816 ], [ 38.7827763, 8.9993254 ], [ 38.7834549, 9.0004129 ] ] ] } },
{ "type": "Feature", "properties": { "threshold_s": 600, "time_label": "10 min drive" }, "geometry": { "type": "Polygon", "coordinates": [ [ [ 38.7747833, 9.0070232 ], [ 38.7754892, 9.0093199 ], [ 38.7820902, 9.0117878 ], [ 38.7874922, 9.0136376 ], [ 38.7938893, 9.010515 ], [ 38.794879, 9.0090416 ], [ 38.7951808, 9.0084743 ], [ 38.8005208, 9.0032677 ], [ 38.8013238, 8.9997042 ], [ 38.8007558, 8.9987956 ], [ 38.8031779, 8.9919784 ], [ 38.8042245, 8.9908712 ], [ 38.8048125, 8.9901822 ], [ 38.8047893, 8.9897114 ], [ 38.8035562, 8.9852867 ], [ 38.8021619, 8.9853275 ], [ 38.7996331, 8.9854045 ], [ 38.7971379, 8.9861223 ], [ 38.789819799999989, 8.986366 ], [ 38.788826, 8.985809 ], [ 38.7855757, 8.9849273 ], [ 38.7842988, 8.9845215 ], [ 38.7829895, 8.9840922 ], [ 38.7824454, 8.9839019 ], [ 38.7782627, 8.9821212 ], [ 38.7764753, 8.9868029 ], [ 38.7734938, 8.9926488 ], [ 38.7730194, 8.9957645 ], [ 38.7753912, 8.9966925 ], [ 38.777362, 8.9984848 ], [ 38.7761237, 9.004792 ], [ 38.7747095, 9.005959 ], [ 38.7747833, 9.0070232 ] ] ] } },
{ "type": "Feature", "properties": { "threshold_s": 900, "time_label": "15 min drive" }, "geometry": { "type": "Polygon", "coordinates": [ [ [ 38.7687544, 9.0164593 ], [ 38.7704765, 9.0188531 ], [ 38.7714391, 9.0195628 ], [ 38.7814649, 9.022194 ], [ 38.7863276, 9.0246843 ], [ 38.7939805, 9.0211028 ], [ 38.799423, 9.0175115 ], [ 38.8042417, 9.0123665 ], [ 38.8072313, 9.0086875 ], [ 38.8084397, 9.0045809 ], [ 38.8139388, 8.9936173 ], [ 38.8160405, 8.9906542 ], [ 38.8159713, 8.9887168 ], [ 38.8158998, 8.9886047 ], [ 38.8079529, 8.9863615 ], [ 38.8066972, 8.9860036 ], [ 38.8035562, 8.9852867 ], [ 38.8021619, 8.9853275 ], [ 38.7996331, 8.9854045 ], [ 38.7880106, 8.9854871 ], [ 38.7855757, 8.9849273 ], [ 38.7777914, 8.9763594 ], [ 38.7756114, 8.9726492 ], [ 38.7750388, 8.9724298 ], [ 38.7680454, 8.9777212 ], [ 38.7648658, 8.9881086 ], [ 38.7645362, 8.9962639 ], [ 38.7661556, 9.0073141 ], [ 38.767167, 9.0123421 ], [ 38.7687544, 9.0164593 ] ] ] } },
{ "type": "Feature", "properties": { "threshold_s": 300, "time_label": "5 min drive" }, "geometry": { "type": "Polygon", "coordinates": [ [ [ 38.7329313, 8.9947462 ], [ 38.7317139, 8.9959519 ], [ 38.7324621, 8.9965338 ], [ 38.7344089, 8.9966973 ], [ 38.7351872, 8.9964457 ], [ 38.7363319, 8.9957165 ], [ 38.7379668, 8.9983301 ], [ 38.7374857, 8.9988067 ], [ 38.7375811, 8.9992208 ], [ 38.7377315, 9.0001406 ], [ 38.73762, 9.0013467 ], [ 38.7376749, 9.0014169 ], [ 38.7378668, 9.0015854 ], [ 38.739574, 9.0020448 ], [ 38.7410113, 9.0026659 ], [ 38.7411363, 9.0026067 ], [ 38.7406738, 9.0016086 ], [ 38.7403566, 8.9997024 ], [ 38.7428525, 8.9977526 ], [ 38.7453967, 8.9958182 ], [ 38.7479202, 8.9943853 ], [ 38.7479952, 8.9924244 ], [ 38.7481907, 8.9903755 ], [ 38.7466872, 8.9882466 ], [ 38.7472685, 8.9858837 ], [ 38.7472062, 8.9855176 ], [ 38.7456711, 8.9851227 ], [ 38.7425393, 8.9852723 ], [ 38.7415929, 8.9840381 ], [ 38.7393057, 8.9838339 ], [ 38.737164, 8.9860752 ], [ 38.7350048, 8.9882145 ], [ 38.7345985, 8.9883599 ], [ 38.7341961, 8.9893524 ], [ 38.7338755, 8.9910757 ], [ 38.7343597, 8.9926891 ], [ 38.7329313, 8.9947462 ] ] ] } },
{ "type": "Feature", "properties": { "threshold_s": 600, "time_label": "10 min drive" }, "geometry": { "type": "Polygon", "coordinates": [ [ [ 38.7215664, 8.9977019 ], [ 38.7205095, 8.9996903 ], [ 38.7209133, 8.9995602 ], [ 38.7220337, 8.9992215 ], [ 38.7224929, 8.9990797 ], [ 38.7236724, 8.9987142 ], [ 38.7268985, 8.9991841 ], [ 38.7274674, 8.99912 ], [ 38.7289264, 8.9982376 ], [ 38.7302594, 8.9977804 ], [ 38.7307139, 8.9976947 ], [ 38.7325948, 9.0017547 ], [ 38.732501, 9.001813 ], [ 38.730182, 9.0046135 ], [ 38.7292146, 9.0052443 ], [ 38.730935700000011, 9.0078495 ], [ 38.7313527, 9.0086805 ], [ 38.731964499999989, 9.0093869 ], [ 38.7341748, 9.0107132 ], [ 38.7359776, 9.0102827 ], [ 38.7387193, 9.0103826 ], [ 38.7424871, 9.0102645 ], [ 38.7445775, 9.0129089 ], [ 38.7446699, 9.0129369 ], [ 38.7449046, 9.0130052 ], [ 38.7476673, 9.0105487 ], [ 38.7489751, 9.0069735 ], [ 38.7517324, 9.0049461 ], [ 38.7519015, 9.0048619 ], [ 38.7530085, 9.0043225 ], [ 38.7531698, 9.0041116 ], [ 38.7536939, 9.0025951 ], [ 38.7561745, 8.9996726 ], [ 38.7568953, 8.999106 ], [ 38.758028, 8.9950297 ], [ 38.7580315, 8.994674 ], [ 38.757013, 8.9912123 ], [ 38.7566308, 8.9868222 ], [ 38.7566121, 8.9854758 ], [ 38.7573107, 8.9817491 ], [ 38.7545104, 8.9790531 ], [ 38.75253, 8.978179 ], [ 38.7487619, 8.9763426 ], [ 38.7466576, 8.9749068 ], [ 38.7461902, 8.9749715 ], [ 38.7459779, 8.9750163 ], [ 38.7450813, 8.9751633 ], [ 38.7438314, 8.975388 ], [ 38.7400277, 8.9744338 ], [ 38.7377431, 8.9730167 ], [ 38.734549, 8.9753057 ], [ 38.7328836, 8.9778363 ], [ 38.7301135, 8.9791555 ], [ 38.7296599, 8.9798651 ], [ 38.7276381, 8.9829479 ], [ 38.7269208, 8.9842288 ], [ 38.7265869, 8.9850391 ], [ 38.7262524, 8.9869032 ], [ 38.7241702, 8.9895817 ], [ 38.7241057, 8.989642 ], [ 38.7223572, 8.9928201 ], [ 38.721388, 8.994096 ], [ 38.7215664, 8.9977019 ] ] ] } },
{ "type": "Feature", "properties": { "threshold_s": 900, "time_label": "15 min drive" }, "geometry": { "type": "Polygon", "coordinates": [ [ [ 38.7190919, 9.0068716 ], [ 38.7197143, 9.0079515 ], [ 38.7264124, 9.0111896 ], [ 38.7253784, 9.0132798 ], [ 38.7254822, 9.0134398 ], [ 38.7272909, 9.0152947 ], [ 38.7296718, 9.0166974 ], [ 38.7332006, 9.0206959 ], [ 38.7355141, 9.0216851 ], [ 38.7422622, 9.0223448 ], [ 38.7439453, 9.0231991 ], [ 38.7440472, 9.0232515 ], [ 38.7467381, 9.0231753 ], [ 38.7488745, 9.0229183 ], [ 38.7523491, 9.0197223 ], [ 38.7554835, 9.0175438 ], [ 38.755531, 9.0174041 ], [ 38.7555926, 9.0160591 ], [ 38.7554942, 9.0142652 ], [ 38.7588742, 9.0086394 ], [ 38.7590828, 9.0075554 ], [ 38.7591364, 9.0073247 ], [ 38.7633803, 9.0013968 ], [ 38.7654833, 9.001129 ], [ 38.7660829, 9.0011193 ], [ 38.7665433, 9.0010165 ], [ 38.7669806, 9.0004762 ], [ 38.7673828, 8.9998628 ], [ 38.7681495, 8.9979743 ], [ 38.7682505, 8.9968962 ], [ 38.7682519, 8.9964896 ], [ 38.7662967, 8.9928308 ], [ 38.766451, 8.9878303 ], [ 38.7676154, 8.9842259 ], [ 38.7662418, 8.9812714 ], [ 38.7650426, 8.9787808 ], [ 38.7631592, 8.9740794 ], [ 38.7570116, 8.9719198 ], [ 38.7547878, 8.9702414 ], [ 38.7518933, 8.9676702 ], [ 38.7487124, 8.9653973 ], [ 38.7486493, 8.9654003 ], [ 38.7447925, 8.9655323 ], [ 38.7425539, 8.9656328 ], [ 38.7358058, 8.9664959 ], [ 38.7338521, 8.9650684 ], [ 38.733741, 8.9650956 ], [ 38.7313752, 8.967334 ], [ 38.7264578, 8.9692085 ], [ 38.7264641, 8.9702238 ], [ 38.7264738, 8.9713381 ], [ 38.7256413, 8.9758612 ], [ 38.7204445, 8.9808492 ], [ 38.7197225, 8.9812826 ], [ 38.7184726, 8.9834798 ], [ 38.7180908, 8.9841611 ], [ 38.7165458, 8.9869257 ], [ 38.7127356, 8.9895603 ], [ 38.7125692, 8.98971 ], [ 38.7129574, 8.9908508 ], [ 38.7136137, 8.9922004 ], [ 38.715329, 8.9947232 ], [ 38.7189357, 9.0001877 ], [ 38.7189773, 9.0029713 ], [ 38.7188894, 9.0059185 ], [ 38.7190919, 9.0068716 ] ] ] } },
{ "type": "Feature", "properties": { "threshold_s": 300, "time_label": "5 min drive" }, "geometry": { "type": "Polygon", "coordinates": [ [ [ 38.708571, 8.9661905 ], [ 38.7093741, 8.9674281 ], [ 38.7129878, 8.9680759 ], [ 38.7130442, 8.9680264 ], [ 38.7129436, 8.9680093 ], [ 38.7095952, 8.9664675 ], [ 38.7097062, 8.9659719 ], [ 38.7113571, 8.9645981 ], [ 38.7129534, 8.9636095 ], [ 38.7136356, 8.9631317 ], [ 38.7161542, 8.9625726 ], [ 38.7185303, 8.963298 ], [ 38.7188681, 8.9640159 ], [ 38.7191646, 8.9638658 ], [ 38.7193582, 8.9614162 ], [ 38.7194361, 8.9606412 ], [ 38.7188125, 8.9584052 ], [ 38.7181476, 8.9559264 ], [ 38.7180653, 8.9552998 ], [ 38.7173479, 8.9532857 ], [ 38.7174137, 8.9514514 ], [ 38.7156814, 8.9509822 ], [ 38.7137612, 8.9506522 ], [ 38.7135526, 8.950985 ], [ 38.7132872, 8.9513143 ], [ 38.7131958, 8.9522065 ], [ 38.7120212, 8.9546961 ], [ 38.7112694, 8.9546488 ], [ 38.7090022, 8.9531007 ], [ 38.7088591, 8.9526057 ], [ 38.7087987, 8.9523234 ], [ 38.7087649, 8.9521945 ], [ 38.7085998, 8.9514719 ], [ 38.70772, 8.9528821 ], [ 38.7060208, 8.9538405 ], [ 38.7055635, 8.9539711 ], [ 38.7050791, 8.9543008 ], [ 38.7041367, 8.9550057 ], [ 38.7042975, 8.9555025 ], [ 38.7038314, 8.9579089 ], [ 38.7037773, 8.9580994 ], [ 38.7046056, 8.959167 ], [ 38.7059028, 8.9616931 ], [ 38.7059901, 8.9615764 ], [ 38.7066794, 8.9589522 ], [ 38.7082998, 8.9591877 ], [ 38.7097852, 8.9596157 ], [ 38.7103525, 8.9597938 ], [ 38.7117541, 8.9617023 ], [ 38.7114597, 8.962623 ], [ 38.7114208, 8.963849 ], [ 38.7084818, 8.9659732 ], [ 38.708571, 8.9661905 ] ] ] } },
{ "type": "Feature", "properties": { "threshold_s": 600, "time_label": "10 min drive" }, "geometry": { "type": "Polygon", "coordinates": [ [ [ 38.7022307, 8.9728978 ], [ 38.7024934, 8.974706 ], [ 38.7037504, 8.9758767 ], [ 38.7057853, 8.9756135 ], [ 38.7065117, 8.9752925 ], [ 38.7076208, 8.974797 ], [ 38.7079365, 8.9746578 ], [ 38.7085293, 8.9743943 ], [ 38.7089684, 8.9741971 ], [ 38.7092046, 8.9740936 ], [ 38.7097858, 8.9738359 ], [ 38.7107423, 8.973403 ], [ 38.7110888, 8.9732445 ], [ 38.7120216, 8.9728206 ], [ 38.713758, 8.9722018 ], [ 38.7187499, 8.972423 ], [ 38.7204065, 8.9728935 ], [ 38.7212323, 8.9729119 ], [ 38.7247432, 8.9730688 ], [ 38.7249227, 8.9730334 ], [ 38.7256696, 8.9721836 ], [ 38.7261173, 8.9689048 ], [ 38.727375, 8.9653815 ], [ 38.7276622, 8.9634168 ], [ 38.727665, 8.9627193 ], [ 38.7276671, 8.9616568 ], [ 38.7276238, 8.9613825 ], [ 38.7258145, 8.9585262 ], [ 38.7255286, 8.9576791 ], [ 38.727476, 8.9525109 ], [ 38.7265286, 8.9487218 ], [ 38.7255665, 8.9454609 ], [ 38.7253649, 8.9451573 ], [ 38.7252582, 8.945024 ], [ 38.7240815, 8.944222 ], [ 38.7230275, 8.9437106 ], [ 38.7202932, 8.9428596 ], [ 38.7193868, 8.9430442 ], [ 38.7169259, 8.9451545 ], [ 38.7157618, 8.9461813 ], [ 38.7135835, 8.9481014 ], [ 38.7083825, 8.9462516 ], [ 38.7042759, 8.9441276 ], [ 38.7023901, 8.9487493 ], [ 38.7006778, 8.9503101 ], [ 38.6957192, 8.9520853 ], [ 38.6943834, 8.9527364 ], [ 38.6943434, 8.9548919 ], [ 38.6944314, 8.9560721 ], [ 38.6946148, 8.9572657 ], [ 38.6955415, 8.9596648 ], [ 38.6958124, 8.9598689 ], [ 38.6984839, 8.9604146 ], [ 38.6997608, 8.96103 ], [ 38.7015584, 8.9642617 ], [ 38.6986901, 8.9671433 ], [ 38.7001897, 8.9677934 ], [ 38.7022307, 8.9728978 ] ] ] } },
{ "type": "Feature", "properties": { "threshold_s": 900, "time_label": "15 min drive" }, "geometry": { "type": "Polygon", "coordinates": [ [ [ 38.6934923, 8.977729 ], [ 38.694891, 8.9800238 ], [ 38.6961845, 8.9811349 ], [ 38.6975156, 8.9816211 ], [ 38.6985553, 8.9808574 ], [ 38.6993848, 8.9798635 ], [ 38.7039784, 8.9764145 ], [ 38.7057853, 8.9756135 ], [ 38.7078998, 8.9749441 ], [ 38.7092046, 8.9740936 ], [ 38.7097858, 8.9738359 ], [ 38.7140299, 8.9732737 ], [ 38.7195794, 8.9737333 ], [ 38.7189332, 8.9793883 ], [ 38.7197882, 8.9819198 ], [ 38.7223984, 8.9810641 ], [ 38.7230837, 8.980366 ], [ 38.727001, 8.9760068 ], [ 38.7282267, 8.9758101 ], [ 38.7296868, 8.9752961 ], [ 38.7322075, 8.9738249 ], [ 38.7329476, 8.9698573 ], [ 38.736566, 8.9669333 ], [ 38.7366423, 8.9668581 ], [ 38.7372129, 8.9662997 ], [ 38.7352973, 8.9619756 ], [ 38.7335671, 8.9563225 ], [ 38.7372219, 8.9509049 ], [ 38.7378673, 8.9509888 ], [ 38.7379298, 8.9509612 ], [ 38.7386298, 8.9502352 ], [ 38.7385983, 8.9477718 ], [ 38.738491, 8.9464636 ], [ 38.737102299999989, 8.9450315 ], [ 38.7340651, 8.9396349 ], [ 38.7336624, 8.9392931 ], [ 38.7325323, 8.9385586 ], [ 38.7282523, 8.9368177 ], [ 38.7246594, 8.9348578 ], [ 38.7216726, 8.9333247 ], [ 38.7193404, 8.9335716 ], [ 38.7182565, 8.936313 ], [ 38.7166619, 8.9404894 ], [ 38.7158471, 8.9413677 ], [ 38.713008, 8.9426952 ], [ 38.7106309, 8.9421838 ], [ 38.7087329, 8.9369311 ], [ 38.7078079, 8.9358279 ], [ 38.7067501, 8.9344693 ], [ 38.7018118, 8.936607 ], [ 38.697371, 8.9413614 ], [ 38.6935446, 8.9429701 ], [ 38.6885846, 8.9466705 ], [ 38.6875301, 8.9472236 ], [ 38.6858117, 8.9485311 ], [ 38.6837192, 8.9512406 ], [ 38.6848896, 8.9529383 ], [ 38.6869499, 8.9589574 ], [ 38.686139, 8.9621977 ], [ 38.686713, 8.9646114 ], [ 38.686987, 8.9649532 ], [ 38.6905853, 8.9705122 ], [ 38.6913687, 8.972751 ], [ 38.6917643, 8.9736267 ], [ 38.6934923, 8.977729 ] ] ] } },
{ "type": "Feature", "properties": { "threshold_s": 300, "time_label": "5 min drive" }, "geometry": { "type": "Polygon", "coordinates": [ [ [ 38.8848376, 8.9848396 ], [ 38.8851508, 8.9852494 ], [ 38.8885184, 8.9833769 ], [ 38.8917585, 8.9815979 ], [ 38.8918967, 8.9815223 ], [ 38.8918811, 8.9813766 ], [ 38.8918564, 8.9795043 ], [ 38.8917437, 8.9783697 ], [ 38.8944407, 8.9762515 ], [ 38.8946491, 8.9747852 ], [ 38.8942999, 8.9723278 ], [ 38.8924418, 8.9712768 ], [ 38.8893438, 8.9705139 ], [ 38.8892464, 8.9705941 ], [ 38.8886621, 8.9710747 ], [ 38.8882049, 8.9714508 ], [ 38.8862929, 8.9717884 ], [ 38.8844101, 8.9698018 ], [ 38.8827786, 8.9719075 ], [ 38.8845031, 8.9736856 ], [ 38.8848592, 8.9761974 ], [ 38.8845302, 8.9778742 ], [ 38.8845518, 8.9782527 ], [ 38.8846948, 8.9804587 ], [ 38.8847016, 8.9805858 ], [ 38.8850946, 8.9838114 ], [ 38.8848376, 8.9848396 ] ] ] } },
{ "type": "Feature", "properties": { "threshold_s": 600, "time_label": "10 min drive" }, "geometry": { "type": "Polygon", "coordinates": [ [ [ 38.8773054, 8.9875893 ], [ 38.8786331, 8.9934733 ], [ 38.8814333, 8.9951662 ], [ 38.8852216, 8.9975096 ], [ 38.8855772, 8.9975479 ], [ 38.8886133, 8.9949029 ], [ 38.8936431, 8.9924707 ], [ 38.8895121, 8.986617 ], [ 38.8918967, 8.9815223 ], [ 38.8960601, 8.9799898 ], [ 38.8962032, 8.979302 ], [ 38.8968989, 8.9759151 ], [ 38.89846, 8.9705885 ], [ 38.899451, 8.9690174 ], [ 38.8989817, 8.967902 ], [ 38.8960915, 8.9652311 ], [ 38.8948591, 8.964777 ], [ 38.8880409, 8.9631164 ], [ 38.8854526, 8.9603697 ], [ 38.8844093, 8.9598369 ], [ 38.8826155, 8.9598184 ], [ 38.8786944, 8.9637113 ], [ 38.8769908, 8.9661846 ], [ 38.8770774, 8.967025 ], [ 38.8791146, 8.9691254 ], [ 38.8792715, 8.9693022 ], [ 38.8807078, 8.9710786 ], [ 38.8820073, 8.9730657 ], [ 38.8845518, 8.9782527 ], [ 38.8846948, 8.9804587 ], [ 38.8847016, 8.9805858 ], [ 38.8850946, 8.9838114 ], [ 38.8791226, 8.9856556 ], [ 38.8779357, 8.9863667 ], [ 38.8773054, 8.9875893 ] ] ] } },
{ "type": "Feature", "properties": { "threshold_s": 900, "time_label": "15 min drive" }, "geometry": { "type": "Polygon", "coordinates": [ [ [ 38.8764132, 9.002169 ], [ 38.8764657, 9.0023479 ], [ 38.8765478, 9.0023991 ], [ 38.8767339, 9.0023692 ], [ 38.8854124, 9.0053894 ], [ 38.8859522, 9.0077419 ], [ 38.8888241, 9.0065351 ], [ 38.8947049, 9.0034409 ], [ 38.8947069, 9.0027554 ], [ 38.8947441, 8.9980996 ], [ 38.8983501, 8.994107 ], [ 38.9003091, 8.9917424 ], [ 38.901672499999989, 8.99006 ], [ 38.9006196, 8.9875084 ], [ 38.8962032, 8.979302 ], [ 38.8968989, 8.9759151 ], [ 38.899451, 8.9690174 ], [ 38.8989817, 8.967902 ], [ 38.899498, 8.9608478 ], [ 38.9026409, 8.9590526 ], [ 38.8995463, 8.9577599 ], [ 38.8953357, 8.9575998 ], [ 38.8907251, 8.9544305 ], [ 38.8871223, 8.9527496 ], [ 38.8836126, 8.9514109 ], [ 38.8800211, 8.9543552 ], [ 38.8738815, 8.9550786 ], [ 38.8710671, 8.9639464 ], [ 38.8713939, 8.9653464 ], [ 38.8716393, 8.9663726 ], [ 38.8726893, 8.9753044 ], [ 38.8716175, 8.9785236 ], [ 38.8760126, 8.9845241 ], [ 38.8720161, 8.9906148 ], [ 38.8705891, 8.9912559 ], [ 38.8718391, 8.9914174 ], [ 38.8763532, 8.9937859 ], [ 38.8765597, 9.0017587 ], [ 38.8764132, 9.002169 ] ] ] } },
{ "type": "Feature", "properties": { "threshold_s": 300, "time_label": "5 min drive" }, "geometry": { "type": "Polygon", "coordinates": [ [ [ 38.7041346, 9.0651968 ], [ 38.7046476, 9.0659146 ], [ 38.7055677, 9.0660375 ], [ 38.7059357, 9.0659722 ], [ 38.7064393, 9.0656273 ], [ 38.7071273, 9.0631653 ], [ 38.707658, 9.0628554 ], [ 38.7078967, 9.0623726 ], [ 38.7079938, 9.0620327 ], [ 38.7080747, 9.0616768 ], [ 38.7110449, 9.061498 ], [ 38.7110005, 9.0607548 ], [ 38.713122, 9.0590505 ], [ 38.7142127, 9.0594514 ], [ 38.7135377, 9.0568903 ], [ 38.7134988, 9.0563123 ], [ 38.7157332, 9.0546701 ], [ 38.7157554, 9.0546448 ], [ 38.7157822, 9.0546119 ], [ 38.7160095, 9.054288 ], [ 38.7159558, 9.0542542 ], [ 38.7156779, 9.0545105 ], [ 38.7156486, 9.0545343 ], [ 38.7133989, 9.0548277 ], [ 38.7122067, 9.0534927 ], [ 38.7119027, 9.0522056 ], [ 38.7113584, 9.0518981 ], [ 38.7103567, 9.0530034 ], [ 38.7089931, 9.0542446 ], [ 38.7089404, 9.054733 ], [ 38.7079286, 9.0570843 ], [ 38.7069489, 9.0577433 ], [ 38.7065344, 9.0580365 ], [ 38.7051485, 9.0599418 ], [ 38.7033109, 9.0609337 ], [ 38.7025997, 9.0612873 ], [ 38.7024535, 9.0617343 ], [ 38.7032877, 9.0636685 ], [ 38.7041346, 9.0651968 ] ] ] } },
{ "type": "Feature", "properties": { "threshold_s": 600, "time_label": "10 min drive" }, "geometry": { "type": "Polygon", "coordinates": [ [ [ 38.695077, 9.0660904 ], [ 38.6949831, 9.066376 ], [ 38.6963716, 9.0673118 ], [ 38.698357799999989, 9.0683166 ], [ 38.6992261, 9.0679087 ], [ 38.7001384, 9.0673675 ], [ 38.7043412, 9.0666829 ], [ 38.7047361, 9.0671463 ], [ 38.7049681, 9.0734342 ], [ 38.7066767, 9.0720331 ], [ 38.7051867, 9.0669423 ], [ 38.7064393, 9.0656273 ], [ 38.707658, 9.0628554 ], [ 38.7110449, 9.061498 ], [ 38.7147419, 9.0627772 ], [ 38.7154944, 9.0661054 ], [ 38.7157479, 9.0667755 ], [ 38.716975, 9.0684375 ], [ 38.7172258, 9.0686296 ], [ 38.7175758, 9.0688659 ], [ 38.717952, 9.0690613 ], [ 38.7194854, 9.0697505 ], [ 38.7198846, 9.069499 ], [ 38.7200117, 9.0691602 ], [ 38.7205002, 9.065913 ], [ 38.7202186, 9.0632794 ], [ 38.7207026, 9.0593857 ], [ 38.7206783, 9.058177 ], [ 38.7237543, 9.0551894 ], [ 38.7235673, 9.0539123 ], [ 38.7249858, 9.0500191 ], [ 38.7249667, 9.0499866 ], [ 38.7249365, 9.049948 ], [ 38.724913, 9.0499227 ], [ 38.7223227, 9.0479272 ], [ 38.7215629, 9.0478241 ], [ 38.720305, 9.0477991 ], [ 38.7197747, 9.0482355 ], [ 38.7157536, 9.0477334 ], [ 38.714793, 9.0457469 ], [ 38.7147702, 9.0456575 ], [ 38.7144953, 9.0447469 ], [ 38.7123378, 9.0418275 ], [ 38.7119767, 9.0417736 ], [ 38.7100227, 9.0416232 ], [ 38.7088318, 9.0442662 ], [ 38.7060598, 9.045207 ], [ 38.7037919, 9.0461124 ], [ 38.7032843, 9.0463005 ], [ 38.7025494, 9.0465938 ], [ 38.7016178, 9.0477981 ], [ 38.7014276, 9.0483143 ], [ 38.7014701, 9.049207 ], [ 38.6988763, 9.0525377 ], [ 38.6978128, 9.0557983 ], [ 38.6956846, 9.0590059 ], [ 38.6956333, 9.0590879 ], [ 38.6957335, 9.0595285 ], [ 38.6959863, 9.0603192 ], [ 38.6985998, 9.063679 ], [ 38.6972442, 9.0656717 ], [ 38.6960317, 9.0661013 ], [ 38.695077, 9.0660904 ] ] ] } },
{ "type": "Feature", "properties": { "threshold_s": 900, "time_label": "15 min drive" }, "geometry": { "type": "Polygon", "coordinates": [ [ [ 38.6870897, 9.0709018 ], [ 38.6890844, 9.0740526 ], [ 38.6900282, 9.0740514 ], [ 38.6938391, 9.0730859 ], [ 38.6945052, 9.0723955 ], [ 38.6946523, 9.0720662 ], [ 38.6947811, 9.0717378 ], [ 38.698357799999989, 9.0683166 ], [ 38.6992261, 9.0679087 ], [ 38.7001384, 9.0673675 ], [ 38.7047361, 9.0671463 ], [ 38.7049681, 9.0734342 ], [ 38.7040883, 9.075675 ], [ 38.7066767, 9.0720331 ], [ 38.7051867, 9.0669423 ], [ 38.7064393, 9.0656273 ], [ 38.707658, 9.0628554 ], [ 38.7110449, 9.061498 ], [ 38.7147419, 9.0627772 ], [ 38.7154944, 9.0661054 ], [ 38.7149821, 9.0688865 ], [ 38.7151902, 9.0700342 ], [ 38.715507, 9.070681 ], [ 38.7157707, 9.0714928 ], [ 38.7160362, 9.0719192 ], [ 38.7166478, 9.0718531 ], [ 38.7172835, 9.071559 ], [ 38.7221517, 9.0746327 ], [ 38.7232054, 9.0776749 ], [ 38.7239153, 9.0737729 ], [ 38.7233111, 9.0688621 ], [ 38.7243865, 9.0677995 ], [ 38.7248123, 9.0674636 ], [ 38.7280848, 9.0665131 ], [ 38.7289421, 9.0656311 ], [ 38.7322757, 9.0610278 ], [ 38.732499, 9.0593583 ], [ 38.7334452, 9.0551843 ], [ 38.7337977, 9.0513011 ], [ 38.7339148, 9.0497921 ], [ 38.7342001, 9.0451224 ], [ 38.7341995, 9.043839 ], [ 38.7309252, 9.0426835 ], [ 38.728019, 9.0390448 ], [ 38.7274759, 9.0389161 ], [ 38.7252774, 9.0386562 ], [ 38.7216069, 9.0374307 ], [ 38.7196316, 9.036118 ], [ 38.7161901, 9.0323642 ], [ 38.7146264, 9.0303259 ], [ 38.7120239, 9.0317849 ], [ 38.7084422, 9.0330123 ], [ 38.707653, 9.033307 ], [ 38.7043312, 9.0353894 ], [ 38.7017896, 9.0371099 ], [ 38.6977448, 9.0397926 ], [ 38.6945085, 9.0407461 ], [ 38.6940874, 9.040914 ], [ 38.6938153, 9.0413982 ], [ 38.6950265, 9.0442973 ], [ 38.6926122, 9.0484916 ], [ 38.6906364, 9.0509039 ], [ 38.6869407, 9.0542206 ], [ 38.6858849, 9.0548353 ], [ 38.6855925, 9.0592233 ], [ 38.6847578, 9.0622835 ], [ 38.6872827, 9.0655392 ], [ 38.6870897, 9.0709018 ] ] ] } }
]
}
