{
"type": "FeatureCollection",
"name": "isochrone_unhealthy_offers_drive",
"crs": { "type": "name", "properties": { "name": "urn:ogc:def:crs:OGC:1.3:CRS84" } },
"features": [
{ "type": "Feature", "properties": { "index": 300 }, "geometry": { "type": "MultiPolygon", "coordinates": [ [ [ [ 38.7135835, 8.9481014 ], [ 38.7111602, 8.9483774 ], [ 38.7097463, 8.9487392 ], [ 38.7091566, 8.9491127 ], [ 38.7084953, 8.9503518 ], [ 38.708568203279476, 8.951133225486528 ], [ 38.7075363, 8.9513951 ], [ 38.7056375, 8.9521439 ], [ 38.7048021, 8.9528138 ], [ 38.7032842, 8.9541975 ], [ 38.7024621, 8.9557787 ], [ 38.702913553229351, 8.957625961259005 ], [ 38.7011788, 8.9570912 ], [ 38.6988366, 8.9558615 ], [ 38.6986032, 8.9524198 ], [ 38.7001428, 8.951705 ], [ 38.7008689, 8.9508498 ], [ 38.7006778, 8.9503101 ], [ 38.6994394, 8.9497145 ], [ 38.697770882831051, 8.949040390873988 ], [ 38.6979773, 8.948575 ], [ 38.6974065, 8.9480831 ], [ 38.6968213, 8.9476598 ], [ 38.6961827, 8.9471291 ], [ 38.6953464, 8.9456204 ], [ 38.6956179, 8.9440219 ], [ 38.6943372, 8.9436391 ], [ 38.6924702, 8.9422328 ], [ 38.6918481, 8.9419168 ], [ 38.6907888, 8.941807 ], [ 38.6896484, 8.9415089 ], [ 38.6872833, 8.9418058 ], [ 38.6866017, 8.9430893 ], [ 38.686266592422136, 8.943244053504424 ], [ 38.6862475, 8.943242 ], [ 38.6838244, 8.9433313 ], [ 38.6821188, 8.9435227 ], [ 38.6802028, 8.9447962 ], [ 38.6803925, 8.945542 ], [ 38.6806364, 8.9463045 ], [ 38.6812202, 8.9471392 ], [ 38.681853261524154, 8.949101646792773 ], [ 38.6810593, 8.9510858 ], [ 38.6810714, 8.9512916 ], [ 38.6813858, 8.9539774 ], [ 38.6803134, 8.9557227 ], [ 38.6803973, 8.9570556 ], [ 38.6819766, 8.9576219 ], [ 38.6853115, 8.9589775 ], [ 38.687223577738862, 8.958409278554077 ], [ 38.6859083, 8.9599987 ], [ 38.6854872, 8.9606094 ], [ 38.6851023, 8.9612095 ], [ 38.6846973, 8.9618334 ], [ 38.6843044, 8.9624335 ], [ 38.6829673, 8.9643809 ], [ 38.682384380060981, 8.966553285853241 ], [ 38.6812171, 8.967792 ], [ 38.6811676, 8.9684219 ], [ 38.6807735, 8.9695573 ], [ 38.6801021, 8.9701187 ], [ 38.6776712, 8.96827 ], [ 38.6766241, 8.967154 ], [ 38.6760178, 8.9664545 ], [ 38.6773856, 8.9643239 ], [ 38.6782171, 8.961792 ], [ 38.6789749, 8.9608961 ], [ 38.679031, 8.9600722 ], [ 38.6781537, 8.9580395 ], [ 38.6774915, 8.9585057 ], [ 38.6748818, 8.9586978 ], [ 38.6726743, 8.9593681 ], [ 38.6715478, 8.9600093 ], [ 38.6706211, 8.9605736 ], [ 38.6696707, 8.9609387 ], [ 38.6671099, 8.9610446 ], [ 38.6665157, 8.9610838 ], [ 38.6642035, 8.9613076 ], [ 38.6627488, 8.9625355 ], [ 38.6631653, 8.9643388 ], [ 38.6646163, 8.966586 ], [ 38.6650046, 8.9671174 ], [ 38.666819, 8.9677126 ], [ 38.6692769, 8.9689339 ], [ 38.6715522, 8.9699736 ], [ 38.6714008, 8.9700852 ], [ 38.6715572, 8.9706269 ], [ 38.6716846, 8.9713144 ], [ 38.6721212, 8.9717777 ], [ 38.6714636, 8.9735855 ], [ 38.6710864, 8.9737015 ], [ 38.6702261, 8.9738631 ], [ 38.6689353, 8.9739135 ], [ 38.6681474, 8.974355 ], [ 38.6687587, 8.9744016 ], [ 38.6699679, 8.9754541 ], [ 38.6686079, 8.9769828 ], [ 38.6675825, 8.9770341 ], [ 38.6678302, 8.9793765 ], [ 38.6678155, 8.9794082 ], [ 38.6676757, 8.9796943 ], [ 38.6676575, 8.9797315 ], [ 38.6680703, 8.9810402 ], [ 38.6687578, 8.9823136 ], [ 38.6700762, 8.9830063 ], [ 38.6713416, 8.9841581 ], [ 38.6727266, 8.9844875 ], [ 38.6735104, 8.9837376 ], [ 38.6753404, 8.9834524 ], [ 38.6757208, 8.9841315 ], [ 38.6759149, 8.9844863 ], [ 38.6770579, 8.9836004 ], [ 38.678192980865894, 8.983792007925041 ], [ 38.6782433, 8.9854148 ], [ 38.6785318, 8.9858875 ], [ 38.678182, 8.9876476 ], [ 38.6787729, 8.9875522 ], [ 38.6806866, 8.9881717 ], [ 38.6795862, 8.9886155 ], [ 38.6779697, 8.9901814 ], [ 38.6766884, 8.9903938 ], [ 38.6759078, 8.9915244 ], [ 38.6746301, 8.9913964 ], [ 38.6745822, 8.9914439 ], [ 38.6738524, 8.9921642 ], [ 38.6737022, 8.9923215 ], [ 38.6728961, 8.9930948 ], [ 38.6711383, 8.9935261 ], [ 38.6710496, 8.9944432 ], [ 38.6697155, 8.9949412 ], [ 38.6695479, 8.9965102 ], [ 38.6686668, 8.9972062 ], [ 38.6684991, 8.9973391 ], [ 38.6686031, 8.9989164 ], [ 38.6685908, 8.9998326 ], [ 38.6690744, 9.0004888 ], [ 38.669902513658656, 9.001881304860106 ], [ 38.6697735, 9.0022931 ], [ 38.6703032, 9.0031919 ], [ 38.6700408, 9.0052363 ], [ 38.6707689, 9.0063457 ], [ 38.6719674, 9.0073675 ], [ 38.6724114, 9.0076981 ], [ 38.6741066, 9.0085008 ], [ 38.6746162, 9.0088226 ], [ 38.6765568, 9.0098677 ], [ 38.6772877, 9.0104862 ], [ 38.677703, 9.0104528 ], [ 38.678885, 9.0116638 ], [ 38.6794321, 9.0121658 ], [ 38.6796896, 9.0120731 ], [ 38.6800851, 9.0119121 ], [ 38.6810731, 9.0112918 ], [ 38.6832798, 9.0113804 ], [ 38.6852123, 9.0110916 ], [ 38.6878939, 9.0095187 ], [ 38.6883806, 9.0099695 ], [ 38.690948085442621, 9.011541961951622 ], [ 38.6909797, 9.0123155 ], [ 38.690464, 9.0136798 ], [ 38.6916764, 9.013044 ], [ 38.6920165, 9.0128674 ], [ 38.6923106, 9.0126828 ], [ 38.6952014, 9.0125375 ], [ 38.6955216, 9.0125774 ], [ 38.6980247, 9.01361 ], [ 38.6988273, 9.0143871 ], [ 38.6996032, 9.015183 ], [ 38.6995719, 9.0130602 ], [ 38.7004506, 9.0104771 ], [ 38.7016353, 9.0109255 ], [ 38.702814, 9.0103239 ], [ 38.7038469, 9.0093286 ], [ 38.7039247, 9.0085498 ], [ 38.7038872, 9.0069325 ], [ 38.7038193, 9.0044451 ], [ 38.7038355, 9.0044118 ], [ 38.7040655, 9.0039244 ], [ 38.7026245, 9.003582 ], [ 38.7030289, 9.0013441 ], [ 38.7027497, 9.001062 ], [ 38.7014011, 9.000037 ], [ 38.7009945, 8.998908 ], [ 38.6998478, 8.9979893 ], [ 38.6974503, 8.9970992 ], [ 38.6962866, 8.9963875 ], [ 38.6954675, 8.9963489 ], [ 38.6953475, 8.9964028 ], [ 38.6951727, 8.9964815 ], [ 38.6947912, 8.9966628 ], [ 38.6944625, 8.9968365 ], [ 38.6922561, 8.9985884 ], [ 38.6892435, 8.9957267 ], [ 38.6893353, 8.995361 ], [ 38.690739, 8.9935738 ], [ 38.6927955, 8.9937808 ], [ 38.6950064, 8.992164 ], [ 38.695756, 8.9930984 ], [ 38.6962535, 8.9919348 ], [ 38.6963744, 8.9910169 ], [ 38.696366853408406, 8.990238796920559 ], [ 38.6983771, 8.991375 ], [ 38.6986447, 8.9920745 ], [ 38.69908, 8.992327 ], [ 38.6992706, 8.9920621 ], [ 38.6995905, 8.9916108 ], [ 38.6999704, 8.9919056 ], [ 38.7017421, 8.9941402 ], [ 38.7016636, 8.9951155 ], [ 38.7012768, 8.996215 ], [ 38.701132, 8.9966866 ], [ 38.7017044, 8.9971722 ], [ 38.7027396, 8.9978974 ], [ 38.7033457, 8.999167 ], [ 38.7039517, 8.9987525 ], [ 38.7040351, 8.998691 ], [ 38.7046245, 8.9982994 ], [ 38.70628, 8.9987221 ], [ 38.7065596, 8.9990587 ], [ 38.7076691, 8.9987717 ], [ 38.7084322, 8.9973378 ], [ 38.708491163423311, 8.997162305969729 ], [ 38.7087007, 8.9970398 ], [ 38.7105345, 8.9957121 ], [ 38.7124069, 8.994555 ], [ 38.7126667, 8.9941755 ], [ 38.7127258, 8.993548 ], [ 38.7132105, 8.9912903 ], [ 38.7146091, 8.9910528 ], [ 38.7160403, 8.9927609 ], [ 38.7147728, 8.9935168 ], [ 38.7138261, 8.9942438 ], [ 38.7135096, 8.9946206 ], [ 38.7129289, 8.9956126 ], [ 38.7129463, 8.9959795 ], [ 38.7143934, 8.9963353 ], [ 38.7147582, 8.9980631 ], [ 38.7142567, 8.9991486 ], [ 38.7143733, 9.0001679 ], [ 38.7142619, 9.0021177 ], [ 38.7139454, 9.0041668 ], [ 38.714215, 9.0056337 ], [ 38.7104304, 9.0072398 ], [ 38.7101112, 9.0071153 ], [ 38.7094662, 9.0074715 ], [ 38.712881907158454, 9.010160474401761 ], [ 38.7111869, 9.0121129 ], [ 38.7105251, 9.0126418 ], [ 38.7094326, 9.0134758 ], [ 38.7094464, 9.014191 ], [ 38.7108862, 9.0164398 ], [ 38.7117121, 9.0149559 ], [ 38.7125402, 9.0139479 ], [ 38.7157746, 9.0132195 ], [ 38.7179674, 9.0153447 ], [ 38.7184063, 9.0183003 ], [ 38.7210266, 9.0180047 ], [ 38.721743524728424, 9.01795467294184 ], [ 38.7211995, 9.0185011 ], [ 38.7212833, 9.0199212 ], [ 38.7206503, 9.0215885 ], [ 38.7216702, 9.0226521 ], [ 38.7221181, 9.0227197 ], [ 38.7224779, 9.0227154 ], [ 38.7234364, 9.0227223 ], [ 38.7242076, 9.0244733 ], [ 38.725053844396506, 9.02596988591664 ], [ 38.7247346, 9.0264217 ], [ 38.7222791, 9.0257475 ], [ 38.720889, 9.025629 ], [ 38.7201843, 9.0267779 ], [ 38.719698006350633, 9.027629570404375 ], [ 38.7188726, 9.0274959 ], [ 38.7181688, 9.0266727 ], [ 38.7176632, 9.0266611 ], [ 38.7168578, 9.0271353 ], [ 38.7148898, 9.0260835 ], [ 38.7149162, 9.0254453 ], [ 38.7149263, 9.0253368 ], [ 38.7150192, 9.0236091 ], [ 38.715065, 9.0231544 ], [ 38.7134602, 9.0231438 ], [ 38.7127804, 9.0232168 ], [ 38.7120412, 9.0235873 ], [ 38.7114282, 9.0244084 ], [ 38.7110057, 9.0257422 ], [ 38.7108492, 9.0261124 ], [ 38.7083363, 9.0267296 ], [ 38.7081519, 9.0267832 ], [ 38.7069757, 9.0271051 ], [ 38.7057999, 9.025474 ], [ 38.7051357, 9.0249965 ], [ 38.7035291, 9.0254177 ], [ 38.7028545, 9.0276203 ], [ 38.7036498, 9.0281713 ], [ 38.7047662, 9.0279834 ], [ 38.7059645, 9.0298706 ], [ 38.7045389, 9.0308971 ], [ 38.7032464, 9.0308579 ], [ 38.7008457, 9.0310941 ], [ 38.7007628, 9.0306842 ], [ 38.7002915, 9.0306907 ], [ 38.7000958, 9.031511 ], [ 38.6993368, 9.0329567 ], [ 38.6992764, 9.0336705 ], [ 38.6992861, 9.0349609 ], [ 38.6990927, 9.0360996 ], [ 38.699389, 9.0373799 ], [ 38.6993715, 9.0384536 ], [ 38.7002089, 9.038722 ], [ 38.7021752, 9.0394962 ], [ 38.7025649, 9.0399286 ], [ 38.7030811, 9.0404656 ], [ 38.7039958, 9.0418795 ], [ 38.7049641, 9.0423603 ], [ 38.7073345, 9.0424437 ], [ 38.7088318, 9.0442662 ], [ 38.709808, 9.0447335 ], [ 38.7101179, 9.0446992 ], [ 38.7105712, 9.044636 ], [ 38.712546, 9.0456296 ], [ 38.7129483, 9.0475481 ], [ 38.713375182477009, 9.047130433803707 ], [ 38.7149365, 9.0471322 ], [ 38.7173083, 9.0462031 ], [ 38.717773, 9.0438728 ], [ 38.718767851046159, 9.04410594417736 ], [ 38.7183244, 9.0449502 ], [ 38.7188249, 9.0478735 ], [ 38.7188915, 9.0484049 ], [ 38.7191489, 9.0506074 ], [ 38.7159088, 9.0528119 ], [ 38.7158673, 9.0528311 ], [ 38.715629669334177, 9.054536768888008 ], [ 38.7133989, 9.0548277 ], [ 38.7122067, 9.0534927 ], [ 38.7119027, 9.0522056 ], [ 38.7116659, 9.0510319 ], [ 38.711742, 9.048993 ], [ 38.7107677, 9.0488427 ], [ 38.7097434, 9.0509921 ], [ 38.707826, 9.0513915 ], [ 38.707781127731927, 9.052922395367851 ], [ 38.7056962, 9.0522748 ], [ 38.7056467, 9.0525774 ], [ 38.7061599, 9.0541791 ], [ 38.7043163, 9.0554984 ], [ 38.7019271, 9.0549932 ], [ 38.7013686, 9.0529159 ], [ 38.7011238, 9.0523895 ], [ 38.7005753, 9.0501161 ], [ 38.698911699999989, 9.049344 ], [ 38.6974378, 9.0491639 ], [ 38.6962332, 9.0505908 ], [ 38.6963144, 9.0517702 ], [ 38.6984234, 9.0526575 ], [ 38.6989615, 9.0537428 ], [ 38.6978128, 9.0557983 ], [ 38.696235665335649, 9.056199539525544 ], [ 38.6962718, 9.0560974 ], [ 38.6951722, 9.0548378 ], [ 38.6941827, 9.0535136 ], [ 38.6936929, 9.0529596 ], [ 38.6928709, 9.0531059 ], [ 38.6915735, 9.0541893 ], [ 38.6905285, 9.0549828 ], [ 38.6887237, 9.0547257 ], [ 38.6873668, 9.0552905 ], [ 38.6874307, 9.0560653 ], [ 38.6882777, 9.058139 ], [ 38.6869192, 9.0588453 ], [ 38.686455, 9.0588097 ], [ 38.6865195, 9.0608902 ], [ 38.6857408, 9.0619477 ], [ 38.6865279, 9.0622155 ], [ 38.6870085, 9.0621362 ], [ 38.687503, 9.0621908 ], [ 38.6887622, 9.0621323 ], [ 38.689535775230638, 9.06376961722864 ], [ 38.689061, 9.0647803 ], [ 38.6888044, 9.06493 ], [ 38.6869443, 9.065133 ], [ 38.6866969, 9.0655499 ], [ 38.6868173, 9.0662388 ], [ 38.6873984, 9.0669851 ], [ 38.6879695, 9.0677592 ], [ 38.688574392324114, 9.068702368114611 ], [ 38.687752, 9.0693337 ], [ 38.6870897, 9.0709018 ], [ 38.6884885, 9.0726872 ], [ 38.6889779, 9.0741764 ], [ 38.6893157, 9.0744571 ], [ 38.6900282, 9.0740514 ], [ 38.690748, 9.0729067 ], [ 38.6933118, 9.0726747 ], [ 38.6938391, 9.0730859 ], [ 38.6945052, 9.0723955 ], [ 38.6946523, 9.0720662 ], [ 38.6947811, 9.0717378 ], [ 38.6951271, 9.0706887 ], [ 38.6952025, 9.0702369 ], [ 38.6953996, 9.0696928 ], [ 38.6957356, 9.0682504 ], [ 38.698357799999989, 9.0683166 ], [ 38.6992261, 9.0679087 ], [ 38.7001384, 9.0673675 ], [ 38.700280812301209, 9.066858669131555 ], [ 38.701070590433773, 9.065444118676034 ], [ 38.7020686, 9.0652843 ], [ 38.7029162, 9.0652896 ], [ 38.7043412, 9.0666829 ], [ 38.7047361, 9.0671463 ], [ 38.7064393, 9.0656273 ], [ 38.707093893145831, 9.063284846039208 ], [ 38.707658, 9.0628554 ], [ 38.7078967, 9.0623726 ], [ 38.7079938, 9.0620327 ], [ 38.7080747, 9.0616768 ], [ 38.7110449, 9.061498 ], [ 38.711328567346257, 9.060491248183725 ], [ 38.713122, 9.0590505 ], [ 38.7143868, 9.0611467 ], [ 38.7147419, 9.0627772 ], [ 38.7148011, 9.0620899 ], [ 38.7142127, 9.0594514 ], [ 38.713892023311232, 9.05823468138132 ], [ 38.7164385, 9.0594054 ], [ 38.717208669231397, 9.062560606285038 ], [ 38.7161169, 9.0649894 ], [ 38.7159044, 9.0653812 ], [ 38.7154944, 9.0661054 ], [ 38.7157479, 9.0667755 ], [ 38.716975, 9.0684375 ], [ 38.7184985, 9.070863 ], [ 38.7215999, 9.0727251 ], [ 38.7215124, 9.0716122 ], [ 38.7217079, 9.0706514 ], [ 38.7233214, 9.0693875 ], [ 38.7247636, 9.0681643 ], [ 38.7264378, 9.0681555 ], [ 38.726785497861037, 9.069197698675675 ], [ 38.7268348, 9.0702863 ], [ 38.7269273, 9.0706505 ], [ 38.727037, 9.0714079 ], [ 38.72746982468842, 9.070281461310897 ], [ 38.7291224, 9.0709316 ], [ 38.7305483, 9.0709061 ], [ 38.732525099999989, 9.0719682 ], [ 38.7338488, 9.072825 ], [ 38.7348948, 9.0733919 ], [ 38.7369903, 9.0724295 ], [ 38.7373831, 9.0726401 ], [ 38.737907, 9.0725205 ], [ 38.7379958, 9.0724911 ], [ 38.7382171, 9.0719493 ], [ 38.7385805, 9.0705333 ], [ 38.7394818, 9.0691537 ], [ 38.7403949, 9.0675189 ], [ 38.7422124, 9.0661807 ], [ 38.7434205, 9.0655438 ], [ 38.743713726104318, 9.065103377202318 ], [ 38.7440279, 9.0650377 ], [ 38.7459371, 9.0652701 ], [ 38.7465906, 9.0647761 ], [ 38.7460378, 9.0635354 ], [ 38.7450043, 9.0617858 ], [ 38.7454931, 9.0607311 ], [ 38.7456084, 9.0606119 ], [ 38.7461722, 9.0596147 ], [ 38.7457285, 9.0579886 ], [ 38.7449187, 9.0578859 ], [ 38.743884149230873, 9.056728918486254 ], [ 38.744925, 9.0557852 ], [ 38.745324576636165, 9.055656567003169 ], [ 38.7454716, 9.0559036 ], [ 38.7462598, 9.0581087 ], [ 38.7484489, 9.0588421 ], [ 38.7487938, 9.0578297 ], [ 38.7513386, 9.0566671 ], [ 38.7539978, 9.0561037 ], [ 38.756588524130549, 9.055634907383327 ], [ 38.757049089848557, 9.05680196463015 ], [ 38.7560378, 9.0593938 ], [ 38.7557207, 9.0607095 ], [ 38.7543207, 9.062913 ], [ 38.7533644, 9.0654874 ], [ 38.7534154, 9.0664142 ], [ 38.755452591016294, 9.068310434276167 ], [ 38.7543502, 9.0689606 ], [ 38.7528522, 9.0707677 ], [ 38.7510252, 9.0713234 ], [ 38.7514065, 9.0724807 ], [ 38.75213, 9.0733097 ], [ 38.7523673, 9.0750431 ], [ 38.754019, 9.0745692 ], [ 38.7561538, 9.0756156 ], [ 38.7560226, 9.0768377 ], [ 38.7559891, 9.0770476 ], [ 38.7567401, 9.0780534 ], [ 38.7569319, 9.0781488 ], [ 38.7581657, 9.0779184 ], [ 38.7613576, 9.0810134 ], [ 38.7612186, 9.0800548 ], [ 38.7592721, 9.0777621 ], [ 38.760237, 9.0773743 ], [ 38.7609605, 9.0766974 ], [ 38.7621165, 9.0756068 ], [ 38.7636937, 9.0758776 ], [ 38.7648189, 9.0736726 ], [ 38.7652098, 9.0730959 ], [ 38.764418260861525, 9.071687775499626 ], [ 38.7653728, 9.0711988 ], [ 38.7659183, 9.0703635 ], [ 38.765348596283403, 9.068151333780529 ], [ 38.7667294, 9.0664656 ], [ 38.7673947, 9.0661136 ], [ 38.7671053, 9.065555 ], [ 38.7657765, 9.0622659 ], [ 38.7657247, 9.0613401 ], [ 38.7656926, 9.0602311 ], [ 38.7680711, 9.0582347 ], [ 38.7680342, 9.0562984 ], [ 38.767415513661888, 9.055620609371287 ], [ 38.7676134, 9.0550313 ], [ 38.7675065, 9.0547701 ], [ 38.7672524, 9.0542346 ], [ 38.7672416, 9.0533861 ], [ 38.7675809, 9.0519084 ], [ 38.7686061, 9.05055 ], [ 38.7702489, 9.0500487 ], [ 38.770546, 9.0508612 ], [ 38.7710611, 9.052157 ], [ 38.772083, 9.0535098 ], [ 38.7726371, 9.0539929 ], [ 38.7731861, 9.0546946 ], [ 38.7730604, 9.0573845 ], [ 38.7707573, 9.0586651 ], [ 38.7692519, 9.058185 ], [ 38.7688924, 9.0583292 ], [ 38.7681542, 9.0592667 ], [ 38.7688353, 9.0606191 ], [ 38.7702477, 9.0634388 ], [ 38.7704906, 9.0639623 ], [ 38.7724413, 9.065611 ], [ 38.7731136, 9.0658579 ], [ 38.7761825, 9.066658 ], [ 38.7787047, 9.0663067 ], [ 38.7796697, 9.0642273 ], [ 38.780483, 9.0621365 ], [ 38.7825429, 9.0622396 ], [ 38.7852419, 9.0612898 ], [ 38.7838352, 9.0596051 ], [ 38.7833154, 9.0586072 ], [ 38.7824511, 9.056754 ], [ 38.7816471, 9.0549794 ], [ 38.7815532, 9.0530695 ], [ 38.7816928, 9.0511698 ], [ 38.7810889, 9.0506348 ], [ 38.7797532, 9.0510781 ], [ 38.7769173, 9.0508074 ], [ 38.7759697, 9.0499437 ], [ 38.7745401, 9.0500413 ], [ 38.7733604, 9.0504055 ], [ 38.770373263397964, 9.050020983597747 ], [ 38.7711288, 9.0498526 ], [ 38.7711241, 9.0483539 ], [ 38.772725, 9.0469788 ], [ 38.7745811, 9.046736 ], [ 38.7756535, 9.0463135 ], [ 38.7770494, 9.046202 ], [ 38.777781, 9.0459971 ], [ 38.777945, 9.0459171 ], [ 38.7781507, 9.04561 ], [ 38.7771903, 9.0441232 ], [ 38.7761137, 9.0441588 ], [ 38.776106, 9.0423418 ], [ 38.777347, 9.0412378 ], [ 38.7777758, 9.0401384 ], [ 38.7803569, 9.0408558 ], [ 38.780435, 9.0413588 ], [ 38.7804316, 9.0417145 ], [ 38.7806085, 9.0424627 ], [ 38.7815667, 9.0429275 ], [ 38.7835321, 9.0433722 ], [ 38.7842904, 9.0426384 ], [ 38.7851367, 9.0403859 ], [ 38.7851407, 9.0388863 ], [ 38.7844685, 9.0379748 ], [ 38.7824747, 9.0362328 ], [ 38.7810683, 9.037102 ], [ 38.780017924552226, 9.035117711100986 ], [ 38.779959380506959, 9.034743233115531 ], [ 38.7804737, 9.033912 ], [ 38.7817318, 9.0329631 ], [ 38.7820987, 9.0327323 ], [ 38.7847393, 9.0337449 ], [ 38.7855725, 9.0348864 ], [ 38.7859775, 9.0355527 ], [ 38.7864496, 9.0365592 ], [ 38.7864758, 9.0378832 ], [ 38.7866579, 9.0379459 ], [ 38.788646, 9.0371199 ], [ 38.7887482, 9.0361844 ], [ 38.7880696, 9.0351791 ], [ 38.7869981, 9.033897 ], [ 38.7863892, 9.0328944 ], [ 38.7860223, 9.0306152 ], [ 38.7867588, 9.0301967 ], [ 38.7895501, 9.0295027 ], [ 38.7913396, 9.0312352 ], [ 38.7913411, 9.0328014 ], [ 38.7933345, 9.0314512 ], [ 38.7947311, 9.0312946 ], [ 38.7968678, 9.0306899 ], [ 38.7988474, 9.0307862 ], [ 38.8011234, 9.0303124 ], [ 38.8022468, 9.0290022 ], [ 38.804107, 9.0285119 ], [ 38.8039535, 9.0282703 ], [ 38.803888014149862, 9.028263421912499 ], [ 38.8040529, 9.0281892 ], [ 38.8020979, 9.0260724 ], [ 38.8045232, 9.0243492 ], [ 38.8055473, 9.0248504 ], [ 38.8069633, 9.0250958 ], [ 38.8092436, 9.0249536 ], [ 38.8129946, 9.0250146 ], [ 38.8143496, 9.0279621 ], [ 38.8144722, 9.0294405 ], [ 38.8148688, 9.0299234 ], [ 38.8149015, 9.0299632 ], [ 38.8165315, 9.0308887 ], [ 38.8172622, 9.0311012 ], [ 38.8196889, 9.0308282 ], [ 38.819814518746085, 9.030907530748726 ], [ 38.8192892, 9.0326282 ], [ 38.8187984, 9.0326772 ], [ 38.8183922, 9.0328591 ], [ 38.8181086, 9.0333017 ], [ 38.818357458930429, 9.033897170581362 ], [ 38.817362, 9.0344356 ], [ 38.8169802, 9.0358911 ], [ 38.8174233, 9.037746 ], [ 38.817420581119919, 9.037757318715443 ], [ 38.8167237, 9.0385484 ], [ 38.816582, 9.0387896 ], [ 38.8163683, 9.0394796 ], [ 38.8174096, 9.0417458 ], [ 38.8164635, 9.0438609 ], [ 38.8162583, 9.044207 ], [ 38.81606, 9.0445909 ], [ 38.8150185, 9.0461783 ], [ 38.8161827, 9.0474513 ], [ 38.8172729, 9.0474726 ], [ 38.8184054, 9.0454807 ], [ 38.8198908, 9.0449265 ], [ 38.8210393, 9.0437086 ], [ 38.8231803, 9.0462342 ], [ 38.8248239, 9.0468382 ], [ 38.8261583, 9.0486023 ], [ 38.8256755, 9.0502843 ], [ 38.8281919, 9.0501257 ], [ 38.8285196, 9.0500467 ], [ 38.8304185, 9.0492065 ], [ 38.831645, 9.0487614 ], [ 38.8322842, 9.0460542 ], [ 38.8347495, 9.0457204 ], [ 38.837142, 9.0464329 ], [ 38.8347106, 9.0444106 ], [ 38.8351974, 9.0432847 ], [ 38.8357251, 9.0418533 ], [ 38.8366627, 9.0403168 ], [ 38.8365945, 9.0401737 ], [ 38.8358626, 9.0384686 ], [ 38.8375676, 9.0372689 ], [ 38.8392543, 9.0375006 ], [ 38.8394968, 9.04013 ], [ 38.8386306, 9.0403763 ], [ 38.8382566, 9.0403979 ], [ 38.8380042, 9.0403721 ], [ 38.838085, 9.0406783 ], [ 38.8396392, 9.0420953 ], [ 38.8404123, 9.0440393 ], [ 38.8422387, 9.0449176 ], [ 38.8424748, 9.0449472 ], [ 38.8433398, 9.0447698 ], [ 38.8450223, 9.0439959 ], [ 38.8468139, 9.0431901 ], [ 38.8491837, 9.0415436 ], [ 38.8513504, 9.0413219 ], [ 38.8516426, 9.0413437 ], [ 38.8527188, 9.0403322 ], [ 38.8546541, 9.0391286 ], [ 38.8535847, 9.0383097 ], [ 38.8517428, 9.0360889 ], [ 38.8507382, 9.0351747 ], [ 38.8489931, 9.0342418 ], [ 38.848406, 9.0327041 ], [ 38.8482392, 9.032335 ], [ 38.847615890680188, 9.032241903067284 ], [ 38.8483328, 9.0308777 ], [ 38.848646355377397, 9.030196739899086 ], [ 38.8488799, 9.0302706 ], [ 38.850023299999989, 9.0294587 ], [ 38.8506497, 9.0288506 ], [ 38.852632213900954, 9.026795744001692 ], [ 38.8531677, 9.0289947 ], [ 38.8528683, 9.0293401 ], [ 38.8524668, 9.0308236 ], [ 38.852766, 9.0308544 ], [ 38.8549036, 9.0290329 ], [ 38.8563158, 9.0288177 ], [ 38.8581855, 9.0280834 ], [ 38.8584092, 9.0275515 ], [ 38.8577781, 9.0259728 ], [ 38.858896799999989, 9.024017 ], [ 38.8602327, 9.022376 ], [ 38.8626257, 9.0206366 ], [ 38.8631122, 9.0206697 ], [ 38.86369, 9.0207089 ], [ 38.8640811, 9.0207354 ], [ 38.8649712, 9.0207781 ], [ 38.865418117685358, 9.020781393944509 ], [ 38.8656563, 9.0209936 ], [ 38.8629043, 9.0208853 ], [ 38.8630315, 9.0212172 ], [ 38.8634513, 9.0212741 ], [ 38.8652068, 9.0234569 ], [ 38.8650995, 9.0238829 ], [ 38.8657137, 9.0247597 ], [ 38.8669502, 9.0253523 ], [ 38.8694559, 9.0259726 ], [ 38.8684342, 9.0269428 ], [ 38.8682631, 9.0289126 ], [ 38.8684198, 9.0290747 ], [ 38.8699132, 9.0304839 ], [ 38.871983899999989, 9.0295753 ], [ 38.8725337, 9.0295832 ], [ 38.873811065032868, 9.030925214937991 ], [ 38.8746006, 9.0322828 ], [ 38.8745945, 9.0328456 ], [ 38.8745877, 9.0334639 ], [ 38.8729926, 9.0356292 ], [ 38.8735321, 9.0364239 ], [ 38.874337940343928, 9.037166510261828 ], [ 38.8732666, 9.0390254 ], [ 38.8732442, 9.0393948 ], [ 38.8732208, 9.0402146 ], [ 38.8732361, 9.0404878 ], [ 38.8745361, 9.0406834 ], [ 38.8764831, 9.0426 ], [ 38.8778334, 9.0429907 ], [ 38.8777715, 9.0398857 ], [ 38.878946, 9.0374277 ], [ 38.8821253, 9.0386812 ], [ 38.8823201, 9.0386228 ], [ 38.8833994, 9.0383605 ], [ 38.8833564, 9.0379565 ], [ 38.8830869, 9.0366493 ], [ 38.8845447, 9.0336838 ], [ 38.8874093, 9.0344573 ], [ 38.8860708, 9.0308388 ], [ 38.8860534, 9.0301806 ], [ 38.8861193, 9.02921 ], [ 38.8858218, 9.0281806 ], [ 38.885421922858157, 9.027246137950311 ], [ 38.8858845, 9.0267412 ], [ 38.887436, 9.0259078 ], [ 38.8869077, 9.0245548 ], [ 38.886742400289457, 9.024368200326753 ], [ 38.8865402, 9.0233091 ], [ 38.8860051, 9.0216916 ], [ 38.8851722, 9.0203913 ], [ 38.884306339034467, 9.019273385398037 ], [ 38.8852036, 9.019263 ], [ 38.8856837, 9.0192338 ], [ 38.8856355, 9.0184126 ], [ 38.8855438, 9.0154758 ], [ 38.8866475, 9.0120307 ], [ 38.8884393, 9.0106306 ], [ 38.8905887, 9.0125796 ], [ 38.8906855, 9.0138735 ], [ 38.8926073, 9.0120335 ], [ 38.8946277, 9.0107189 ], [ 38.8946239, 9.0105848 ], [ 38.8938358, 9.009771 ], [ 38.8913915, 9.0070746 ], [ 38.8901349, 9.0055407 ], [ 38.8882891, 9.0040851 ], [ 38.8863042, 9.0024859 ], [ 38.8860896, 9.0034263 ], [ 38.8854124, 9.0053894 ], [ 38.8859136, 9.0070369 ], [ 38.8829159, 9.0084696 ], [ 38.8820492, 9.0082037 ], [ 38.8810437, 9.0072917 ], [ 38.87992770000001, 9.0064291 ], [ 38.8798592, 9.0064367 ], [ 38.8786389, 9.0073618 ], [ 38.8776407, 9.0083696 ], [ 38.8757443, 9.0109216 ], [ 38.8770877, 9.0124704 ], [ 38.8790628, 9.0141936 ], [ 38.880429, 9.0154494 ], [ 38.8789952, 9.0141974 ], [ 38.878577703359326, 9.014697110872564 ], [ 38.8774643, 9.0136264 ], [ 38.8757344, 9.0118847 ], [ 38.8732047, 9.0109346 ], [ 38.8726379, 9.0109793 ], [ 38.8696938, 9.0094141 ], [ 38.8693115, 9.0088141 ], [ 38.8689723, 9.0085029 ], [ 38.8693536, 9.0121893 ], [ 38.8692181, 9.012643 ], [ 38.8673705, 9.0148427 ], [ 38.86567, 9.0153076 ], [ 38.864487583487652, 9.017203429827058 ], [ 38.8643488, 9.0170625 ], [ 38.8637749, 9.0155621 ], [ 38.8624105, 9.0137858 ], [ 38.8612992, 9.0122734 ], [ 38.8592603, 9.0111654 ], [ 38.858753208865934, 9.010803398492209 ], [ 38.8592485, 9.0102925 ], [ 38.8592334, 9.0096768 ], [ 38.859213, 9.0091244 ], [ 38.8588731, 9.0087182 ], [ 38.8580473, 9.0078056 ], [ 38.857431, 9.0072246 ], [ 38.8562293, 9.0055649 ], [ 38.854648, 9.0078709 ], [ 38.8541231, 9.0079006 ], [ 38.8520834, 9.0059043 ], [ 38.8520747, 9.0057922 ], [ 38.8520682, 9.0056456 ], [ 38.8520229, 9.0038196 ], [ 38.8521116, 9.0016345 ], [ 38.8537518, 9.001211 ], [ 38.8544482, 9.0010965 ], [ 38.8518728, 8.9993868 ], [ 38.852337274460531, 8.998147752508327 ], [ 38.854804821545429, 8.999016502676133 ], [ 38.8550176, 8.9994196 ], [ 38.8551758, 9.001051 ], [ 38.856015, 9.0011077 ], [ 38.8568931, 9.0012885 ], [ 38.8583918, 9.0019574 ], [ 38.8585702, 9.0036012 ], [ 38.859954, 9.0032962 ], [ 38.8601571, 9.0029796 ], [ 38.8616534, 9.0013971 ], [ 38.8621925, 8.9992314 ], [ 38.8620264, 8.9982205 ], [ 38.863330499999989, 8.9968197 ], [ 38.8641715, 8.9962063 ], [ 38.8658631, 8.9953807 ], [ 38.8647621, 8.9947766 ], [ 38.8629837, 8.9934799 ], [ 38.8637297, 8.99125 ], [ 38.86286000888844, 8.991544338356698 ], [ 38.8632305, 8.9889749 ], [ 38.8637757, 8.988145 ], [ 38.862360099999989, 8.9848446 ], [ 38.8610811, 8.9836814 ], [ 38.8602909, 8.9831563 ], [ 38.8599824, 8.9832212 ], [ 38.8589869, 8.9834581 ], [ 38.8580051, 8.9836492 ], [ 38.8551102, 8.9833849 ], [ 38.853838, 8.9823195 ], [ 38.8536926, 8.9828295 ], [ 38.8540438, 8.9834035 ], [ 38.8545683, 8.9841937 ], [ 38.8549442, 8.986173 ], [ 38.8534163, 8.9881738 ], [ 38.8505737, 8.9888296 ], [ 38.849802, 8.9895074 ], [ 38.8490242, 8.9903242 ], [ 38.8469188, 8.9925102 ], [ 38.8473949, 8.9938069 ], [ 38.848735, 8.9955134 ], [ 38.8497266, 8.9963879 ], [ 38.851220698688373, 8.997511959582635 ], [ 38.8510542, 8.9981782 ], [ 38.8515915, 8.9993897 ], [ 38.8516412, 8.9998021 ], [ 38.8498735, 9.0018281 ], [ 38.8492016, 9.001935 ], [ 38.8488565, 9.0019666 ], [ 38.8471104, 9.0021137 ], [ 38.8467644, 9.0021269 ], [ 38.8453033, 9.0021971 ], [ 38.8435498, 9.0043198 ], [ 38.8418104, 9.0055026 ], [ 38.8411496, 9.0081129 ], [ 38.8411934, 9.0087772 ], [ 38.8413912, 9.0091783 ], [ 38.8422509, 9.0098559 ], [ 38.842609578016791, 9.010171085097015 ], [ 38.8423073, 9.0107548 ], [ 38.8413445, 9.010851 ], [ 38.8407053, 9.0109138 ], [ 38.8401845, 9.010948 ], [ 38.840352184955997, 9.011084104443098 ], [ 38.839071175263811, 9.011701924742558 ], [ 38.8387846, 9.0114947 ], [ 38.836597811517365, 9.011204964459528 ], [ 38.8369119, 9.0105798 ], [ 38.8372734, 9.0094508 ], [ 38.8382619, 9.0082229 ], [ 38.8370897, 9.007765 ], [ 38.8367785, 9.0061027 ], [ 38.8369434, 9.0057327 ], [ 38.8356071, 9.0049112 ], [ 38.835301, 9.0032933 ], [ 38.8348794, 9.0020687 ], [ 38.8349131, 9.0008394 ], [ 38.83368944108134, 9.000074759336721 ], [ 38.833889, 8.9985727 ], [ 38.8353897, 8.9985344 ], [ 38.8357432, 8.9980009 ], [ 38.8334573, 8.9975828 ], [ 38.8317317, 8.9969204 ], [ 38.8330087, 8.9950178 ], [ 38.8341178, 8.9945436 ], [ 38.8347629, 8.9930203 ], [ 38.8349598, 8.9926483 ], [ 38.8348438, 8.9917416 ], [ 38.834109055520585, 8.990885557967772 ], [ 38.8351667, 8.9910467 ], [ 38.8381218, 8.9894523 ], [ 38.8388949, 8.988906 ], [ 38.8393218, 8.9883791 ], [ 38.8395399, 8.9875734 ], [ 38.8398832, 8.9864554 ], [ 38.8418466, 8.9843307 ], [ 38.8437764, 8.9831345 ], [ 38.8458079, 8.9820157 ], [ 38.8451116, 8.9809159 ], [ 38.8431447, 8.9802188 ], [ 38.8418882, 8.9770788 ], [ 38.8420573, 8.9768726 ], [ 38.8438844, 8.9757223 ], [ 38.8426898, 8.9741109 ], [ 38.8412344, 8.9753004 ], [ 38.8387037, 8.9756077 ], [ 38.838927, 8.9762397 ], [ 38.8394889, 8.9779511 ], [ 38.8388063, 8.9797725 ], [ 38.8374652, 8.982443 ], [ 38.8360577, 8.9830829 ], [ 38.8355902, 8.9835434 ], [ 38.8344786, 8.9850665 ], [ 38.832541, 8.985244 ], [ 38.8320774, 8.9862045 ], [ 38.831884974620543, 8.98913581568068 ], [ 38.8310145, 8.9893455 ], [ 38.8299381, 8.9895392 ], [ 38.8291491, 8.9877386 ], [ 38.8289319, 8.9866753 ], [ 38.828459, 8.9867431 ], [ 38.8273051, 8.9870493 ], [ 38.8274512, 8.9875774 ], [ 38.8274901, 8.9878807 ], [ 38.8276523, 8.9888927 ], [ 38.828052, 8.9897432 ], [ 38.8280687, 8.9908784 ], [ 38.8271633, 8.9917891 ], [ 38.8256615, 8.9912976 ], [ 38.8252471, 8.9899392 ], [ 38.8251136, 8.9894951 ], [ 38.8246119, 8.9890365 ], [ 38.8242677, 8.9890413 ], [ 38.824090424229858, 8.989297562220923 ], [ 38.8234502, 8.9879556 ], [ 38.8213356, 8.9856355 ], [ 38.8207751, 8.9853454 ], [ 38.8196728, 8.9858488 ], [ 38.8190351, 8.9862093 ], [ 38.8172293, 8.987135 ], [ 38.8158998, 8.9886047 ], [ 38.8127899, 8.9893411 ], [ 38.8097735, 8.9869675 ], [ 38.8079529, 8.9863615 ], [ 38.80777388305475, 8.986426918692748 ], [ 38.8035562, 8.9852867 ], [ 38.8021619, 8.9853275 ], [ 38.7996331, 8.9854045 ], [ 38.7971379, 8.9861223 ], [ 38.792098422965076, 8.987511336638324 ], [ 38.791375, 8.9871117 ], [ 38.7899075, 8.9859732 ], [ 38.788826, 8.985809 ], [ 38.7855757, 8.9849273 ], [ 38.7842988, 8.9845215 ], [ 38.7824454, 8.9839019 ], [ 38.781224550664248, 8.983459090519494 ], [ 38.780822234535471, 8.983066986498333 ], [ 38.7787651, 8.9799759 ], [ 38.7787516, 8.9794447 ], [ 38.7774544, 8.9782849 ], [ 38.7767091, 8.9786698 ], [ 38.7749655, 8.9802103 ], [ 38.774079492037487, 8.980891739370948 ], [ 38.773553235344828, 8.981039705070247 ], [ 38.7733878, 8.9804854 ], [ 38.7712984, 8.9803752 ], [ 38.7708268, 8.9803929 ], [ 38.7695651, 8.9811775 ], [ 38.767088464765436, 8.983092505889257 ], [ 38.7662418, 8.9812714 ], [ 38.7659251, 8.9808102 ], [ 38.7650426, 8.9787808 ], [ 38.7650392, 8.976104 ], [ 38.7652743, 8.9732919 ], [ 38.7660779, 8.9717093 ], [ 38.7664998, 8.9707517 ], [ 38.7655318, 8.9710292 ], [ 38.7645882, 8.9715171 ], [ 38.7613593, 8.9707294 ], [ 38.7605834, 8.9740789 ], [ 38.7596897, 8.9769291 ], [ 38.759463599999989, 8.9769388 ], [ 38.759471597281191, 8.977387827673729 ], [ 38.7568246, 8.9793672 ], [ 38.7560583, 8.9788718 ], [ 38.7553018, 8.9781789 ], [ 38.7549105, 8.9779306 ], [ 38.753462399999989, 8.977608 ], [ 38.7531719, 8.9751756 ], [ 38.755698, 8.9743462 ], [ 38.7574417, 8.9741084 ], [ 38.7552445, 8.9725333 ], [ 38.7549873, 8.972556 ], [ 38.753700751069914, 8.97251321078314 ], [ 38.7540807, 8.9716655 ], [ 38.7549368, 8.9713391 ], [ 38.756673, 8.9690124 ], [ 38.7566851, 8.9669946 ], [ 38.7588272, 8.9661457 ], [ 38.7602142, 8.9666508 ], [ 38.7620422, 8.967196 ], [ 38.762618, 8.9673329 ], [ 38.762688729671126, 8.966875033381749 ], [ 38.7628083, 8.9670849 ], [ 38.7627354, 8.9676055 ], [ 38.7638272, 8.967659 ], [ 38.7643277, 8.9676341 ], [ 38.7667704, 8.9707306 ], [ 38.7676983, 8.9680927 ], [ 38.768958499999989, 8.9650687 ], [ 38.7718099, 8.962378 ], [ 38.7726464, 8.9617668 ], [ 38.7746049, 8.9599046 ], [ 38.775242, 8.9583361 ], [ 38.7755169, 8.9575612 ], [ 38.7753178, 8.956777 ], [ 38.7742697, 8.9534014 ], [ 38.773359286854678, 8.952808445808818 ], [ 38.7733805, 8.9502392 ], [ 38.7735806, 8.9490822 ], [ 38.7729404, 8.9486903 ], [ 38.772285445115884, 8.948454617016511 ], [ 38.7735273, 8.9483488 ], [ 38.776577, 8.9484801 ], [ 38.7767027, 8.9484745 ], [ 38.7791218, 8.9463178 ], [ 38.7795147, 8.946196 ], [ 38.7805214, 8.9448499 ], [ 38.7805039, 8.944753 ], [ 38.7796113, 8.9439425 ], [ 38.7790154, 8.9436553 ], [ 38.7771423, 8.9412531 ], [ 38.7770014, 8.9410233 ], [ 38.774849, 8.9394421 ], [ 38.774686, 8.9372514 ], [ 38.7748075, 8.9369356 ], [ 38.7739475, 8.9352246 ], [ 38.7725799, 8.9346882 ], [ 38.7712226, 8.935825 ], [ 38.769775204968553, 8.935930587418156 ], [ 38.767658763757098, 8.931142345704805 ], [ 38.7682445, 8.9295578 ], [ 38.7681373, 8.9288881 ], [ 38.7675151, 8.9277337 ], [ 38.766051, 8.9251588 ], [ 38.7667828, 8.9219933 ], [ 38.768427, 8.9210203 ], [ 38.7693007, 8.9204716 ], [ 38.7702032, 8.9199201 ], [ 38.7710931, 8.9194227 ], [ 38.7716048, 8.9191467 ], [ 38.7722459, 8.9188675 ], [ 38.7719715, 8.9177107 ], [ 38.7708029, 8.9157749 ], [ 38.7707279, 8.913838 ], [ 38.7706333, 8.9133157 ], [ 38.7701044, 8.9124189 ], [ 38.768964981815799, 8.912112085942233 ], [ 38.7699085, 8.9116283 ], [ 38.7725034, 8.9114822 ], [ 38.7734785, 8.910512 ], [ 38.7745513, 8.9087939 ], [ 38.7759864, 8.9067897 ], [ 38.7757426, 8.9049629 ], [ 38.7737261, 8.9053834 ], [ 38.7735024, 8.9053312 ], [ 38.7727422, 8.9051437 ], [ 38.771328, 8.9031716 ], [ 38.7719249, 8.9016463 ], [ 38.7722479, 8.9011311 ], [ 38.774598, 8.89969 ], [ 38.775254, 8.8995869 ], [ 38.7760148, 8.8995025 ], [ 38.777892, 8.899718 ], [ 38.7799364, 8.9009424 ], [ 38.7806936, 8.8994702 ], [ 38.7824573, 8.8971472 ], [ 38.782787, 8.8971635 ], [ 38.7837198, 8.8971602 ], [ 38.7828192, 8.8962758 ], [ 38.7821755, 8.8960095 ], [ 38.7800203, 8.8969528 ], [ 38.778901752316806, 8.895441388299991 ], [ 38.7785196, 8.8938551 ], [ 38.778047, 8.8932124 ], [ 38.7770925, 8.8908579 ], [ 38.7792167, 8.8889091 ], [ 38.7807956, 8.8903742 ], [ 38.7808449, 8.8875728 ], [ 38.7796185, 8.8877578 ], [ 38.7791525, 8.8888501 ], [ 38.7761149, 8.8868364 ], [ 38.7745446, 8.8841601 ], [ 38.7765041, 8.8834503 ], [ 38.7769027, 8.8835723 ], [ 38.7770972, 8.8836571 ], [ 38.7778304, 8.8818824 ], [ 38.7799106, 8.8808788 ], [ 38.781229, 8.8806786 ], [ 38.7803621, 8.8782421 ], [ 38.7799341, 8.8772167 ], [ 38.7793182, 8.8762963 ], [ 38.7790885, 8.8762125 ], [ 38.7784941, 8.8764245 ], [ 38.7774631, 8.8766588 ], [ 38.7766194, 8.8768937 ], [ 38.7762518, 8.87701 ], [ 38.775126117312205, 8.876814961397077 ], [ 38.7741543, 8.8759687 ], [ 38.7741409, 8.8756997 ], [ 38.7740926, 8.875179 ], [ 38.7745017, 8.8739069 ], [ 38.7731429, 8.8724848 ], [ 38.7729944, 8.8711784 ], [ 38.7728602, 8.8704088 ], [ 38.7712026, 8.8702471 ], [ 38.7694112, 8.8708281 ], [ 38.7680742, 8.8709777 ], [ 38.76706870000001, 8.8712832 ], [ 38.7668759, 8.8723432 ], [ 38.7655381, 8.8729796 ], [ 38.7652427, 8.8733213 ], [ 38.7642342, 8.8749975 ], [ 38.76380447008377, 8.875478226884756 ], [ 38.7625017, 8.8764114 ], [ 38.7622377, 8.8767057 ], [ 38.7610233, 8.8780591 ], [ 38.7613119, 8.8782889 ], [ 38.761375, 8.8798086 ], [ 38.759914, 8.8798571 ], [ 38.7594357, 8.8803996 ], [ 38.7600581, 8.8813788 ], [ 38.7606172, 8.8828483 ], [ 38.7599158, 8.8836168 ], [ 38.7589408, 8.884706 ], [ 38.75972, 8.8854201 ], [ 38.7600794, 8.8845364 ], [ 38.760581, 8.8829622 ], [ 38.762252, 8.8837255 ], [ 38.7635395, 8.882782 ], [ 38.7642114, 8.8828271 ], [ 38.76498176629164, 8.885115546665123 ], [ 38.762472, 8.8858852 ], [ 38.7614854, 8.8864608 ], [ 38.7605519, 8.8899763 ], [ 38.7601111, 8.8904514 ], [ 38.759838, 8.8908158 ], [ 38.76123960000001, 8.8921258 ], [ 38.7623563, 8.8929525 ], [ 38.7627348, 8.8929156 ], [ 38.7630916, 8.8928799 ], [ 38.7651489, 8.8921959 ], [ 38.7651553, 8.8920253 ], [ 38.76739280000001, 8.8899622 ], [ 38.7691574, 8.8917298 ], [ 38.7704194, 8.8941161 ], [ 38.7706802, 8.8955247 ], [ 38.7692171, 8.8984296 ], [ 38.7671323, 8.8974119 ], [ 38.7667045, 8.8969462 ], [ 38.7662753, 8.8964056 ], [ 38.7646204, 8.8954914 ], [ 38.7618064, 8.8953291 ], [ 38.7608908, 8.895192 ], [ 38.7613613, 8.895748 ], [ 38.7623062, 8.8973137 ], [ 38.7608098, 8.8985148 ], [ 38.7606218, 8.8987497 ], [ 38.7599751, 8.8998205 ], [ 38.759401, 8.900953 ], [ 38.7592669, 8.9013585 ], [ 38.7589012, 8.9026452 ], [ 38.7570104, 8.9041697 ], [ 38.7586067, 8.9056722 ], [ 38.7576917, 8.9073241 ], [ 38.7574926, 8.9077659 ], [ 38.7579224, 8.9084886 ], [ 38.7604297, 8.9082071 ], [ 38.7612046, 8.9095544 ], [ 38.7613736, 8.910042 ], [ 38.7614514, 8.9114689 ], [ 38.7626269, 8.914082 ], [ 38.7602087, 8.9158494 ], [ 38.7589784, 8.9159903 ], [ 38.7562388, 8.9170715 ], [ 38.7559028, 8.9178419 ], [ 38.7563817, 8.9182651 ], [ 38.7577818, 8.9190549 ], [ 38.7589368, 8.9225986 ], [ 38.7589558, 8.9240405 ], [ 38.7589171, 8.9271134 ], [ 38.7614334, 8.9266839 ], [ 38.7642678, 8.9280367 ], [ 38.7652629, 8.9297203 ], [ 38.7644273, 8.9306227 ], [ 38.765818, 8.9329306 ], [ 38.7653642, 8.9333945 ], [ 38.7626158, 8.9330447 ], [ 38.7621219, 8.9326265 ], [ 38.7600432, 8.9335745 ], [ 38.7592359, 8.9312294 ], [ 38.7575599, 8.933409 ], [ 38.7559931, 8.9338063 ], [ 38.7557282, 8.9338093 ], [ 38.7555318, 8.9338 ], [ 38.7556807, 8.9348462 ], [ 38.7557116, 8.9349931 ], [ 38.7568614, 8.9340678 ], [ 38.7576368, 8.9340032 ], [ 38.7599156, 8.9353096 ], [ 38.7593767, 8.9365235 ], [ 38.7573999, 8.9376337 ], [ 38.7588751, 8.9397005 ], [ 38.7588067, 8.9401575 ], [ 38.7588604, 8.9404185 ], [ 38.7593754, 8.9429105 ], [ 38.7593029, 8.9433821 ], [ 38.7595323, 8.9436815 ], [ 38.7604855, 8.9441333 ], [ 38.7620693, 8.9454414 ], [ 38.760393682988074, 8.945816118966558 ], [ 38.7594397, 8.944691 ], [ 38.7584641, 8.9421169 ], [ 38.758741, 8.9406331 ], [ 38.7577768, 8.9393905 ], [ 38.7561433, 8.9384856 ], [ 38.7558724, 8.9385598 ], [ 38.754605599736955, 8.940063286353775 ], [ 38.753670871014393, 8.94036546111918 ], [ 38.7536891, 8.9392394 ], [ 38.7533691, 8.9380852 ], [ 38.751981, 8.9362862 ], [ 38.7520071, 8.9351737 ], [ 38.7504969, 8.9325625 ], [ 38.7503177, 8.9319296 ], [ 38.7498712, 8.9309166 ], [ 38.7499045, 8.9306096 ], [ 38.7499302, 8.9303062 ], [ 38.7499092, 8.9299136 ], [ 38.749828, 8.9295999 ], [ 38.7491272, 8.9279567 ], [ 38.7489011, 8.9275017 ], [ 38.7479089, 8.9262613 ], [ 38.7472479, 8.9244118 ], [ 38.7466819, 8.9234827 ], [ 38.7456586, 8.9226092 ], [ 38.745424, 8.9225032 ], [ 38.7447385, 8.9222813 ], [ 38.7429748, 8.9211149 ], [ 38.742656, 8.9203168 ], [ 38.7404671, 8.9206655 ], [ 38.7397773, 8.9209903 ], [ 38.7380531, 8.9222536 ], [ 38.7375946, 8.9226142 ], [ 38.7365122, 8.9235029 ], [ 38.7367684, 8.9254558 ], [ 38.7374858, 8.9276429 ], [ 38.7382504, 8.9281666 ], [ 38.7384993, 8.9306127 ], [ 38.7383267, 8.9309212 ], [ 38.7389504, 8.9325593 ], [ 38.7382661, 8.934166 ], [ 38.73852068830822, 8.934390854205107 ], [ 38.7388471, 8.9363778 ], [ 38.7359949, 8.9374723 ], [ 38.737213914079781, 8.937831042279116 ], [ 38.7358986, 8.9383165 ], [ 38.7348421, 8.9379356 ], [ 38.7343578, 8.9379562 ], [ 38.7351336, 8.9406358 ], [ 38.735120194428518, 8.940660871036124 ], [ 38.7348908, 8.9403589 ], [ 38.7347215, 8.9398383 ], [ 38.7340245, 8.9393792 ], [ 38.7319062, 8.9388387 ], [ 38.7316011, 8.9395192 ], [ 38.7313449, 8.9399508 ], [ 38.7309601, 8.9404662 ], [ 38.7309161, 8.9413049 ], [ 38.7285795, 8.9406397 ], [ 38.7275912, 8.9409882 ], [ 38.7255709, 8.9403432 ], [ 38.725256, 8.9395488 ], [ 38.724478499999989, 8.9399352 ], [ 38.724012901054465, 8.940429569184484 ], [ 38.7220473, 8.9401226 ], [ 38.7212118, 8.939771 ], [ 38.720826, 8.9397686 ], [ 38.7212531, 8.9405444 ], [ 38.7193868, 8.9430442 ], [ 38.7178098, 8.9440724 ], [ 38.7157618, 8.9461813 ], [ 38.7135835, 8.9481014 ] ], [ [ 38.76303420170067, 9.028162842333947 ], [ 38.7625209, 9.0267749 ], [ 38.7616201, 9.0233396 ], [ 38.7614021, 9.0232701 ], [ 38.76061330000001, 9.0273217 ], [ 38.7576048, 9.024946 ], [ 38.7575279, 9.0235574 ], [ 38.7602254, 9.0222978 ], [ 38.7605536, 9.0224021 ], [ 38.7602755, 9.0220911 ], [ 38.7587366, 9.0212076 ], [ 38.7603636, 9.0186068 ], [ 38.76179467720749, 9.018975861928777 ], [ 38.76347399724601, 9.019730888822556 ], [ 38.7645123, 9.0221623 ], [ 38.7650922, 9.0223314 ], [ 38.7664473, 9.0226405 ], [ 38.7673037, 9.0253571 ], [ 38.7664952, 9.0274613 ], [ 38.7660695, 9.0292297 ], [ 38.7657206, 9.0293019 ], [ 38.764000302394059, 9.029629229354196 ], [ 38.763439472176231, 9.029168726199252 ], [ 38.76303420170067, 9.028162842333947 ] ], [ [ 38.7566767, 9.0148583 ], [ 38.7586435, 9.0127141 ], [ 38.759437778461511, 9.01192425079892 ], [ 38.762655202788643, 9.012915094909273 ], [ 38.7627136, 9.0143638 ], [ 38.7623398, 9.017288 ], [ 38.76058964928589, 9.018380110229293 ], [ 38.7587022, 9.0179263 ], [ 38.7566767, 9.0148583 ] ], [ [ 38.7699018, 8.9860061 ], [ 38.771422452676916, 8.983551784402154 ], [ 38.7715331, 8.9839103 ], [ 38.7716746, 8.9853959 ], [ 38.7722833, 8.9859244 ], [ 38.7729728, 8.9865826 ], [ 38.772997831561952, 8.987648544305689 ], [ 38.7706549, 8.986741 ], [ 38.7699018, 8.9860061 ] ], [ [ 38.7697778, 8.9492299 ], [ 38.769539610566902, 8.949725703917606 ], [ 38.769218481995651, 8.949347142854123 ], [ 38.769033128971124, 8.94875947913704 ], [ 38.7690609, 8.9488179 ], [ 38.7698119, 8.9488669 ], [ 38.770537, 8.9486036 ], [ 38.7697778, 8.9492299 ] ], [ [ 38.767093369934543, 8.946765173181763 ], [ 38.7682226, 8.9470544 ], [ 38.768706761515773, 8.948072912266566 ], [ 38.767093369934543, 8.946765173181763 ] ], [ [ 38.7657954, 8.9457131 ], [ 38.7664135, 8.943651 ], [ 38.7649015, 8.9419151 ], [ 38.7633346, 8.9403366 ], [ 38.7629749, 8.9379093 ], [ 38.7644369, 8.936242 ], [ 38.7654849, 8.9350003 ], [ 38.767202, 8.9351298 ], [ 38.7681933, 8.9357829 ], [ 38.768522395352363, 8.936021979836907 ], [ 38.7684385, 8.9360281 ], [ 38.7703039, 8.9373162 ], [ 38.7710331, 8.9386429 ], [ 38.7710994, 8.9387713 ], [ 38.7715063, 8.9401065 ], [ 38.7697956, 8.9428309 ], [ 38.768943, 8.9425753 ], [ 38.7665323, 8.9445711 ], [ 38.765952026836921, 8.94584005432327 ], [ 38.7657954, 8.9457131 ] ], [ [ 38.7308068, 9.0146302 ], [ 38.730202538365326, 9.014488302406905 ], [ 38.7286933, 9.0122012 ], [ 38.7286478, 9.0119775 ], [ 38.7280525, 9.0108227 ], [ 38.726517, 9.0109459 ], [ 38.7225071, 9.0114307 ], [ 38.7197471, 9.0087074 ], [ 38.7190564, 9.0070821 ], [ 38.718948134499513, 9.006194943711018 ], [ 38.7190919, 9.0068716 ], [ 38.7197143, 9.0079515 ], [ 38.7199702, 9.0042617 ], [ 38.7193998, 9.0029948 ], [ 38.7209133, 8.9995602 ], [ 38.7220337, 8.9992215 ], [ 38.7224929, 8.9990797 ], [ 38.7236724, 8.9987142 ], [ 38.7268985, 8.9991841 ], [ 38.7274674, 8.99912 ], [ 38.7289264, 8.9982376 ], [ 38.7307139, 8.9976947 ], [ 38.732501, 9.001813 ], [ 38.7310968, 9.0043304 ], [ 38.7320946, 9.0042953 ], [ 38.733627786750297, 9.006733615409983 ], [ 38.7329489, 9.0072954 ], [ 38.7313651, 9.0081259 ], [ 38.7313527, 9.0086805 ], [ 38.7312537, 9.0104227 ], [ 38.7329321, 9.0116426 ], [ 38.7330361, 9.0140917 ], [ 38.7314063, 9.0144722 ], [ 38.7308068, 9.0146302 ] ], [ [ 38.7286815, 9.0130056 ], [ 38.7285514, 9.0122122 ], [ 38.729305170605009, 9.014277575268192 ], [ 38.7289514, 9.0141945 ], [ 38.7286815, 9.0130056 ] ], [ [ 38.731749991218486, 8.997015206710389 ], [ 38.7344089, 8.9966973 ], [ 38.7371778, 8.998569 ], [ 38.7353683, 9.0005664 ], [ 38.734482587599715, 9.000945881537861 ], [ 38.731680416389402, 8.997062241363611 ], [ 38.731749991218486, 8.997015206710389 ] ], [ [ 38.7400372, 8.9805206 ], [ 38.7390094, 8.9805037 ], [ 38.737361596206526, 8.979222477736219 ], [ 38.7381248, 8.9779864 ], [ 38.7383627, 8.9785833 ], [ 38.7387839, 8.9795275 ], [ 38.7397105, 8.9799074 ], [ 38.7410017, 8.9796201 ], [ 38.742111316141745, 8.979334313479836 ], [ 38.74221103841105, 8.979542826541829 ], [ 38.741576, 8.9799386 ], [ 38.741401882466491, 8.980366679979223 ], [ 38.7410338, 8.9804994 ], [ 38.7414242, 8.982242 ], [ 38.7415929, 8.9840381 ], [ 38.740043121395956, 8.983154444618533 ], [ 38.7405449, 8.9819251 ], [ 38.7400372, 8.9805206 ] ], [ [ 38.7340753, 8.9706794 ], [ 38.73406456552155, 8.970937669716582 ], [ 38.733973971531547, 8.970850043911296 ], [ 38.7340753, 8.9706794 ] ], [ [ 38.7355458, 8.9629714 ], [ 38.7352396, 8.9611247 ], [ 38.7348681, 8.9596248 ], [ 38.7335671, 8.9563225 ], [ 38.733051420780896, 8.955535708141399 ], [ 38.732776642773153, 8.955016785986619 ], [ 38.7337321, 8.9525244 ], [ 38.7372737, 8.9516334 ], [ 38.7381752, 8.9526622 ], [ 38.7388181, 8.9533071 ], [ 38.7412389, 8.9554323 ], [ 38.741532, 8.9558019 ], [ 38.7429693, 8.9567245 ], [ 38.7436067, 8.9570909 ], [ 38.745216, 8.9570471 ], [ 38.747648201844342, 8.957775073284852 ], [ 38.7475643, 8.9601159 ], [ 38.7468403, 8.9614726 ], [ 38.745156834439683, 8.963409817479848 ], [ 38.7447734, 8.9626879 ], [ 38.7457092, 8.9611077 ], [ 38.7446168, 8.9616241 ], [ 38.7424721, 8.9617445 ], [ 38.7404933, 8.9609058 ], [ 38.7413316, 8.9615622 ], [ 38.7415846, 8.9631367 ], [ 38.7414488, 8.9644008 ], [ 38.7415858, 8.9646898 ], [ 38.7425539, 8.9656328 ], [ 38.7428784, 8.9669177 ], [ 38.7428134, 8.968824 ], [ 38.7394558, 8.9686222 ], [ 38.738149283830978, 8.968163933971731 ], [ 38.7372129, 8.9662997 ], [ 38.7355458, 8.9629714 ] ], [ [ 38.7528388, 8.958511 ], [ 38.7516452, 8.9558098 ], [ 38.7513633, 8.9559028 ], [ 38.7487906, 8.957471 ], [ 38.7476609, 8.9574208 ], [ 38.7459107, 8.9567583 ], [ 38.7473767, 8.9545751 ], [ 38.7491065, 8.9542003 ], [ 38.7506488, 8.9550004 ], [ 38.7514364, 8.9545396 ], [ 38.7518379, 8.9538302 ], [ 38.752975497370109, 8.952875244912081 ], [ 38.754211873081324, 8.952969069332724 ], [ 38.7545418, 8.9539477 ], [ 38.7550275, 8.9546599 ], [ 38.7551827, 8.9571814 ], [ 38.7551532, 8.9573035 ], [ 38.755328533182336, 8.958798763111075 ], [ 38.754801948426582, 8.959342752240275 ], [ 38.7537279, 8.9587075 ], [ 38.7528388, 8.958511 ] ], [ [ 38.7118692, 8.9897204 ], [ 38.7090223, 8.9895643 ], [ 38.7089454, 8.9888827 ], [ 38.7086718, 8.9871707 ], [ 38.7079333, 8.9848878 ], [ 38.7084384, 8.9835185 ], [ 38.7085032, 8.9833689 ], [ 38.7085346, 8.9827871 ], [ 38.7080827, 8.9798507 ], [ 38.7079883, 8.9792135 ], [ 38.706071799999989, 8.9767311 ], [ 38.705359, 8.9760753 ], [ 38.7040856, 8.976641 ], [ 38.7029967, 8.9771245 ], [ 38.7005837, 8.9773551 ], [ 38.6984508, 8.9766403 ], [ 38.6973109, 8.9763854 ], [ 38.696289007613522, 8.977214939157228 ], [ 38.6953367, 8.976696 ], [ 38.6941128, 8.975775 ], [ 38.6926821, 8.9756221 ], [ 38.6908547, 8.9749294 ], [ 38.6917643, 8.9736267 ], [ 38.690588837624411, 8.973044784545728 ], [ 38.6905559, 8.9728113 ], [ 38.6896166, 8.9709388 ], [ 38.6901161, 8.9705314 ], [ 38.6904672, 8.9703153 ], [ 38.6897797, 8.9703087 ], [ 38.6877201, 8.9712002 ], [ 38.6874431, 8.9695308 ], [ 38.687496298264122, 8.968549580293388 ], [ 38.6886013, 8.9676251 ], [ 38.6913605, 8.9680686 ], [ 38.6919554, 8.9671813 ], [ 38.6941187, 8.9658372 ], [ 38.6951359, 8.9649398 ], [ 38.695285578019039, 8.96415514745838 ], [ 38.6977995, 8.9635599 ], [ 38.6979742, 8.9629277 ], [ 38.700918, 8.9616043 ], [ 38.7015584, 8.9642617 ], [ 38.7020083, 8.9655109 ], [ 38.702587, 8.9655009 ], [ 38.7061102, 8.9654607 ], [ 38.7060742, 8.9653528 ], [ 38.7056928, 8.9645371 ], [ 38.7059901, 8.9615764 ], [ 38.708211110311808, 8.959279423192701 ], [ 38.7097852, 8.9596157 ], [ 38.7103525, 8.9597938 ], [ 38.7114597, 8.962623 ], [ 38.7114208, 8.963849 ], [ 38.708861921873677, 8.965698462033323 ], [ 38.7077826, 8.9653489 ], [ 38.7068414, 8.965587 ], [ 38.7069412, 8.9665315 ], [ 38.7075467, 8.9675465 ], [ 38.7085132, 8.9686422 ], [ 38.7094574, 8.9683464 ], [ 38.711563122464611, 8.969303204629902 ], [ 38.7115223, 8.9694105 ], [ 38.7118126, 8.9708737 ], [ 38.7131167, 8.9723742 ], [ 38.713643847892818, 8.972438023639356 ], [ 38.7140299, 8.9732737 ], [ 38.7160519, 8.9718082 ], [ 38.7166895, 8.9716977 ], [ 38.7190926, 8.9729571 ], [ 38.7195794, 8.9737333 ], [ 38.7206829, 8.9750566 ], [ 38.7214795, 8.9768647 ], [ 38.7196929, 8.9792853 ], [ 38.7189332, 8.9793883 ], [ 38.7166148, 8.9786797 ], [ 38.7171412, 8.9798381 ], [ 38.719492369006069, 8.981687147419692 ], [ 38.7184726, 8.9834798 ], [ 38.7180908, 8.9841611 ], [ 38.7175691, 8.9863786 ], [ 38.7165458, 8.9869257 ], [ 38.7163385, 8.9880063 ], [ 38.714472316113984, 8.990096488148742 ], [ 38.7122642, 8.9890018 ], [ 38.7120944, 8.9891864 ], [ 38.7118692, 8.9897204 ] ], [ [ 38.7247092, 8.9576751 ], [ 38.724852, 8.9564473 ], [ 38.7248275, 8.9561495 ], [ 38.7243161, 8.9561798 ], [ 38.723581617919393, 8.954434032479913 ], [ 38.7249555, 8.9541127 ], [ 38.726220095867156, 8.953538456820754 ], [ 38.7285447, 8.9530967 ], [ 38.731062, 8.9531298 ], [ 38.732283985881253, 8.954729356484949 ], [ 38.7311816, 8.9554112 ], [ 38.7296147, 8.9564213 ], [ 38.728084540437415, 8.958213745866548 ], [ 38.7270681, 8.958262 ], [ 38.7241271, 8.9594237 ], [ 38.7235317, 8.9595933 ], [ 38.72351978566811, 8.959600162169107 ], [ 38.7237288, 8.95856 ], [ 38.7244507, 8.9580179 ], [ 38.7247092, 8.9576751 ] ], [ [ 38.6849374, 8.9866938 ], [ 38.6844224, 8.987686 ], [ 38.684522897095903, 8.988155248979131 ], [ 38.6832509, 8.9878363 ], [ 38.6817791, 8.9879029 ], [ 38.6823866, 8.9865587 ], [ 38.6831946, 8.985954 ], [ 38.6839688, 8.9854439 ], [ 38.6849374, 8.9866938 ] ], [ [ 38.6903593, 9.0000015 ], [ 38.686880060487233, 9.001271930340337 ], [ 38.6868927, 9.0007255 ], [ 38.6883786, 8.9984734 ], [ 38.6891028, 8.997977 ], [ 38.689479692718436, 8.998101310003493 ], [ 38.6903593, 9.0000015 ] ], [ [ 38.690127103889132, 8.998314844733546 ], [ 38.6916993, 8.9988334 ], [ 38.691845424625825, 8.998894349689607 ], [ 38.691012200644323, 8.999515094527364 ], [ 38.690127103889132, 8.998314844733546 ] ], [ [ 38.7043217, 8.9845778 ], [ 38.7056176, 8.9852563 ], [ 38.7071906, 8.9860857 ], [ 38.707549050027055, 8.986508783596012 ], [ 38.7059584, 8.9856269 ], [ 38.7053044, 8.9852953 ], [ 38.703870505577704, 8.984738121239269 ], [ 38.7043217, 8.9845778 ] ], [ [ 38.6755685, 8.9703996 ], [ 38.6762928, 8.9705917 ], [ 38.6795671, 8.9719973 ], [ 38.6786281, 8.9728239 ], [ 38.676643, 8.973353 ], [ 38.6747269, 8.9735909 ], [ 38.6741872, 8.9725362 ], [ 38.6737632, 8.9721967 ], [ 38.6732835, 8.9701628 ], [ 38.6751035, 8.970105 ], [ 38.6755685, 8.9703996 ] ], [ [ 38.718543564689028, 8.997639152075823 ], [ 38.718774670351898, 8.997875974723252 ], [ 38.7189357, 9.0001877 ], [ 38.7189773, 9.0029713 ], [ 38.718894309547132, 9.005753887744049 ], [ 38.7186832, 9.004024 ], [ 38.7187191, 9.0029892 ], [ 38.7187473, 9.0020037 ], [ 38.7188698, 8.9998109 ], [ 38.7187289, 8.998765 ], [ 38.7185878, 8.9978946 ], [ 38.718543564689028, 8.997639152075823 ] ], [ [ 38.72299693783404, 9.017483626229305 ], [ 38.723943296856056, 9.016998139500028 ], [ 38.7238495, 9.0172958 ], [ 38.72299693783404, 9.017483626229305 ] ], [ [ 38.727885402575652, 9.012060624592433 ], [ 38.7270118, 9.0118618 ], [ 38.7264951, 9.0122563 ], [ 38.7253784, 9.0132798 ], [ 38.7247722, 9.0152427 ], [ 38.7229228, 9.0145262 ], [ 38.7264124, 9.0111896 ], [ 38.727885402575652, 9.012060624592433 ] ], [ [ 38.719240264004817, 9.031010069364678 ], [ 38.7193751, 9.0326579 ], [ 38.7192857, 9.0340778 ], [ 38.719316, 9.0342986 ], [ 38.7180719, 9.0321873 ], [ 38.7188229, 9.0312253 ], [ 38.719240264004817, 9.031010069364678 ] ], [ [ 38.7066022, 9.0545502 ], [ 38.707182595332959, 9.054230813425853 ], [ 38.7066398, 9.0546231 ], [ 38.706634641596331, 9.054626563961619 ], [ 38.7066022, 9.0545502 ] ], [ [ 38.6964282, 9.0617 ], [ 38.698511354121052, 9.063712196264854 ], [ 38.6969639, 9.064293 ], [ 38.6949087, 9.0637396 ], [ 38.6964282, 9.0617 ] ], [ [ 38.7313138, 8.9771965 ], [ 38.7288472, 8.9786214 ], [ 38.7283872, 8.9787856 ], [ 38.7270547, 8.9798003 ], [ 38.7258008, 8.9824669 ], [ 38.7239528, 8.9834432 ], [ 38.722532, 8.9843766 ], [ 38.7196875, 8.984451 ], [ 38.7192004, 8.9837121 ], [ 38.720268978921148, 8.981762186589986 ], [ 38.7223984, 8.9810641 ], [ 38.7230837, 8.980366 ], [ 38.7230371, 8.9777789 ], [ 38.724079, 8.9771595 ], [ 38.7258704, 8.9763704 ], [ 38.7282267, 8.9758101 ], [ 38.7296868, 8.9752961 ], [ 38.731380024773955, 8.97681238297945 ], [ 38.7313138, 8.9771965 ] ], [ [ 38.7570673, 9.0349685 ], [ 38.757132381912761, 9.035191248430063 ], [ 38.756846696713616, 9.035177971867999 ], [ 38.755257920852216, 9.034271508811136 ], [ 38.7558521, 9.0318884 ], [ 38.7568915660203, 9.030339446709124 ], [ 38.7579095, 9.0339593 ], [ 38.7570673, 9.0349685 ] ], [ [ 38.7586856, 8.9999436 ], [ 38.758646038073188, 9.000017418462129 ], [ 38.758670640950577, 8.999520545351174 ], [ 38.7586856, 8.9999436 ] ], [ [ 38.759543822667432, 8.995842571683763 ], [ 38.7597039, 8.9959808 ], [ 38.759032, 8.998066 ], [ 38.758686575329072, 8.999198738918189 ], [ 38.7587333, 8.9982551 ], [ 38.759535, 8.9958867 ], [ 38.759543822667432, 8.995842571683763 ] ], [ [ 38.7612636, 8.9486256 ], [ 38.7615139, 8.9475109 ], [ 38.7648323, 8.947793 ], [ 38.7650031, 8.9478818 ], [ 38.7678722, 8.9487095 ], [ 38.769036217383956, 8.950773543483574 ], [ 38.7689072, 8.9510421 ], [ 38.76861766082019, 8.952289177418463 ], [ 38.7659699, 8.9533813 ], [ 38.7633968, 8.9532148 ], [ 38.7617457, 8.9519426 ], [ 38.7609355, 8.9500806 ], [ 38.7612636, 8.9486256 ] ], [ [ 38.7605821, 8.943594 ], [ 38.7624679, 8.9420878 ], [ 38.7639706, 8.942036 ], [ 38.7660152, 8.9436894 ], [ 38.7628957, 8.9451813 ], [ 38.7614381, 8.9447283 ], [ 38.7605821, 8.943594 ] ], [ [ 38.7560588, 8.9495278 ], [ 38.756316007153693, 8.947645841704068 ], [ 38.757696636648745, 8.948913351386645 ], [ 38.758510968838372, 8.949660962486426 ], [ 38.7560588, 8.9495278 ] ], [ [ 38.7882698, 9.0017096 ], [ 38.789336211408347, 9.000230945140755 ], [ 38.7906855, 8.9993148 ], [ 38.792624, 8.9985777 ], [ 38.7931544, 8.9983837 ], [ 38.7936291, 8.9982041 ], [ 38.7946719, 8.9978068 ], [ 38.7965052, 8.9969379 ], [ 38.7981365, 8.9992974 ], [ 38.797988575225517, 9.000366427408164 ], [ 38.79673285098098, 9.001913794201807 ], [ 38.7955181, 9.0020965 ], [ 38.7943165, 9.0036151 ], [ 38.7917389, 9.0056483 ], [ 38.7892042, 9.0040436 ], [ 38.7882698, 9.0017096 ] ], [ [ 38.797170714464556, 8.993575212592418 ], [ 38.798005709141179, 8.998522476605613 ], [ 38.7965052, 8.9969379 ], [ 38.797170714464556, 8.993575212592418 ] ], [ [ 38.7672688, 9.0460073 ], [ 38.765882499999989, 9.0434368 ], [ 38.7678988, 9.0418997 ], [ 38.7685836, 9.041233 ], [ 38.770451370699405, 9.03970889481905 ], [ 38.770778834108256, 9.039552893390681 ], [ 38.7728901, 9.0400549 ], [ 38.7733433, 9.041089 ], [ 38.7738203, 9.0437256 ], [ 38.7733985, 9.0448605 ], [ 38.7732972, 9.0454662 ], [ 38.7723489, 9.0464052 ], [ 38.7709008, 9.045025 ], [ 38.7694638, 9.0449786 ], [ 38.7672688, 9.0460073 ] ], [ [ 38.767715017733224, 9.028695814498802 ], [ 38.7673563, 9.028805 ], [ 38.768403778682504, 9.02777457157206 ], [ 38.768450751063263, 9.027877795456828 ], [ 38.767715017733224, 9.028695814498802 ] ], [ [ 38.7722297, 9.0251154 ], [ 38.7696171, 9.026581 ], [ 38.7707329, 9.0240985 ], [ 38.771951351107937, 9.024109724081805 ], [ 38.7722297, 9.0251154 ] ], [ [ 38.771193792453204, 9.02141913818725 ], [ 38.7717222, 9.0232818 ], [ 38.7707329, 9.0240985 ], [ 38.771193792453204, 9.02141913818725 ] ], [ [ 38.779740503089442, 9.01556970497057 ], [ 38.7795994, 9.0155365 ], [ 38.778976809394656, 9.014785462989693 ], [ 38.7790322, 9.0148252 ], [ 38.779740503089442, 9.01556970497057 ] ], [ [ 38.7793668, 9.0132882 ], [ 38.780356868219769, 9.013756900293696 ], [ 38.7802996, 9.0139608 ], [ 38.7794376, 9.0144829 ], [ 38.777825499386253, 9.013090062003924 ], [ 38.77782472387004, 9.013068454038654 ], [ 38.779223625270717, 9.013213915459016 ], [ 38.7793668, 9.0132882 ] ], [ [ 38.777362, 8.9984848 ], [ 38.7779966, 8.9994625 ], [ 38.7772268, 9.0028263 ], [ 38.7766984, 8.9999864 ], [ 38.7766126, 8.999646 ], [ 38.776324513299805, 8.998371129531529 ], [ 38.776317992831721, 8.997535351021057 ], [ 38.777362, 8.9984848 ] ], [ [ 38.7992848, 9.0191203 ], [ 38.7986449, 9.01891 ], [ 38.798475429555225, 9.018853896003552 ], [ 38.7986357, 9.0187146 ], [ 38.799460884218149, 9.019002897146567 ], [ 38.7992848, 9.0191203 ] ], [ [ 38.8168859, 9.0171779 ], [ 38.81547328318149, 9.019821863656309 ], [ 38.813849024616218, 9.019914785123675 ], [ 38.8133688, 9.0197109 ], [ 38.8126573, 9.0167641 ], [ 38.8158358, 9.015769 ], [ 38.8168859, 9.0171779 ] ], [ [ 38.819036428490477, 9.015414600590315 ], [ 38.8174128, 9.0151084 ], [ 38.8149607, 9.0141972 ], [ 38.8161268, 9.0119246 ], [ 38.8186794, 9.0137801 ], [ 38.819036428490477, 9.015414600590315 ] ], [ [ 38.8022096, 8.9940263 ], [ 38.8026126, 8.9969332 ], [ 38.8012956, 8.9984883 ], [ 38.801193164958825, 8.998521937341284 ], [ 38.8004776, 8.9984045 ], [ 38.7984775, 8.9990207 ], [ 38.798048284850772, 8.998567437660189 ], [ 38.797341, 8.9927148 ], [ 38.797957, 8.9920335 ], [ 38.798303006476779, 8.991058201652343 ], [ 38.8018267, 8.9898213 ], [ 38.8022096, 8.9940263 ] ], [ [ 38.8048106, 8.9875098 ], [ 38.8031275, 8.9878298 ], [ 38.8027936, 8.9881483 ], [ 38.8019789, 8.9892908 ], [ 38.7992705, 8.9883311 ], [ 38.8021714, 8.9855567 ], [ 38.8035396, 8.9855276 ], [ 38.807337127652865, 8.986586523513417 ], [ 38.8048106, 8.9875098 ] ], [ [ 38.803891591800117, 9.012292783779287 ], [ 38.8040681, 9.0123412 ], [ 38.804167, 9.0123654 ], [ 38.806003747048038, 9.013331655579872 ], [ 38.8054571, 9.0159235 ], [ 38.8050866, 9.0161148 ], [ 38.8034284, 9.0138029 ], [ 38.803891591800117, 9.012292783779287 ] ], [ [ 38.803673066159035, 9.008408325362948 ], [ 38.803403629126585, 9.008564167037969 ], [ 38.8033146, 9.0081789 ], [ 38.80385130266572, 9.00801483305124 ], [ 38.8035621, 9.0081352 ], [ 38.803673066159035, 9.008408325362948 ] ], [ [ 38.802933180691042, 9.00639758027641 ], [ 38.802982193179972, 9.006225586938539 ], [ 38.803313521205339, 9.006476345701813 ], [ 38.802933180691042, 9.00639758027641 ] ], [ [ 38.830153707197624, 9.016496822268001 ], [ 38.8309154, 9.016991 ], [ 38.831062333173492, 9.018051446536139 ], [ 38.8299657, 9.0172269 ], [ 38.830153707197624, 9.016496822268001 ] ], [ [ 38.831657661037809, 9.023198415417117 ], [ 38.83203240000001, 9.021741 ], [ 38.8335088, 9.021666 ], [ 38.833752781640541, 9.021883180283858 ], [ 38.8337107, 9.0218852 ], [ 38.831657661037809, 9.023198415417117 ] ], [ [ 38.835474499999989, 9.0126231 ], [ 38.835325067341749, 9.012816575273668 ], [ 38.8336706, 9.0122636 ], [ 38.833639044101801, 9.01227727024474 ], [ 38.8340004, 9.0119736 ], [ 38.835665520079516, 9.011958450660154 ], [ 38.835474499999989, 9.0126231 ] ], [ [ 38.824146, 8.9964252 ], [ 38.82386353102212, 8.996673428376878 ], [ 38.8239933, 8.9957738 ], [ 38.8236846, 8.9949151 ], [ 38.822692136885202, 8.995170206188472 ], [ 38.8234091, 8.9929084 ], [ 38.823880319483699, 8.99184723112559 ], [ 38.824028, 8.9918751 ], [ 38.8252145, 8.9922357 ], [ 38.8255638, 8.9943454 ], [ 38.8251857, 8.9946144 ], [ 38.824146, 8.9964252 ] ], [ [ 38.831289820089147, 9.013877691643785 ], [ 38.831179095718262, 9.014164882980767 ], [ 38.831000946214751, 9.01383504043117 ], [ 38.831289820089147, 9.013877691643785 ] ], [ [ 38.8446099, 9.014241 ], [ 38.844609413832167, 9.014247062718313 ], [ 38.844579618876971, 9.014220379618081 ], [ 38.8446099, 9.014241 ] ], [ [ 38.8300233, 9.0283613 ], [ 38.830330616355248, 9.028072828023593 ], [ 38.831130100737646, 9.029012678215274 ], [ 38.831266, 9.0303734 ], [ 38.8303981, 9.0317542 ], [ 38.8304043, 9.0317884 ], [ 38.8316861, 9.0327756 ], [ 38.8330298, 9.033207 ], [ 38.8334698, 9.0335267 ], [ 38.8346004, 9.0354062 ], [ 38.8338071, 9.0370152 ], [ 38.8310909, 9.0367012 ], [ 38.830584, 9.0354096 ], [ 38.8294184, 9.0340067 ], [ 38.8287805, 9.0325252 ], [ 38.826517783034696, 9.033322611093798 ], [ 38.8254958, 9.0328719 ], [ 38.8234024, 9.0322573 ], [ 38.821499038854725, 9.031479005747682 ], [ 38.8208033, 9.0302269 ], [ 38.8209589, 9.0292428 ], [ 38.8228669, 9.0278268 ], [ 38.8240645, 9.0284802 ], [ 38.824354960676565, 9.028297265631585 ], [ 38.8249282, 9.0291742 ], [ 38.8265835, 9.0280044 ], [ 38.8281022, 9.0285546 ], [ 38.8286482, 9.0286809 ], [ 38.8300233, 9.0283613 ] ], [ [ 38.835766, 9.029362 ], [ 38.8363802, 9.0267885 ], [ 38.836307842034657, 9.024248483559013 ], [ 38.8374518, 9.0253806 ], [ 38.8396163, 9.0272045 ], [ 38.8385591, 9.0292689 ], [ 38.8363641, 9.0296097 ], [ 38.835766, 9.029362 ] ], [ [ 38.8457636, 9.0186125 ], [ 38.8460216, 9.0186058 ], [ 38.8462862, 9.018599 ], [ 38.8461209, 9.021348 ], [ 38.844321828874726, 9.020595728891131 ], [ 38.8457636, 9.0186125 ] ] ], [ [ [ 38.7871355, 8.8762287 ], [ 38.7851158, 8.8766086 ], [ 38.786658, 8.8768682 ], [ 38.7869943, 8.8766216 ], [ 38.7891117, 8.8755951 ], [ 38.791151, 8.8754112 ], [ 38.7936892, 8.8754334 ], [ 38.7946798, 8.8743892 ], [ 38.7962665, 8.874147 ], [ 38.7972258, 8.873077 ], [ 38.7965373, 8.8711749 ], [ 38.7961847, 8.8689963 ], [ 38.7974761, 8.8678037 ], [ 38.7970424, 8.8661277 ], [ 38.7963574, 8.864383 ], [ 38.795318409582606, 8.863680044090811 ], [ 38.7950132, 8.862824 ], [ 38.7958226, 8.8612777 ], [ 38.7956222, 8.8603593 ], [ 38.7941613, 8.860551 ], [ 38.7929864, 8.8602613 ], [ 38.7914545, 8.8595862 ], [ 38.7908832, 8.8582534 ], [ 38.7902281, 8.8585334 ], [ 38.7899756, 8.8588097 ], [ 38.7889509, 8.8600568 ], [ 38.7877702, 8.8597095 ], [ 38.78732080000001, 8.8593039 ], [ 38.7868586, 8.8614592 ], [ 38.7856821, 8.8617568 ], [ 38.7852439, 8.8617282 ], [ 38.7841661, 8.8615218 ], [ 38.7839754, 8.8614291 ], [ 38.7835496, 8.8611377 ], [ 38.782484599999989, 8.8617957 ], [ 38.7822307, 8.8635385 ], [ 38.7823458, 8.8642578 ], [ 38.782248104018564, 8.865075620508291 ], [ 38.7806171, 8.8660652 ], [ 38.780941486007208, 8.867859270211293 ], [ 38.77991440000001, 8.8683443 ], [ 38.7802491, 8.8695288 ], [ 38.780888, 8.8712184 ], [ 38.7811509, 8.8715033 ], [ 38.78218909911925, 8.870918898946092 ], [ 38.7837177, 8.8714079 ], [ 38.7849167, 8.8720943 ], [ 38.7865558, 8.8712502 ], [ 38.7876252, 8.8719989 ], [ 38.7886957, 8.8740127 ], [ 38.7885051, 8.8745339 ], [ 38.7871355, 8.8762287 ] ] ], [ [ [ 38.7931371, 8.9613627 ], [ 38.7939906, 8.9591515 ], [ 38.7930313, 8.9566416 ], [ 38.7910254, 8.9537618 ], [ 38.7884141, 8.9521255 ], [ 38.7859723, 8.9511163 ], [ 38.7831139, 8.9530073 ], [ 38.7810077, 8.9529659 ], [ 38.7802455, 8.9531735 ], [ 38.7783626, 8.9540899 ], [ 38.7788795, 8.9553509 ], [ 38.7792599, 8.9566696 ], [ 38.7789533, 8.9593876 ], [ 38.7794812, 8.9623196 ], [ 38.7820736, 8.9616559 ], [ 38.7840182, 8.9637397 ], [ 38.7871926, 8.965287 ], [ 38.7902771, 8.9669999 ], [ 38.7907196, 8.9671217 ], [ 38.791118, 8.9670277 ], [ 38.7909795, 8.9664286 ], [ 38.7918006, 8.9634721 ], [ 38.7931371, 8.9613627 ] ] ], [ [ [ 38.817464, 8.8793536 ], [ 38.8187823, 8.8767134 ], [ 38.8189472, 8.8763782 ], [ 38.8166179, 8.8759983 ], [ 38.8149011, 8.8751419 ], [ 38.8138537, 8.8756666 ], [ 38.8138378, 8.8758384 ], [ 38.8138148, 8.8760853 ], [ 38.813796, 8.8765173 ], [ 38.8137813, 8.8769702 ], [ 38.8137692, 8.8773428 ], [ 38.8137598, 8.8777893 ], [ 38.8137543, 8.8781381 ], [ 38.8135318, 8.8794589 ], [ 38.8109591, 8.8817248 ], [ 38.809538, 8.8822334 ], [ 38.8068619, 8.8846283 ], [ 38.8066745, 8.8848717 ], [ 38.8057299, 8.887427 ], [ 38.8059919, 8.8910755 ], [ 38.8032939, 8.8926112 ], [ 38.806050022686698, 8.891904904322883 ], [ 38.8062546, 8.8948242 ], [ 38.8085115, 8.8965204 ], [ 38.8093945, 8.8935378 ], [ 38.810273, 8.8925347 ], [ 38.8106632, 8.8920332 ], [ 38.8109583, 8.8914509 ], [ 38.8118756, 8.8873751 ], [ 38.8122793, 8.8857872 ], [ 38.815081, 8.8841502 ], [ 38.8154943, 8.8833287 ], [ 38.8162945, 8.8816955 ], [ 38.817464, 8.8793536 ] ] ], [ [ [ 38.8942999, 8.9723278 ], [ 38.8924418, 8.9712768 ], [ 38.8893438, 8.9705139 ], [ 38.8856216, 8.9697394 ], [ 38.8837849, 8.9698292 ], [ 38.8827786, 8.9719075 ], [ 38.8848592, 8.9761974 ], [ 38.8845302, 8.9778742 ], [ 38.8845518, 8.9782527 ], [ 38.8846948, 8.9804587 ], [ 38.8847016, 8.9805858 ], [ 38.8848376, 8.9848396 ], [ 38.8849299, 8.9876898 ], [ 38.88523, 8.987723 ], [ 38.885229099999989, 8.9874621 ], [ 38.886619076831877, 8.984432988202967 ], [ 38.8885184, 8.9833769 ], [ 38.8917585, 8.9815979 ], [ 38.8918967, 8.9815223 ], [ 38.8918811, 8.9813766 ], [ 38.8918564, 8.9795043 ], [ 38.8917437, 8.9783697 ], [ 38.8944407, 8.9762515 ], [ 38.8946491, 8.9747852 ], [ 38.8942999, 8.9723278 ] ] ], [ [ [ 38.872058317774666, 9.05854892011984 ], [ 38.8689503, 9.0610024 ], [ 38.8673839, 9.0610092 ], [ 38.866303, 9.0610648 ], [ 38.8634759, 9.0618383 ], [ 38.8618827, 9.0633957 ], [ 38.8594677, 9.0629057 ], [ 38.8590301, 9.0619386 ], [ 38.858477, 9.0620344 ], [ 38.8597329, 9.0644142 ], [ 38.8573778, 9.0676207 ], [ 38.8571325, 9.0684653 ], [ 38.8579093, 9.0682661 ], [ 38.8612173, 9.0679129 ], [ 38.8618965, 9.0684027 ], [ 38.8637897, 9.0684627 ], [ 38.8637911, 9.072335 ], [ 38.8634445, 9.0736813 ], [ 38.8635913, 9.0739587 ], [ 38.8660079, 9.0722106 ], [ 38.8663177, 9.0743242 ], [ 38.8666128, 9.0744394 ], [ 38.867282, 9.074736 ], [ 38.8687693, 9.0745241 ], [ 38.8691166, 9.072784 ], [ 38.869917954520567, 9.071963978618829 ], [ 38.8718176, 9.0731005 ], [ 38.8722623, 9.0727251 ], [ 38.8741317, 9.0733476 ], [ 38.8757163, 9.0731485 ], [ 38.8770385, 9.0720274 ], [ 38.8784769, 9.0711545 ], [ 38.8781111, 9.0700923 ], [ 38.8781489, 9.068115 ], [ 38.8792068, 9.0679832 ], [ 38.879289, 9.0678581 ], [ 38.8795561, 9.067152 ], [ 38.8811155, 9.0658656 ], [ 38.8799664, 9.0645729 ], [ 38.8788369, 9.0643983 ], [ 38.8778957, 9.0631126 ], [ 38.8766498, 9.0631739 ], [ 38.8743908, 9.0630486 ], [ 38.8729197, 9.0615186 ], [ 38.8726969, 9.0610463 ], [ 38.8726491, 9.0585366 ], [ 38.8719852, 9.0582777 ], [ 38.872058317774666, 9.05854892011984 ] ] ] ] } },
{ "type": "Feature", "properties": { "index": 600 }, "geometry": { "type": "MultiPolygon", "coordinates": [ [ [ [ 38.7083825, 8.9462516 ], [ 38.7058638, 8.9437249 ], [ 38.7042759, 8.9441276 ], [ 38.7019385, 8.9415868 ], [ 38.7013158, 8.9396026 ], [ 38.6994189, 8.935998 ], [ 38.6983983, 8.9354585 ], [ 38.6985988, 8.9376818 ], [ 38.6943345, 8.9403947 ], [ 38.690068374064623, 8.941079361045915 ], [ 38.6884003, 8.940346 ], [ 38.6875914, 8.9395825 ], [ 38.6866843, 8.9390464 ], [ 38.6859834, 8.9390791 ], [ 38.6829914, 8.9401098 ], [ 38.6802779, 8.943664 ], [ 38.6801187, 8.9442031 ], [ 38.6802028, 8.9447962 ], [ 38.6803925, 8.945542 ], [ 38.6806070798566, 8.947326024908532 ], [ 38.6804992, 8.9510846 ], [ 38.6803134, 8.9557227 ], [ 38.6803973, 8.9570556 ], [ 38.6819766, 8.9576219 ], [ 38.6843044, 8.9624335 ], [ 38.6829673, 8.9643809 ], [ 38.6776712, 8.96827 ], [ 38.6770407, 8.9659633 ], [ 38.6773856, 8.9643239 ], [ 38.6789749, 8.9608961 ], [ 38.679031, 8.9600722 ], [ 38.6781537, 8.9580395 ], [ 38.6748818, 8.9586978 ], [ 38.6726743, 8.9593681 ], [ 38.6715478, 8.9600093 ], [ 38.6706211, 8.9605736 ], [ 38.6671099, 8.9610446 ], [ 38.6665157, 8.9610838 ], [ 38.6642035, 8.9613076 ], [ 38.6627488, 8.9625355 ], [ 38.6603885, 8.9645823 ], [ 38.6587322, 8.9645942 ], [ 38.6559536, 8.9655129 ], [ 38.6541805, 8.9664143 ], [ 38.654705, 8.9683422 ], [ 38.6551192, 8.9688982 ], [ 38.6562712, 8.9694029 ], [ 38.6588292, 8.9720128 ], [ 38.6590345, 8.9731658 ], [ 38.657659, 8.9760161 ], [ 38.6581723, 8.9794347 ], [ 38.6588786, 8.9823213 ], [ 38.6591364, 8.9831608 ], [ 38.6599191, 8.9867243 ], [ 38.6602985, 8.9869955 ], [ 38.6625054, 8.9886391 ], [ 38.662562038127923, 8.98879023358058 ], [ 38.6619669, 8.9890756 ], [ 38.66078, 8.9925269 ], [ 38.6610697, 8.9933435 ], [ 38.6616705, 8.9940787 ], [ 38.6644346, 8.9955622 ], [ 38.665249764167633, 8.998603059933819 ], [ 38.6626341, 9.0015813 ], [ 38.661055, 9.0013865 ], [ 38.6624893, 9.006765 ], [ 38.6626831, 9.0085445 ], [ 38.6628655, 9.0098147 ], [ 38.6639424, 9.0100505 ], [ 38.6642481, 9.0100611 ], [ 38.6688339, 9.0129433 ], [ 38.6686255, 9.0143765 ], [ 38.6699089, 9.0170229 ], [ 38.6716285, 9.0182875 ], [ 38.67532, 9.020087 ], [ 38.6780122, 9.0212638 ], [ 38.6787159, 9.0210077 ], [ 38.6808536, 9.0191275 ], [ 38.681619, 9.0184816 ], [ 38.682004116156499, 9.01818173010796 ], [ 38.6823504, 9.0184521 ], [ 38.6844275, 9.0177838 ], [ 38.6865051, 9.0180547 ], [ 38.691832, 9.0191965 ], [ 38.6915275, 9.0209573 ], [ 38.6919352, 9.021362 ], [ 38.6923107, 9.0216839 ], [ 38.6952753, 9.0212167 ], [ 38.6979613, 9.0209986 ], [ 38.700698, 9.0204071 ], [ 38.7009367, 9.0202956 ], [ 38.7019546, 9.019362 ], [ 38.702194434055031, 9.019251766397995 ], [ 38.702787652334166, 9.019888275769167 ], [ 38.701195439750734, 9.022027284134595 ], [ 38.698214299999989, 9.0225952 ], [ 38.6967887, 9.022513 ], [ 38.6950466, 9.0235727 ], [ 38.695504, 9.0247963 ], [ 38.693561, 9.0279058 ], [ 38.6936527, 9.0283112 ], [ 38.6937685, 9.0288355 ], [ 38.6938678, 9.0293408 ], [ 38.6923724, 9.0323236 ], [ 38.6889149, 9.0310774 ], [ 38.6872025, 9.0343632 ], [ 38.6895843, 9.0374559 ], [ 38.6897264, 9.0378493 ], [ 38.6898599, 9.038251 ], [ 38.6899625, 9.0385995 ], [ 38.690051, 9.0388585 ], [ 38.6905164, 9.0408518 ], [ 38.6912124, 9.0423603 ], [ 38.692676423033546, 9.04413323474324 ], [ 38.6926545, 9.0441374 ], [ 38.6912741, 9.0447906 ], [ 38.6911494, 9.0467124 ], [ 38.69067779241535, 9.048879748305771 ], [ 38.6872937, 9.0512525 ], [ 38.684895, 9.0518267 ], [ 38.6846724, 9.0563468 ], [ 38.6847206, 9.0589202 ], [ 38.6847507, 9.0616361 ], [ 38.6847362, 9.0650724 ], [ 38.6847681, 9.0654203 ], [ 38.6848503, 9.0662366 ], [ 38.6851587, 9.0687948 ], [ 38.6852767, 9.0690918 ], [ 38.6848046, 9.0744871 ], [ 38.689663, 9.0762027 ], [ 38.6938391, 9.0730859 ], [ 38.6945052, 9.0723955 ], [ 38.6946523, 9.0720662 ], [ 38.698357799999989, 9.0683166 ], [ 38.6992261, 9.0679087 ], [ 38.7001384, 9.0673675 ], [ 38.7047361, 9.0671463 ], [ 38.7049681, 9.0734342 ], [ 38.7040883, 9.075675 ], [ 38.7066767, 9.0720331 ], [ 38.7051867, 9.0669423 ], [ 38.7064393, 9.0656273 ], [ 38.707685433558154, 9.062844405192997 ], [ 38.7110449, 9.061498 ], [ 38.7146339, 9.062817 ], [ 38.7154944, 9.0661054 ], [ 38.714509, 9.0682505 ], [ 38.7146036, 9.0688953 ], [ 38.7157707, 9.0714928 ], [ 38.7182799, 9.0763662 ], [ 38.7212082, 9.0809212 ], [ 38.723479530510346, 9.078279953131601 ], [ 38.7279962, 9.0819581 ], [ 38.7287586, 9.0812933 ], [ 38.7235789, 9.0781644 ], [ 38.7261845, 9.0750759 ], [ 38.7291224, 9.0709316 ], [ 38.732525099999989, 9.0719682 ], [ 38.7324589, 9.0764417 ], [ 38.7348948, 9.0733919 ], [ 38.7377219, 9.0759888 ], [ 38.7382369, 9.0758127 ], [ 38.7389919, 9.0740699 ], [ 38.7436485, 9.0747601 ], [ 38.7441498, 9.0752923 ], [ 38.7453353, 9.0750155 ], [ 38.7478419, 9.0712001 ], [ 38.7500198, 9.0734554 ], [ 38.7510584, 9.0755627 ], [ 38.753382, 9.0790122 ], [ 38.7616257, 9.0880055 ], [ 38.7619503, 9.0885656 ], [ 38.7625162, 9.0885921 ], [ 38.7622379, 9.0881776 ], [ 38.7613576, 9.0810134 ], [ 38.7612186, 9.0800548 ], [ 38.7609605, 9.0766974 ], [ 38.7636937, 9.0758776 ], [ 38.7680067, 9.0755069 ], [ 38.7684722, 9.0768381 ], [ 38.7700425, 9.0798452 ], [ 38.7736219, 9.0787401 ], [ 38.772845, 9.0771846 ], [ 38.7711313, 9.0760325 ], [ 38.772012120486572, 9.072637491078284 ], [ 38.7732129, 9.073078 ], [ 38.7760627, 9.0734872 ], [ 38.7824839, 9.0751876 ], [ 38.7827689, 9.0753935 ], [ 38.7826127, 9.0749334 ], [ 38.7834871, 9.0688441 ], [ 38.7899282, 9.0669108 ], [ 38.7921292, 9.0640844 ], [ 38.7928802, 9.063107 ], [ 38.7939517, 9.061192 ], [ 38.7938711, 9.0600459 ], [ 38.7917857, 9.0588744 ], [ 38.7879704, 9.0540761 ], [ 38.7873548, 9.0536933 ], [ 38.785306909889371, 9.051733586389155 ], [ 38.7881461, 9.0481785 ], [ 38.7892183, 9.0480524 ], [ 38.7906995, 9.0454025 ], [ 38.7918929, 9.0415089 ], [ 38.7883687, 9.0411166 ], [ 38.7898711, 9.0353037 ], [ 38.7947311, 9.0312946 ], [ 38.7997189, 9.0335465 ], [ 38.8048161, 9.0292985 ], [ 38.808544975441265, 9.033083930680512 ], [ 38.8081541, 9.0338291 ], [ 38.8097365, 9.0345983 ], [ 38.8144658, 9.0377323 ], [ 38.8157836, 9.0387644 ], [ 38.8163683, 9.0394796 ], [ 38.8133065, 9.0453999 ], [ 38.8085872, 9.048062 ], [ 38.8061678, 9.0500234 ], [ 38.8062062, 9.0507558 ], [ 38.8104406, 9.0510525 ], [ 38.8112559, 9.05134 ], [ 38.8141796, 9.0561964 ], [ 38.81529, 9.0565302 ], [ 38.8211697, 9.0564948 ], [ 38.8240246, 9.0581499 ], [ 38.826208, 9.0593975 ], [ 38.8309246, 9.058824 ], [ 38.832145, 9.0587657 ], [ 38.8326533, 9.0575407 ], [ 38.8341376, 9.0540813 ], [ 38.8379064, 9.0536854 ], [ 38.8385418, 9.0535897 ], [ 38.841251758223841, 9.051009731836453 ], [ 38.8423777, 9.0510737 ], [ 38.8438708, 9.050832 ], [ 38.8457277, 9.0501837 ], [ 38.8495097, 9.0495413 ], [ 38.8529298, 9.0493724 ], [ 38.854233, 9.0497003 ], [ 38.8574594, 9.0498635 ], [ 38.8592903, 9.0492778 ], [ 38.8599534, 9.0490153 ], [ 38.8603347, 9.0470407 ], [ 38.8619495, 9.0443437 ], [ 38.8645505, 9.0408076 ], [ 38.8644817, 9.0406976 ], [ 38.8639641, 9.0398187 ], [ 38.8626225, 9.0370207 ], [ 38.8620956, 9.0352 ], [ 38.8648603, 9.0291935 ], [ 38.8699011, 9.0331262 ], [ 38.8714937, 9.0387469 ], [ 38.8710607, 9.0441727 ], [ 38.870777, 9.0456028 ], [ 38.8709688, 9.0486776 ], [ 38.8716368, 9.0494645 ], [ 38.8754922, 9.051752 ], [ 38.8779786, 9.0518233 ], [ 38.8813302, 9.0513447 ], [ 38.8847783, 9.0489287 ], [ 38.8849151, 9.0488107 ], [ 38.8850064, 9.0486798 ], [ 38.8850933, 9.0485317 ], [ 38.8879287, 9.0436653 ], [ 38.8891501, 9.0421339 ], [ 38.8924666, 9.0374161 ], [ 38.8930339, 9.0330507 ], [ 38.892078092064494, 9.028440457859837 ], [ 38.894049828967084, 9.025151584076742 ], [ 38.8955471, 9.0237263 ], [ 38.8965147, 9.0225137 ], [ 38.894831839865546, 9.020581417423694 ], [ 38.89470016763147, 9.020002476008147 ], [ 38.8956222, 9.0187196 ], [ 38.8978806, 9.0159447 ], [ 38.9004207, 9.0112823 ], [ 38.9008968, 9.0095896 ], [ 38.9014466, 9.0057496 ], [ 38.8978227, 9.0034339 ], [ 38.8938492, 9.0011189 ], [ 38.8930231, 8.9991691 ], [ 38.888611787241423, 8.996163749868929 ], [ 38.8886472, 8.9961295 ], [ 38.889155239253292, 8.994640840941615 ], [ 38.8936431, 8.9924707 ], [ 38.8895121, 8.986617 ], [ 38.8918967, 8.9815223 ], [ 38.8960601, 8.9799898 ], [ 38.8962032, 8.979302 ], [ 38.8968989, 8.9759151 ], [ 38.89846, 8.9705885 ], [ 38.899451, 8.9690174 ], [ 38.8977756, 8.9649353 ], [ 38.8971959, 8.9641444 ], [ 38.8944206, 8.9641663 ], [ 38.889510799999989, 8.9626707 ], [ 38.8877846, 8.9616339 ], [ 38.8844013, 8.9579889 ], [ 38.8834755, 8.9580136 ], [ 38.8788017, 8.9619068 ], [ 38.8778082, 8.9637286 ], [ 38.875163, 8.9675468 ], [ 38.8792715, 8.9693022 ], [ 38.8807078, 8.9710786 ], [ 38.8820073, 8.9730657 ], [ 38.8845518, 8.9782527 ], [ 38.8846948, 8.9804587 ], [ 38.8847016, 8.9805858 ], [ 38.8850946, 8.9838114 ], [ 38.8791226, 8.9856556 ], [ 38.8779357, 8.9863667 ], [ 38.8773054, 8.9875893 ], [ 38.8782602, 8.9930892 ], [ 38.8792041, 8.9943663 ], [ 38.8797789, 8.9949153 ], [ 38.8777077, 8.9988472 ], [ 38.8751623, 8.9993069 ], [ 38.8736485, 9.0000948 ], [ 38.8738159, 9.0002748 ], [ 38.8764657, 9.0023479 ], [ 38.87558200668942, 9.00663793390258 ], [ 38.875204154366777, 9.007046686397596 ], [ 38.871338952358755, 9.006578590446727 ], [ 38.8707467, 9.0044099 ], [ 38.87043, 9.0027015 ], [ 38.8709438, 8.9999291 ], [ 38.8710437, 8.9997672 ], [ 38.869613345429194, 9.000073898513829 ], [ 38.8685319, 8.9965702 ], [ 38.8683298, 8.9954969 ], [ 38.8658631, 8.9953807 ], [ 38.8647621, 8.9947766 ], [ 38.8638084, 8.9931033 ], [ 38.8659556, 8.990281 ], [ 38.863924925190204, 8.987522773815249 ], [ 38.8644268, 8.9854301 ], [ 38.8656975, 8.9832292 ], [ 38.8694492, 8.9826364 ], [ 38.8683736, 8.9810879 ], [ 38.8653253, 8.9813012 ], [ 38.8639602, 8.9815304 ], [ 38.8630052, 8.9775974 ], [ 38.8628429, 8.9771364 ], [ 38.8611719, 8.9752872 ], [ 38.8585998, 8.9765871 ], [ 38.8551297, 8.9748164 ], [ 38.8549588, 8.9743086 ], [ 38.8542589, 8.9723237 ], [ 38.8539979, 8.9723627 ], [ 38.8518164, 8.9790824 ], [ 38.8482249, 8.975515 ], [ 38.8475228, 8.9742559 ], [ 38.8470313, 8.9708627 ], [ 38.8445342, 8.9704772 ], [ 38.843456, 8.9712955 ], [ 38.8417152, 8.9739122 ], [ 38.8387037, 8.9756077 ], [ 38.8386212, 8.9777339 ], [ 38.8388063, 8.9797725 ], [ 38.8360577, 8.9830829 ], [ 38.8355902, 8.9835434 ], [ 38.832541, 8.985244 ], [ 38.8289297, 8.9840815 ], [ 38.8289573, 8.9805409 ], [ 38.8291678, 8.9800169 ], [ 38.8292298, 8.9798834 ], [ 38.8304619, 8.9779273 ], [ 38.8302928, 8.9775749 ], [ 38.8296479, 8.9770834 ], [ 38.8268535, 8.977765 ], [ 38.8261307934293, 8.980736760299383 ], [ 38.8254851, 8.9798109 ], [ 38.822583359787984, 8.982016935688661 ], [ 38.8208006, 8.9803978 ], [ 38.817983, 8.985495 ], [ 38.817645959104368, 8.986228378093188 ], [ 38.8079529, 8.9863615 ], [ 38.8066972, 8.9860036 ], [ 38.8035562, 8.9852867 ], [ 38.8021619, 8.9853275 ], [ 38.7996331, 8.9854045 ], [ 38.791303549019602, 8.985716267576091 ], [ 38.7880106, 8.9854871 ], [ 38.78566701010093, 8.984948292810587 ], [ 38.785560460344882, 8.984915056197424 ], [ 38.7787516, 8.9794447 ], [ 38.7777914, 8.9763594 ], [ 38.7759295, 8.9724099 ], [ 38.7750556, 8.9694476 ], [ 38.7727569, 8.9732909 ], [ 38.770904005633277, 8.97358373547668 ], [ 38.7715801, 8.967035 ], [ 38.7746049, 8.9599046 ], [ 38.778312866769582, 8.957327742320173 ], [ 38.7789533, 8.9593876 ], [ 38.7794812, 8.9623196 ], [ 38.7826837, 8.9639596 ], [ 38.7828581, 8.9679775 ], [ 38.7828796, 8.9680649 ], [ 38.7865958, 8.9662315 ], [ 38.7909604, 8.9677523 ], [ 38.7919347, 8.9698281 ], [ 38.795565, 8.9657542 ], [ 38.7983287, 8.9653657 ], [ 38.7995121, 8.9644203 ], [ 38.8001909, 8.9634762 ], [ 38.8013922, 8.9600013 ], [ 38.8002133, 8.9591469 ], [ 38.7965468, 8.9561463 ], [ 38.7967291, 8.9514381 ], [ 38.7968456, 8.9474803 ], [ 38.7946927, 8.9462823 ], [ 38.7904421, 8.9442075 ], [ 38.7855926, 8.941632 ], [ 38.7823833, 8.9380657 ], [ 38.7801692, 8.9332949 ], [ 38.7802308, 8.9274114 ], [ 38.7798556, 8.9263641 ], [ 38.7785149, 8.9258224 ], [ 38.777916872040997, 8.925810654649741 ], [ 38.7765764, 8.923548 ], [ 38.7794154, 8.9203348 ], [ 38.7815724, 8.9189197 ], [ 38.7818361, 8.9174857 ], [ 38.7817402, 8.9149383 ], [ 38.781245, 8.9128611 ], [ 38.7769419, 8.9105477 ], [ 38.7759864, 8.9067897 ], [ 38.7786913, 8.9035796 ], [ 38.7825369, 8.906303 ], [ 38.7827267, 8.9066475 ], [ 38.7837794, 8.9068078 ], [ 38.7849782, 8.9059148 ], [ 38.7863074, 8.9042984 ], [ 38.7865222, 8.9038242 ], [ 38.785551506541999, 8.901941111831983 ], [ 38.7855787, 8.9005542 ], [ 38.7862068, 8.8980859 ], [ 38.7889497, 8.8955886 ], [ 38.7894606, 8.8953213 ], [ 38.7897252, 8.8951883 ], [ 38.7899805, 8.89506 ], [ 38.7903106, 8.8942592 ], [ 38.7902164, 8.8932525 ], [ 38.7888485, 8.8925805 ], [ 38.7875721, 8.8918364 ], [ 38.786058, 8.8890811 ], [ 38.7869233, 8.8874147 ], [ 38.787561635007762, 8.886765327267128 ], [ 38.7923162, 8.8846006 ], [ 38.794199, 8.8857715 ], [ 38.7963669, 8.8832151 ], [ 38.7974587, 8.8810145 ], [ 38.8021687, 8.8792217 ], [ 38.8066745, 8.8848717 ], [ 38.8014109, 8.8892375 ], [ 38.7966556, 8.8875997 ], [ 38.7965401, 8.8877813 ], [ 38.79620340000001, 8.888355 ], [ 38.7963925, 8.8898808 ], [ 38.7972009, 8.8950569 ], [ 38.7980595, 8.8971622 ], [ 38.8015846, 8.9030841 ], [ 38.8022131, 8.9029855 ], [ 38.802892198710239, 8.902746357194873 ], [ 38.8036118, 8.9036628 ], [ 38.8040568, 8.904122 ], [ 38.8103977, 8.9024143 ], [ 38.812618, 8.9021615 ], [ 38.8140995, 8.9020705 ], [ 38.8153279, 8.899766 ], [ 38.8154284, 8.8994749 ], [ 38.8142453, 8.8979558 ], [ 38.8109583, 8.8914509 ], [ 38.8118756, 8.8873751 ], [ 38.815081, 8.8841502 ], [ 38.8154943, 8.8833287 ], [ 38.8162945, 8.8816955 ], [ 38.819086388029831, 8.878883662279005 ], [ 38.8229649, 8.8772604 ], [ 38.8247737, 8.8769314 ], [ 38.8260383, 8.8723186 ], [ 38.8248973, 8.8704578 ], [ 38.8211279, 8.864711 ], [ 38.8171904, 8.8654716 ], [ 38.816489, 8.8659248 ], [ 38.8092309, 8.8681257 ], [ 38.806527030635166, 8.869474186358158 ], [ 38.8065212, 8.8694136 ], [ 38.80596, 8.8659765 ], [ 38.8041578, 8.8613753 ], [ 38.8035432, 8.8605432 ], [ 38.8028393, 8.8597474 ], [ 38.80311333183559, 8.856494221693044 ], [ 38.803862, 8.8551243 ], [ 38.8043882, 8.8538504 ], [ 38.802383, 8.8549078 ], [ 38.797271, 8.8559494 ], [ 38.7943795, 8.8552338 ], [ 38.7902337, 8.8528086 ], [ 38.7858394, 8.8535129 ], [ 38.782649, 8.8554641 ], [ 38.7800407, 8.8580502 ], [ 38.7768864, 8.8606748 ], [ 38.7771423, 8.8609212 ], [ 38.7802722, 8.862418 ], [ 38.7806171, 8.8660652 ], [ 38.7788193, 8.8699389 ], [ 38.7808344, 8.8723937 ], [ 38.779362858500491, 8.874928199626643 ], [ 38.7748142, 8.8706076 ], [ 38.7762773, 8.8668603 ], [ 38.7712106, 8.8654199 ], [ 38.7687513, 8.8693906 ], [ 38.76706870000001, 8.8712832 ], [ 38.7612383, 8.873666 ], [ 38.7581938, 8.8719406 ], [ 38.75615, 8.8684079 ], [ 38.7540257, 8.8681403 ], [ 38.7530118, 8.8686147 ], [ 38.7534732, 8.8737347 ], [ 38.7535933, 8.874389 ], [ 38.7542376, 8.8758044 ], [ 38.7550423, 8.8769559 ], [ 38.7556417, 8.8771348 ], [ 38.7594357, 8.8803996 ], [ 38.7540306, 8.8846602 ], [ 38.7532318, 8.8859409 ], [ 38.7524524, 8.8870235 ], [ 38.7522192, 8.8881828 ], [ 38.7516493, 8.8929554 ], [ 38.754951552032168, 8.894323142465876 ], [ 38.7553668, 8.8948766 ], [ 38.7556278, 8.8980868 ], [ 38.7521777, 8.8987747 ], [ 38.7516909, 8.8985773 ], [ 38.7515644, 8.8996163 ], [ 38.7488725, 8.9026402 ], [ 38.7478972, 8.9027936 ], [ 38.7482589, 8.9039817 ], [ 38.7487525, 8.9058565 ], [ 38.7483513, 8.9089845 ], [ 38.7487391, 8.9105984 ], [ 38.7501861, 8.9122983 ], [ 38.750162, 8.914234 ], [ 38.7524539, 8.9186552 ], [ 38.7526886, 8.9189573 ], [ 38.7547821, 8.9190686 ], [ 38.756042, 8.9195713 ], [ 38.7589368, 8.9225986 ], [ 38.758948228698046, 8.923465917879641 ], [ 38.7531437, 8.9246421 ], [ 38.7554607, 8.926309 ], [ 38.75641826127611, 8.927343234481453 ], [ 38.7541648, 8.9275505 ], [ 38.753379, 8.9273714 ], [ 38.7495012, 8.9236476 ], [ 38.7504724, 8.9206262 ], [ 38.7497851, 8.9178583 ], [ 38.7478888, 8.9135013 ], [ 38.7476487, 8.9130972 ], [ 38.7474892, 8.9129184 ], [ 38.7468897, 8.9124308 ], [ 38.7448901, 8.9111787 ], [ 38.7433099, 8.9110531 ], [ 38.7421489, 8.9129343 ], [ 38.7377829, 8.914597 ], [ 38.7350249, 8.9129064 ], [ 38.7294607, 8.9159471 ], [ 38.7286868, 8.9186777 ], [ 38.7274222, 8.9220893 ], [ 38.7259697, 8.9251169 ], [ 38.7285052, 8.9279391 ], [ 38.7302464, 8.9292264 ], [ 38.731000894122303, 8.930008942611485 ], [ 38.7293366, 8.9316398 ], [ 38.728125385836108, 8.933297939914745 ], [ 38.727608, 8.9329188 ], [ 38.7263074, 8.9321443 ], [ 38.7256146, 8.9317157 ], [ 38.7230084, 8.9301843 ], [ 38.7221481, 8.9300822 ], [ 38.7215307, 8.9300636 ], [ 38.716904, 8.93066 ], [ 38.7160285, 8.9318177 ], [ 38.7152007, 8.9337021 ], [ 38.7152611, 8.9361367 ], [ 38.7158471, 8.9413677 ], [ 38.713008, 8.9426952 ], [ 38.7128283, 8.942823 ], [ 38.711908537763456, 8.943893722310438 ], [ 38.7083825, 8.9462516 ] ], [ [ 38.6974378, 9.0491639 ], [ 38.6936334, 9.0470007 ], [ 38.6941092, 9.0458687 ], [ 38.694739311639545, 9.045312327718273 ], [ 38.6970482, 9.0458839 ], [ 38.6987601, 9.0475573 ], [ 38.699192340013035, 9.047910249894157 ], [ 38.699182824648517, 9.048038056768837 ], [ 38.6974378, 9.0491639 ] ], [ [ 38.739934347680006, 8.95586462421331 ], [ 38.7403759, 8.9568763 ], [ 38.7404933, 8.9609058 ], [ 38.735562046035682, 8.95978282902505 ], [ 38.7364709, 8.9560006 ], [ 38.739934347680006, 8.95586462421331 ] ], [ [ 38.8555617, 8.9771388 ], [ 38.854355106070692, 8.977764954369746 ], [ 38.854273961276341, 8.973175540586935 ], [ 38.8546712, 8.974416 ], [ 38.8548589, 8.9749055 ], [ 38.8555617, 8.9771388 ] ] ], [ [ [ 38.8715816, 9.0526484 ], [ 38.8702163, 9.0497678 ], [ 38.8694711, 9.0482548 ], [ 38.8690706, 9.047307 ], [ 38.8667759, 9.0500706 ], [ 38.8662091, 9.0530629 ], [ 38.863311, 9.0560812 ], [ 38.8608728, 9.0584558 ], [ 38.8590181, 9.0612714 ], [ 38.8554799, 9.056709 ], [ 38.8553461, 9.0552137 ], [ 38.8534179, 9.0538227 ], [ 38.8530137, 9.0538491 ], [ 38.849227, 9.0571073 ], [ 38.8492703, 9.057436 ], [ 38.8495807, 9.0591193 ], [ 38.8534793, 9.0604848 ], [ 38.8501574, 9.0659862 ], [ 38.8498771, 9.0660408 ], [ 38.8486406, 9.0681064 ], [ 38.848745, 9.0688438 ], [ 38.8502835, 9.0694646 ], [ 38.855002, 9.0691076 ], [ 38.8592863, 9.0725469 ], [ 38.861585719718782, 9.07541512884729 ], [ 38.863089, 9.0812146 ], [ 38.8646721, 9.0839346 ], [ 38.8651429, 9.0847054 ], [ 38.8705891, 9.0805352 ], [ 38.8735825, 9.0824846 ], [ 38.873142386525984, 9.078247685638313 ], [ 38.8754292, 9.0759994 ], [ 38.8766274, 9.0742054 ], [ 38.8784769, 9.0711545 ], [ 38.8811155, 9.0658656 ], [ 38.8808204, 9.0636752 ], [ 38.8810392, 9.0599895 ], [ 38.879104, 9.0568719 ], [ 38.8776465, 9.0534334 ], [ 38.8715816, 9.0526484 ] ] ] ] } },
{ "type": "Feature", "properties": { "index": 900 }, "geometry": { "type": "Polygon", "coordinates": [ [ [ 38.6983983, 8.9354585 ], [ 38.6943345, 8.9403947 ], [ 38.6866843, 8.9390464 ], [ 38.6859834, 8.9390791 ], [ 38.6829914, 8.9401098 ], [ 38.6802779, 8.943664 ], [ 38.6801187, 8.9442031 ], [ 38.6804992, 8.9510846 ], [ 38.6803134, 8.9557227 ], [ 38.677298279060459, 8.958211609051164 ], [ 38.6748818, 8.9586978 ], [ 38.6726743, 8.9593681 ], [ 38.6642035, 8.9613076 ], [ 38.657687276077105, 8.964629176802498 ], [ 38.6506212, 8.9648657 ], [ 38.6459675, 8.9622574 ], [ 38.6459997, 8.9716882 ], [ 38.6476417, 8.9738538 ], [ 38.647824515884544, 8.974026915184117 ], [ 38.6470757, 8.9771918 ], [ 38.653930587808389, 8.978237253797925 ], [ 38.6591364, 8.9831608 ], [ 38.6599191, 8.9867243 ], [ 38.6597476, 8.9909745 ], [ 38.6556959, 8.9968087 ], [ 38.6536896, 8.9992141 ], [ 38.6571336, 9.0025919 ], [ 38.6611086, 9.0062185 ], [ 38.6628655, 9.0098147 ], [ 38.6679003, 9.0164846 ], [ 38.6677543, 9.0181673 ], [ 38.6677046, 9.0206026 ], [ 38.6683244, 9.0228418 ], [ 38.6722922, 9.028514 ], [ 38.6726743, 9.0286422 ], [ 38.6800209, 9.026276 ], [ 38.683594154445302, 9.024722494473204 ], [ 38.6800268, 9.0289688 ], [ 38.6797614, 9.0331397 ], [ 38.6821318, 9.036787 ], [ 38.6829472, 9.0398664 ], [ 38.682992472256892, 9.041617349540802 ], [ 38.6808517, 9.0436993 ], [ 38.6806176, 9.0455197 ], [ 38.6814183, 9.0461415 ], [ 38.684861920761676, 9.052498404695147 ], [ 38.6846724, 9.0563468 ], [ 38.6847206, 9.0589202 ], [ 38.6847507, 9.0616361 ], [ 38.6847362, 9.0650724 ], [ 38.6847681, 9.0654203 ], [ 38.6848503, 9.0662366 ], [ 38.6848046, 9.0744871 ], [ 38.689663, 9.0762027 ], [ 38.6938391, 9.0730859 ], [ 38.6945052, 9.0723955 ], [ 38.6946523, 9.0720662 ], [ 38.6947811, 9.0717378 ], [ 38.698357799999989, 9.0683166 ], [ 38.7049681, 9.0734342 ], [ 38.7040883, 9.075675 ], [ 38.7066767, 9.0720331 ], [ 38.7157707, 9.0714928 ], [ 38.7182799, 9.0763662 ], [ 38.7190591, 9.077488 ], [ 38.7222228, 9.0847868 ], [ 38.7265894, 9.0880836 ], [ 38.730374, 9.0869792 ], [ 38.7309526, 9.086197 ], [ 38.7287586, 9.0812933 ], [ 38.7324589, 9.0764417 ], [ 38.7377219, 9.0759888 ], [ 38.7445479, 9.0766414 ], [ 38.7465249, 9.0792228 ], [ 38.7478956, 9.0789074 ], [ 38.750640871973587, 9.078276565772969 ], [ 38.753382, 9.0790122 ], [ 38.7613576, 9.0810134 ], [ 38.7616257, 9.0880055 ], [ 38.7556417, 9.0919809 ], [ 38.7555481, 9.0920066 ], [ 38.7555841, 9.0953021 ], [ 38.7564912, 9.0958055 ], [ 38.7624696, 9.0981823 ], [ 38.764725, 9.0951657 ], [ 38.7647814, 9.0943182 ], [ 38.7646413, 9.0925122 ], [ 38.7646995, 9.0913532 ], [ 38.7625162, 9.0885921 ], [ 38.7622379, 9.0881776 ], [ 38.7700425, 9.0798452 ], [ 38.773237, 9.081739 ], [ 38.775907624030523, 9.076245649673281 ], [ 38.7769619, 9.0750951 ], [ 38.7836453, 9.0772787 ], [ 38.7845762, 9.0804395 ], [ 38.7856852, 9.0805299 ], [ 38.7883279, 9.0731766 ], [ 38.7946067, 9.076095 ], [ 38.7949508, 9.0759041 ], [ 38.7963992, 9.0704068 ], [ 38.7961686, 9.0692719 ], [ 38.7957475, 9.0620051 ], [ 38.8013506, 9.0614251 ], [ 38.8026901, 9.0613938 ], [ 38.803131, 9.060955 ], [ 38.8032791, 9.0594835 ], [ 38.8026179, 9.0585747 ], [ 38.7982164, 9.0576321 ], [ 38.7965722, 9.0568573 ], [ 38.792019463946161, 9.055978661342859 ], [ 38.792129, 9.0494167 ], [ 38.7967241, 9.0428703 ], [ 38.79788499286213, 9.039256057690695 ], [ 38.8042312, 9.0365115 ], [ 38.813085612800613, 9.037567668990189 ], [ 38.814445827579924, 9.038171011810634 ], [ 38.814194938364672, 9.043682014556683 ], [ 38.8133065, 9.0453999 ], [ 38.8069644, 9.0447637 ], [ 38.8041703, 9.044401 ], [ 38.8027722, 9.0460012 ], [ 38.8007203, 9.0474898 ], [ 38.8027809, 9.0533596 ], [ 38.8042744, 9.0593106 ], [ 38.8053846, 9.0605377 ], [ 38.8088416, 9.0613884 ], [ 38.8140744, 9.0622185 ], [ 38.819266399999989, 9.0618158 ], [ 38.8255781, 9.06194 ], [ 38.8304083, 9.062813 ], [ 38.832145, 9.0587657 ], [ 38.8371769, 9.0588359 ], [ 38.837754054411143, 9.058781380420655 ], [ 38.8426727, 9.0603444 ], [ 38.843521, 9.0630858 ], [ 38.8446374, 9.0675065 ], [ 38.8450371, 9.0690732 ], [ 38.8502835, 9.0694646 ], [ 38.855002, 9.0691076 ], [ 38.8586265, 9.0719033 ], [ 38.8592863, 9.0725469 ], [ 38.8613194, 9.0743877 ], [ 38.863089, 9.0812146 ], [ 38.8601499, 9.0875904 ], [ 38.8662304, 9.0863132 ], [ 38.8690026, 9.0852907 ], [ 38.8735825, 9.0824846 ], [ 38.8754292, 9.0759994 ], [ 38.8766274, 9.0742054 ], [ 38.8813277, 9.0693285 ], [ 38.8847653, 9.0665697 ], [ 38.8851718, 9.0638571 ], [ 38.8852997, 9.0623257 ], [ 38.885576, 9.0574365 ], [ 38.8855746, 9.0542708 ], [ 38.884966548644648, 9.051335293409821 ], [ 38.8853084, 9.0482034 ], [ 38.8891501, 9.0421339 ], [ 38.8924666, 9.0374161 ], [ 38.8990593, 9.0337165 ], [ 38.8953325, 9.027668 ], [ 38.9002302, 9.0222733 ], [ 38.9008565, 9.0197236 ], [ 38.8991091, 9.0134851 ], [ 38.9004207, 9.0112823 ], [ 38.9028293, 9.006449 ], [ 38.9025959, 9.0057496 ], [ 38.9016357, 9.00318 ], [ 38.8969538, 9.0017334 ], [ 38.894799270882956, 8.998038514235358 ], [ 38.8983501, 8.994107 ], [ 38.9003091, 8.9917424 ], [ 38.901672499999989, 8.99006 ], [ 38.9006196, 8.9875084 ], [ 38.8962032, 8.979302 ], [ 38.8968989, 8.9759151 ], [ 38.899451, 8.9690174 ], [ 38.8989817, 8.967902 ], [ 38.9026409, 8.9590526 ], [ 38.8995463, 8.9577599 ], [ 38.8910316, 8.9537061 ], [ 38.8836126, 8.9514109 ], [ 38.8800211, 8.9543552 ], [ 38.8738815, 8.9550786 ], [ 38.8733504, 8.9554217 ], [ 38.8729736, 8.9560562 ], [ 38.8710671, 8.9639464 ], [ 38.8713939, 8.9653464 ], [ 38.8716393, 8.9663726 ], [ 38.872460412096061, 8.973357370494865 ], [ 38.8683575, 8.973622 ], [ 38.8619397, 8.9685915 ], [ 38.8617231, 8.9654777 ], [ 38.8542589, 8.9723237 ], [ 38.8539979, 8.9723627 ], [ 38.8470313, 8.9708627 ], [ 38.8465713, 8.9618096 ], [ 38.8466016, 8.9594007 ], [ 38.8470608, 8.9552296 ], [ 38.841809, 8.9560099 ], [ 38.8365647, 8.959799 ], [ 38.842897, 8.9625338 ], [ 38.843456, 8.9712955 ], [ 38.8376764, 8.9692227 ], [ 38.8372835, 8.9692903 ], [ 38.8387037, 8.9756077 ], [ 38.8303922, 8.9744672 ], [ 38.8300543, 8.9713237 ], [ 38.8292159, 8.9689547 ], [ 38.829171, 8.9683279 ], [ 38.8250407, 8.9682187 ], [ 38.819654, 8.9719953 ], [ 38.8194468, 8.9728782 ], [ 38.8211327, 8.9767138 ], [ 38.8208006, 8.9803978 ], [ 38.8092680762865, 8.985751015880675 ], [ 38.8066972, 8.9860036 ], [ 38.8035562, 8.9852867 ], [ 38.8021619, 8.9853275 ], [ 38.7996331, 8.9854045 ], [ 38.7880106, 8.9854871 ], [ 38.779361929612186, 8.977762183304089 ], [ 38.7828796, 8.9680649 ], [ 38.7919347, 8.9698281 ], [ 38.7983287, 8.9653657 ], [ 38.8034373, 8.9661348 ], [ 38.8078771, 8.9656652 ], [ 38.812587, 8.9643801 ], [ 38.8091867, 8.956149 ], [ 38.803317, 8.9504868 ], [ 38.8003501, 8.946918 ], [ 38.7984793, 8.9453468 ], [ 38.794629, 8.939201 ], [ 38.7923188, 8.9370136 ], [ 38.7935413, 8.9307486 ], [ 38.7960684, 8.9295046 ], [ 38.7934045, 8.9291442 ], [ 38.7891948, 8.9269105 ], [ 38.788494389758668, 8.919875549751932 ], [ 38.7887996, 8.9195107 ], [ 38.7891434, 8.9175704 ], [ 38.789695882076749, 8.91195566812279 ], [ 38.7904456, 8.9114605 ], [ 38.789882, 8.9100642 ], [ 38.7888639, 8.9069062 ], [ 38.7875902, 8.9025621 ], [ 38.787983363508751, 8.897312652388019 ], [ 38.787983363508751, 8.897312652388015 ], [ 38.7894606, 8.8953213 ], [ 38.7897252, 8.8951883 ], [ 38.7899805, 8.89506 ], [ 38.79196904835721, 8.892315166920183 ], [ 38.79338883961637, 8.891998222258762 ], [ 38.7940335, 8.8938498 ], [ 38.792561, 8.9003978 ], [ 38.7939021, 8.9071073 ], [ 38.796127, 8.9069258 ], [ 38.802403, 8.9050619 ], [ 38.8112619, 8.9042262 ], [ 38.8173574, 8.9095286 ], [ 38.8184665, 8.9122183 ], [ 38.8208976, 8.9106223 ], [ 38.8281515, 8.9059425 ], [ 38.828352099999989, 8.9055123 ], [ 38.8267127, 8.8991047 ], [ 38.8255596, 8.8968505 ], [ 38.8241771, 8.8945967 ], [ 38.816578490230086, 8.890713161190007 ], [ 38.8170437, 8.8904208 ], [ 38.8177525, 8.8893656 ], [ 38.8165976, 8.8844608 ], [ 38.824056560676411, 8.884745495035558 ], [ 38.8246943, 8.8865628 ], [ 38.8253502, 8.8866922 ], [ 38.8258346, 8.8868053 ], [ 38.8262897, 8.8868977 ], [ 38.8280135, 8.8872394 ], [ 38.8302254, 8.8836775 ], [ 38.827185113663127, 8.882252119153829 ], [ 38.8288964, 8.8738255 ], [ 38.8326882, 8.8714523 ], [ 38.828574367623872, 8.86608135698614 ], [ 38.8286601, 8.8655876 ], [ 38.8280366, 8.8646303 ], [ 38.8247777, 8.8627717 ], [ 38.817922, 8.86071 ], [ 38.8142902, 8.8595739 ], [ 38.8140131, 8.8595542 ], [ 38.8136039, 8.8595581 ], [ 38.813456594791759, 8.859613335403573 ], [ 38.812518916585205, 8.854216075646374 ], [ 38.8134956, 8.8527506 ], [ 38.8129672, 8.8504475 ], [ 38.8113366, 8.8485996 ], [ 38.8082787, 8.8497028 ], [ 38.800226, 8.8485094 ], [ 38.7967586, 8.8483962 ], [ 38.7915721, 8.8521695 ], [ 38.7866011, 8.8466523 ], [ 38.785933, 8.8444597 ], [ 38.781221, 8.8453 ], [ 38.7803194, 8.8475878 ], [ 38.7825108, 8.8509325 ], [ 38.7808323, 8.8568008 ], [ 38.7698477, 8.8550452 ], [ 38.7641859, 8.8575263 ], [ 38.7593647, 8.8606731 ], [ 38.7547489, 8.8626562 ], [ 38.7508929, 8.8631659 ], [ 38.7512389, 8.8648594 ], [ 38.7499793, 8.8704283 ], [ 38.7513368, 8.8719666 ], [ 38.7516461, 8.8722801 ], [ 38.7535933, 8.874389 ], [ 38.7542376, 8.8758044 ], [ 38.750538, 8.881216 ], [ 38.7491109, 8.8861403 ], [ 38.7492835, 8.8916357 ], [ 38.7449276, 8.8938325 ], [ 38.7433773, 8.8943519 ], [ 38.7446272, 8.8963764 ], [ 38.7455898, 8.9006082 ], [ 38.742017835884162, 8.90202199593781 ], [ 38.741308, 8.9019294 ], [ 38.738373, 8.9021943 ], [ 38.7340432, 8.9038757 ], [ 38.7313695, 8.9071775 ], [ 38.727289399999989, 8.9135477 ], [ 38.7226438, 8.9196104 ], [ 38.7199563, 8.9207989 ], [ 38.7202896, 8.9240603 ], [ 38.7134852, 8.9255106 ], [ 38.7136286, 8.9248004 ], [ 38.7118909, 8.9244636 ], [ 38.708525252028181, 8.930561855025827 ], [ 38.7070619, 8.9321997 ], [ 38.7023014, 8.9317601 ], [ 38.69870250000001, 8.9321675 ], [ 38.6985399, 8.9324667 ], [ 38.6983983, 8.9354585 ] ], [ [ 38.7478888, 8.9135013 ], [ 38.747608989752663, 8.910693047669907 ], [ 38.7487391, 8.9105984 ], [ 38.750162, 8.914234 ], [ 38.752129653392039, 8.918029710623008 ], [ 38.7497851, 8.9178583 ], [ 38.7478888, 8.9135013 ] ], [ [ 38.688663210967007, 9.024950100779511 ], [ 38.689195709591303, 9.026889284730794 ], [ 38.6885758, 9.0273382 ], [ 38.687296144410844, 9.024919876751186 ], [ 38.688642638104888, 9.024939245935313 ], [ 38.688663210967007, 9.024950100779511 ] ], [ [ 38.869126, 8.9895551 ], [ 38.8705891, 8.9912559 ], [ 38.873496070358705, 8.99722538853289 ], [ 38.871718944414653, 8.99694623670921 ], [ 38.8659556, 8.990281 ], [ 38.8644268, 8.9854301 ], [ 38.8694492, 8.9826364 ], [ 38.874181826859569, 8.982024599595196 ], [ 38.8760126, 8.9845241 ], [ 38.868806, 8.9891138 ], [ 38.869126, 8.9895551 ] ] ] } }
]
}
