{
"type": "FeatureCollection",
"name": "isochrone_mixed_offers_drive",
"crs": { "type": "name", "properties": { "name": "urn:ogc:def:crs:OGC:1.3:CRS84" } },
"features": [
{ "type": "Feature", "properties": { "index": 300 }, "geometry": { "type": "MultiPolygon", "coordinates": [ [ [ [ 38.7337568, 8.9308869 ], [ 38.7338218, 8.9279367 ], [ 38.7339398, 8.9269285 ], [ 38.7341818, 8.9250996 ], [ 38.7330171, 8.9241645 ], [ 38.7322855, 8.9243143 ], [ 38.731455, 8.9248447 ], [ 38.730282, 8.9257507 ], [ 38.7291166, 8.9270567 ], [ 38.7271722, 8.9284907 ], [ 38.7249802, 8.9312141 ], [ 38.7242065, 8.932447 ], [ 38.724771, 8.9355671 ], [ 38.7264973, 8.9372364 ], [ 38.7273803, 8.9376516 ], [ 38.7305792, 8.9379636 ], [ 38.7337989, 8.937223 ], [ 38.7350478, 8.9366304 ], [ 38.7341009, 8.9345072 ], [ 38.7339035, 8.9321621 ], [ 38.7337568, 8.9308869 ] ] ], [ [ [ 38.7309601, 8.9404662 ], [ 38.7309161, 8.9413049 ], [ 38.7285795, 8.9406397 ], [ 38.7275912, 8.9409882 ], [ 38.7255709, 8.9403432 ], [ 38.725256, 8.9395488 ], [ 38.724478499999989, 8.9399352 ], [ 38.7225089, 8.9398744 ], [ 38.7213699, 8.9394748 ], [ 38.7206035, 8.9392592 ], [ 38.7202717, 8.94115 ], [ 38.7193211, 8.9427911 ], [ 38.7178098, 8.9440724 ], [ 38.7169259, 8.9451545 ], [ 38.7157618, 8.9461813 ], [ 38.715026045720791, 8.94754591359513 ], [ 38.7135835, 8.9481014 ], [ 38.7112892, 8.9485606 ], [ 38.7103955, 8.9506878 ], [ 38.708588399999989, 8.9511281 ], [ 38.7074585, 8.9511235 ], [ 38.7056375, 8.9521439 ], [ 38.7033963, 8.9538439 ], [ 38.702817, 8.9548083 ], [ 38.7024621, 8.9557787 ], [ 38.7030906, 8.9558389 ], [ 38.705129898396045, 8.958148443417913 ], [ 38.7047407, 8.9583863 ], [ 38.7048435, 8.9584197 ], [ 38.7066028, 8.9589294 ], [ 38.7066794, 8.9589522 ], [ 38.7082998, 8.9591877 ], [ 38.7097852, 8.9596157 ], [ 38.7114597, 8.962623 ], [ 38.7114208, 8.963849 ], [ 38.7097062, 8.9659719 ], [ 38.7077826, 8.9653489 ], [ 38.707656, 8.9670481 ], [ 38.7086921, 8.9683717 ], [ 38.7089031, 8.9680852 ], [ 38.7093741, 8.9674281 ], [ 38.7095952, 8.9664675 ], [ 38.711998356214892, 8.967064274872964 ], [ 38.7116235, 8.9673369 ], [ 38.7115223, 8.9694105 ], [ 38.711817, 8.9698172 ], [ 38.7138166, 8.9703569 ], [ 38.713902300466167, 8.970668300167148 ], [ 38.7137725, 8.9724536 ], [ 38.7140299, 8.9732737 ], [ 38.714365, 8.97117 ], [ 38.7149674, 8.9715603 ], [ 38.7162552, 8.9714118 ], [ 38.717430419793224, 8.971668257092182 ], [ 38.7187499, 8.972423 ], [ 38.7190926, 8.9729571 ], [ 38.7195794, 8.9737333 ], [ 38.7206829, 8.9750566 ], [ 38.7214795, 8.9768647 ], [ 38.7218955, 8.9776809 ], [ 38.7189332, 8.9793883 ], [ 38.7169396, 8.9793102 ], [ 38.7164206, 8.9811936 ], [ 38.7180908, 8.9841611 ], [ 38.7165458, 8.9869257 ], [ 38.7163385, 8.9880063 ], [ 38.7144182, 8.9901571 ], [ 38.7130679, 8.9896162 ], [ 38.7127356, 8.9895603 ], [ 38.7125692, 8.98971 ], [ 38.7128811, 8.9910314 ], [ 38.7132105, 8.9912903 ], [ 38.714223747632481, 8.991816867944138 ], [ 38.7136137, 8.9922004 ], [ 38.7116305, 8.9934236 ], [ 38.7129463, 8.9959795 ], [ 38.7142567, 8.9991486 ], [ 38.7143733, 9.0001679 ], [ 38.71469104231727, 9.00136878237684 ], [ 38.7142619, 9.0021177 ], [ 38.714215, 9.0056337 ], [ 38.7101112, 9.0071153 ], [ 38.7104304, 9.0072398 ], [ 38.7129389, 9.007563 ], [ 38.7134586, 9.0094962 ], [ 38.7132493, 9.0104497 ], [ 38.7103972, 9.0117378 ], [ 38.7084576, 9.0136135 ], [ 38.7086795, 9.0141056 ], [ 38.7089218, 9.0145759 ], [ 38.7097721, 9.0172191 ], [ 38.7108862, 9.0164398 ], [ 38.7117121, 9.0149559 ], [ 38.7125402, 9.0139479 ], [ 38.7157746, 9.0132195 ], [ 38.7176073, 9.0129338 ], [ 38.719137, 9.0152155 ], [ 38.7188622, 9.016363 ], [ 38.718958, 9.0166534 ], [ 38.7206309, 9.0166203 ], [ 38.7229228, 9.0145262 ], [ 38.7264124, 9.0111896 ], [ 38.726517, 9.0109459 ], [ 38.7225071, 9.0114307 ], [ 38.7201735, 9.0095651 ], [ 38.7197471, 9.0087074 ], [ 38.7190564, 9.0070821 ], [ 38.718948134499513, 9.006194943711018 ], [ 38.7190919, 9.0068716 ], [ 38.7197143, 9.0079515 ], [ 38.7199702, 9.0042617 ], [ 38.7193998, 9.0029948 ], [ 38.720910291058715, 8.999567028219179 ], [ 38.7220337, 8.9992215 ], [ 38.7224929, 8.9990797 ], [ 38.7268985, 8.9991841 ], [ 38.7274674, 8.99912 ], [ 38.7307139, 8.9976947 ], [ 38.732501, 9.001813 ], [ 38.730182, 9.0046135 ], [ 38.7292146, 9.0052443 ], [ 38.730773873643102, 9.00760454617685 ], [ 38.7308762, 9.0087034 ], [ 38.728208983927111, 9.012134268984191 ], [ 38.7270118, 9.0118618 ], [ 38.7281746, 9.0128188 ], [ 38.72828300994297, 9.01301079222263 ], [ 38.7285581, 9.0146123 ], [ 38.729859, 9.0157951 ], [ 38.7291375, 9.0170706 ], [ 38.7277897, 9.0180282 ], [ 38.7290748, 9.0185639 ], [ 38.7287365, 9.0191978 ], [ 38.7281706, 9.0200389 ], [ 38.7283338, 9.0206119 ], [ 38.7288216, 9.0215091 ], [ 38.7291314, 9.0225252 ], [ 38.7293668, 9.0224402 ], [ 38.7297309, 9.0223349 ], [ 38.7311787, 9.0234865 ], [ 38.7321174, 9.0225104 ], [ 38.7336241, 9.0231117 ], [ 38.7335966, 9.0242952 ], [ 38.7335289, 9.0249806 ], [ 38.733158787409728, 9.025798624200721 ], [ 38.732361, 9.0263653 ], [ 38.7316273, 9.0269667 ], [ 38.7309104, 9.027564 ], [ 38.7298293, 9.0286235 ], [ 38.7305841, 9.029825 ], [ 38.730631688635548, 9.030088553924612 ], [ 38.7301222, 9.029749 ], [ 38.729568, 9.030109 ], [ 38.7276965, 9.0301209 ], [ 38.727268597974152, 9.030362408512021 ], [ 38.7268808, 9.0301617 ], [ 38.7250653, 9.0294324 ], [ 38.722997, 9.0279126 ], [ 38.722358590679839, 9.029520298613912 ], [ 38.7209239, 9.0279653 ], [ 38.7206261, 9.0266634 ], [ 38.7197538, 9.0265963 ], [ 38.7182685, 9.0252179 ], [ 38.7172774, 9.0254537 ], [ 38.7149263, 9.0253368 ], [ 38.7150192, 9.0236091 ], [ 38.715065, 9.0231544 ], [ 38.7139636, 9.0237405 ], [ 38.7120079, 9.0242214 ], [ 38.7114282, 9.0244084 ], [ 38.7110057, 9.0257422 ], [ 38.710629861041937, 9.026166272420278 ], [ 38.7083363, 9.0267296 ], [ 38.7081519, 9.0267832 ], [ 38.7069757, 9.0271051 ], [ 38.704327, 9.0274757 ], [ 38.7039354, 9.0279369 ], [ 38.7047662, 9.0279834 ], [ 38.7059645, 9.0298706 ], [ 38.7045389, 9.0308971 ], [ 38.7032464, 9.0308579 ], [ 38.7035804, 9.0322421 ], [ 38.7022577, 9.0341348 ], [ 38.7009992, 9.0336077 ], [ 38.700863, 9.03355 ], [ 38.7007932, 9.0335242 ], [ 38.7025554, 9.035848 ], [ 38.7028156, 9.0362996 ], [ 38.703369907764909, 9.037301191312141 ], [ 38.7011237, 9.0359211 ], [ 38.6992308, 9.0366195 ], [ 38.6958922, 9.036397 ], [ 38.6947199, 9.0377003 ], [ 38.6942202, 9.0386756 ], [ 38.6937377, 9.0410938 ], [ 38.6918912, 9.0441741 ], [ 38.6912741, 9.0447906 ], [ 38.6911494, 9.0467124 ], [ 38.692473, 9.0480434 ], [ 38.6936334, 9.0470007 ], [ 38.6970482, 9.0458839 ], [ 38.6987601, 9.0475573 ], [ 38.699713, 9.0483354 ], [ 38.7021819, 9.0503737 ], [ 38.7041849, 9.0509207 ], [ 38.705703, 9.0502009 ], [ 38.7063581, 9.0479785 ], [ 38.7071179, 9.0458932 ], [ 38.7079031, 9.042398 ], [ 38.7104224, 9.0431006 ], [ 38.7111397, 9.0426185 ], [ 38.712588708559494, 9.042198185654225 ], [ 38.7126721, 9.0440761 ], [ 38.712546, 9.0456296 ], [ 38.7129483, 9.0475481 ], [ 38.7140755, 9.048295 ], [ 38.7149379, 9.0489904 ], [ 38.7157536, 9.0477334 ], [ 38.7169002, 9.0470168 ], [ 38.7188249, 9.0478735 ], [ 38.7188915, 9.0484049 ], [ 38.7191878, 9.0503161 ], [ 38.7191489, 9.0506074 ], [ 38.7159088, 9.0528119 ], [ 38.7158673, 9.0528311 ], [ 38.7156266, 9.0545588 ], [ 38.7134988, 9.0563123 ], [ 38.7131065, 9.0568466 ], [ 38.7129772, 9.0578141 ], [ 38.7164385, 9.0594054 ], [ 38.7176255, 9.0615618 ], [ 38.7186358, 9.0627919 ], [ 38.7202186, 9.0632794 ], [ 38.7217762, 9.0625895 ], [ 38.7244942, 9.0597834 ], [ 38.72623020031935, 9.058243479234433 ], [ 38.7261619, 9.0593021 ], [ 38.7264813, 9.0598398 ], [ 38.726344506677904, 9.061108707960226 ], [ 38.7253625, 9.0615434 ], [ 38.7257042, 9.0617493 ], [ 38.726377, 9.0623637 ], [ 38.7266773, 9.0634365 ], [ 38.7274165, 9.0648581 ], [ 38.7280596, 9.065708 ], [ 38.727808, 9.0669441 ], [ 38.7283114, 9.0673476 ], [ 38.729344, 9.0680747 ], [ 38.730382, 9.0685872 ], [ 38.7314672, 9.0698442 ], [ 38.7319896, 9.070683 ], [ 38.7321416, 9.0707154 ], [ 38.7329363, 9.0707755 ], [ 38.7346065, 9.070232 ], [ 38.7361279, 9.0695787 ], [ 38.7372898, 9.0694528 ], [ 38.7377026, 9.0691454 ], [ 38.7382744, 9.0684187 ], [ 38.7386467, 9.0681207 ], [ 38.7393238, 9.0676582 ], [ 38.7403949, 9.0675189 ], [ 38.7408913, 9.0676303 ], [ 38.7413763, 9.0677319 ], [ 38.7420905, 9.0670584 ], [ 38.7429233, 9.0666645 ], [ 38.7443193, 9.0663271 ], [ 38.7434205, 9.0655438 ], [ 38.743551448260128, 9.064877431519792 ], [ 38.7444387, 9.0647108 ], [ 38.7455709, 9.0645584 ], [ 38.7450043, 9.0617858 ], [ 38.7476199, 9.0600153 ], [ 38.7482068, 9.0602013 ], [ 38.7507192, 9.0581498 ], [ 38.7527865, 9.0560788 ], [ 38.753600741048089, 9.054605989393897 ], [ 38.753982, 9.0552087 ], [ 38.7539978, 9.0561037 ], [ 38.7549576, 9.0551301 ], [ 38.7565047, 9.0554225 ], [ 38.7573327, 9.0560751 ], [ 38.7572967, 9.0574294 ], [ 38.7576986, 9.0589446 ], [ 38.7577216, 9.0590008 ], [ 38.7583439, 9.05893 ], [ 38.7592101, 9.059055 ], [ 38.7601738, 9.0598012 ], [ 38.7608446, 9.0589632 ], [ 38.762187, 9.059408 ], [ 38.7623374, 9.0587314 ], [ 38.7617172, 9.0587497 ], [ 38.7627214, 9.0567686 ], [ 38.7627308, 9.0562527 ], [ 38.7626772, 9.0557355 ], [ 38.7650745, 9.0545281 ], [ 38.7654767, 9.0551084 ], [ 38.7657209, 9.0555569 ], [ 38.7658778, 9.055845 ], [ 38.7658428, 9.0577181 ], [ 38.766177399999989, 9.0574996 ], [ 38.766554, 9.0571415 ], [ 38.7677326, 9.0562897 ], [ 38.7676134, 9.0550313 ], [ 38.7672416, 9.0533861 ], [ 38.7675809, 9.0519084 ], [ 38.77087, 9.051386 ], [ 38.771385, 9.0497188 ], [ 38.7732643, 9.0464944 ], [ 38.7745551, 9.0466002 ], [ 38.776106239391488, 9.045460014574983 ], [ 38.776399869530721, 9.045325549073238 ], [ 38.7776412, 9.0455692 ], [ 38.7771903, 9.0441232 ], [ 38.777347, 9.0412378 ], [ 38.7774137, 9.0410233 ], [ 38.7777758, 9.0401384 ], [ 38.7808546, 9.0405328 ], [ 38.7819394, 9.0405796 ], [ 38.782869, 9.039107 ], [ 38.7829559, 9.0389049 ], [ 38.7832121, 9.0378256 ], [ 38.7824747, 9.0362328 ], [ 38.7804737, 9.033912 ], [ 38.7820987, 9.0327323 ], [ 38.7847393, 9.0337449 ], [ 38.7853003, 9.0340705 ], [ 38.7868405, 9.0345218 ], [ 38.7870169, 9.0343354 ], [ 38.7869981, 9.033897 ], [ 38.7863892, 9.0328944 ], [ 38.7867588, 9.0301967 ], [ 38.789905110553065, 9.029821515442297 ], [ 38.7910488, 9.0308486 ], [ 38.7913411, 9.0328014 ], [ 38.7933345, 9.0314512 ], [ 38.7947311, 9.0312946 ], [ 38.7968678, 9.0306899 ], [ 38.7988474, 9.0307862 ], [ 38.8011234, 9.0303124 ], [ 38.8022468, 9.0290022 ], [ 38.804107, 9.0285119 ], [ 38.8044796, 9.0290393 ], [ 38.8048161, 9.0292985 ], [ 38.8055684, 9.0283197 ], [ 38.8080317, 9.0267738 ], [ 38.8075975, 9.0272945 ], [ 38.8090233, 9.0265829 ], [ 38.809383, 9.0265432 ], [ 38.810004324026814, 9.024965971145198 ], [ 38.8129946, 9.0250146 ], [ 38.8140818, 9.0259528 ], [ 38.8143496, 9.0279621 ], [ 38.8144997, 9.0290358 ], [ 38.8149943, 9.0289912 ], [ 38.8151284, 9.0283886 ], [ 38.8151299, 9.0272556 ], [ 38.816761, 9.0265301 ], [ 38.8171474, 9.0284147 ], [ 38.8188645, 9.0286643 ], [ 38.8193934, 9.0295617 ], [ 38.8209589, 9.0292428 ], [ 38.820523, 9.0286587 ], [ 38.8203098, 9.0279514 ], [ 38.8202976, 9.0275475 ], [ 38.8214323, 9.0264389 ], [ 38.8228669, 9.0278268 ], [ 38.8240645, 9.0284802 ], [ 38.8249282, 9.0291742 ], [ 38.8257697, 9.0273442 ], [ 38.8265835, 9.0280044 ], [ 38.8274017, 9.0301952 ], [ 38.8277288, 9.0308971 ], [ 38.8285721, 9.0335671 ], [ 38.8284027, 9.0341648 ], [ 38.8279863, 9.0352506 ], [ 38.8281029, 9.0353208 ], [ 38.8287426, 9.035193 ], [ 38.8290708, 9.0350548 ], [ 38.830709120805921, 9.033140359776866 ], [ 38.8334698, 9.0335267 ], [ 38.8346004, 9.0354062 ], [ 38.8338071, 9.0370152 ], [ 38.8337872, 9.0370987 ], [ 38.8362384, 9.0370978 ], [ 38.8375676, 9.0372689 ], [ 38.8392543, 9.0375006 ], [ 38.8398001, 9.0376201 ], [ 38.8404437, 9.0377397 ], [ 38.8427854, 9.0391048 ], [ 38.8436571, 9.0384724 ], [ 38.8457316, 9.036843 ], [ 38.8468158, 9.0357183 ], [ 38.8472326, 9.0340442 ], [ 38.8460966, 9.0323057 ], [ 38.8462768, 9.0313621 ], [ 38.8460473, 9.0307713 ], [ 38.845376153232436, 9.02879623601628 ], [ 38.8459702, 9.0280977 ], [ 38.8472868, 9.0262548 ], [ 38.8478432, 9.0241995 ], [ 38.8477709, 9.0231572 ], [ 38.8470876, 9.0220415 ], [ 38.847598099021596, 9.018538506713696 ], [ 38.8486883, 9.0184892 ], [ 38.8500344, 9.0211574 ], [ 38.8485722, 9.0212117 ], [ 38.8496599, 9.0218976 ], [ 38.8504699, 9.0221315 ], [ 38.852022162445124, 9.022711302697216 ], [ 38.8526943, 9.0237145 ], [ 38.8527671, 9.0250063 ], [ 38.8527889, 9.0254057 ], [ 38.8528088, 9.0259356 ], [ 38.8533028, 9.0255136 ], [ 38.8535353, 9.0251396 ], [ 38.8546904, 9.023507 ], [ 38.8542729, 9.0231272 ], [ 38.8541256, 9.0206948 ], [ 38.8568146, 9.020547 ], [ 38.8583496, 9.0204867 ], [ 38.8613409, 9.0205415 ], [ 38.861459, 9.0207778 ], [ 38.8610298, 9.020743 ], [ 38.8605648, 9.0207047 ], [ 38.8602586, 9.0206958 ], [ 38.8595536, 9.0206778 ], [ 38.8588803, 9.0206933 ], [ 38.8581733, 9.0207198 ], [ 38.8574142, 9.0207619 ], [ 38.8564735, 9.0208085 ], [ 38.8563547, 9.0225111 ], [ 38.8570856, 9.023355 ], [ 38.8589532, 9.0265716 ], [ 38.859291, 9.0271268 ], [ 38.8615823, 9.0294216 ], [ 38.8627145, 9.030028 ], [ 38.8636881, 9.0301716 ], [ 38.8648603, 9.0291935 ], [ 38.8684198, 9.0290747 ], [ 38.8705838, 9.0284309 ], [ 38.8705033, 9.029909 ], [ 38.871983899999989, 9.0295753 ], [ 38.8745846, 9.0317379 ], [ 38.8746006, 9.0322828 ], [ 38.8745945, 9.0328456 ], [ 38.8721073, 9.0352308 ], [ 38.8719335, 9.0373811 ], [ 38.8714937, 9.0387469 ], [ 38.873494, 9.0403193 ], [ 38.8762624, 9.0400473 ], [ 38.876466453840315, 9.039687754051194 ], [ 38.8764807, 9.0396972 ], [ 38.8777715, 9.0398857 ], [ 38.8777726, 9.0387014 ], [ 38.878946, 9.0374277 ], [ 38.8803497, 9.0370691 ], [ 38.8814993, 9.0372612 ], [ 38.8830869, 9.0366493 ], [ 38.8828334, 9.0342109 ], [ 38.8845447, 9.0336838 ], [ 38.8860655, 9.0317077 ], [ 38.8872939, 9.0308203 ], [ 38.8882978, 9.0298713 ], [ 38.8883024, 9.0293289 ], [ 38.887809207450879, 9.028371112820672 ], [ 38.8873824, 9.0271515 ], [ 38.8881918, 9.0254194 ], [ 38.8896963, 9.0247433 ], [ 38.8898946, 9.0246598 ], [ 38.8904653, 9.0244195 ], [ 38.890676490325653, 9.023895053594 ], [ 38.8915828, 9.0241442 ], [ 38.8923896, 9.0232173 ], [ 38.8929025, 9.0217775 ], [ 38.8944717, 9.0201679 ], [ 38.8956222, 9.0187196 ], [ 38.8964858, 9.0171326 ], [ 38.8978806, 9.0159447 ], [ 38.8991091, 9.0134851 ], [ 38.9004207, 9.0112823 ], [ 38.9008968, 9.0095896 ], [ 38.8997367, 9.0093501 ], [ 38.897126, 9.0083375 ], [ 38.8953357, 9.0070751 ], [ 38.8945688, 9.0057848 ], [ 38.89467, 9.0049595 ], [ 38.8946821, 9.0041651 ], [ 38.8945814, 9.003887 ], [ 38.893058, 9.0011507 ], [ 38.892172, 9.0002196 ], [ 38.8918939, 8.9999441 ], [ 38.8912634, 8.999329 ], [ 38.8902658, 8.9984856 ], [ 38.8884264, 8.9963947 ], [ 38.8871759, 8.9957251 ], [ 38.8854734, 8.9943764 ], [ 38.8851288, 8.9925201 ], [ 38.8829166, 8.9950311 ], [ 38.8814333, 8.9951662 ], [ 38.8797789, 8.9949153 ], [ 38.8806877, 8.9956404 ], [ 38.8800839, 9.0010003 ], [ 38.880567, 9.0006884 ], [ 38.8826108, 8.9988512 ], [ 38.8837421, 8.9985232 ], [ 38.8856434, 9.0007483 ], [ 38.8856311, 9.0008937 ], [ 38.8853547, 9.0026766 ], [ 38.8854124, 9.0053894 ], [ 38.8859136, 9.0070369 ], [ 38.8829159, 9.0084696 ], [ 38.8829206, 9.0087154 ], [ 38.8859522, 9.0077419 ], [ 38.8876487, 9.0101147 ], [ 38.888552805411699, 9.010460931543122 ], [ 38.8884486, 9.0105644 ], [ 38.8884393, 9.0106306 ], [ 38.8905887, 9.0125796 ], [ 38.8906855, 9.0138735 ], [ 38.8906755, 9.015872 ], [ 38.8906634, 9.0178602 ], [ 38.890654900300049, 9.019259213113306 ], [ 38.8890143, 9.0221322 ], [ 38.88828, 9.0220962 ], [ 38.8879183, 9.0220797 ], [ 38.8860051, 9.0216916 ], [ 38.8862294, 9.0192266 ], [ 38.8856355, 9.0184126 ], [ 38.8851581, 9.0169052 ], [ 38.885126, 9.0160817 ], [ 38.884622, 9.0154283 ], [ 38.883858, 9.0145927 ], [ 38.8834823, 9.0143769 ], [ 38.8822591, 9.0139024 ], [ 38.8816425, 9.013942 ], [ 38.880456, 9.0125242 ], [ 38.879304664986826, 9.012523597238358 ], [ 38.8782871, 9.0115452 ], [ 38.8778566, 9.0107518 ], [ 38.8766739, 9.0107943 ], [ 38.8757443, 9.0109216 ], [ 38.8741203, 9.0109293 ], [ 38.8741303, 9.010825 ], [ 38.8736321, 9.0096147 ], [ 38.8734525, 9.0090916 ], [ 38.8733718, 9.0088617 ], [ 38.8732891, 9.0086325 ], [ 38.8729334, 9.0079034 ], [ 38.8714058, 9.0068331 ], [ 38.8707467, 9.0044099 ], [ 38.870685, 9.0042787 ], [ 38.87043, 9.0027015 ], [ 38.8716996, 9.0003215 ], [ 38.8764132, 9.002169 ], [ 38.8764657, 9.0023479 ], [ 38.8765478, 9.0023991 ], [ 38.8767339, 9.0023692 ], [ 38.8768108, 9.0022491 ], [ 38.8767718, 9.0020768 ], [ 38.8763197, 9.0008487 ], [ 38.8716419, 8.9987671 ], [ 38.8717995, 8.9982579 ], [ 38.871912, 8.9976329 ], [ 38.8716808, 8.9975028 ], [ 38.869763, 8.9978869 ], [ 38.8684809, 8.9988539 ], [ 38.8658068, 8.9993625 ], [ 38.8650755, 9.0008421 ], [ 38.8636212, 9.0018483 ], [ 38.8632261, 9.0025349 ], [ 38.8631353, 9.002715 ], [ 38.8628482, 9.0038286 ], [ 38.8629958, 9.0045807 ], [ 38.8635111, 9.0066908 ], [ 38.8644617, 9.0082 ], [ 38.8647452, 9.0092696 ], [ 38.863127, 9.0107071 ], [ 38.863721153313492, 9.012065687073859 ], [ 38.862885106409166, 9.012965706181836 ], [ 38.8627296, 9.0126901 ], [ 38.8617325, 9.0120175 ], [ 38.8592603, 9.0111654 ], [ 38.858476275682776, 9.01040135545872 ], [ 38.8589129, 9.0096859 ], [ 38.8585414, 9.0093123 ], [ 38.8575332, 9.0086359 ], [ 38.8571605, 9.007807 ], [ 38.8569338, 9.0078125 ], [ 38.8566571, 9.0078192 ], [ 38.8563196, 9.0078274 ], [ 38.8557418, 9.0078428 ], [ 38.8552158, 9.0078569 ], [ 38.854648, 9.0078709 ], [ 38.8541231, 9.0079006 ], [ 38.8520834, 9.0059043 ], [ 38.8520747, 9.0057922 ], [ 38.8520682, 9.0056456 ], [ 38.8520229, 9.0038196 ], [ 38.851184904870181, 9.003876516588562 ], [ 38.8496914, 9.0025945 ], [ 38.8467644, 9.0021269 ], [ 38.8453033, 9.0021971 ], [ 38.8434519, 9.0021879 ], [ 38.842725, 9.002972 ], [ 38.842006495646864, 9.004960024399793 ], [ 38.840186699960611, 9.004519366380951 ], [ 38.840104799051588, 9.004459565773205 ], [ 38.8399138, 9.0026787 ], [ 38.8396599, 9.0013672 ], [ 38.8386025, 9.0019375 ], [ 38.8387929, 9.0032992 ], [ 38.838312343117828, 9.004266732475077 ], [ 38.835301, 9.0032933 ], [ 38.8348794, 9.0020687 ], [ 38.8349131, 9.0008394 ], [ 38.8336715, 9.0002098 ], [ 38.8323382, 9.0005768 ], [ 38.8305051, 9.0021546 ], [ 38.8289955, 9.0016355 ], [ 38.8281485, 9.0016529 ], [ 38.827365, 9.0040439 ], [ 38.827472, 9.0052887 ], [ 38.8279527, 9.0064424 ], [ 38.828058, 9.0067252 ], [ 38.8288761, 9.0093054 ], [ 38.8288613, 9.0101055 ], [ 38.8291171, 9.010904 ], [ 38.829212691028843, 9.01168537343478 ], [ 38.8284933, 9.0113395 ], [ 38.8270086, 9.0102856 ], [ 38.8266392, 9.0099615 ], [ 38.8261094, 9.0101883 ], [ 38.8242781, 9.0101598 ], [ 38.823369949112859, 9.010092263184942 ], [ 38.8243225, 9.0083844 ], [ 38.8241042, 9.0078386 ], [ 38.8249446, 9.0061119 ], [ 38.8256118, 9.0060324 ], [ 38.8255636, 9.004735 ], [ 38.8254516, 9.0040688 ], [ 38.8253637, 9.0037138 ], [ 38.8251673, 9.0028349 ], [ 38.8253255, 9.0013659 ], [ 38.8253388, 8.9997393 ], [ 38.825283, 8.9987407 ], [ 38.8249847, 8.9984478 ], [ 38.8243356, 8.997982 ], [ 38.8232394, 8.9968861 ], [ 38.821711965775556, 8.995435985371428 ], [ 38.8216851, 8.9948781 ], [ 38.8216644, 8.994241 ], [ 38.8214167, 8.9944311 ], [ 38.8200858, 8.9919752 ], [ 38.8207108, 8.9903902 ], [ 38.819903, 8.9889698 ], [ 38.8192988, 8.9884962 ], [ 38.8186422, 8.9880141 ], [ 38.8186027, 8.9880104 ], [ 38.8178219, 8.987936 ], [ 38.8166645, 8.988021 ], [ 38.8158998, 8.9886047 ], [ 38.8127899, 8.9893411 ], [ 38.8103143, 8.9883096 ], [ 38.8097735, 8.9869675 ], [ 38.8079529, 8.9863615 ], [ 38.8048106, 8.9875098 ], [ 38.8019554, 8.9871694 ], [ 38.801050685055458, 8.98648183534185 ], [ 38.801661005890175, 8.985847831171156 ], [ 38.8021714, 8.9855567 ], [ 38.8035396, 8.9855276 ], [ 38.8035562, 8.9852867 ], [ 38.8021619, 8.9853275 ], [ 38.7996331, 8.9854045 ], [ 38.7971379, 8.9861223 ], [ 38.7967554, 8.986409 ], [ 38.7962286, 8.9869708 ], [ 38.795487319033633, 8.987753789468321 ], [ 38.792144946779878, 8.987537037537862 ], [ 38.791375, 8.9871117 ], [ 38.7899075, 8.9859732 ], [ 38.788826, 8.985809 ], [ 38.7855757, 8.9849273 ], [ 38.7842988, 8.9845215 ], [ 38.7824454, 8.9839019 ], [ 38.781228502882144, 8.983460524012969 ], [ 38.781228502882144, 8.983460524012967 ], [ 38.7787651, 8.9799759 ], [ 38.7787516, 8.9794447 ], [ 38.777705832235569, 8.976757423425497 ], [ 38.7777914, 8.9763594 ], [ 38.7774548, 8.9759568 ], [ 38.7773636, 8.975878 ], [ 38.7756114, 8.9726492 ], [ 38.7755072, 8.9716351 ], [ 38.7752672, 8.9716781 ], [ 38.7727569, 8.9732909 ], [ 38.7716331, 8.9744487 ], [ 38.7681123, 8.9762841 ], [ 38.76730580000001, 8.9765417 ], [ 38.7671367, 8.976797 ], [ 38.767387357412211, 8.977610182220236 ], [ 38.767071, 8.9778048 ], [ 38.7678751, 8.9797453 ], [ 38.76640511798125, 8.981750233069526 ], [ 38.7662418, 8.9812714 ], [ 38.7650426, 8.9787808 ], [ 38.7650392, 8.976104 ], [ 38.765253845319243, 8.973536564431168 ], [ 38.765479561996692, 8.972887659537129 ], [ 38.7660779, 8.9717093 ], [ 38.7664998, 8.9707517 ], [ 38.76592684637459, 8.970915950651911 ], [ 38.766131457000604, 8.968542763837874 ], [ 38.7668531, 8.9689063 ], [ 38.7676983, 8.9680927 ], [ 38.7681896, 8.9660117 ], [ 38.768958499999989, 8.9650687 ], [ 38.770090052094424, 8.963398267422052 ], [ 38.7718099, 8.962378 ], [ 38.7726464, 8.9617668 ], [ 38.7746049, 8.9599046 ], [ 38.775242, 8.9583361 ], [ 38.7755169, 8.9575612 ], [ 38.7753178, 8.956777 ], [ 38.7743879, 8.9540411 ], [ 38.7742697, 8.9534014 ], [ 38.7733589, 8.9528553 ], [ 38.7726577, 8.9524171 ], [ 38.7723679, 8.9500882 ], [ 38.7714238, 8.9497874 ], [ 38.770501370464288, 8.950224641904052 ], [ 38.769152790207073, 8.949138866346333 ], [ 38.7688543, 8.9481925 ], [ 38.7678722, 8.9487095 ], [ 38.7691994, 8.9510629 ], [ 38.768735270591904, 8.952261932238054 ], [ 38.766852, 8.953155 ], [ 38.7659699, 8.9533813 ], [ 38.7633968, 8.9532148 ], [ 38.7617457, 8.9519426 ], [ 38.7601136, 8.9511388 ], [ 38.759338, 8.9508307 ], [ 38.7588606, 8.9517941 ], [ 38.7584513, 8.9533577 ], [ 38.757831741889547, 8.954695732794766 ], [ 38.7569429, 8.9559319 ], [ 38.7567032, 8.9562297 ], [ 38.7555053, 8.9575243 ], [ 38.7553668, 8.9577102 ], [ 38.7554501, 8.9598355 ], [ 38.7562853, 8.9608518 ], [ 38.7573918, 8.9617797 ], [ 38.7583908, 8.9623564 ], [ 38.7604418, 8.963662 ], [ 38.76117, 8.9642094 ], [ 38.7629101, 8.9664361 ], [ 38.762844200000011, 8.9668596 ], [ 38.7628083, 8.9670849 ], [ 38.7627354, 8.9676055 ], [ 38.7640962, 8.9718863 ], [ 38.76242, 8.9685074 ], [ 38.7613593, 8.9707294 ], [ 38.760615721370819, 8.973939371154067 ], [ 38.7596897, 8.9769291 ], [ 38.7595952, 8.9772954 ], [ 38.759151931535769, 8.979377576262838 ], [ 38.7585997, 8.9798754 ], [ 38.7568246, 8.9793672 ], [ 38.7560583, 8.9788718 ], [ 38.7549105, 8.9779306 ], [ 38.754542, 8.9783302 ], [ 38.7540968, 8.9794135 ], [ 38.7527538, 8.9800289 ], [ 38.75253, 8.978179 ], [ 38.7523198, 8.9776614 ], [ 38.7514169, 8.9756873 ], [ 38.7508253, 8.9748067 ], [ 38.749984, 8.9739043 ], [ 38.7493092, 8.9733745 ], [ 38.7487422, 8.9734196 ], [ 38.748321380991321, 8.973719821639504 ], [ 38.7478308, 8.9722231 ], [ 38.7487723, 8.9698221 ], [ 38.7487625, 8.9678079 ], [ 38.7480411, 8.9670263 ], [ 38.747513, 8.9664751 ], [ 38.7459258, 8.9648576 ], [ 38.7490348, 8.9593529 ], [ 38.7492252, 8.9591782 ], [ 38.7492111, 8.9591429 ], [ 38.7490115, 8.9593292 ], [ 38.7457092, 8.9611077 ], [ 38.7424721, 8.9617445 ], [ 38.7404933, 8.9609058 ], [ 38.7415846, 8.9631367 ], [ 38.7414488, 8.9644008 ], [ 38.7415858, 8.9646898 ], [ 38.7428784, 8.9669177 ], [ 38.7428134, 8.968824 ], [ 38.7394558, 8.9686222 ], [ 38.737573, 8.9679618 ], [ 38.7366423, 8.9668581 ], [ 38.7358058, 8.9664959 ], [ 38.7338521, 8.9650684 ], [ 38.733489649791366, 8.964171315905944 ], [ 38.7341882, 8.9625721 ], [ 38.7346948, 8.9625629 ], [ 38.7355458, 8.9629714 ], [ 38.7352396, 8.9611247 ], [ 38.7351846, 8.9609923 ], [ 38.7348681, 8.9596248 ], [ 38.7334362, 8.9591808 ], [ 38.733176899999989, 8.9569398 ], [ 38.7335671, 8.9563225 ], [ 38.7364709, 8.9560006 ], [ 38.733087, 8.9556029 ], [ 38.732776642773146, 8.95501678598662 ], [ 38.7337321, 8.9525244 ], [ 38.7345153, 8.9509479 ], [ 38.7372737, 8.9516334 ], [ 38.7381752, 8.9526622 ], [ 38.7388181, 8.9533071 ], [ 38.73973524753589, 8.9539583302174 ], [ 38.7412389, 8.9554323 ], [ 38.741532, 8.9558019 ], [ 38.7429693, 8.9567245 ], [ 38.7436067, 8.9570909 ], [ 38.745216, 8.9570471 ], [ 38.7459107, 8.9567583 ], [ 38.7479981, 8.9578798 ], [ 38.7479847, 8.9578427 ], [ 38.7473767, 8.9545751 ], [ 38.7491065, 8.9542003 ], [ 38.7497418, 8.9559505 ], [ 38.7506488, 8.9550004 ], [ 38.7514364, 8.9545396 ], [ 38.752403, 8.9528318 ], [ 38.7516151, 8.9518262 ], [ 38.751165697523774, 8.950254333370992 ], [ 38.7511223, 8.9497107 ], [ 38.7511033, 8.9493038 ], [ 38.75078326909594, 8.948392048388474 ], [ 38.7512586, 8.947971 ], [ 38.7522045, 8.946619 ], [ 38.7522261, 8.9465614 ], [ 38.7517887, 8.945292 ], [ 38.7499903, 8.943965 ], [ 38.7483571, 8.9415918 ], [ 38.7469442, 8.9408187 ], [ 38.7446257, 8.9389036 ], [ 38.7432533, 8.9373957 ], [ 38.7430122, 8.937239 ], [ 38.741943934149944, 8.937845898408105 ], [ 38.7392106, 8.9379975 ], [ 38.7358986, 8.9383165 ], [ 38.7352552, 8.9381678 ], [ 38.735209728133093, 8.939090699403918 ], [ 38.733996098381709, 8.939371953115856 ], [ 38.7319062, 8.9388387 ], [ 38.7316011, 8.9395192 ], [ 38.7313449, 8.9399508 ], [ 38.7309601, 8.9404662 ] ], [ [ 38.7545591, 8.9806549 ], [ 38.753995723674002, 8.982537638751955 ], [ 38.7527015, 8.9818412 ], [ 38.7527538, 8.9800289 ], [ 38.7545591, 8.9806549 ] ], [ [ 38.7672688, 9.0460073 ], [ 38.765882499999989, 9.0434368 ], [ 38.7678988, 9.0418997 ], [ 38.7694638, 9.0449786 ], [ 38.7672688, 9.0460073 ] ], [ [ 38.7685836, 9.041233 ], [ 38.770451370699412, 9.039708894819048 ], [ 38.770744328421145, 9.039569331674567 ], [ 38.7733433, 9.041089 ], [ 38.7738203, 9.0437256 ], [ 38.7733985, 9.0448605 ], [ 38.7694638, 9.0449786 ], [ 38.7685836, 9.041233 ] ], [ [ 38.7707329, 9.0240985 ], [ 38.7722787, 9.0259286 ], [ 38.771133275920377, 9.027623627702949 ], [ 38.7696171, 9.026581 ], [ 38.7707329, 9.0240985 ] ], [ [ 38.776444714527258, 9.013118082555685 ], [ 38.77672695971966, 9.013304296428807 ], [ 38.776570722693371, 9.013470522165393 ], [ 38.776444714527258, 9.013118082555685 ] ], [ [ 38.7766126, 8.999646 ], [ 38.776324513299805, 8.998371129531538 ], [ 38.776324513299805, 8.998371129531529 ], [ 38.776318863899725, 8.997647002502365 ], [ 38.776318844923964, 8.997644570232854 ], [ 38.777362, 8.9984848 ], [ 38.7779966, 8.9994625 ], [ 38.7772268, 9.0028263 ], [ 38.7766984, 8.9999864 ], [ 38.7766126, 8.999646 ] ], [ [ 38.7531003, 9.052196 ], [ 38.7541108, 9.0502794 ], [ 38.755490556129821, 9.051186902969922 ], [ 38.7551597, 9.0514617 ], [ 38.75630883190324, 9.052272183491707 ], [ 38.756216070232121, 9.052651261960492 ], [ 38.755022, 9.0534733 ], [ 38.7546584, 9.0535974 ], [ 38.7533535, 9.0537491 ], [ 38.753031807809641, 9.052154486887869 ], [ 38.7531003, 9.052196 ] ], [ [ 38.7409521, 9.0390779 ], [ 38.7406053, 9.0388439 ], [ 38.7387257, 9.0374665 ], [ 38.7385896, 9.035751 ], [ 38.7402057, 9.0358029 ], [ 38.7403128, 9.0359261 ], [ 38.7407442, 9.0364605 ], [ 38.7410243, 9.0368286 ], [ 38.7414803, 9.0373756 ], [ 38.7420698, 9.0389527 ], [ 38.7428831, 9.0389869 ], [ 38.74302170184226, 9.038928690380855 ], [ 38.743668540016813, 9.039620431781545 ], [ 38.7429281, 9.0396796 ], [ 38.7423663, 9.0399481 ], [ 38.7413221, 9.040716 ], [ 38.7416669, 9.0399542 ], [ 38.7409521, 9.0390779 ] ], [ [ 38.744300699999989, 9.0223826 ], [ 38.7444281, 9.0216667 ], [ 38.7446514, 9.0201858 ], [ 38.745344571313161, 9.019761011216076 ], [ 38.7475502, 9.0209719 ], [ 38.74713830000001, 9.0224901 ], [ 38.7466739, 9.0231346 ], [ 38.744300699999989, 9.0223826 ] ], [ [ 38.7593389, 9.0118938 ], [ 38.76240707549961, 9.012838681157787 ], [ 38.7627136, 9.0143638 ], [ 38.7623398, 9.017288 ], [ 38.76058964928589, 9.018380110229293 ], [ 38.7587022, 9.0179263 ], [ 38.7566767, 9.0148583 ], [ 38.7586435, 9.0127141 ], [ 38.7593389, 9.0118938 ] ], [ [ 38.7585693, 9.0015672 ], [ 38.758485, 8.999819 ], [ 38.7587333, 8.9982551 ], [ 38.758846383396907, 8.997921026509633 ], [ 38.759032, 8.998066 ], [ 38.7586621, 8.999279 ], [ 38.7586856, 8.9999436 ], [ 38.75878673704441, 9.001851497937901 ], [ 38.7588747, 9.0040341 ], [ 38.758911846413156, 9.004383734460605 ], [ 38.7587141, 9.0041929 ], [ 38.7586541, 9.0031765 ], [ 38.7585693, 9.0015672 ] ], [ [ 38.734482587599715, 9.000945881537863 ], [ 38.731680416389402, 8.997062241363611 ], [ 38.731749991218486, 8.997015206710389 ], [ 38.7344089, 8.9966973 ], [ 38.734625884230738, 9.000884486410174 ], [ 38.734482587599715, 9.000945881537863 ] ], [ [ 38.7351477, 8.967943 ], [ 38.734564, 8.9691946 ], [ 38.7344563, 8.969611 ], [ 38.734100199319705, 8.970609577340761 ], [ 38.7329476, 8.9698573 ], [ 38.7327157, 8.9682691 ], [ 38.733659345935884, 8.965564466103825 ], [ 38.7351477, 8.967943 ] ], [ [ 38.7302428, 8.9644781 ], [ 38.7292065, 8.963883 ], [ 38.7265776, 8.9627368 ], [ 38.725346269309426, 8.96228615879051 ], [ 38.7249483, 8.9618669 ], [ 38.7247826, 8.9615453 ], [ 38.7246756, 8.960147 ], [ 38.7252899, 8.9593217 ], [ 38.725769792937584, 8.958593993496288 ], [ 38.7260865, 8.959898 ], [ 38.7269102, 8.9603558 ], [ 38.7276265, 8.9607913 ], [ 38.7294334, 8.9609553 ], [ 38.7299066, 8.9609893 ], [ 38.7309768, 8.9602939 ], [ 38.7330402, 8.9612662 ], [ 38.7330689, 8.961954 ], [ 38.7329381, 8.9628062 ], [ 38.731770255255121, 8.964188425309946 ], [ 38.730203147365579, 8.964603200338237 ], [ 38.7302428, 8.9644781 ] ], [ [ 38.72350358081313, 8.958014971228929 ], [ 38.7236402, 8.9577658 ], [ 38.723868, 8.9569773 ], [ 38.7240332, 8.956194 ], [ 38.7249555, 8.9541127 ], [ 38.7259094, 8.9535975 ], [ 38.7285447, 8.9530967 ], [ 38.731062, 8.9531298 ], [ 38.731163552335815, 8.955414769623998 ], [ 38.7306932, 8.9555078 ], [ 38.7292903, 8.9552506 ], [ 38.728762, 8.9552402 ], [ 38.7272777, 8.9556214 ], [ 38.7266015, 8.9562245 ], [ 38.7260489, 8.9580033 ], [ 38.72574347023042, 8.958484074632389 ], [ 38.7252751, 8.9582063 ], [ 38.723665, 8.9580764 ], [ 38.72350358081313, 8.958014971228929 ] ], [ [ 38.7270547, 8.9798003 ], [ 38.7258008, 8.9824669 ], [ 38.7239528, 8.9834432 ], [ 38.7219264, 8.9808459 ], [ 38.7222695, 8.9802706 ], [ 38.72226, 8.9797304 ], [ 38.7222955, 8.9784147 ], [ 38.7222077, 8.9782329 ], [ 38.722180442165559, 8.978184705494519 ], [ 38.724079, 8.9771595 ], [ 38.7258704, 8.9763704 ], [ 38.7282267, 8.9758101 ], [ 38.730978369235253, 8.977503643393154 ], [ 38.730708015625005, 8.97775119768432 ], [ 38.7288472, 8.9786214 ], [ 38.7283872, 8.9787856 ], [ 38.7270547, 8.9798003 ] ], [ [ 38.7186832, 9.004024 ], [ 38.7187191, 9.0029892 ], [ 38.718878811680987, 9.001855339523317 ], [ 38.718959265927346, 9.001764577773097 ], [ 38.7189773, 9.0029713 ], [ 38.718894309547132, 9.005753887744049 ], [ 38.7186832, 9.004024 ] ], [ [ 38.7282221, 9.0540808 ], [ 38.727096441318388, 9.054434293589859 ], [ 38.727509, 9.0531756 ], [ 38.72832593275502, 9.0536007525525 ], [ 38.7282221, 9.0540808 ] ], [ [ 38.7284887, 9.0468107 ], [ 38.7292656, 9.0492259 ], [ 38.7284869, 9.0498308 ], [ 38.728120566581843, 9.050145964261402 ], [ 38.7278761, 9.0471779 ], [ 38.728397883480184, 9.046780802880201 ], [ 38.7284887, 9.0468107 ] ], [ [ 38.7317687, 9.047415 ], [ 38.7299956, 9.0492093 ], [ 38.7284887, 9.0468107 ], [ 38.7317687, 9.047415 ] ], [ [ 38.7205495, 9.0311456 ], [ 38.721522897986837, 9.030620181266157 ], [ 38.7204661, 9.0316976 ], [ 38.7203988, 9.0319988 ], [ 38.7199876, 9.0330596 ], [ 38.719316, 9.0342986 ], [ 38.7199992, 9.0319081 ], [ 38.7205495, 9.0311456 ] ], [ [ 38.7414242, 8.982242 ], [ 38.7415929, 8.9840381 ], [ 38.740043121395956, 8.983154444618533 ], [ 38.7405449, 8.9819251 ], [ 38.741129526891534, 8.980926689142397 ], [ 38.7414242, 8.982242 ] ], [ [ 38.735824823821261, 8.997654425434741 ], [ 38.736516381030455, 8.998121899026584 ], [ 38.7363921, 8.9984685 ], [ 38.7353683, 9.0005664 ], [ 38.735222425924533, 8.997247221078029 ], [ 38.735824823821261, 8.997654425434741 ] ], [ [ 38.7290475438231, 9.01411937501946 ], [ 38.729125391462944, 9.01423535807934 ], [ 38.7289514, 9.0141945 ], [ 38.7290475438231, 9.01411937501946 ] ], [ [ 38.7321181, 9.0117201 ], [ 38.732957479185345, 9.012240255411752 ], [ 38.7330361, 9.0140917 ], [ 38.7314063, 9.0144722 ], [ 38.7308068, 9.0146302 ], [ 38.729830203880077, 9.013507819126897 ], [ 38.7321181, 9.0117201 ] ], [ [ 38.770713286392834, 8.985018242902052 ], [ 38.7708136, 8.9850439 ], [ 38.7729728, 8.9865826 ], [ 38.772996063103626, 8.987573236257081 ], [ 38.7718676, 8.9877508 ], [ 38.7706549, 8.986741 ], [ 38.7699018, 8.9860061 ], [ 38.770713286392834, 8.985018242902052 ] ], [ [ 38.763034201700663, 9.02816284233392 ], [ 38.7625209, 9.0267749 ], [ 38.7616201, 9.0233396 ], [ 38.7605536, 9.0224021 ], [ 38.7602755, 9.0220911 ], [ 38.760572472673879, 9.018660666382253 ], [ 38.7633195, 9.0193691 ], [ 38.7645123, 9.0221623 ], [ 38.7650922, 9.0223314 ], [ 38.7664473, 9.0226405 ], [ 38.7673037, 9.0253571 ], [ 38.7664952, 9.0274613 ], [ 38.7657206, 9.0293019 ], [ 38.7661201, 9.0294042 ], [ 38.766200840127496, 9.029991596626077 ], [ 38.7654192, 9.0307943 ], [ 38.763439472176231, 9.029168726199252 ], [ 38.763134981963518, 9.028412979579201 ], [ 38.763034201700663, 9.02816284233392 ] ], [ [ 38.755257920852216, 9.034271508811136 ], [ 38.75529177605322, 9.034135723790547 ], [ 38.755333839920333, 9.033967015796129 ], [ 38.756282790378464, 9.034856239726441 ], [ 38.755257920852216, 9.034271508811136 ] ], [ [ 38.7602254, 9.0222978 ], [ 38.761377620239216, 9.023395838081619 ], [ 38.76061330000001, 9.0273217 ], [ 38.757995060365914, 9.026521874124269 ], [ 38.7576048, 9.024946 ], [ 38.7575279, 9.0235574 ], [ 38.7602254, 9.0222978 ] ], [ [ 38.7588879, 9.0497151 ], [ 38.7580652, 9.0488412 ], [ 38.7568986, 9.0481555 ], [ 38.7560377, 9.0453047 ], [ 38.758243065495591, 9.043977763707861 ], [ 38.7600057, 9.0440359 ], [ 38.7614698, 9.0465278 ], [ 38.7616429, 9.0478536 ], [ 38.759388934162814, 9.04983678788675 ], [ 38.7588879, 9.0497151 ] ], [ [ 38.756338897084127, 9.047253106917617 ], [ 38.7562092, 9.047044 ], [ 38.756111642102809, 9.046054597955761 ], [ 38.756338897084127, 9.047253106917617 ] ], [ [ 38.788473260973852, 9.002217816944528 ], [ 38.788694357108014, 9.001120921535126 ], [ 38.789336211408347, 9.000230945140753 ], [ 38.7906855, 8.9993148 ], [ 38.792624, 8.9985777 ], [ 38.7931544, 8.9983837 ], [ 38.7936291, 8.9982041 ], [ 38.7946719, 8.9978068 ], [ 38.7965052, 8.9969379 ], [ 38.7981365, 8.9992974 ], [ 38.7955181, 9.0020965 ], [ 38.7943165, 9.0036151 ], [ 38.7917389, 9.0056483 ], [ 38.7892042, 9.0040436 ], [ 38.788473260973852, 9.002217816944528 ] ], [ [ 38.796677286411779, 8.99606838800479 ], [ 38.797586020283795, 8.998079274277286 ], [ 38.7965052, 8.9969379 ], [ 38.796677286411779, 8.99606838800479 ] ], [ [ 38.779328689702965, 9.013463261346521 ], [ 38.777554100747189, 9.012553881147108 ], [ 38.777637751348976, 9.012528128106194 ], [ 38.7793668, 9.0132882 ], [ 38.779328689702965, 9.013463261346521 ] ], [ [ 38.780215849628391, 9.017287405544339 ], [ 38.7795994, 9.0155365 ], [ 38.778982650662122, 9.014792509366586 ], [ 38.7790322, 9.0148252 ], [ 38.7807383, 9.0166185 ], [ 38.780551228117666, 9.017667229306106 ], [ 38.780215849628391, 9.017287405544339 ] ], [ [ 38.8096449, 9.0204194 ], [ 38.808744804772424, 9.02050144032844 ], [ 38.8088993, 9.0203582 ], [ 38.809637, 9.0202318 ], [ 38.811054, 9.0201534 ], [ 38.8096449, 9.0204194 ] ], [ [ 38.8168859, 9.0171779 ], [ 38.8151325, 9.0204597 ], [ 38.8133688, 9.0197109 ], [ 38.8126573, 9.0167641 ], [ 38.8158358, 9.015769 ], [ 38.8168859, 9.0171779 ] ], [ [ 38.8186794, 9.0137801 ], [ 38.819239429677239, 9.015452884645804 ], [ 38.8174128, 9.0151084 ], [ 38.8149607, 9.0141972 ], [ 38.8161268, 9.0119246 ], [ 38.8172691, 9.0119811 ], [ 38.8186794, 9.0137801 ] ], [ [ 38.819962962135214, 9.011766042570692 ], [ 38.8208147, 9.013098 ], [ 38.8209495, 9.013644 ], [ 38.819717096187766, 9.015542967918149 ], [ 38.819583273114937, 9.015517730184186 ], [ 38.8186794, 9.0137801 ], [ 38.819962962135214, 9.011766042570692 ] ], [ [ 38.817747, 9.0087776 ], [ 38.8193872, 9.0104136 ], [ 38.8182659, 9.0114084 ], [ 38.8162523, 9.0108916 ], [ 38.817747, 9.0087776 ] ], [ [ 38.798099530621272, 9.018729452874346 ], [ 38.7982742, 9.0186008 ], [ 38.798396755432762, 9.018827850561275 ], [ 38.798099530621272, 9.018729452874346 ] ], [ [ 38.8018267, 8.9898213 ], [ 38.8022096, 8.9940263 ], [ 38.801450037590648, 8.997734360689874 ], [ 38.8004776, 8.9984045 ], [ 38.7984775, 8.9990207 ], [ 38.797190014398424, 8.993477694584842 ], [ 38.797341, 8.9927148 ], [ 38.797957, 8.9920335 ], [ 38.798303006476779, 8.991058201652342 ], [ 38.8018267, 8.9898213 ] ], [ [ 38.797322094707617, 8.986533740108372 ], [ 38.798366257411267, 8.986377942489526 ], [ 38.797537454719425, 8.987014794899483 ], [ 38.797322094707617, 8.986533740108372 ] ], [ [ 38.8020936, 9.0264203 ], [ 38.803859769768103, 9.028177068681646 ], [ 38.802021352504028, 9.028061589997256 ], [ 38.8020936, 9.0264203 ] ], [ [ 38.891169142510826, 9.009073228421746 ], [ 38.890926100120971, 9.009186473048031 ], [ 38.89121344996019, 9.008963912196345 ], [ 38.891169142510826, 9.009073228421746 ] ], [ [ 38.8732047, 9.0109346 ], [ 38.8726379, 9.0109793 ], [ 38.872561882450874, 9.010985354495062 ], [ 38.8726298, 9.0108859 ], [ 38.8732047, 9.0109346 ] ], [ [ 38.843631806685686, 9.014375733295909 ], [ 38.84314927889595, 9.01421808047705 ], [ 38.8429797, 9.0130858 ], [ 38.843631806685686, 9.014375733295909 ] ], [ [ 38.8251564, 9.01968 ], [ 38.825505568699832, 9.020296029851009 ], [ 38.8251511, 9.0208221 ], [ 38.8232996, 9.0204045 ], [ 38.8251564, 9.01968 ] ], [ [ 38.8285495, 9.0210826 ], [ 38.826887969963195, 9.022689178372119 ], [ 38.826638516368192, 9.022612475579795 ], [ 38.8268289, 9.0218945 ], [ 38.8285495, 9.0210826 ] ], [ [ 38.8265759, 9.0200041 ], [ 38.8257765, 9.0184475 ], [ 38.827891, 9.0176995 ], [ 38.8292756, 9.0182121 ], [ 38.8312764, 9.019895 ], [ 38.8313149, 9.0204614 ], [ 38.8315603, 9.0210402 ], [ 38.83203240000001, 9.021741 ], [ 38.833517830565746, 9.021674038559086 ], [ 38.833752640411468, 9.02188305456878 ], [ 38.8337107, 9.0218852 ], [ 38.8312004, 9.0234909 ], [ 38.8293744, 9.0218604 ], [ 38.8285495, 9.0210826 ], [ 38.8265759, 9.0200041 ] ], [ [ 38.8352899, 9.0265447 ], [ 38.834861095954409, 9.026092840324397 ], [ 38.8374518, 9.0253806 ], [ 38.8396163, 9.0272045 ], [ 38.8385591, 9.0292689 ], [ 38.836988676840136, 9.029512726976256 ], [ 38.8363802, 9.0267885 ], [ 38.8352899, 9.0265447 ] ] ], [ [ [ 38.6873645, 8.9583674 ], [ 38.6869499, 8.9589574 ], [ 38.687071, 8.9608009 ], [ 38.6886241, 8.9619805 ], [ 38.6912741, 8.9624534 ], [ 38.6912307, 8.9601561 ], [ 38.6925441, 8.9575744 ], [ 38.6946148, 8.9572657 ], [ 38.6968982, 8.9573255 ], [ 38.6981179, 8.9570574 ], [ 38.6989697, 8.956874 ], [ 38.6988366, 8.9558615 ], [ 38.6976074, 8.9544679 ], [ 38.6986032, 8.9524198 ], [ 38.7001428, 8.951705 ], [ 38.7008689, 8.9508498 ], [ 38.6989487, 8.9498696 ], [ 38.6966926, 8.9488962 ], [ 38.6962616, 8.9490019 ], [ 38.6958218, 8.9491377 ], [ 38.695587828831364, 8.949011212197366 ], [ 38.6948968, 8.9462284 ], [ 38.6918173, 8.9448045 ], [ 38.6922115, 8.9426203 ], [ 38.6896484, 8.9415089 ], [ 38.6872833, 8.9418058 ], [ 38.6866017, 8.9430893 ], [ 38.6837035, 8.9439268 ], [ 38.6820669, 8.9442552 ], [ 38.6809514, 8.9449899 ], [ 38.680916, 8.9454567 ], [ 38.6812202, 8.9471392 ], [ 38.6819407, 8.9493727 ], [ 38.6810593, 8.9510858 ], [ 38.6810714, 8.9512916 ], [ 38.6813858, 8.9539774 ], [ 38.6803134, 8.9557227 ], [ 38.6803973, 8.9570556 ], [ 38.6819766, 8.9576219 ], [ 38.6853115, 8.9589775 ], [ 38.6860633, 8.9583761 ], [ 38.687838, 8.9561311 ], [ 38.68787329167052, 8.956121055879001 ], [ 38.6882389, 8.9569922 ], [ 38.6877564, 8.9577654 ], [ 38.6873645, 8.9583674 ] ] ], [ [ [ 38.7008104, 8.9835302 ], [ 38.7016462, 8.9825158 ], [ 38.7029636, 8.9811853 ], [ 38.7026848, 8.9803402 ], [ 38.7020201, 8.9794379 ], [ 38.7008203, 8.9780345 ], [ 38.6996425, 8.9763623 ], [ 38.69884, 8.9750803 ], [ 38.6978056, 8.9749358 ], [ 38.6967044, 8.97478 ], [ 38.6954786, 8.9753213 ], [ 38.6950824, 8.9754511 ], [ 38.6926821, 8.9756221 ], [ 38.6907356, 8.9742042 ], [ 38.6899579, 8.9736162 ], [ 38.6892155, 8.9743414 ], [ 38.6874079, 8.9762498 ], [ 38.6856888, 8.9765632 ], [ 38.6834253, 8.9775917 ], [ 38.6833825, 8.9776248 ], [ 38.6834468, 8.978909 ], [ 38.6834623, 8.9801702 ], [ 38.6832113, 8.9816585 ], [ 38.6838657, 8.9822073 ], [ 38.6849953, 8.9845292 ], [ 38.6853553, 8.9848217 ], [ 38.6861507, 8.9872942 ], [ 38.6875981, 8.9890848 ], [ 38.6882428, 8.9899634 ], [ 38.6907094, 8.9902955 ], [ 38.693257, 8.9896724 ], [ 38.6957196, 8.9887628 ], [ 38.6975153, 8.9877243 ], [ 38.6981846, 8.9875973 ], [ 38.6984945, 8.9856619 ], [ 38.7002181, 8.9854493 ], [ 38.7008104, 8.9835302 ] ] ], [ [ [ 38.6923106, 9.0126828 ], [ 38.693208317808065, 9.011365555319067 ], [ 38.693676567848584, 9.011285482821432 ], [ 38.6949937, 9.0121673 ], [ 38.6952014, 9.0125375 ], [ 38.6955658, 9.0121337 ], [ 38.6977476, 9.0126559 ], [ 38.6980247, 9.01361 ], [ 38.6988273, 9.0143871 ], [ 38.6985531, 9.0126055 ], [ 38.6986072, 9.0111592 ], [ 38.7007834, 9.0102488 ], [ 38.7018433, 9.0093882 ], [ 38.7030771, 9.0086014 ], [ 38.7030865, 9.0072636 ], [ 38.703064368729201, 9.005569479962434 ], [ 38.7034537, 9.0050239 ], [ 38.7038193, 9.0044451 ], [ 38.7038355, 9.0044118 ], [ 38.7040655, 9.0039244 ], [ 38.703981, 9.0021786 ], [ 38.70298, 9.0002799 ], [ 38.7009945, 8.998908 ], [ 38.7000493, 8.9976634 ], [ 38.6980708, 8.9963066 ], [ 38.6969308, 8.9953562 ], [ 38.6953475, 8.9964028 ], [ 38.6951727, 8.9964815 ], [ 38.6947912, 8.9966628 ], [ 38.6944625, 8.9968365 ], [ 38.6922561, 8.9985884 ], [ 38.691012200644323, 8.999515094527364 ], [ 38.6888966, 8.9966462 ], [ 38.689041, 8.9956935 ], [ 38.6881279, 8.9966811 ], [ 38.6883441, 8.9966798 ], [ 38.6885989, 8.9966658 ], [ 38.6888088, 8.996652 ], [ 38.6903593, 9.0000015 ], [ 38.6884551, 9.0011586 ], [ 38.6859753, 9.0016023 ], [ 38.6828085, 8.9996335 ], [ 38.6801196, 8.999265 ], [ 38.6791743, 8.9995971 ], [ 38.675574, 9.0009486 ], [ 38.6745706, 9.0043779 ], [ 38.6738582, 9.0052188 ], [ 38.672732, 9.0062172 ], [ 38.672756, 9.0068322 ], [ 38.6727937, 9.0073047 ], [ 38.6742269, 9.0088579 ], [ 38.6764871, 9.0122493 ], [ 38.6779194, 9.0131579 ], [ 38.6786784, 9.013297 ], [ 38.6800851, 9.0119121 ], [ 38.6832798, 9.0113804 ], [ 38.6852123, 9.0110916 ], [ 38.6883806, 9.0099695 ], [ 38.691330122468543, 9.011443771383936 ], [ 38.6913841, 9.011809 ], [ 38.6916469, 9.0130188 ], [ 38.6916764, 9.013044 ], [ 38.6920165, 9.0128674 ], [ 38.6923106, 9.0126828 ] ] ], [ [ [ 38.6963144, 9.0517702 ], [ 38.6984234, 9.0526575 ], [ 38.6989615, 9.0537428 ], [ 38.6978128, 9.0557983 ], [ 38.697811929862773, 9.055805571514686 ], [ 38.6962718, 9.0560974 ], [ 38.6951722, 9.0548378 ], [ 38.6946154, 9.0534561 ], [ 38.6943398, 9.0523358 ], [ 38.6938812, 9.0512829 ], [ 38.6934609, 9.0503527 ], [ 38.6930123, 9.0501369 ], [ 38.6918904, 9.0497264 ], [ 38.6906364, 9.0509039 ], [ 38.6881089, 9.0521133 ], [ 38.6856371, 9.0526474 ], [ 38.6850052, 9.0546185 ], [ 38.6848619, 9.0553593 ], [ 38.6846724, 9.0563468 ], [ 38.6847206, 9.0589202 ], [ 38.6847507, 9.0616361 ], [ 38.6847578, 9.0622835 ], [ 38.6848146, 9.0633976 ], [ 38.6858578, 9.0650547 ], [ 38.6865999, 9.0666028 ], [ 38.6879695, 9.0677592 ], [ 38.689507939304555, 9.067756688125659 ], [ 38.6893149, 9.0685795 ], [ 38.6893412, 9.069898 ], [ 38.6894713, 9.0712277 ], [ 38.6899068, 9.0717764 ], [ 38.6908136, 9.072251 ], [ 38.6938391, 9.0730859 ], [ 38.6945052, 9.0723955 ], [ 38.6946523, 9.0720662 ], [ 38.6947811, 9.0717378 ], [ 38.6951271, 9.0706887 ], [ 38.6952025, 9.0702369 ], [ 38.698357799999989, 9.0683166 ], [ 38.6992261, 9.0679087 ], [ 38.7001384, 9.0673675 ], [ 38.7029162, 9.0652896 ], [ 38.7047808, 9.0663645 ], [ 38.7055883, 9.06503 ], [ 38.7057848, 9.0646102 ], [ 38.704068, 9.0634906 ], [ 38.7011245, 9.0613602 ], [ 38.7029457, 9.0594239 ], [ 38.702596228997088, 9.05935958454344 ], [ 38.7026574, 9.0593193 ], [ 38.7033507, 9.0574182 ], [ 38.7025273, 9.0556177 ], [ 38.7019271, 9.0549932 ], [ 38.7013686, 9.0529159 ], [ 38.7011238, 9.0523895 ], [ 38.7005753, 9.0501161 ], [ 38.698911699999989, 9.049344 ], [ 38.6974378, 9.0491639 ], [ 38.6962332, 9.0505908 ], [ 38.6963144, 9.0517702 ] ] ], [ [ [ 38.7482093, 9.0878108 ], [ 38.7469025, 9.0870101 ], [ 38.745965, 9.0868881 ], [ 38.7440855, 9.0871613 ], [ 38.7410451, 9.0866057 ], [ 38.7389972, 9.0871137 ], [ 38.7356744, 9.0873049 ], [ 38.7352261, 9.0871606 ], [ 38.7309526, 9.086197 ], [ 38.730374, 9.0869792 ], [ 38.7380585, 9.0909943 ], [ 38.741257, 9.0875976 ], [ 38.7422991, 9.0892562 ], [ 38.7450282, 9.0888649 ], [ 38.7474556, 9.0884637 ], [ 38.7482871, 9.0888993 ], [ 38.7485714, 9.0882718 ], [ 38.7482093, 9.0878108 ] ] ], [ [ [ 38.7718304, 8.9079595 ], [ 38.773369099999989, 8.9063143 ], [ 38.773686229489343, 8.905487364869368 ], [ 38.7757426, 8.9049629 ], [ 38.7771709, 8.9037201 ], [ 38.7786913, 8.9035796 ], [ 38.7801664, 8.9033754 ], [ 38.7818737, 8.9020533 ], [ 38.7823202, 8.8990404 ], [ 38.782787, 8.8971635 ], [ 38.7824665, 8.8967223 ], [ 38.7818375, 8.8969634 ], [ 38.7800203, 8.8969528 ], [ 38.7786306, 8.895075 ], [ 38.7785196, 8.8938551 ], [ 38.778047, 8.8932124 ], [ 38.7770925, 8.8908579 ], [ 38.7757639, 8.8889009 ], [ 38.7761149, 8.8868364 ], [ 38.774276, 8.885842 ], [ 38.7745446, 8.8841601 ], [ 38.7765041, 8.8834503 ], [ 38.7769027, 8.8835723 ], [ 38.7770972, 8.8836571 ], [ 38.7780698, 8.881533 ], [ 38.7797562, 8.8796028 ], [ 38.778695, 8.8770306 ], [ 38.7783046, 8.8768376 ], [ 38.7774631, 8.8766588 ], [ 38.7766194, 8.8768937 ], [ 38.7740926, 8.875179 ], [ 38.7736933, 8.873524 ], [ 38.7724268, 8.8730548 ], [ 38.7702562, 8.8735777 ], [ 38.767218, 8.8740759 ], [ 38.7661646, 8.8740913 ], [ 38.7649099, 8.8755733 ], [ 38.7631592, 8.876206 ], [ 38.7625513, 8.8768847 ], [ 38.7625833, 8.8772845 ], [ 38.7626522, 8.8782677 ], [ 38.7626662, 8.8808489 ], [ 38.7628488, 8.8820665 ], [ 38.7628792, 8.8821203 ], [ 38.7635395, 8.882782 ], [ 38.7650174, 8.8852214 ], [ 38.7637648, 8.8867094 ], [ 38.7652506, 8.8883152 ], [ 38.7681292, 8.8885095 ], [ 38.768409, 8.8885578 ], [ 38.7687269, 8.8886108 ], [ 38.7690461, 8.8886333 ], [ 38.7692793, 8.8886358 ], [ 38.770178, 8.8886465 ], [ 38.770279979952775, 8.888709521319129 ], [ 38.7672735, 8.8898926 ], [ 38.76739280000001, 8.8899622 ], [ 38.7691574, 8.8917298 ], [ 38.7704194, 8.8941161 ], [ 38.7706802, 8.8955247 ], [ 38.7692171, 8.8984296 ], [ 38.7671323, 8.8974119 ], [ 38.7667045, 8.8969462 ], [ 38.7662753, 8.8964056 ], [ 38.7646204, 8.8954914 ], [ 38.761729, 8.8939637 ], [ 38.7608908, 8.895192 ], [ 38.7613613, 8.895748 ], [ 38.7608098, 8.8985148 ], [ 38.758508, 8.8986401 ], [ 38.7592669, 8.9013585 ], [ 38.7589012, 8.9026452 ], [ 38.7587096, 8.904033 ], [ 38.7587016, 8.9041931 ], [ 38.7586067, 8.9056722 ], [ 38.7606078, 8.9074915 ], [ 38.7614045, 8.908468 ], [ 38.7630165, 8.9093398 ], [ 38.764416, 8.910033 ], [ 38.7647391, 8.9101413 ], [ 38.7667854, 8.9094406 ], [ 38.7682723, 8.9084549 ], [ 38.7718304, 8.9079595 ] ] ], [ [ [ 38.7897859, 8.9520522 ], [ 38.7915686, 8.9495198 ], [ 38.7914572, 8.9487354 ], [ 38.79134, 8.9481613 ], [ 38.793807, 8.9462097 ], [ 38.7909476, 8.9452448 ], [ 38.7904421, 8.9442075 ], [ 38.7880415, 8.9438762 ], [ 38.7863919, 8.9427689 ], [ 38.7855926, 8.941632 ], [ 38.7829064, 8.9401681 ], [ 38.7821202, 8.9395398 ], [ 38.7821319, 8.9398252 ], [ 38.7823439, 8.9408388 ], [ 38.7794772, 8.9419447 ], [ 38.7781709, 8.9432059 ], [ 38.7768513, 8.9453786 ], [ 38.7748578, 8.947256 ], [ 38.7740947, 8.9482479 ], [ 38.7758509, 8.9494855 ], [ 38.7762114, 8.9512624 ], [ 38.7762921, 8.9520091 ], [ 38.7788398, 8.9535366 ], [ 38.7804417, 8.9544183 ], [ 38.7809095, 8.9541132 ], [ 38.7841464, 8.9541014 ], [ 38.786241, 8.9552736 ], [ 38.7879717, 8.9551422 ], [ 38.7881952, 8.9546453 ], [ 38.7897859, 8.9520522 ] ] ], [ [ [ 38.8065212, 8.8694136 ], [ 38.8064609, 8.8691117 ], [ 38.8059935, 8.8675943 ], [ 38.80712, 8.8663693 ], [ 38.8078188, 8.8661222 ], [ 38.8096326, 8.8652722 ], [ 38.8100275, 8.8644817 ], [ 38.8099735, 8.8626333 ], [ 38.8089621, 8.8609195 ], [ 38.8075305, 8.8606125 ], [ 38.806825, 8.8604349 ], [ 38.8044301, 8.8602864 ], [ 38.8040636, 8.8601107 ], [ 38.8026984, 8.8589336 ], [ 38.8021157, 8.8583197 ], [ 38.8012406, 8.8570519 ], [ 38.800178699999989, 8.8570949 ], [ 38.7998005, 8.8587359 ], [ 38.7995625, 8.8595152 ], [ 38.7995958, 8.8595656 ], [ 38.8001867, 8.8604046 ], [ 38.8008402, 8.8618922 ], [ 38.8005009, 8.8633917 ], [ 38.7981266, 8.8639 ], [ 38.7976666, 8.8638656 ], [ 38.7971999, 8.8639517 ], [ 38.7963574, 8.864383 ], [ 38.7956499, 8.8646098 ], [ 38.7958708, 8.8662324 ], [ 38.7961432, 8.8674596 ], [ 38.7977492, 8.8691744 ], [ 38.7970239, 8.8701543 ], [ 38.7972046, 8.8702505 ], [ 38.7981132, 8.8700444 ], [ 38.7990181, 8.8697987 ], [ 38.8000835, 8.869376 ], [ 38.801856, 8.8709331 ], [ 38.8029532, 8.8704737 ], [ 38.8037739, 8.8697635 ], [ 38.8060901, 8.8696807 ], [ 38.8065212, 8.8694136 ] ] ], [ [ [ 38.8162945, 8.8816955 ], [ 38.8139711, 8.883566 ], [ 38.812366, 8.8820587 ], [ 38.8109591, 8.8817248 ], [ 38.809538, 8.8822334 ], [ 38.8082157, 8.8834379 ], [ 38.8068619, 8.8846283 ], [ 38.8066745, 8.8848717 ], [ 38.8057299, 8.887427 ], [ 38.8059919, 8.8910755 ], [ 38.8049796, 8.8949482 ], [ 38.805698, 8.8977143 ], [ 38.8059667, 8.8986183 ], [ 38.806843, 8.899743 ], [ 38.8071764, 8.8987137 ], [ 38.8073306, 8.898144 ], [ 38.8073587, 8.8980725 ], [ 38.8115605, 8.8982844 ], [ 38.8116449, 8.8980976 ], [ 38.8085115, 8.8965204 ], [ 38.8093945, 8.8935378 ], [ 38.810273, 8.8925347 ], [ 38.8106632, 8.8920332 ], [ 38.8109583, 8.8914509 ], [ 38.8106713, 8.8887161 ], [ 38.8118756, 8.8873751 ], [ 38.8133775, 8.8845899 ], [ 38.815081, 8.8841502 ], [ 38.8154943, 8.8833287 ], [ 38.8162945, 8.8816955 ] ] ], [ [ [ 38.8885184, 8.9833769 ], [ 38.8905039, 8.982247 ], [ 38.8913735, 8.9818006 ], [ 38.8917585, 8.9815979 ], [ 38.8918967, 8.9815223 ], [ 38.8918811, 8.9813766 ], [ 38.8917196, 8.9801766 ], [ 38.8926275, 8.9758899 ], [ 38.8922741, 8.9734055 ], [ 38.8892662, 8.9730856 ], [ 38.8862929, 8.9717884 ], [ 38.8844567, 8.9718506 ], [ 38.8827786, 8.9719075 ], [ 38.8848592, 8.9761974 ], [ 38.8845302, 8.9778742 ], [ 38.8845518, 8.9782527 ], [ 38.8846948, 8.9804587 ], [ 38.8847016, 8.9805858 ], [ 38.8842523, 8.9853255 ], [ 38.8816114, 8.9877204 ], [ 38.8817525, 8.9881986 ], [ 38.8829542, 8.9893033 ], [ 38.8840914, 8.990326 ], [ 38.8844857, 8.9906796 ], [ 38.8850382, 8.9906174 ], [ 38.8853466, 8.9905724 ], [ 38.8866234, 8.9888186 ], [ 38.886905, 8.9871853 ], [ 38.8885184, 8.9833769 ] ] ], [ [ [ 38.8551758, 9.001051 ], [ 38.856015, 9.0011077 ], [ 38.857314032191454, 9.001572100729165 ], [ 38.8593044, 9.0029131 ], [ 38.859954, 9.0032962 ], [ 38.8616534, 9.0013971 ], [ 38.8621925, 8.9992314 ], [ 38.863330499999989, 8.9968197 ], [ 38.8641715, 8.9962063 ], [ 38.8673329, 8.996602 ], [ 38.8685319, 8.9965702 ], [ 38.8683298, 8.9954969 ], [ 38.8658631, 8.9953807 ], [ 38.8638084, 8.9931033 ], [ 38.864366738498752, 8.991005918524348 ], [ 38.8659556, 8.990281 ], [ 38.8637348, 8.9880715 ], [ 38.8614618, 8.9872907 ], [ 38.8613784, 8.9850606 ], [ 38.8589869, 8.9834581 ], [ 38.8580051, 8.9836492 ], [ 38.856614054669301, 8.983855435621281 ], [ 38.8544417, 8.983458 ], [ 38.8545683, 8.9841937 ], [ 38.8549442, 8.986173 ], [ 38.8534163, 8.9881738 ], [ 38.8506281, 8.9893882 ], [ 38.8489683, 8.9909968 ], [ 38.8483633, 8.9914724 ], [ 38.8475934, 8.9925988 ], [ 38.8484516, 8.9939689 ], [ 38.849252, 8.9953163 ], [ 38.8494794, 8.9956221 ], [ 38.8509389, 8.9965477 ], [ 38.851827, 8.9979681 ], [ 38.8515915, 8.9993897 ], [ 38.8518416, 8.9998502 ], [ 38.8518728, 8.9993868 ], [ 38.854148015367635, 8.998914952504904 ], [ 38.8547970557225, 8.999291611172859 ], [ 38.8551758, 9.001051 ] ] ], [ [ [ 38.8718176, 9.0731005 ], [ 38.873408, 9.0739739 ], [ 38.8729417, 9.0720707 ], [ 38.8733594, 9.0703171 ], [ 38.8736506, 9.0693007 ], [ 38.8739003, 9.0675939 ], [ 38.8743543, 9.0667419 ], [ 38.8726222, 9.0661239 ], [ 38.8727362, 9.0645598 ], [ 38.8736118, 9.0640332 ], [ 38.8735915, 9.063936 ], [ 38.8730737, 9.062317 ], [ 38.8711006, 9.0619951 ], [ 38.8689503, 9.0610024 ], [ 38.8673839, 9.0610092 ], [ 38.866303, 9.0610648 ], [ 38.8661857, 9.0611458 ], [ 38.8650155, 9.0624886 ], [ 38.8634759, 9.0618383 ], [ 38.8618827, 9.0633957 ], [ 38.8594677, 9.0629057 ], [ 38.8590301, 9.0619386 ], [ 38.8590181, 9.0612714 ], [ 38.858477, 9.0620344 ], [ 38.8597329, 9.0644142 ], [ 38.8573778, 9.0676207 ], [ 38.8568872, 9.067229 ], [ 38.8571325, 9.0684653 ], [ 38.8579093, 9.0682661 ], [ 38.8612173, 9.0679129 ], [ 38.8618965, 9.0684027 ], [ 38.8637897, 9.0684627 ], [ 38.8658872, 9.0691937 ], [ 38.8656995, 9.0709021 ], [ 38.8652556, 9.0713391 ], [ 38.8637911, 9.072335 ], [ 38.8612014, 9.0732144 ], [ 38.8613892, 9.0735031 ], [ 38.8635913, 9.0739587 ], [ 38.8660079, 9.0722106 ], [ 38.8663177, 9.0743242 ], [ 38.8674778, 9.0751387 ], [ 38.8687693, 9.0745241 ], [ 38.8691166, 9.072784 ], [ 38.8704517, 9.0714178 ], [ 38.8718176, 9.0731005 ] ] ] ] } },
{ "type": "Feature", "properties": { "index": 600 }, "geometry": { "type": "MultiPolygon", "coordinates": [ [ [ [ 38.7152611, 8.9361367 ], [ 38.7158471, 8.9413677 ], [ 38.713008, 8.9426952 ], [ 38.7128283, 8.942823 ], [ 38.7110547, 8.9448877 ], [ 38.710059875381127, 8.947102090187419 ], [ 38.710053868352254, 8.947105655785361 ], [ 38.7083825, 8.9462516 ], [ 38.7042759, 8.9441276 ], [ 38.7019385, 8.9415868 ], [ 38.699554811569982, 8.940894894450048 ], [ 38.6985988, 8.9376818 ], [ 38.6943345, 8.9403947 ], [ 38.6905998, 8.941313 ], [ 38.6884003, 8.940346 ], [ 38.6875914, 8.9395825 ], [ 38.6866843, 8.9390464 ], [ 38.6859834, 8.9390791 ], [ 38.6829914, 8.9401098 ], [ 38.6802779, 8.943664 ], [ 38.6801187, 8.9442031 ], [ 38.6802028, 8.9447962 ], [ 38.6803925, 8.945542 ], [ 38.6806364, 8.9463045 ], [ 38.6804992, 8.9510846 ], [ 38.6803134, 8.9557227 ], [ 38.6803973, 8.9570556 ], [ 38.6819766, 8.9576219 ], [ 38.6824842, 8.9577255 ], [ 38.6846973, 8.9618334 ], [ 38.6843044, 8.9624335 ], [ 38.6829673, 8.9643809 ], [ 38.6812171, 8.967792 ], [ 38.6801021, 8.9701187 ], [ 38.676643, 8.973353 ], [ 38.6761998, 8.9738114 ], [ 38.675799, 8.9744797 ], [ 38.674356, 8.9786926 ], [ 38.6735104, 8.9837376 ], [ 38.6747849, 8.9859689 ], [ 38.6754902, 8.9890601 ], [ 38.6757885, 8.9893579 ], [ 38.6761492, 8.9897441 ], [ 38.677006022509204, 8.990843236390221 ], [ 38.6751344, 8.9908213 ], [ 38.673073, 8.9914723 ], [ 38.6677443, 8.9933244 ], [ 38.6662209, 8.9952576 ], [ 38.6659795, 8.9970657 ], [ 38.6657193, 9.0003546 ], [ 38.6654444, 9.0024464 ], [ 38.6627576, 9.0070465 ], [ 38.6626388, 9.0074689 ], [ 38.6626831, 9.0085445 ], [ 38.6628655, 9.0098147 ], [ 38.6639424, 9.0100505 ], [ 38.6686255, 9.0143765 ], [ 38.6690918, 9.0164625 ], [ 38.6705791, 9.0187267 ], [ 38.671322, 9.0199201 ], [ 38.6723088, 9.0204774 ], [ 38.6737278, 9.0211876 ], [ 38.6779871, 9.0231729 ], [ 38.6823732, 9.020574 ], [ 38.683749, 9.0193599 ], [ 38.686482711112149, 9.018051780694206 ], [ 38.6865051, 9.0180547 ], [ 38.6883619, 9.017966 ], [ 38.691832, 9.0191965 ], [ 38.6926056, 9.0198047 ], [ 38.6945723, 9.0200076 ], [ 38.6968598, 9.020766 ], [ 38.69952450000001, 9.0201832 ], [ 38.700698, 9.0204071 ], [ 38.7009367, 9.0202956 ], [ 38.7019546, 9.019362 ], [ 38.703080660741541, 9.018538659776912 ], [ 38.70367166152009, 9.018762175782944 ], [ 38.7014195, 9.0219846 ], [ 38.7011198, 9.0221289 ], [ 38.7005485, 9.0237859 ], [ 38.6972418, 9.0255658 ], [ 38.695759, 9.0253951 ], [ 38.6957748, 9.0258005 ], [ 38.6963119, 9.0265084 ], [ 38.6967617, 9.0303615 ], [ 38.6923724, 9.0323236 ], [ 38.6892202, 9.0304504 ], [ 38.6880185, 9.0313414 ], [ 38.6869343, 9.0326308 ], [ 38.6867429, 9.0330665 ], [ 38.6861993, 9.0343527 ], [ 38.6848435, 9.0386161 ], [ 38.6838082, 9.0425504 ], [ 38.682809, 9.0439867 ], [ 38.6825106, 9.0443324 ], [ 38.6820774, 9.0462707 ], [ 38.6852217, 9.0498367 ], [ 38.685683966786748, 9.049845222538192 ], [ 38.684895, 9.0518267 ], [ 38.6846724, 9.0563468 ], [ 38.6847206, 9.0589202 ], [ 38.6847507, 9.0616361 ], [ 38.6847362, 9.0650724 ], [ 38.6847681, 9.0654203 ], [ 38.6848503, 9.0662366 ], [ 38.6851587, 9.0687948 ], [ 38.6848046, 9.0744871 ], [ 38.689663, 9.0762027 ], [ 38.6938391, 9.0730859 ], [ 38.6945052, 9.0723955 ], [ 38.698357799999989, 9.0683166 ], [ 38.6992261, 9.0679087 ], [ 38.701389365402441, 9.067307314788476 ], [ 38.7047361, 9.0671463 ], [ 38.7049681, 9.0734342 ], [ 38.7066767, 9.0720331 ], [ 38.7051867, 9.0669423 ], [ 38.7064393, 9.0656273 ], [ 38.707658, 9.0628554 ], [ 38.7110449, 9.061498 ], [ 38.7147419, 9.0627772 ], [ 38.7154944, 9.0661054 ], [ 38.7157479, 9.0667755 ], [ 38.716975, 9.0684375 ], [ 38.717531597787392, 9.06948115853401 ], [ 38.7174121, 9.0707136 ], [ 38.7215999, 9.0727251 ], [ 38.7239153, 9.0737729 ], [ 38.7261845, 9.0750759 ], [ 38.727037, 9.0714079 ], [ 38.7291224, 9.0709316 ], [ 38.732525099999989, 9.0719682 ], [ 38.7324589, 9.0764417 ], [ 38.7348948, 9.0733919 ], [ 38.7377219, 9.0759888 ], [ 38.7382369, 9.0758127 ], [ 38.7389919, 9.0740699 ], [ 38.7436485, 9.0747601 ], [ 38.7445479, 9.0766414 ], [ 38.7465249, 9.0792228 ], [ 38.745965, 9.0868881 ], [ 38.7440855, 9.0871613 ], [ 38.7410451, 9.0866057 ], [ 38.7389972, 9.0871137 ], [ 38.7352261, 9.0871606 ], [ 38.7309526, 9.086197 ], [ 38.7257539, 9.0848352 ], [ 38.723002, 9.0835621 ], [ 38.7222228, 9.0847868 ], [ 38.7265894, 9.0880836 ], [ 38.730374, 9.0869792 ], [ 38.7380585, 9.0909943 ], [ 38.7422991, 9.0892562 ], [ 38.7450282, 9.0888649 ], [ 38.7489573, 9.092251 ], [ 38.7555481, 9.0920066 ], [ 38.7556417, 9.0919809 ], [ 38.7561285, 9.0906262 ], [ 38.7534249, 9.0909202 ], [ 38.7485714, 9.0882718 ], [ 38.7482093, 9.0878108 ], [ 38.7469025, 9.0870101 ], [ 38.7478956, 9.0789074 ], [ 38.7456062, 9.0750102 ], [ 38.7478419, 9.0712001 ], [ 38.7490743, 9.0717192 ], [ 38.7500989, 9.072096 ], [ 38.7510252, 9.0713234 ], [ 38.7523489, 9.0701126 ], [ 38.754154410337051, 9.067534823650609 ], [ 38.7556411, 9.0684859 ], [ 38.7596486, 9.0702223 ], [ 38.7611483, 9.0707591 ], [ 38.7645225, 9.0704373 ], [ 38.7646897, 9.0694398 ], [ 38.764943, 9.0686465 ], [ 38.76709828703607, 9.066477693248673 ], [ 38.7705942, 9.0665923 ], [ 38.77182, 9.0669555 ], [ 38.7725145, 9.0659409 ], [ 38.7735225, 9.0642173 ], [ 38.7753401, 9.0621326 ], [ 38.775497653017915, 9.060881595066808 ], [ 38.7761354, 9.0604434 ], [ 38.777235, 9.0602169 ], [ 38.7779151, 9.0588769 ], [ 38.778436, 9.0550921 ], [ 38.778837200944281, 9.054629344181466 ], [ 38.7797348, 9.0548914 ], [ 38.7827944, 9.0540054 ], [ 38.7847826, 9.0523901 ], [ 38.7881461, 9.0481785 ], [ 38.7892183, 9.0480524 ], [ 38.7893323, 9.046174 ], [ 38.7888638, 9.0443872 ], [ 38.7883687, 9.0411166 ], [ 38.788999, 9.0366321 ], [ 38.7898711, 9.0353037 ], [ 38.7947311, 9.0312946 ], [ 38.7997189, 9.0335465 ], [ 38.802119682358153, 9.031545691034797 ], [ 38.805898, 9.0343795 ], [ 38.8097365, 9.0345983 ], [ 38.8149296, 9.0355508 ], [ 38.8155812, 9.035468 ], [ 38.8163561, 9.0349854 ], [ 38.8163782, 9.0349276 ], [ 38.816518345194709, 9.033527740997105 ], [ 38.8186044, 9.033524 ], [ 38.8193368, 9.0349325 ], [ 38.8212861, 9.0354493 ], [ 38.823484448241707, 9.034934253316605 ], [ 38.8243117, 9.036503 ], [ 38.8250242, 9.0406238 ], [ 38.8252923, 9.0422627 ], [ 38.8261135, 9.0440023 ], [ 38.8273911, 9.0448397 ], [ 38.8293368, 9.0455007 ], [ 38.8296146, 9.0454394 ], [ 38.8305863, 9.0451061 ], [ 38.8311233, 9.0449014 ], [ 38.8342291, 9.0444675 ], [ 38.8347106, 9.0444106 ], [ 38.835156972537902, 9.04337820303939 ], [ 38.835441955439087, 9.043244192968432 ], [ 38.8389629, 9.042661 ], [ 38.8394097, 9.0464862 ], [ 38.8407932, 9.0488769 ], [ 38.8436415, 9.0501392 ], [ 38.8453515, 9.0488104 ], [ 38.8485453, 9.0460371 ], [ 38.8499786, 9.0441545 ], [ 38.8531675, 9.0423468 ], [ 38.8546541, 9.0391286 ], [ 38.857478047042214, 9.037129098377182 ], [ 38.8585186, 9.0380824 ], [ 38.8593947, 9.0383844 ], [ 38.8614705, 9.0390186 ], [ 38.8640315, 9.0399878 ], [ 38.864155599999989, 9.0383198 ], [ 38.8639924, 9.0378354 ], [ 38.8632778, 9.0370633 ], [ 38.8620956, 9.0352 ], [ 38.861975301122655, 9.031009863760724 ], [ 38.8636881, 9.0301716 ], [ 38.8699011, 9.0331262 ], [ 38.8714937, 9.0387469 ], [ 38.8710607, 9.0441727 ], [ 38.870777, 9.0456028 ], [ 38.8714657, 9.049061 ], [ 38.8716368, 9.0494645 ], [ 38.8724271, 9.0495791 ], [ 38.87506076195033, 9.049555344033662 ], [ 38.8765168, 9.0505254 ], [ 38.8779786, 9.0518233 ], [ 38.8789254, 9.050969 ], [ 38.8827087, 9.0478101 ], [ 38.8853198, 9.0462448 ], [ 38.8864732, 9.0452409 ], [ 38.8881918, 9.0422945 ], [ 38.8883221, 9.0420662 ], [ 38.8905635, 9.0372148 ], [ 38.8916183, 9.0355632 ], [ 38.8926476, 9.0338109 ], [ 38.8930339, 9.0330507 ], [ 38.892155138360216, 9.029428473386421 ], [ 38.892151559750481, 9.029396627262249 ], [ 38.893731832166694, 9.028126609239761 ], [ 38.8953325, 9.027668 ], [ 38.8956209, 9.0252058 ], [ 38.898568057639736, 9.022380843809287 ], [ 38.9002302, 9.0222733 ], [ 38.9008565, 9.0197236 ], [ 38.9000867, 9.0197276 ], [ 38.8978806, 9.0159447 ], [ 38.8991091, 9.0134851 ], [ 38.9004207, 9.0112823 ], [ 38.900642407381319, 9.010494053656046 ], [ 38.9028293, 9.006449 ], [ 38.9025959, 9.0057496 ], [ 38.9016357, 9.00318 ], [ 38.900130788012824, 9.003802184783929 ], [ 38.8969538, 9.0017334 ], [ 38.8947448, 8.9979451 ], [ 38.8945421, 8.9960927 ], [ 38.8941662, 8.9947574 ], [ 38.8939867, 8.994115 ], [ 38.893822751071291, 8.993549846454885 ], [ 38.8947263, 8.9922388 ], [ 38.8946184, 8.9919719 ], [ 38.8915171, 8.9892954 ], [ 38.8918967, 8.9815223 ], [ 38.8960601, 8.9799898 ], [ 38.8962032, 8.979302 ], [ 38.8968989, 8.9759151 ], [ 38.899451, 8.9690174 ], [ 38.8989817, 8.967902 ], [ 38.8980094, 8.9671151 ], [ 38.8976164, 8.9670382 ], [ 38.889775, 8.9654738 ], [ 38.8895135, 8.9644504 ], [ 38.8894762, 8.9643941 ], [ 38.8887128, 8.9636059 ], [ 38.8880409, 8.9631164 ], [ 38.8844093, 8.9598369 ], [ 38.8826269, 8.9606081 ], [ 38.8810902, 8.9616197 ], [ 38.8799635, 8.9627844 ], [ 38.8769908, 8.9661846 ], [ 38.8770774, 8.967025 ], [ 38.8791146, 8.9691254 ], [ 38.8792715, 8.9693022 ], [ 38.8807078, 8.9710786 ], [ 38.8820073, 8.9730657 ], [ 38.8845302, 8.9778742 ], [ 38.8775994, 8.9815828 ], [ 38.8773054, 8.9875893 ], [ 38.876602297977612, 8.989328813185313 ], [ 38.8762593, 8.9897723 ], [ 38.8720161, 8.9906148 ], [ 38.8705891, 8.9912559 ], [ 38.8718391, 8.9914174 ], [ 38.8737756, 8.9915102 ], [ 38.8753474, 8.9924335 ], [ 38.8763532, 8.9937859 ], [ 38.874164493078482, 8.997235931365941 ], [ 38.8735718, 8.9973809 ], [ 38.8710961, 8.9968484 ], [ 38.868662940327091, 8.998004924820613 ], [ 38.8685319, 8.9965702 ], [ 38.8683298, 8.9954969 ], [ 38.8659556, 8.990281 ], [ 38.8644268, 8.9854301 ], [ 38.8656975, 8.9832292 ], [ 38.8683736, 8.9810879 ], [ 38.8653253, 8.9813012 ], [ 38.8630052, 8.9775974 ], [ 38.8628429, 8.9771364 ], [ 38.8611343, 8.976788 ], [ 38.8598661, 8.9766158 ], [ 38.8585998, 8.9765871 ], [ 38.8549588, 8.9743086 ], [ 38.8546712, 8.974416 ], [ 38.8548589, 8.9749055 ], [ 38.8555617, 8.9771388 ], [ 38.8518164, 8.9790824 ], [ 38.8512316, 8.9791592 ], [ 38.8494104, 8.9788651 ], [ 38.846319, 8.9808119 ], [ 38.8457581, 8.9814131 ], [ 38.8451868, 8.9820611 ], [ 38.8439348, 8.9838831 ], [ 38.8413437, 8.9870753 ], [ 38.8402319, 8.987531 ], [ 38.8398644, 8.9876926 ], [ 38.8392158, 8.9883997 ], [ 38.838201695101858, 8.991196709821713 ], [ 38.8381279, 8.9911684 ], [ 38.8377131, 8.9911314 ], [ 38.8366934, 8.9921533 ], [ 38.835996, 8.9931468 ], [ 38.8338067, 8.9943966 ], [ 38.831564569692887, 8.993158530936146 ], [ 38.8318695, 8.991329 ], [ 38.8322082, 8.9901416 ], [ 38.831862, 8.9894858 ], [ 38.8310145, 8.9893455 ], [ 38.8284344, 8.9887398 ], [ 38.8243435, 8.9870493 ], [ 38.8236563, 8.9829914 ], [ 38.8211882, 8.9830776 ], [ 38.8200144, 8.9840292 ], [ 38.817983, 8.985495 ], [ 38.8172293, 8.987135 ], [ 38.8097735, 8.9869675 ], [ 38.8079529, 8.9863615 ], [ 38.8066972, 8.9860036 ], [ 38.8035562, 8.9852867 ], [ 38.8021619, 8.9853275 ], [ 38.7996331, 8.9854045 ], [ 38.796406995110033, 8.986071433830803 ], [ 38.7880106, 8.9854871 ], [ 38.786358657370961, 8.985107307202046 ], [ 38.785493508027294, 8.984861265547165 ], [ 38.7787516, 8.9794447 ], [ 38.7777914, 8.9763594 ], [ 38.7773623, 8.9752898 ], [ 38.7759295, 8.9724099 ], [ 38.7804589, 8.9680504 ], [ 38.7828796, 8.9680649 ], [ 38.7828581, 8.9679775 ], [ 38.7775834, 8.9635925 ], [ 38.772681036782437, 8.964439747542494 ], [ 38.7746049, 8.9599046 ], [ 38.77646113669941, 8.957979041857307 ], [ 38.7789533, 8.9593876 ], [ 38.7801497, 8.9608459 ], [ 38.7805062, 8.9613459 ], [ 38.781147, 8.9615179 ], [ 38.7863087, 8.9642624 ], [ 38.7872891, 8.965332 ], [ 38.7925316, 8.9618767 ], [ 38.7962545, 8.9594646 ], [ 38.7977162, 8.9532239 ], [ 38.8012809, 8.9492628 ], [ 38.7998579, 8.9470703 ], [ 38.7988172, 8.9457455 ], [ 38.7984793, 8.9453468 ], [ 38.7925422, 8.9440127 ], [ 38.7905252, 8.9433251 ], [ 38.7855926, 8.941632 ], [ 38.7823833, 8.9380657 ], [ 38.7801692, 8.9332949 ], [ 38.7783037, 8.9326126 ], [ 38.7767146, 8.9323832 ], [ 38.7730162, 8.9361537 ], [ 38.7718643, 8.9370009 ], [ 38.7710331, 8.9386429 ], [ 38.7649015, 8.9419151 ], [ 38.7633346, 8.9403366 ], [ 38.760325, 8.9414029 ], [ 38.758931172429428, 8.941737580751926 ], [ 38.758741, 8.9406331 ], [ 38.7568857, 8.9365334 ], [ 38.7547558, 8.9350481 ], [ 38.7528626, 8.9340077 ], [ 38.7503177, 8.9319296 ], [ 38.7473794, 8.9300125 ], [ 38.742211, 8.9293805 ], [ 38.741947528038992, 8.92964375931213 ], [ 38.7417019, 8.9279751 ], [ 38.742109, 8.926803 ], [ 38.7423058, 8.924739 ], [ 38.7428838, 8.9224858 ], [ 38.7429972, 8.9217991 ], [ 38.740757, 8.9187259 ], [ 38.7406227, 8.9187108 ], [ 38.7377036, 8.9176375 ], [ 38.7359117, 8.9150828 ], [ 38.7357987, 8.9148156 ], [ 38.7355496, 8.9142195 ], [ 38.7320196, 8.9154369 ], [ 38.7296243, 8.9160094 ], [ 38.7270135, 8.9172375 ], [ 38.7269427, 8.9177314 ], [ 38.7235862, 8.9205953 ], [ 38.7212387, 8.92351 ], [ 38.7202896, 8.9240603 ], [ 38.7221785, 8.9270125 ], [ 38.721680900090242, 8.929356166385707 ], [ 38.7163543, 8.9307024 ], [ 38.7153549, 8.9312957 ], [ 38.7145336, 8.9331868 ], [ 38.7152611, 8.9361367 ] ], [ [ 38.7403759, 8.9568763 ], [ 38.741135247260701, 8.957751439141328 ], [ 38.7404933, 8.9609058 ], [ 38.735325628523888, 8.960766689150274 ], [ 38.7364709, 8.9560006 ], [ 38.739934347680013, 8.95586462421331 ], [ 38.7403759, 8.9568763 ] ], [ [ 38.693449467235126, 8.995117283429876 ], [ 38.6937337, 8.9950761 ], [ 38.6973627, 8.9942562 ], [ 38.695423379383413, 8.996321972943406 ], [ 38.693449467235126, 8.995117283429876 ] ], [ [ 38.6981694, 8.9674741 ], [ 38.6973037, 8.9678437 ], [ 38.694105156261102, 8.968183631743299 ], [ 38.6951673, 8.9664528 ], [ 38.6962675, 8.9649325 ], [ 38.698616650713305, 8.964746509430668 ], [ 38.6986901, 8.9671433 ], [ 38.6981694, 8.9674741 ] ], [ [ 38.711087004796632, 9.000328653328348 ], [ 38.711208688252327, 9.000114300999924 ], [ 38.71164300931153, 9.000121657091711 ], [ 38.711087004796632, 9.000328653328348 ] ], [ [ 38.7033152, 9.0506611 ], [ 38.7041849, 9.0509207 ], [ 38.704768658170288, 9.051883797530159 ], [ 38.7005753, 9.0501161 ], [ 38.698911699999989, 9.049344 ], [ 38.6974378, 9.0491639 ], [ 38.696338934921528, 9.046596722846978 ], [ 38.6970482, 9.0458839 ], [ 38.6987601, 9.0475573 ], [ 38.6993252, 9.0479462 ], [ 38.699713, 9.0483354 ], [ 38.7006564, 9.0488665 ], [ 38.7021819, 9.0503737 ], [ 38.7033152, 9.0506611 ] ] ], [ [ [ 38.7692488, 8.917931 ], [ 38.769632, 8.9163027 ], [ 38.774351, 8.9149169 ], [ 38.777513, 8.9152183 ], [ 38.7770686, 8.9112119 ], [ 38.7769419, 8.9105477 ], [ 38.7765561, 8.9099349 ], [ 38.7759864, 8.9067897 ], [ 38.7801664, 8.9033754 ], [ 38.7825369, 8.906303 ], [ 38.7827267, 8.9066475 ], [ 38.7837794, 8.9068078 ], [ 38.7849782, 8.9059148 ], [ 38.7863074, 8.9042984 ], [ 38.7875902, 8.9025621 ], [ 38.785828345326408, 8.899573146729542 ], [ 38.7862068, 8.8980859 ], [ 38.7889497, 8.8955886 ], [ 38.7894606, 8.8953213 ], [ 38.7897252, 8.8951883 ], [ 38.7899805, 8.89506 ], [ 38.7903106, 8.8942592 ], [ 38.7902164, 8.8932525 ], [ 38.7888485, 8.8925805 ], [ 38.7875721, 8.8918364 ], [ 38.786058, 8.8890811 ], [ 38.7869233, 8.8874147 ], [ 38.7877156, 8.8866087 ], [ 38.7872502, 8.8844257 ], [ 38.7867614, 8.8834541 ], [ 38.7849058, 8.8794511 ], [ 38.7853353, 8.8787436 ], [ 38.786658, 8.8768682 ], [ 38.7899976, 8.8762392 ], [ 38.7886957, 8.8740127 ], [ 38.7851599, 8.8763712 ], [ 38.7835273, 8.8750637 ], [ 38.7795013, 8.8750597 ], [ 38.7774631, 8.8766588 ], [ 38.7745017, 8.8739069 ], [ 38.7748142, 8.8706076 ], [ 38.7762773, 8.8668603 ], [ 38.7717511, 8.8660043 ], [ 38.7687513, 8.8693906 ], [ 38.76706870000001, 8.8712832 ], [ 38.7655381, 8.8729796 ], [ 38.7612383, 8.873666 ], [ 38.7581938, 8.8719406 ], [ 38.7574424, 8.8715267 ], [ 38.7572975, 8.8714469 ], [ 38.7575879, 8.8721204 ], [ 38.7589778, 8.8743954 ], [ 38.7610233, 8.8780591 ], [ 38.759914, 8.8798571 ], [ 38.7594357, 8.8803996 ], [ 38.7589408, 8.884706 ], [ 38.7570298, 8.8855354 ], [ 38.7540306, 8.8846602 ], [ 38.7534543, 8.8857183 ], [ 38.754279074831345, 8.888142842000127 ], [ 38.7535067, 8.8908851 ], [ 38.7530655, 8.8924797 ], [ 38.7546292, 8.8938935 ], [ 38.7516909, 8.8985773 ], [ 38.7485848, 8.9028046 ], [ 38.7482589, 8.9039817 ], [ 38.7496825, 8.9086005 ], [ 38.7508272, 8.9106223 ], [ 38.7517366, 8.9109519 ], [ 38.7539935, 8.9113695 ], [ 38.7582041, 8.9148085 ], [ 38.7597401, 8.9182736 ], [ 38.7602249, 8.9190121 ], [ 38.7637217, 8.9197827 ], [ 38.7674247, 8.9189724 ], [ 38.7692488, 8.917931 ] ] ], [ [ [ 38.8073588, 8.8788926 ], [ 38.8066745, 8.8848717 ], [ 38.802555368565841, 8.88828824077347 ], [ 38.80037345446906, 8.888880187466496 ], [ 38.7966556, 8.8875997 ], [ 38.7965401, 8.8877813 ], [ 38.79620340000001, 8.888355 ], [ 38.7965768, 8.8935481 ], [ 38.796824, 8.8945173 ], [ 38.7980595, 8.8971622 ], [ 38.8008115, 8.9032311 ], [ 38.802403, 8.9050619 ], [ 38.8040568, 8.904122 ], [ 38.8112619, 8.9042262 ], [ 38.8173178, 8.9068668 ], [ 38.8180118, 8.9064501 ], [ 38.8221476, 8.9027686 ], [ 38.8224914, 8.9022838 ], [ 38.820255, 8.9017226 ], [ 38.818929, 8.9013563 ], [ 38.8142453, 8.8979558 ], [ 38.8128295, 8.8910996 ], [ 38.815081, 8.8841502 ], [ 38.8154943, 8.8833287 ], [ 38.8162945, 8.8816955 ], [ 38.8211098, 8.8762454 ], [ 38.8233111, 8.8750548 ], [ 38.8204345, 8.8700179 ], [ 38.8170493, 8.8704315 ], [ 38.816762003238466, 8.870524629876551 ], [ 38.8175565, 8.8680448 ], [ 38.8181734, 8.8673439 ], [ 38.8194783, 8.8659393 ], [ 38.8184885, 8.8657167 ], [ 38.8171904, 8.8654716 ], [ 38.8159793, 8.862275 ], [ 38.8162474, 8.8616941 ], [ 38.8164867, 8.8611764 ], [ 38.8167529, 8.8603853 ], [ 38.8159713, 8.8602083 ], [ 38.8156508, 8.8601606 ], [ 38.8136039, 8.8595581 ], [ 38.8135376, 8.8600796 ], [ 38.8132319, 8.8609624 ], [ 38.8106176, 8.8621098 ], [ 38.8092738, 8.8605992 ], [ 38.8098102, 8.8582804 ], [ 38.8091668, 8.8559867 ], [ 38.8103224, 8.8534313 ], [ 38.8103092, 8.8525544 ], [ 38.8105103, 8.8497438 ], [ 38.8101929, 8.8493748 ], [ 38.8082787, 8.8497028 ], [ 38.8067847, 8.8519833 ], [ 38.8056814, 8.8528181 ], [ 38.8043882, 8.8538504 ], [ 38.8030921, 8.854625 ], [ 38.802383, 8.8549078 ], [ 38.7990441, 8.8534278 ], [ 38.7972964, 8.8515497 ], [ 38.7952412, 8.8539843 ], [ 38.7976041, 8.8529718 ], [ 38.7990262, 8.8576995 ], [ 38.7980634, 8.8583063 ], [ 38.7951658, 8.85946 ], [ 38.794401, 8.8592118 ], [ 38.7935792, 8.8590046 ], [ 38.7914609, 8.8575959 ], [ 38.7895594, 8.8586283 ], [ 38.7891721, 8.861223 ], [ 38.7891676, 8.8627761 ], [ 38.7894136, 8.863851 ], [ 38.789542, 8.8669749 ], [ 38.7888226, 8.8679585 ], [ 38.7887017, 8.8690576 ], [ 38.7886547, 8.86974 ], [ 38.7897718, 8.8730978 ], [ 38.7900193, 8.8764025 ], [ 38.791151, 8.8754112 ], [ 38.7939826, 8.8759647 ], [ 38.7961324, 8.8778052 ], [ 38.7996662, 8.8778304 ], [ 38.8011561, 8.8787089 ], [ 38.8021687, 8.8792217 ], [ 38.8048308, 8.8792495 ], [ 38.807457265666116, 8.877857654007224 ], [ 38.8073588, 8.8788926 ] ] ], [ [ [ 38.8651429, 9.0847054 ], [ 38.865961, 9.0840697 ], [ 38.8708292, 9.0805219 ], [ 38.8754292, 9.0759994 ], [ 38.8766274, 9.0742054 ], [ 38.8784769, 9.0711545 ], [ 38.8811155, 9.0658656 ], [ 38.8808204, 9.0636752 ], [ 38.8799031, 9.0594782 ], [ 38.8787784, 9.0563756 ], [ 38.8747747, 9.0557528 ], [ 38.8715816, 9.0526484 ], [ 38.8701425, 9.0515796 ], [ 38.8671533, 9.0542257 ], [ 38.8660937, 9.0556814 ], [ 38.8651899, 9.0566388 ], [ 38.8655178, 9.0592058 ], [ 38.8602868, 9.0618542 ], [ 38.8590181, 9.0612714 ], [ 38.8554799, 9.056709 ], [ 38.8553461, 9.0552137 ], [ 38.8539889, 9.0538284 ], [ 38.8531565, 9.0534062 ], [ 38.8512543, 9.0536603 ], [ 38.849227, 9.0571073 ], [ 38.8492703, 9.057436 ], [ 38.849448, 9.0585432 ], [ 38.8495807, 9.0591193 ], [ 38.8534793, 9.0604848 ], [ 38.8501574, 9.0659862 ], [ 38.849601, 9.0660407 ], [ 38.8489987, 9.0674429 ], [ 38.8486406, 9.0681064 ], [ 38.848745, 9.0688438 ], [ 38.8502835, 9.0694646 ], [ 38.855002, 9.0691076 ], [ 38.8586265, 9.0719033 ], [ 38.8592863, 9.0725469 ], [ 38.8613194, 9.0743877 ], [ 38.8629375, 9.0771013 ], [ 38.863089, 9.0812146 ], [ 38.8646721, 9.0839346 ], [ 38.8651429, 9.0847054 ] ] ] ] } },
{ "type": "Feature", "properties": { "index": 900 }, "geometry": { "type": "Polygon", "coordinates": [ [ [ 38.7095736, 8.9293885 ], [ 38.7070619, 8.9321997 ], [ 38.706351184365282, 8.933639323203858 ], [ 38.7023014, 8.9317601 ], [ 38.69870250000001, 8.9321675 ], [ 38.6985399, 8.9324667 ], [ 38.6983983, 8.9354585 ], [ 38.6943345, 8.9403947 ], [ 38.6875914, 8.9395825 ], [ 38.6866843, 8.9390464 ], [ 38.6859834, 8.9390791 ], [ 38.6829914, 8.9401098 ], [ 38.6802779, 8.943664 ], [ 38.6801187, 8.9442031 ], [ 38.6804992, 8.9510846 ], [ 38.6803134, 8.9557227 ], [ 38.6803973, 8.9570556 ], [ 38.6829673, 8.9643809 ], [ 38.6774742, 8.9630305 ], [ 38.6770711, 8.9622574 ], [ 38.6761872, 8.9617031 ], [ 38.6745572, 8.9622375 ], [ 38.6706935, 8.9648565 ], [ 38.6700539, 8.965574 ], [ 38.6689345, 8.9679363 ], [ 38.6668534, 8.9716315 ], [ 38.6648099, 8.9752288 ], [ 38.6640622, 8.9791547 ], [ 38.6640639, 8.982781 ], [ 38.664542338168459, 8.985116430864732 ], [ 38.6610617, 8.9862373 ], [ 38.6597476, 8.9909745 ], [ 38.6564447, 8.9994631 ], [ 38.6563329, 8.9997596 ], [ 38.6566052, 9.0007335 ], [ 38.6571336, 9.0025919 ], [ 38.6628655, 9.0098147 ], [ 38.6677543, 9.0181673 ], [ 38.6677046, 9.0206026 ], [ 38.6683244, 9.0228418 ], [ 38.6714859, 9.0304482 ], [ 38.6749837, 9.0295852 ], [ 38.679838435450058, 9.027940548886965 ], [ 38.6791261, 9.0289381 ], [ 38.6781015, 9.0319814 ], [ 38.6780222, 9.0322681 ], [ 38.6821318, 9.036787 ], [ 38.681264007619305, 9.041472916157382 ], [ 38.6794643, 9.0446396 ], [ 38.6806176, 9.0455197 ], [ 38.6814183, 9.0461415 ], [ 38.684861920761676, 9.052498404695148 ], [ 38.6846724, 9.0563468 ], [ 38.6847206, 9.0589202 ], [ 38.6847507, 9.0616361 ], [ 38.6847362, 9.0650724 ], [ 38.6847681, 9.0654203 ], [ 38.6848046, 9.0744871 ], [ 38.689663, 9.0762027 ], [ 38.6938391, 9.0730859 ], [ 38.6945052, 9.0723955 ], [ 38.6946523, 9.0720662 ], [ 38.6947811, 9.0717378 ], [ 38.698357799999989, 9.0683166 ], [ 38.7049681, 9.0734342 ], [ 38.7040883, 9.075675 ], [ 38.7066767, 9.0720331 ], [ 38.715122471780539, 9.070050102030644 ], [ 38.7157707, 9.0714928 ], [ 38.7182799, 9.0763662 ], [ 38.721159137759088, 9.081159035539489 ], [ 38.7188042, 9.0925749 ], [ 38.7265894, 9.0880836 ], [ 38.7380585, 9.0909943 ], [ 38.7489573, 9.092251 ], [ 38.7538493, 9.0949401 ], [ 38.7646589, 9.0997976 ], [ 38.7647814, 9.0943182 ], [ 38.7646995, 9.0913532 ], [ 38.7622379, 9.0881776 ], [ 38.7536985, 9.0820899 ], [ 38.751810192516203, 9.078578768825427 ], [ 38.756893897561724, 9.078151990315689 ], [ 38.7613576, 9.0810134 ], [ 38.7612186, 9.0800548 ], [ 38.7636937, 9.0758776 ], [ 38.7684722, 9.0768381 ], [ 38.7696094, 9.0769923 ], [ 38.7723361, 9.0776508 ], [ 38.7769619, 9.0750951 ], [ 38.7774843, 9.0730025 ], [ 38.7764087, 9.0679833 ], [ 38.7820199, 9.0676257 ], [ 38.7834871, 9.0688441 ], [ 38.782878350196889, 9.06569051831195 ], [ 38.783725614400183, 9.063780552914897 ], [ 38.7879453, 9.0621472 ], [ 38.7885636, 9.0623535 ], [ 38.788694914500709, 9.061709628806343 ], [ 38.7905653, 9.0617717 ], [ 38.7906305, 9.0617362 ], [ 38.7918138, 9.0598555 ], [ 38.7919658, 9.0591935 ], [ 38.7917857, 9.0588744 ], [ 38.792129, 9.0494167 ], [ 38.7967241, 9.0428703 ], [ 38.79788499286213, 9.039256057690693 ], [ 38.8042312, 9.0365115 ], [ 38.8069644, 9.0447637 ], [ 38.80905777222543, 9.037087221510641 ], [ 38.8144658, 9.0377323 ], [ 38.8162583, 9.044207 ], [ 38.81606, 9.0445909 ], [ 38.816263829119926, 9.044500019316473 ], [ 38.8163043, 9.0466448 ], [ 38.8167161, 9.0474113 ], [ 38.8172729, 9.0474726 ], [ 38.8231803, 9.0462342 ], [ 38.8243626, 9.0528934 ], [ 38.8234104, 9.0540589 ], [ 38.8236424, 9.0542668 ], [ 38.8245289, 9.0548641 ], [ 38.8274968, 9.0551727 ], [ 38.8322228, 9.0555025 ], [ 38.8385418, 9.0535897 ], [ 38.8423777, 9.0510737 ], [ 38.8438708, 9.050832 ], [ 38.8457277, 9.0501837 ], [ 38.847745789967192, 9.054176626498684 ], [ 38.8437213, 9.0585415 ], [ 38.8406691, 9.0567526 ], [ 38.843521, 9.0630858 ], [ 38.8446374, 9.0675065 ], [ 38.8450371, 9.0690732 ], [ 38.8502835, 9.0694646 ], [ 38.855002, 9.0691076 ], [ 38.8586265, 9.0719033 ], [ 38.8592863, 9.0725469 ], [ 38.8613194, 9.0743877 ], [ 38.863089, 9.0812146 ], [ 38.8601499, 9.0875904 ], [ 38.8662304, 9.0863132 ], [ 38.8690026, 9.0852907 ], [ 38.8735825, 9.0824846 ], [ 38.8754292, 9.0759994 ], [ 38.8766274, 9.0742054 ], [ 38.8784769, 9.0711545 ], [ 38.8811155, 9.0658656 ], [ 38.8851718, 9.0638571 ], [ 38.8852997, 9.0623257 ], [ 38.885576, 9.0574365 ], [ 38.8854719, 9.0564243 ], [ 38.885198, 9.0559073 ], [ 38.884086, 9.0552323 ], [ 38.88343611263317, 9.05434688506498 ], [ 38.8851867, 9.0484094 ], [ 38.8853084, 9.0482034 ], [ 38.8891501, 9.0421339 ], [ 38.8924666, 9.0374161 ], [ 38.8990593, 9.0337165 ], [ 38.8953325, 9.027668 ], [ 38.9002302, 9.0222733 ], [ 38.9008565, 9.0197236 ], [ 38.9004207, 9.0112823 ], [ 38.9028293, 9.006449 ], [ 38.9025959, 9.0057496 ], [ 38.9016357, 9.00318 ], [ 38.9023653, 8.9955715 ], [ 38.9016116, 8.9947502 ], [ 38.90038450224818, 8.994647975381715 ], [ 38.901672499999989, 8.99006 ], [ 38.9013089, 8.9865476 ], [ 38.8962032, 8.979302 ], [ 38.8968989, 8.9759151 ], [ 38.89846, 8.9705885 ], [ 38.899451, 8.9690174 ], [ 38.899498, 8.9608478 ], [ 38.8997388, 8.959477 ], [ 38.8994614, 8.9586611 ], [ 38.8970867, 8.9595721 ], [ 38.8907251, 8.9544305 ], [ 38.8871223, 8.9527496 ], [ 38.8836126, 8.9514109 ], [ 38.8757256, 8.9556946 ], [ 38.8748244, 8.9568961 ], [ 38.8724586, 8.9600927 ], [ 38.8710671, 8.9639464 ], [ 38.8713939, 8.9653464 ], [ 38.8716393, 8.9663726 ], [ 38.8730414, 8.9722954 ], [ 38.8726893, 8.9753044 ], [ 38.8683575, 8.973622 ], [ 38.8619397, 8.9685915 ], [ 38.8539979, 8.9723627 ], [ 38.8475228, 8.9742559 ], [ 38.8409653, 8.9806 ], [ 38.839640209260565, 8.98126833779423 ], [ 38.839278, 8.9810251 ], [ 38.830937215114901, 8.978094316159405 ], [ 38.8302928, 8.9775749 ], [ 38.8285251, 8.9717354 ], [ 38.8252518, 8.970978 ], [ 38.8232046, 8.9723026 ], [ 38.8221742, 8.9731118 ], [ 38.8211327, 8.9767138 ], [ 38.8208006, 8.9803978 ], [ 38.809268076286507, 8.985751015880675 ], [ 38.8066972, 8.9860036 ], [ 38.8035562, 8.9852867 ], [ 38.8021619, 8.9853275 ], [ 38.7996331, 8.9854045 ], [ 38.787535626952582, 8.98499383272595 ], [ 38.787271628034794, 8.984827056708276 ], [ 38.779361929612186, 8.977762183304089 ], [ 38.7828796, 8.9680649 ], [ 38.788183795364397, 8.967301267953621 ], [ 38.7919347, 8.9698281 ], [ 38.795565, 8.9657542 ], [ 38.7983287, 8.9653657 ], [ 38.8027051, 8.9639848 ], [ 38.8033937, 8.9620533 ], [ 38.8022639, 8.9605405 ], [ 38.8027172, 8.9550812 ], [ 38.8070489, 8.9529046 ], [ 38.8081755, 8.9500842 ], [ 38.80596, 8.9477287 ], [ 38.8052773, 8.9471922 ], [ 38.7984793, 8.9453468 ], [ 38.7931886, 8.9442637 ], [ 38.7923188, 8.9370136 ], [ 38.7935413, 8.9307486 ], [ 38.7934045, 8.9291442 ], [ 38.787556, 8.927981 ], [ 38.7821717, 8.9235394 ], [ 38.7806285, 8.9245363 ], [ 38.7730272, 8.9253048 ], [ 38.7682445, 8.9295578 ], [ 38.7718448, 8.9242827 ], [ 38.7753573, 8.9219316 ], [ 38.7818361, 8.9174857 ], [ 38.7835244, 8.9170921 ], [ 38.7862642, 8.9142222 ], [ 38.7904456, 8.9114605 ], [ 38.7927932, 8.9116144 ], [ 38.796127, 8.9069258 ], [ 38.802403, 8.9050619 ], [ 38.8112619, 8.9042262 ], [ 38.8136852, 8.9128912 ], [ 38.8182744, 8.9146306 ], [ 38.8206867, 8.9147194 ], [ 38.8231499, 8.9129966 ], [ 38.8314176, 8.908559 ], [ 38.8323892, 8.9075892 ], [ 38.8314798, 8.9043739 ], [ 38.8296791, 8.8958868 ], [ 38.8273814, 8.8897648 ], [ 38.8177525, 8.8893656 ], [ 38.817870074123107, 8.884370369430073 ], [ 38.8262505, 8.8837748 ], [ 38.8283063, 8.8742235 ], [ 38.8288964, 8.8738255 ], [ 38.8294124, 8.8718829 ], [ 38.8282642, 8.8678677 ], [ 38.8257185, 8.8641491 ], [ 38.8237645, 8.8627777 ], [ 38.821191118034271, 8.861866962834309 ], [ 38.8209824, 8.8609258 ], [ 38.8195667, 8.855246 ], [ 38.8173224, 8.8451741 ], [ 38.8167046, 8.8455266 ], [ 38.8113366, 8.8485996 ], [ 38.8056103, 8.8430142 ], [ 38.8050805, 8.8425862 ], [ 38.8044343, 8.8420641 ], [ 38.8026679, 8.8437878 ], [ 38.7953271, 8.840643 ], [ 38.7958238, 8.8425618 ], [ 38.7964123, 8.8466011 ], [ 38.7902337, 8.8528086 ], [ 38.7865525, 8.8538686 ], [ 38.7861146, 8.8540532 ], [ 38.782649, 8.8554641 ], [ 38.7810479, 8.8571116 ], [ 38.7806171, 8.8660652 ], [ 38.780080619921215, 8.867221147759031 ], [ 38.7762773, 8.8668603 ], [ 38.7768864, 8.8606748 ], [ 38.7717511, 8.8660043 ], [ 38.7712106, 8.8654199 ], [ 38.7676451, 8.8585051 ], [ 38.7698477, 8.8550452 ], [ 38.7641859, 8.8575263 ], [ 38.7598783, 8.8627048 ], [ 38.7547489, 8.8626562 ], [ 38.7508929, 8.8631659 ], [ 38.7512389, 8.8648594 ], [ 38.7499793, 8.8704283 ], [ 38.7513368, 8.8719666 ], [ 38.7516461, 8.8722801 ], [ 38.7535933, 8.874389 ], [ 38.7542376, 8.8758044 ], [ 38.7550423, 8.8769559 ], [ 38.750538, 8.881216 ], [ 38.7524524, 8.8870235 ], [ 38.7514025, 8.8886067 ], [ 38.7492835, 8.8916357 ], [ 38.7449276, 8.8938325 ], [ 38.7433773, 8.8943519 ], [ 38.7446272, 8.8963764 ], [ 38.7455898, 8.9006082 ], [ 38.7409141, 8.9038434 ], [ 38.7399629, 8.9038638 ], [ 38.739301295054659, 8.904877585324989 ], [ 38.7391306, 8.9048686 ], [ 38.736824, 8.905357 ], [ 38.7355883, 8.9056527 ], [ 38.7313695, 8.9071775 ], [ 38.7312216, 8.9075352 ], [ 38.7295807, 8.9119588 ], [ 38.727289399999989, 8.9135477 ], [ 38.7270246, 8.9164573 ], [ 38.7226438, 8.9196104 ], [ 38.7199563, 8.9207989 ], [ 38.714174, 8.9207268 ], [ 38.7118909, 8.9244636 ], [ 38.7095736, 8.9293885 ] ], [ [ 38.7888639, 8.9069062 ], [ 38.7875902, 8.9025621 ], [ 38.7899805, 8.89506 ], [ 38.7927742, 8.8912038 ], [ 38.789590954479429, 8.891590897732899 ], [ 38.7877156, 8.8866087 ], [ 38.791467395369828, 8.886479497224153 ], [ 38.7940335, 8.8938498 ], [ 38.792561, 8.9003978 ], [ 38.7939021, 8.9071073 ], [ 38.7927932, 8.9116144 ], [ 38.7888639, 8.9069062 ] ], [ [ 38.7588987, 8.9285794 ], [ 38.7652629, 8.9297203 ], [ 38.766080341222867, 8.930161544284232 ], [ 38.7644273, 8.9306227 ], [ 38.761306303634221, 8.93173745934495 ], [ 38.7609572, 8.9302803 ], [ 38.7588987, 8.9285794 ] ], [ [ 38.7541648, 8.9275505 ], [ 38.749937339018651, 8.923536698057431 ], [ 38.7504724, 8.9206262 ], [ 38.7497851, 8.9178583 ], [ 38.7466899, 8.9129356 ], [ 38.7433099, 8.9110531 ], [ 38.742929971709287, 8.910218278314693 ], [ 38.743378, 8.9101654 ], [ 38.750162, 8.914234 ], [ 38.7524539, 8.9186552 ], [ 38.7526886, 8.9189573 ], [ 38.7589558, 8.9240405 ], [ 38.7589171, 8.9271134 ], [ 38.7588987, 8.9285794 ], [ 38.7541648, 8.9275505 ] ], [ [ 38.8705891, 8.9912559 ], [ 38.86692916185612, 8.99152480315804 ], [ 38.8659556, 8.990281 ], [ 38.868561657847899, 8.984578495470556 ], [ 38.868806, 8.9891138 ], [ 38.869126, 8.9895551 ], [ 38.8705891, 8.9912559 ] ], [ [ 38.8667759, 9.0500706 ], [ 38.8662091, 9.0530629 ], [ 38.8593775, 9.0535595 ], [ 38.858644402458907, 9.049974407501747 ], [ 38.8607468, 9.0494407 ], [ 38.861081977526169, 9.048020569568017 ], [ 38.8620771, 9.0479971 ], [ 38.8651161, 9.047613 ], [ 38.866872562468473, 9.046696509432424 ], [ 38.8670164, 9.0489771 ], [ 38.8669226, 9.0494301 ], [ 38.8667759, 9.0500706 ] ] ] } }
]
}
