{
"type": "FeatureCollection",
"name": "isochrone_shop_butcher_multimodal",
"crs": { "type": "name", "properties": { "name": "urn:ogc:def:crs:OGC:1.3:CRS84" } },
"features": [
{ "type": "Feature", "properties": { "threshold_s": 300, "time_label": "5 minutes" }, "geometry": { "type": "Polygon", "coordinates": [ [ [ 105.8319714, 21.0161826 ], [ 105.8320457, 21.0169889 ], [ 105.832545700000011, 21.0168493 ], [ 105.8337128, 21.0169235 ], [ 105.834469699999985, 21.0167584 ], [ 105.8349147, 21.0166232 ], [ 105.8358908, 21.0170216 ], [ 105.8361228, 21.0168729 ], [ 105.836071299999986, 21.0168028 ], [ 105.8358242, 21.0169337 ], [ 105.8358123, 21.0156345 ], [ 105.8361018, 21.0152475 ], [ 105.8363669, 21.0150184 ], [ 105.8366808, 21.0144854 ], [ 105.836244199999982, 21.0135179 ], [ 105.836497, 21.0133232 ], [ 105.836593, 21.0128342 ], [ 105.836416199999988, 21.0125004 ], [ 105.8362036, 21.0123158 ], [ 105.8352471, 21.0122754 ], [ 105.8350696, 21.0124496 ], [ 105.8348704, 21.0126567 ], [ 105.8351431, 21.0129167 ], [ 105.8351557, 21.0137892 ], [ 105.8341953, 21.0140257 ], [ 105.8340503, 21.0139899 ], [ 105.833624599999979, 21.0138004 ], [ 105.8330234, 21.0132556 ], [ 105.832664, 21.0125905 ], [ 105.8326109, 21.012446 ], [ 105.8323737, 21.0124752 ], [ 105.8322904, 21.0125429 ], [ 105.8324386, 21.0127523 ], [ 105.832871, 21.0134266 ], [ 105.8325814, 21.0139664 ], [ 105.832148, 21.0146376 ], [ 105.8320348, 21.0154946 ], [ 105.8319714, 21.0161826 ] ] ] } },
{ "type": "Feature", "properties": { "threshold_s": 600, "time_label": "10 minutes" }, "geometry": { "type": "Polygon", "coordinates": [ [ [ 105.829609, 21.0188604 ], [ 105.82981, 21.0191076 ], [ 105.830306599999986, 21.01926 ], [ 105.830971, 21.0192748 ], [ 105.831187299999982, 21.0192305 ], [ 105.8324267, 21.0189591 ], [ 105.833853499999989, 21.0195497 ], [ 105.8353298, 21.0192472 ], [ 105.8361238, 21.0194918 ], [ 105.8376187, 21.0198748 ], [ 105.8378045, 21.0197591 ], [ 105.838309, 21.0190208 ], [ 105.8383733, 21.018194 ], [ 105.8384717, 21.0169972 ], [ 105.838667499999985, 21.015332 ], [ 105.8389477, 21.013419 ], [ 105.8387828, 21.0124385 ], [ 105.838595399999988, 21.0117036 ], [ 105.8384003, 21.0103966 ], [ 105.8379433, 21.009784 ], [ 105.835895, 21.0099236 ], [ 105.834968100000012, 21.010101 ], [ 105.8329664, 21.0105372 ], [ 105.8311515, 21.0101143 ], [ 105.8311112, 21.0101008 ], [ 105.829923099999988, 21.0109182 ], [ 105.8294828, 21.0122139 ], [ 105.829950599999989, 21.0139811 ], [ 105.8298053, 21.0154437 ], [ 105.829977099999979, 21.0164177 ], [ 105.829364399999989, 21.0175108 ], [ 105.8294258, 21.0181965 ], [ 105.829609, 21.0188604 ] ] ] } },
{ "type": "Feature", "properties": { "threshold_s": 900, "time_label": "15 minutes" }, "geometry": { "type": "Polygon", "coordinates": [ [ [ 105.827027, 21.0199082 ], [ 105.8273084, 21.0205083 ], [ 105.8286798, 21.0210933 ], [ 105.830962499999984, 21.0218548 ], [ 105.8314849, 21.0220809 ], [ 105.834068, 21.0218578 ], [ 105.835019, 21.0218928 ], [ 105.836732, 21.0225818 ], [ 105.8389209, 21.0225917 ], [ 105.839147400000016, 21.0224295 ], [ 105.839286199999989, 21.0222213 ], [ 105.8393401, 21.0219197 ], [ 105.839471499999988, 21.020778 ], [ 105.8406848, 21.0192221 ], [ 105.8414599, 21.0189756 ], [ 105.8415565, 21.0189052 ], [ 105.8415559, 21.0188474 ], [ 105.8415551, 21.0187951 ], [ 105.8414744, 21.0187112 ], [ 105.840023599999981, 21.01726 ], [ 105.8414776, 21.0153138 ], [ 105.8414563, 21.0134154 ], [ 105.8413515, 21.0110836 ], [ 105.8414412, 21.0105853 ], [ 105.84115509999998, 21.010313 ], [ 105.8407625, 21.0080207 ], [ 105.8407724, 21.0079662 ], [ 105.840333, 21.0077193 ], [ 105.8388465, 21.0073508 ], [ 105.8376484, 21.0080979 ], [ 105.835623199999986, 21.0078223 ], [ 105.8354845, 21.0077463 ], [ 105.834466399999982, 21.0077357 ], [ 105.8326686, 21.0075434 ], [ 105.831663, 21.0080292 ], [ 105.8313169, 21.0082426 ], [ 105.8309121, 21.0087241 ], [ 105.830266899999984, 21.009874 ], [ 105.8279393, 21.0108629 ], [ 105.8277727, 21.0110523 ], [ 105.8277266, 21.0111623 ], [ 105.8277776, 21.0119929 ], [ 105.827766199999985, 21.0130016 ], [ 105.827412899999985, 21.0152724 ], [ 105.827226199999984, 21.0167571 ], [ 105.8270599, 21.018549 ], [ 105.827027, 21.0199082 ] ] ] } },
{ "type": "Feature", "properties": { "threshold_s": 300, "time_label": "5 minutes" }, "geometry": { "type": "Polygon", "coordinates": [ [ [ 105.856467599999988, 20.9966314 ], [ 105.85626019999998, 20.9965183 ], [ 105.856280199999986, 20.9969834 ], [ 105.8566139, 20.9971954 ], [ 105.857021799999984, 20.9975276 ], [ 105.8573337, 20.9973647 ], [ 105.857785899999982, 20.9972567 ], [ 105.858066599999987, 20.9973952 ], [ 105.8583012, 20.9975131 ], [ 105.8583253, 20.9974807 ], [ 105.8587861, 20.9970983 ], [ 105.8587287, 20.9966954 ], [ 105.8592079, 20.9964494 ], [ 105.859281, 20.9962941 ], [ 105.8595716, 20.9958118 ], [ 105.860148599999988, 20.9958522 ], [ 105.8602766, 20.9958028 ], [ 105.8601749, 20.9957732 ], [ 105.8595993, 20.995601 ], [ 105.859222099999982, 20.9955041 ], [ 105.8587604, 20.9954104 ], [ 105.858421399999983, 20.995762 ], [ 105.8581707, 20.9956602 ], [ 105.8577382, 20.9953086 ], [ 105.857139499999988, 20.9953134 ], [ 105.857156100000012, 20.9953876 ], [ 105.8577526, 20.9953814 ], [ 105.857718899999981, 20.9958875 ], [ 105.85728779999998, 20.9962296 ], [ 105.8567181, 20.9958102 ], [ 105.8562289, 20.9954074 ], [ 105.8556667, 20.995477 ], [ 105.8550574, 20.9955521 ], [ 105.8550916, 20.9957997 ], [ 105.855551299999988, 20.9960752 ], [ 105.8556563, 20.9961286 ], [ 105.8555606, 20.9957565 ], [ 105.8556343, 20.995557 ], [ 105.856129899999985, 20.9954853 ], [ 105.8566242, 20.9958353 ], [ 105.856981, 20.9963787 ], [ 105.856467599999988, 20.9966314 ] ] ] } },
{ "type": "Feature", "properties": { "threshold_s": 600, "time_label": "10 minutes" }, "geometry": { "type": "Polygon", "coordinates": [ [ [ 105.851917, 20.9960933 ], [ 105.852339, 20.9965739 ], [ 105.852754799999985, 20.9968758 ], [ 105.8531994, 20.9969877 ], [ 105.855116399999986, 20.9978114 ], [ 105.855657, 20.9994524 ], [ 105.856427, 21.000377 ], [ 105.858046, 21.0004221 ], [ 105.859246699999986, 21.0000573 ], [ 105.860194299999989, 20.9996114 ], [ 105.8607865, 20.9991342 ], [ 105.8610312, 20.9987872 ], [ 105.8616053, 20.9978441 ], [ 105.8626194, 20.9972112 ], [ 105.863292699999988, 20.9965351 ], [ 105.8625763, 20.9959598 ], [ 105.8621821, 20.994691 ], [ 105.862121699999989, 20.9946673 ], [ 105.8610378, 20.9929902 ], [ 105.8611486, 20.9927535 ], [ 105.8601019, 20.9932481 ], [ 105.8581994, 20.9942034 ], [ 105.8577074, 20.9949656 ], [ 105.8561889, 20.9950614 ], [ 105.8554723, 20.9941455 ], [ 105.8545778, 20.994163 ], [ 105.854116299999987, 20.9942345 ], [ 105.852293299999985, 20.9951658 ], [ 105.851945699999987, 20.9956198 ], [ 105.851887, 20.995906 ], [ 105.851917, 20.9960933 ] ] ] } },
{ "type": "Feature", "properties": { "threshold_s": 900, "time_label": "15 minutes" }, "geometry": { "type": "Polygon", "coordinates": [ [ [ 105.853424100000012, 21.0011949 ], [ 105.854325299999985, 21.0029146 ], [ 105.8550897, 21.0029221 ], [ 105.8563376, 21.0027509 ], [ 105.8583971, 21.003077 ], [ 105.859175, 21.0029072 ], [ 105.8596607, 21.002517 ], [ 105.861973, 21.0011494 ], [ 105.86365, 21.0006573 ], [ 105.8650826, 20.9984934 ], [ 105.8661244, 20.9979121 ], [ 105.866153699999984, 20.9978383 ], [ 105.8658515, 20.9967888 ], [ 105.8655122, 20.9959622 ], [ 105.864521199999984, 20.9942127 ], [ 105.864363400000016, 20.9939693 ], [ 105.8637302, 20.9931336 ], [ 105.8632298, 20.9927216 ], [ 105.8626514, 20.9906969 ], [ 105.8614918, 20.9898964 ], [ 105.860732499999983, 20.9903256 ], [ 105.858919, 20.9915717 ], [ 105.858118, 20.9919304 ], [ 105.857253199999988, 20.9923073 ], [ 105.8552742, 20.9918143 ], [ 105.8536389, 20.9918248 ], [ 105.853390599999983, 20.9920683 ], [ 105.8525059, 20.9929817 ], [ 105.8517661, 20.9937858 ], [ 105.8497181, 20.9946712 ], [ 105.849317, 20.9949403 ], [ 105.8482163, 20.9963209 ], [ 105.848223799999985, 20.9963714 ], [ 105.8500959, 20.9978438 ], [ 105.8522458, 20.999227 ], [ 105.8524202, 20.9995401 ], [ 105.853424100000012, 21.0011949 ] ] ] } },
{ "type": "Feature", "properties": { "threshold_s": 300, "time_label": "5 minutes" }, "geometry": { "type": "Polygon", "coordinates": [ [ [ 105.8044407, 21.0230179 ], [ 105.8038228, 21.0234035 ], [ 105.804339699999986, 21.0235534 ], [ 105.8044485, 21.0235178 ], [ 105.805189199999987, 21.0241907 ], [ 105.80521539999998, 21.0246292 ], [ 105.8052208, 21.0247298 ], [ 105.8056914, 21.0246728 ], [ 105.8058876, 21.02468 ], [ 105.8059927, 21.024685 ], [ 105.8069334, 21.0251207 ], [ 105.8069097, 21.0256396 ], [ 105.8069181, 21.0259672 ], [ 105.807434099999981, 21.0255276 ], [ 105.8070642, 21.0251164 ], [ 105.8069073, 21.0241396 ], [ 105.807109, 21.0240932 ], [ 105.8071633, 21.0240845 ], [ 105.8076022, 21.0240372 ], [ 105.8080302, 21.023969 ], [ 105.808356599999982, 21.0232589 ], [ 105.8088273, 21.0231578 ], [ 105.809626099999988, 21.0229577 ], [ 105.8099234, 21.0231989 ], [ 105.809479, 21.0224841 ], [ 105.808599199999989, 21.0223482 ], [ 105.8077316, 21.0221282 ], [ 105.807031199999983, 21.0220978 ], [ 105.8066473, 21.0221571 ], [ 105.8059401, 21.0219923 ], [ 105.805596599999987, 21.0219407 ], [ 105.804871, 21.0225018 ], [ 105.8044407, 21.0230179 ] ] ] } },
{ "type": "Feature", "properties": { "threshold_s": 600, "time_label": "10 minutes" }, "geometry": { "type": "Polygon", "coordinates": [ [ [ 105.803256500000018, 21.0256269 ], [ 105.803271599999988, 21.0261308 ], [ 105.80403, 21.0266087 ], [ 105.8044767, 21.0267774 ], [ 105.805723500000013, 21.0268544 ], [ 105.8065066, 21.0267044 ], [ 105.8078541, 21.0268275 ], [ 105.807848, 21.0273466 ], [ 105.8086705, 21.0273458 ], [ 105.80870419999998, 21.0270232 ], [ 105.808695299999982, 21.0269671 ], [ 105.808483699999982, 21.0264968 ], [ 105.808786199999986, 21.0256547 ], [ 105.81003149999998, 21.0259996 ], [ 105.8109821, 21.0253586 ], [ 105.8117825, 21.0245785 ], [ 105.8113917, 21.0235084 ], [ 105.811367299999986, 21.0228092 ], [ 105.8111677, 21.0220555 ], [ 105.810535499999986, 21.0215311 ], [ 105.810034200000018, 21.0208119 ], [ 105.8096496, 21.0203067 ], [ 105.8087689, 21.0196728 ], [ 105.8082977, 21.0195148 ], [ 105.8081469, 21.0195374 ], [ 105.807978399999982, 21.0196409 ], [ 105.8072235, 21.0205315 ], [ 105.807206599999986, 21.0211898 ], [ 105.8066272, 21.022159 ], [ 105.8059401, 21.0219923 ], [ 105.805596599999987, 21.0219407 ], [ 105.804741, 21.0220295 ], [ 105.8043671, 21.0209969 ], [ 105.804238699999985, 21.0209044 ], [ 105.8038872, 21.0208114 ], [ 105.803521499999988, 21.0207179 ], [ 105.8027929, 21.0215867 ], [ 105.801933099999985, 21.0224966 ], [ 105.8013312, 21.0224974 ], [ 105.800830799999986, 21.022804 ], [ 105.8008167, 21.022836 ], [ 105.8012306, 21.0229875 ], [ 105.801785, 21.0231352 ], [ 105.802385299999983, 21.0232887 ], [ 105.8029539, 21.0244178 ], [ 105.803256500000018, 21.0256269 ] ] ] } },
{ "type": "Feature", "properties": { "threshold_s": 900, "time_label": "15 minutes" }, "geometry": { "type": "Polygon", "coordinates": [ [ [ 105.798246, 21.0238218 ], [ 105.798267599999988, 21.0244053 ], [ 105.798322399999989, 21.0244282 ], [ 105.799926499999984, 21.0250722 ], [ 105.800287600000019, 21.0258002 ], [ 105.8011857, 21.0264779 ], [ 105.8016309, 21.0257725 ], [ 105.803271599999988, 21.0261308 ], [ 105.8038128, 21.0269374 ], [ 105.8037972, 21.0278498 ], [ 105.80307879999998, 21.0288867 ], [ 105.8031411, 21.0289799 ], [ 105.8034678, 21.0290551 ], [ 105.8050825, 21.0288402 ], [ 105.8059635, 21.0291745 ], [ 105.806562699999986, 21.0291322 ], [ 105.8081992, 21.0284131 ], [ 105.8092674, 21.0291229 ], [ 105.8099911, 21.0287313 ], [ 105.810502899999989, 21.0284769 ], [ 105.812133299999985, 21.0288429 ], [ 105.8122874, 21.0288938 ], [ 105.812878399999988, 21.0281866 ], [ 105.8138205, 21.0270628 ], [ 105.813250899999986, 21.0254295 ], [ 105.8137927, 21.0246625 ], [ 105.81391, 21.0234963 ], [ 105.812651, 21.0221507 ], [ 105.812689099999986, 21.0218832 ], [ 105.8123482, 21.0203215 ], [ 105.8122765, 21.0190151 ], [ 105.8122381, 21.0187911 ], [ 105.811853299999981, 21.0182328 ], [ 105.8116067, 21.0181059 ], [ 105.810578, 21.0178003 ], [ 105.8095332, 21.0176093 ], [ 105.8080238, 21.0170885 ], [ 105.806741699999989, 21.016879 ], [ 105.8062583, 21.0168927 ], [ 105.8062112, 21.0169399 ], [ 105.806017399999988, 21.0171341 ], [ 105.8058526, 21.0172866 ], [ 105.805465500000011, 21.018842 ], [ 105.803930400000013, 21.0182235 ], [ 105.8027119, 21.0186004 ], [ 105.801257699999979, 21.0198151 ], [ 105.8009705, 21.0198059 ], [ 105.8008976, 21.019902 ], [ 105.800869899999981, 21.0199416 ], [ 105.8009712, 21.0202737 ], [ 105.8008861, 21.021622 ], [ 105.8001907, 21.0225723 ], [ 105.799856299999988, 21.0228707 ], [ 105.7996749, 21.0230387 ], [ 105.798246, 21.0238218 ] ] ] } },
{ "type": "Feature", "properties": { "threshold_s": 300, "time_label": "5 minutes" }, "geometry": { "type": "Polygon", "coordinates": [ [ [ 105.7743462, 21.0747052 ], [ 105.7746549, 21.0751279 ], [ 105.774875900000012, 21.0752851 ], [ 105.7754298, 21.0750273 ], [ 105.7749154, 21.0745117 ], [ 105.775474299999985, 21.0742155 ], [ 105.775679899999986, 21.0742224 ], [ 105.7759632, 21.074233 ], [ 105.7770302, 21.0744283 ], [ 105.7770238, 21.0745699 ], [ 105.7770229, 21.0746529 ], [ 105.7773424, 21.0751759 ], [ 105.7773094, 21.074569 ], [ 105.7772867, 21.0742853 ], [ 105.7772242, 21.0736393 ], [ 105.777149699999981, 21.0736404 ], [ 105.7760082, 21.0732205 ], [ 105.775488700000011, 21.0738128 ], [ 105.775081, 21.0732566 ], [ 105.7748208, 21.0738884 ], [ 105.774339199999986, 21.0736741 ], [ 105.773744099999988, 21.0741765 ], [ 105.774298099999982, 21.0741798 ], [ 105.7743462, 21.0747052 ] ] ] } },
{ "type": "Feature", "properties": { "threshold_s": 600, "time_label": "10 minutes" }, "geometry": { "type": "Polygon", "coordinates": [ [ [ 105.773451099999988, 21.0764083 ], [ 105.773413799999986, 21.0769538 ], [ 105.7737911, 21.0772531 ], [ 105.7741167, 21.0773673 ], [ 105.7742894, 21.0774119 ], [ 105.774467200000018, 21.0771178 ], [ 105.7745129, 21.0769364 ], [ 105.77429979999998, 21.0760237 ], [ 105.774875900000012, 21.0752851 ], [ 105.7754298, 21.0750273 ], [ 105.776642099999989, 21.0749197 ], [ 105.776854, 21.0758445 ], [ 105.776870099999982, 21.0768606 ], [ 105.7776627, 21.077793 ], [ 105.777500599999982, 21.0767735 ], [ 105.777415099999985, 21.0761416 ], [ 105.7773925, 21.0758505 ], [ 105.7773424, 21.0751759 ], [ 105.7773094, 21.074569 ], [ 105.7772867, 21.0742853 ], [ 105.7772295, 21.0737675 ], [ 105.7788263, 21.0736288 ], [ 105.7790688, 21.073907 ], [ 105.778659099999985, 21.0732403 ], [ 105.7772242, 21.0736393 ], [ 105.77715640000001, 21.0733298 ], [ 105.77720069999998, 21.0730263 ], [ 105.777151099999983, 21.0730257 ], [ 105.77692, 21.0730297 ], [ 105.777115499999979, 21.0715521 ], [ 105.7770995, 21.0709373 ], [ 105.7763163, 21.0715555 ], [ 105.7751817, 21.0715603 ], [ 105.7748681, 21.0712818 ], [ 105.7746297, 21.0709018 ], [ 105.773628799999983, 21.071539 ], [ 105.7738719, 21.0718921 ], [ 105.7740055, 21.0729755 ], [ 105.7736179, 21.0733264 ], [ 105.772625299999987, 21.0735014 ], [ 105.7725343, 21.0735156 ], [ 105.772524799999985, 21.0737294 ], [ 105.7721149, 21.0747635 ], [ 105.772095899999982, 21.0754558 ], [ 105.7724575, 21.0756087 ], [ 105.773451099999988, 21.0764083 ] ] ] } },
{ "type": "Feature", "properties": { "threshold_s": 900, "time_label": "15 minutes" }, "geometry": { "type": "Polygon", "coordinates": [ [ [ 105.7718437, 21.0771504 ], [ 105.7717404, 21.0795122 ], [ 105.7729984, 21.0796637 ], [ 105.7746077, 21.079979 ], [ 105.774978, 21.0799184 ], [ 105.77556869999998, 21.0797324 ], [ 105.777930499999982, 21.0804043 ], [ 105.778017899999981, 21.081092 ], [ 105.779273099999983, 21.0797836 ], [ 105.779753499999984, 21.0790858 ], [ 105.779628, 21.0786223 ], [ 105.779176299999989, 21.0786539 ], [ 105.7776627, 21.077793 ], [ 105.777500599999982, 21.0767735 ], [ 105.777415099999985, 21.0761416 ], [ 105.7773925, 21.0758505 ], [ 105.7773424, 21.0751759 ], [ 105.7790688, 21.073907 ], [ 105.778659099999985, 21.0732403 ], [ 105.7806534, 21.0718024 ], [ 105.780854300000016, 21.0715323 ], [ 105.780768499999979, 21.0715327 ], [ 105.7794672, 21.0694203 ], [ 105.779288099999988, 21.0682358 ], [ 105.7789567, 21.0677362 ], [ 105.7765708, 21.0680398 ], [ 105.776008099999984, 21.0681381 ], [ 105.774825299999989, 21.0689603 ], [ 105.7725305, 21.0699632 ], [ 105.7721452, 21.0701348 ], [ 105.7714641, 21.0705273 ], [ 105.770197199999984, 21.0715389 ], [ 105.7710697, 21.0718181 ], [ 105.7722278, 21.07326 ], [ 105.7721149, 21.0747635 ], [ 105.772095899999982, 21.0754558 ], [ 105.7718437, 21.0771504 ] ] ] } },
{ "type": "Feature", "properties": { "threshold_s": 300, "time_label": "5 minutes" }, "geometry": { "type": "Polygon", "coordinates": [ [ [ 105.8073434, 21.0484856 ], [ 105.807453899999985, 21.0486808 ], [ 105.8079498, 21.0490397 ], [ 105.808596599999987, 21.0492237 ], [ 105.8090056, 21.0496034 ], [ 105.809879599999988, 21.0498714 ], [ 105.8105841, 21.0498245 ], [ 105.8110697, 21.0499171 ], [ 105.8117006, 21.0495838 ], [ 105.8117909, 21.0488689 ], [ 105.8122967, 21.0487921 ], [ 105.8119345, 21.0481545 ], [ 105.8119187, 21.0475611 ], [ 105.81267440000002, 21.0470148 ], [ 105.8128041, 21.0466482 ], [ 105.8125447, 21.0463299 ], [ 105.8125217, 21.0463024 ], [ 105.812151299999982, 21.0459931 ], [ 105.811661799999982, 21.0464801 ], [ 105.81090829999998, 21.0461598 ], [ 105.810636799999983, 21.0463123 ], [ 105.809943299999986, 21.0459175 ], [ 105.809509, 21.046444 ], [ 105.8094841, 21.0468313 ], [ 105.809948399999982, 21.0473388 ], [ 105.8096169, 21.0481095 ], [ 105.809358399999979, 21.0481545 ], [ 105.80921859999998, 21.0481726 ], [ 105.8090346, 21.0481957 ], [ 105.8085731, 21.0473979 ], [ 105.808315, 21.0474515 ], [ 105.807488899999981, 21.0479499 ], [ 105.8073434, 21.0484856 ] ] ] } },
{ "type": "Feature", "properties": { "threshold_s": 600, "time_label": "10 minutes" }, "geometry": { "type": "Polygon", "coordinates": [ [ [ 105.804917799999984, 21.0496217 ], [ 105.8049153, 21.0496339 ], [ 105.805311299999985, 21.0498411 ], [ 105.8056377, 21.0499605 ], [ 105.8065569, 21.0501278 ], [ 105.8067438, 21.0512301 ], [ 105.8068798, 21.0511335 ], [ 105.80791, 21.0510376 ], [ 105.808391199999988, 21.0514451 ], [ 105.808468499999989, 21.051525 ], [ 105.8086538, 21.0517481 ], [ 105.808757799999981, 21.0518819 ], [ 105.8097103, 21.0519666 ], [ 105.8107361, 21.0524424 ], [ 105.8111957, 21.0523865 ], [ 105.812373199999982, 21.0522413 ], [ 105.8126682, 21.0522213 ], [ 105.812782900000016, 21.0518965 ], [ 105.8128137, 21.0511793 ], [ 105.813290599999988, 21.0506848 ], [ 105.8129042, 21.0496518 ], [ 105.8135211, 21.0493913 ], [ 105.814043199999986, 21.0492446 ], [ 105.8142875, 21.0487108 ], [ 105.8142939, 21.047538 ], [ 105.814404399999987, 21.0464718 ], [ 105.8144823, 21.0462496 ], [ 105.8153309, 21.0455109 ], [ 105.8152566, 21.0442983 ], [ 105.815430099999986, 21.0440993 ], [ 105.8145582, 21.0441326 ], [ 105.8141123, 21.043334 ], [ 105.813515699999982, 21.0437966 ], [ 105.8125166, 21.0436046 ], [ 105.8114842, 21.0434623 ], [ 105.8105285, 21.0435255 ], [ 105.809971399999981, 21.0432465 ], [ 105.8088725, 21.0432883 ], [ 105.808625799999987, 21.0433135 ], [ 105.8080724, 21.0440659 ], [ 105.8080225, 21.0446081 ], [ 105.807191099999983, 21.0454588 ], [ 105.80626909999998, 21.0458332 ], [ 105.8053757, 21.0463299 ], [ 105.8053686, 21.0464262 ], [ 105.8053678, 21.0469627 ], [ 105.8054116, 21.0477331 ], [ 105.8052287, 21.0482628 ], [ 105.8051624, 21.0484623 ], [ 105.8050121, 21.0492246 ], [ 105.804917799999984, 21.0496217 ] ] ] } },
{ "type": "Feature", "properties": { "threshold_s": 900, "time_label": "15 minutes" }, "geometry": { "type": "Polygon", "coordinates": [ [ [ 105.802862599999983, 21.0510215 ], [ 105.804574, 21.0531306 ], [ 105.804641099999984, 21.0531307 ], [ 105.80614, 21.0532883 ], [ 105.8088912, 21.0552491 ], [ 105.811723299999983, 21.0547895 ], [ 105.8121901, 21.053685 ], [ 105.8125248, 21.0527532 ], [ 105.814043199999986, 21.0492446 ], [ 105.8142875, 21.0487108 ], [ 105.8142939, 21.047538 ], [ 105.816927099999987, 21.0449848 ], [ 105.8177943, 21.044627 ], [ 105.8185693, 21.0435493 ], [ 105.8185603, 21.0434901 ], [ 105.8166334, 21.0418004 ], [ 105.8144224, 21.041339 ], [ 105.81049179999998, 21.0406419 ], [ 105.8092979, 21.0406163 ], [ 105.8063923, 21.0423722 ], [ 105.804268, 21.0439895 ], [ 105.8023804, 21.0459928 ], [ 105.8022117, 21.0463151 ], [ 105.8022109, 21.0463808 ], [ 105.802211499999984, 21.0464852 ], [ 105.8024037, 21.0494371 ], [ 105.8025592, 21.0500885 ], [ 105.8027328, 21.0506714 ], [ 105.802862599999983, 21.0510215 ] ] ] } },
{ "type": "Feature", "properties": { "threshold_s": 300, "time_label": "5 minutes" }, "geometry": { "type": "Polygon", "coordinates": [ [ [ 105.782216099999985, 21.0459854 ], [ 105.7821494, 21.0460466 ], [ 105.782811399999986, 21.0464074 ], [ 105.783305299999981, 21.0468559 ], [ 105.783783299999982, 21.0463688 ], [ 105.7841423, 21.0463316 ], [ 105.784405799999988, 21.0472971 ], [ 105.7843945, 21.0463314 ], [ 105.7850396, 21.046186 ], [ 105.7852144, 21.0463283 ], [ 105.785957699999983, 21.0462642 ], [ 105.7860577, 21.0463893 ], [ 105.7864521, 21.0463264 ], [ 105.786526499999979, 21.0462594 ], [ 105.7865228, 21.0460779 ], [ 105.7865206, 21.0459718 ], [ 105.7863709, 21.0452714 ], [ 105.786371599999981, 21.0450113 ], [ 105.7863721, 21.0447812 ], [ 105.786372699999987, 21.044547 ], [ 105.7863733, 21.0442887 ], [ 105.7862202, 21.0435756 ], [ 105.7863306, 21.0435279 ], [ 105.785836, 21.0431214 ], [ 105.78540049999998, 21.0429028 ], [ 105.7848302, 21.0426568 ], [ 105.784783799999985, 21.0426585 ], [ 105.7845191, 21.0432487 ], [ 105.7841578, 21.0432544 ], [ 105.78416, 21.0434432 ], [ 105.784160899999989, 21.0436997 ], [ 105.7845286, 21.0441589 ], [ 105.784270099999986, 21.0446653 ], [ 105.7837319, 21.044651 ], [ 105.7834706, 21.0447931 ], [ 105.7831168, 21.0452388 ], [ 105.782774499999988, 21.0451519 ], [ 105.7831153, 21.0455262 ], [ 105.782767299999989, 21.0459896 ], [ 105.782216099999985, 21.0459854 ] ] ] } },
{ "type": "Feature", "properties": { "threshold_s": 600, "time_label": "10 minutes" }, "geometry": { "type": "Polygon", "coordinates": [ [ [ 105.781032899999985, 21.0483161 ], [ 105.7810385, 21.0483954 ], [ 105.7816444, 21.0487182 ], [ 105.781728799999982, 21.0485204 ], [ 105.7826497, 21.0477831 ], [ 105.7834723, 21.0488545 ], [ 105.783401899999987, 21.049042 ], [ 105.783357199999983, 21.0492545 ], [ 105.783352899999983, 21.0493784 ], [ 105.7833513, 21.0494245 ], [ 105.783362299999979, 21.0498581 ], [ 105.7838077, 21.0501071 ], [ 105.784728, 21.0500737 ], [ 105.7847271, 21.0499655 ], [ 105.784443399999986, 21.0490411 ], [ 105.784439799999987, 21.048853 ], [ 105.7844359, 21.0486508 ], [ 105.7844339, 21.0485474 ], [ 105.7853056, 21.047304 ], [ 105.7859135, 21.0472407 ], [ 105.786916, 21.0480906 ], [ 105.7878957, 21.0476673 ], [ 105.789378, 21.0470644 ], [ 105.7901166, 21.0458687 ], [ 105.788745, 21.045933 ], [ 105.787475299999983, 21.0457948 ], [ 105.7863721, 21.0447812 ], [ 105.786372699999987, 21.044547 ], [ 105.7872938, 21.0435485 ], [ 105.788000199999985, 21.0435252 ], [ 105.788841799999986, 21.0437971 ], [ 105.789207, 21.0437974 ], [ 105.789216100000019, 21.0437974 ], [ 105.789318, 21.0437983 ], [ 105.789397, 21.0437988 ], [ 105.7897373, 21.0435912 ], [ 105.7892109, 21.0426912 ], [ 105.7888584, 21.0416393 ], [ 105.788290799999984, 21.0411097 ], [ 105.7871526, 21.0407936 ], [ 105.7866532, 21.0403705 ], [ 105.786114199999986, 21.0400689 ], [ 105.7861168, 21.040141 ], [ 105.7861258, 21.0403896 ], [ 105.784721499999989, 21.0411519 ], [ 105.7840116, 21.0404441 ], [ 105.7833545, 21.0408278 ], [ 105.782699799999989, 21.0415427 ], [ 105.782521200000019, 21.0418813 ], [ 105.7813004, 21.0428635 ], [ 105.780829399999988, 21.043626 ], [ 105.7806694, 21.0441221 ], [ 105.7796332, 21.0450841 ], [ 105.779167499999986, 21.0450499 ], [ 105.77874079999998, 21.0455643 ], [ 105.7796723, 21.0462948 ], [ 105.7811332, 21.0464801 ], [ 105.781554799999981, 21.0475012 ], [ 105.781024799999983, 21.048201 ], [ 105.781032899999985, 21.0483161 ] ] ] } },
{ "type": "Feature", "properties": { "threshold_s": 900, "time_label": "15 minutes" }, "geometry": { "type": "Polygon", "coordinates": [ [ [ 105.7796421, 21.0490039 ], [ 105.778392, 21.0489944 ], [ 105.7796217, 21.0501913 ], [ 105.781224599999987, 21.051396 ], [ 105.781941799999984, 21.0519545 ], [ 105.78332469999998, 21.0522071 ], [ 105.785534799999979, 21.0522411 ], [ 105.7860464, 21.0517605 ], [ 105.788158, 21.0509461 ], [ 105.7898877, 21.049598 ], [ 105.7902396, 21.0493137 ], [ 105.7911131, 21.0484843 ], [ 105.79242619999998, 21.0471675 ], [ 105.7926589, 21.0468928 ], [ 105.7932617, 21.0460921 ], [ 105.793263600000017, 21.0460236 ], [ 105.7926758, 21.043962 ], [ 105.792677399999988, 21.0437528 ], [ 105.7926778, 21.0436939 ], [ 105.7926798, 21.0434312 ], [ 105.792697099999984, 21.0428615 ], [ 105.79256, 21.0415727 ], [ 105.791382399999989, 21.0405023 ], [ 105.7908282, 21.0399306 ], [ 105.7907336, 21.0398485 ], [ 105.7904322, 21.0396836 ], [ 105.7902813, 21.0396853 ], [ 105.790184599999989, 21.0396864 ], [ 105.789587400000016, 21.0396931 ], [ 105.787767299999985, 21.0391741 ], [ 105.78713759999998, 21.0391192 ], [ 105.7859808, 21.0377511 ], [ 105.78597809999998, 21.0376868 ], [ 105.7859795, 21.0375671 ], [ 105.785962899999987, 21.0370416 ], [ 105.7859586, 21.0369137 ], [ 105.785725699999986, 21.0370869 ], [ 105.785317099999986, 21.0374001 ], [ 105.7837389, 21.0380472 ], [ 105.7829837, 21.038073 ], [ 105.7826224, 21.0385585 ], [ 105.781307, 21.0396443 ], [ 105.7804597, 21.0405192 ], [ 105.7803951, 21.0406082 ], [ 105.780281499999987, 21.0409199 ], [ 105.7791163, 21.0427546 ], [ 105.77815769999998, 21.0439175 ], [ 105.7770629, 21.0441218 ], [ 105.776008, 21.0448212 ], [ 105.776750199999981, 21.0453247 ], [ 105.7774027, 21.045569 ], [ 105.778127799999979, 21.0456712 ], [ 105.779164, 21.0461272 ], [ 105.7796723, 21.0462948 ], [ 105.7807416, 21.0481428 ], [ 105.7796421, 21.0490039 ] ] ] } },
{ "type": "Feature", "properties": { "threshold_s": 300, "time_label": "5 minutes" }, "geometry": { "type": "Polygon", "coordinates": [ [ [ 105.7953849, 21.008078 ], [ 105.7953676, 21.0083636 ], [ 105.795413, 21.0083956 ], [ 105.7958175, 21.0080088 ], [ 105.796387399999986, 21.0080548 ], [ 105.7968543, 21.0082733 ], [ 105.7967655, 21.0080731 ], [ 105.796593499999986, 21.0078166 ], [ 105.7967198, 21.0070475 ], [ 105.7967597, 21.0069976 ], [ 105.7971437, 21.0061727 ], [ 105.797696099999982, 21.0061719 ], [ 105.797778, 21.00561 ], [ 105.7976951, 21.0054907 ], [ 105.7975231, 21.0052974 ], [ 105.797483899999989, 21.0053443 ], [ 105.797449899999989, 21.0053874 ], [ 105.797070399999981, 21.006101 ], [ 105.796606200000014, 21.0065249 ], [ 105.7958305, 21.0062977 ], [ 105.7955953, 21.0061251 ], [ 105.795142899999988, 21.0058598 ], [ 105.79516, 21.0039199 ], [ 105.7952323, 21.0037605 ], [ 105.7944389, 21.0037846 ], [ 105.7945717, 21.0044673 ], [ 105.7945869, 21.0048592 ], [ 105.794712299999986, 21.0051821 ], [ 105.7948104, 21.0054889 ], [ 105.7949055, 21.0057862 ], [ 105.7950095, 21.0060112 ], [ 105.7948356, 21.0068051 ], [ 105.795342599999984, 21.007529 ], [ 105.7953849, 21.008078 ] ] ] } },
{ "type": "Feature", "properties": { "threshold_s": 600, "time_label": "10 minutes" }, "geometry": { "type": "Polygon", "coordinates": [ [ [ 105.7929115, 21.0094873 ], [ 105.7935331, 21.0103479 ], [ 105.7935751, 21.0103763 ], [ 105.793691699999982, 21.0104549 ], [ 105.7938543, 21.010431 ], [ 105.79486, 21.0105778 ], [ 105.7952317, 21.010919 ], [ 105.7962212, 21.0103238 ], [ 105.7966549, 21.0109865 ], [ 105.7977659, 21.0107428 ], [ 105.798517599999983, 21.010437 ], [ 105.799500599999988, 21.0101065 ], [ 105.798905299999987, 21.0096011 ], [ 105.798924, 21.0085546 ], [ 105.7989143, 21.0084674 ], [ 105.7988712, 21.0084383 ], [ 105.7988227, 21.0084055 ], [ 105.798748100000012, 21.0084142 ], [ 105.7976242, 21.0083774 ], [ 105.7975168, 21.0082989 ], [ 105.796593499999986, 21.0078166 ], [ 105.7967198, 21.0070475 ], [ 105.7967597, 21.0069976 ], [ 105.7971437, 21.0061727 ], [ 105.797696099999982, 21.0061719 ], [ 105.797867, 21.0056685 ], [ 105.798122599999985, 21.0050253 ], [ 105.798721499999985, 21.0043356 ], [ 105.7994187, 21.0045162 ], [ 105.7999721, 21.0049901 ], [ 105.799515499999984, 21.0056809 ], [ 105.7989289, 21.0062547 ], [ 105.7989419, 21.0063702 ], [ 105.7994212, 21.0067271 ], [ 105.7998312, 21.0071428 ], [ 105.799885499999988, 21.0071839 ], [ 105.799939, 21.0072245 ], [ 105.8000269, 21.0072321 ], [ 105.800056199999986, 21.007198 ], [ 105.800108, 21.0071377 ], [ 105.800164699999982, 21.0061831 ], [ 105.800139099999981, 21.0058787 ], [ 105.8001915, 21.005006 ], [ 105.799930599999982, 21.0039461 ], [ 105.7998944, 21.00392 ], [ 105.7997997, 21.0028296 ], [ 105.799252699999982, 21.0028746 ], [ 105.7989509, 21.0031073 ], [ 105.7986874, 21.0034581 ], [ 105.7986398, 21.0040783 ], [ 105.7980949, 21.0049604 ], [ 105.7975231, 21.0052974 ], [ 105.797483899999989, 21.0053443 ], [ 105.797449899999989, 21.0053874 ], [ 105.797070399999981, 21.006101 ], [ 105.796606200000014, 21.0065249 ], [ 105.7958305, 21.0062977 ], [ 105.7953821, 21.005406 ], [ 105.7945869, 21.0048592 ], [ 105.7949187, 21.0041499 ], [ 105.7958723, 21.0041917 ], [ 105.796420399999988, 21.0046672 ], [ 105.7964612, 21.0046121 ], [ 105.7964941, 21.0045734 ], [ 105.7959014, 21.0041552 ], [ 105.7956232, 21.0034773 ], [ 105.795095, 21.0029009 ], [ 105.795236099999983, 21.0024269 ], [ 105.7960541, 21.0018554 ], [ 105.795694499999982, 21.0018422 ], [ 105.794834, 21.0024965 ], [ 105.7942658, 21.0030488 ], [ 105.7944255, 21.0032553 ], [ 105.7944389, 21.0037846 ], [ 105.793305799999985, 21.0036974 ], [ 105.7931996, 21.0036198 ], [ 105.7930116, 21.0034969 ], [ 105.792613799999984, 21.0033644 ], [ 105.7927713, 21.0038747 ], [ 105.7923208, 21.0046063 ], [ 105.7922866, 21.0057048 ], [ 105.7924053, 21.0061098 ], [ 105.7919072, 21.0067724 ], [ 105.7920525, 21.0072125 ], [ 105.7924926, 21.0071472 ], [ 105.793492, 21.006949 ], [ 105.793750799999984, 21.0077869 ], [ 105.7934508, 21.0083732 ], [ 105.792807100000019, 21.0091313 ], [ 105.7927903, 21.009261399999989 ], [ 105.7929115, 21.0094873 ] ] ] } },
{ "type": "Feature", "properties": { "threshold_s": 900, "time_label": "15 minutes" }, "geometry": { "type": "Polygon", "coordinates": [ [ [ 105.7907386, 21.0117267 ], [ 105.7912544, 21.0130491 ], [ 105.791419599999983, 21.0130853 ], [ 105.791637599999987, 21.0129789 ], [ 105.7932322, 21.0125222 ], [ 105.7939871, 21.0130562 ], [ 105.7944865, 21.0131082 ], [ 105.7962895, 21.013429 ], [ 105.7969668, 21.0127679 ], [ 105.7975087, 21.0122417 ], [ 105.7995512, 21.0129936 ], [ 105.799938, 21.0128205 ], [ 105.8017096, 21.0120115 ], [ 105.8019372, 21.0111425 ], [ 105.802685699999984, 21.0095458 ], [ 105.8027811, 21.0089966 ], [ 105.802872099999988, 21.0069953 ], [ 105.8026167, 21.0050457 ], [ 105.8025186, 21.0038928 ], [ 105.802084199999982, 21.0019602 ], [ 105.80192049999998, 21.0011938 ], [ 105.8016558, 21.0004854 ], [ 105.801568599999982, 21.0004232 ], [ 105.8004829, 21.0004033 ], [ 105.7989663, 21.0007884 ], [ 105.7980906, 21.0004176 ], [ 105.797651299999984, 20.9990222 ], [ 105.797559400000011, 20.9989643 ], [ 105.795682, 20.9987226 ], [ 105.7951462, 21.0001543 ], [ 105.794699, 21.0009158 ], [ 105.7931344, 21.0015087 ], [ 105.79147589999998, 21.0022066 ], [ 105.7895171, 21.0028827 ], [ 105.789256599999987, 21.003581 ], [ 105.789346699999982, 21.0038154 ], [ 105.790688299999985, 21.0045431 ], [ 105.790931499999985, 21.0055429 ], [ 105.789785699999982, 21.0067205 ], [ 105.789722499999982, 21.0067954 ], [ 105.789456499999986, 21.0082303 ], [ 105.7903212, 21.010101 ], [ 105.7907386, 21.0117267 ] ] ] } },
{ "type": "Feature", "properties": { "threshold_s": 300, "time_label": "5 minutes" }, "geometry": { "type": "Polygon", "coordinates": [ [ [ 105.8300315, 21.2022775 ], [ 105.8306403, 21.2030152 ], [ 105.8310534, 21.2029522 ], [ 105.8314743, 21.2027671 ], [ 105.8318193, 21.2024319 ], [ 105.832602399999985, 21.2018874 ], [ 105.832591699999981, 21.2016198 ], [ 105.8321412, 21.2009535 ], [ 105.832171799999983, 21.2000444 ], [ 105.832428, 21.1998231 ], [ 105.8324146, 21.1992242 ], [ 105.831972099999987, 21.1994242 ], [ 105.831001199999989, 21.1982067 ], [ 105.830070399999983, 21.1982227 ], [ 105.830942099999987, 21.198208 ], [ 105.8310011, 21.1991441 ], [ 105.8306095, 21.1998518 ], [ 105.830663099999981, 21.2002844 ], [ 105.830647, 21.2010096 ], [ 105.829925499999987, 21.2015098 ], [ 105.829593, 21.2011118 ], [ 105.8295747, 21.2009104 ], [ 105.829552699999979, 21.2006696 ], [ 105.8291225, 21.2011574 ], [ 105.829144699999986, 21.2012327 ], [ 105.8292911, 21.2016569 ], [ 105.8300315, 21.2022775 ] ] ] } },
{ "type": "Feature", "properties": { "threshold_s": 600, "time_label": "10 minutes" }, "geometry": { "type": "Polygon", "coordinates": [ [ [ 105.8259022, 21.2021595 ], [ 105.8268019, 21.2033013 ], [ 105.8287948, 21.204265 ], [ 105.829084699999981, 21.2045481 ], [ 105.8294164, 21.2048986 ], [ 105.8310149, 21.2059521 ], [ 105.8321957, 21.2053837 ], [ 105.832321, 21.2041507 ], [ 105.832811399999983, 21.2027249 ], [ 105.8334344, 21.2017184 ], [ 105.832428, 21.1998231 ], [ 105.8329993, 21.1991741 ], [ 105.8350086, 21.1981036 ], [ 105.8330074, 21.1988115 ], [ 105.8321573, 21.1981758 ], [ 105.8316126, 21.1949004 ], [ 105.8307754, 21.1948779 ], [ 105.830897, 21.196918 ], [ 105.830070399999983, 21.1982227 ], [ 105.828821799999986, 21.1982553 ], [ 105.827664499999983, 21.1982829 ], [ 105.8266635, 21.1983067 ], [ 105.8266916, 21.1999295 ], [ 105.8267215, 21.2009273 ], [ 105.8259022, 21.2021595 ] ] ] } },
{ "type": "Feature", "properties": { "threshold_s": 900, "time_label": "15 minutes" }, "geometry": { "type": "Polygon", "coordinates": [ [ [ 105.8239616, 21.1995417 ], [ 105.822159, 21.2022573 ], [ 105.82255619999998, 21.2025038 ], [ 105.823126, 21.2028147 ], [ 105.82415589999998, 21.2034539 ], [ 105.8262068, 21.2059569 ], [ 105.8269024, 21.2057675 ], [ 105.829236, 21.2057456 ], [ 105.8310149, 21.2059521 ], [ 105.8311879, 21.2089618 ], [ 105.83223959999998, 21.2060407 ], [ 105.83357909999998, 21.2038959 ], [ 105.833863, 21.2033277 ], [ 105.8334344, 21.2017184 ], [ 105.8329993, 21.1991741 ], [ 105.835962599999988, 21.1987716 ], [ 105.8378002, 21.1989689 ], [ 105.8378257, 21.1980869 ], [ 105.836204600000016, 21.1967747 ], [ 105.835776, 21.1969558 ], [ 105.833663299999984, 21.1974885 ], [ 105.8318326, 21.1956106 ], [ 105.832966899999988, 21.1934097 ], [ 105.831531, 21.1919288 ], [ 105.830887099999984, 21.1918246 ], [ 105.8299975, 21.1921173 ], [ 105.8283592, 21.1929783 ], [ 105.8307754, 21.1948779 ], [ 105.830897, 21.196918 ], [ 105.828821799999986, 21.1982553 ], [ 105.827664499999983, 21.1982829 ], [ 105.825312499999981, 21.1967498 ], [ 105.823158099999986, 21.1983273 ], [ 105.8239616, 21.1995417 ] ] ] } }
]
}
