{
"type": "FeatureCollection",
"name": "isochrone_shop_greengrocer_multimodal",
"crs": { "type": "name", "properties": { "name": "urn:ogc:def:crs:OGC:1.3:CRS84" } },
"features": [
{ "type": "Feature", "properties": { "threshold_s": 300, "time_label": "5 minutes" }, "geometry": { "type": "Polygon", "coordinates": [ [ [ 105.719632499999989, 20.901978 ], [ 105.719419099999982, 20.9023436 ], [ 105.7202077, 20.9027205 ], [ 105.7205813, 20.9020187 ], [ 105.720786499999988, 20.9020689 ], [ 105.720689199999981, 20.9017582 ], [ 105.7206467, 20.9014367 ], [ 105.7203358, 20.9009707 ], [ 105.7206741, 20.9006774 ], [ 105.721273, 20.9003765 ], [ 105.720915799999986, 20.900351 ], [ 105.720862199999985, 20.8997915 ], [ 105.7204309, 20.8998589 ], [ 105.71999959999998, 20.899951 ], [ 105.71978009999998, 20.8996055 ], [ 105.7191246, 20.8999625 ], [ 105.7191744, 20.9004098 ], [ 105.719226, 20.9003861 ], [ 105.719223099999979, 20.9001237 ], [ 105.7199256, 20.9000776 ], [ 105.720008299999989, 20.9003923 ], [ 105.719918299999989, 20.9011345 ], [ 105.719891299999986, 20.9012675 ], [ 105.719796599999981, 20.9016477 ], [ 105.719128399999988, 20.9012011 ], [ 105.7187043, 20.9014579 ], [ 105.719632499999989, 20.901978 ] ] ] } },
{ "type": "Feature", "properties": { "threshold_s": 600, "time_label": "10 minutes" }, "geometry": { "type": "Polygon", "coordinates": [ [ [ 105.716947, 20.9024937 ], [ 105.716984, 20.9041638 ], [ 105.717777, 20.9044818 ], [ 105.718228199999984, 20.9046272 ], [ 105.719419099999982, 20.9023436 ], [ 105.7202077, 20.9027205 ], [ 105.7206101, 20.9029051 ], [ 105.720974799999979, 20.9030771 ], [ 105.7228491, 20.9041141 ], [ 105.7232546, 20.903797 ], [ 105.723031599999985, 20.9037334 ], [ 105.72079789999998, 20.9024579 ], [ 105.720786499999988, 20.9020689 ], [ 105.720689199999981, 20.9017582 ], [ 105.7206467, 20.9014367 ], [ 105.721273, 20.9003765 ], [ 105.7223412, 20.900423 ], [ 105.722422599999987, 20.89991 ], [ 105.7241767, 20.9008961 ], [ 105.7234204, 20.8992892 ], [ 105.7231682, 20.8991639 ], [ 105.722719, 20.8990323 ], [ 105.7217976, 20.8983666 ], [ 105.7216287, 20.8982863 ], [ 105.72087759999998, 20.8982512 ], [ 105.7202125, 20.898312 ], [ 105.7188183, 20.8983765 ], [ 105.7180404, 20.8987273 ], [ 105.7185861, 20.8993531 ], [ 105.718539400000012, 20.8999868 ], [ 105.7182863, 20.900762 ], [ 105.716922899999986, 20.9006617 ], [ 105.716384399999981, 20.8999132 ], [ 105.715915099999989, 20.9008535 ], [ 105.716217, 20.9013606 ], [ 105.716476899999989, 20.9021454 ], [ 105.716345899999979, 20.9029083 ], [ 105.7164648, 20.9028096 ], [ 105.7166853, 20.9026361 ], [ 105.716947, 20.9024937 ] ] ] } },
{ "type": "Feature", "properties": { "threshold_s": 900, "time_label": "15 minutes" }, "geometry": { "type": "Polygon", "coordinates": [ [ [ 105.718228199999984, 20.9046272 ], [ 105.7164537, 20.9076637 ], [ 105.719371599999988, 20.906133 ], [ 105.720639399999982, 20.906366 ], [ 105.720937300000017, 20.9064908 ], [ 105.721535, 20.9067413 ], [ 105.721817799999982, 20.9068698 ], [ 105.723108599999989, 20.9065416 ], [ 105.7240085, 20.9060093 ], [ 105.7243596, 20.90551 ], [ 105.72526569999998, 20.904602 ], [ 105.7260854, 20.904922 ], [ 105.725662700000015, 20.9037388 ], [ 105.72586579999998, 20.902511 ], [ 105.7258397, 20.9012531 ], [ 105.726118699999986, 20.9009123 ], [ 105.7256687, 20.9004576 ], [ 105.7246193, 20.8995818 ], [ 105.7237476, 20.8988526 ], [ 105.722886700000018, 20.898164 ], [ 105.7216287, 20.8982863 ], [ 105.72087759999998, 20.8982512 ], [ 105.7202125, 20.898312 ], [ 105.7194668, 20.8983915 ], [ 105.7188183, 20.8983765 ], [ 105.717442399999982, 20.8979129 ], [ 105.7163091, 20.8985018 ], [ 105.7155536, 20.8985084 ], [ 105.7144462, 20.8984617 ], [ 105.715214, 20.9001074 ], [ 105.714557, 20.901476 ], [ 105.714412899999985, 20.9017973 ], [ 105.7139322, 20.9030566 ], [ 105.715029099999981, 20.9041711 ], [ 105.715737599999983, 20.9038518 ], [ 105.716984, 20.9041638 ], [ 105.717777, 20.9044818 ], [ 105.718228199999984, 20.9046272 ] ] ] } },
{ "type": "Feature", "properties": { "threshold_s": 300, "time_label": "5 minutes" }, "geometry": { "type": "Polygon", "coordinates": [ [ [ 105.8486168, 21.0411986 ], [ 105.848697199999989, 21.0418008 ], [ 105.8491301, 21.0419467 ], [ 105.8500505, 21.0417693 ], [ 105.850439599999987, 21.0417447 ], [ 105.8507258, 21.0414697 ], [ 105.851014399999983, 21.0407279 ], [ 105.8512049, 21.039884 ], [ 105.8515241, 21.0390352 ], [ 105.852338599999982, 21.0385754 ], [ 105.852869699999985, 21.0375029 ], [ 105.852247, 21.038528 ], [ 105.8516772, 21.0386387 ], [ 105.850995, 21.0381803 ], [ 105.850764, 21.0370967 ], [ 105.8506814, 21.037623 ], [ 105.849708199999981, 21.0377807 ], [ 105.849019399999989, 21.0379167 ], [ 105.8489157, 21.0379679 ], [ 105.8486499, 21.0381142 ], [ 105.8486487, 21.0382787 ], [ 105.848958, 21.0391337 ], [ 105.848265199999986, 21.0392415 ], [ 105.849013899999989, 21.0398757 ], [ 105.8485616, 21.0402888 ], [ 105.8486168, 21.0411986 ] ] ] } },
{ "type": "Feature", "properties": { "threshold_s": 600, "time_label": "10 minutes" }, "geometry": { "type": "Polygon", "coordinates": [ [ [ 105.8468339, 21.0433172 ], [ 105.8471109, 21.04376 ], [ 105.8473342, 21.0439237 ], [ 105.8480569, 21.0440123 ], [ 105.849246599999987, 21.0439279 ], [ 105.8501415, 21.0440511 ], [ 105.850687599999986, 21.0439926 ], [ 105.8522093, 21.0435263 ], [ 105.852314, 21.0434176 ], [ 105.852702899999983, 21.0429317 ], [ 105.852496299999984, 21.0422646 ], [ 105.8532054, 21.0410502 ], [ 105.8534461, 21.0407254 ], [ 105.853595, 21.0405245 ], [ 105.85372, 21.0403223 ], [ 105.8545469, 21.0392273 ], [ 105.8552544, 21.038343 ], [ 105.8555772, 21.0374457 ], [ 105.8553397, 21.0368756 ], [ 105.855188, 21.0355451 ], [ 105.854381099999983, 21.0343349 ], [ 105.8531013, 21.0348519 ], [ 105.8527079, 21.0347918 ], [ 105.851291499999988, 21.0348225 ], [ 105.851059399999983, 21.0344711 ], [ 105.8509803, 21.0346426 ], [ 105.850024, 21.0353227 ], [ 105.849394799999985, 21.0353124 ], [ 105.848386, 21.0361504 ], [ 105.8475795, 21.0354757 ], [ 105.846553, 21.036621 ], [ 105.8462821, 21.0373809 ], [ 105.8465459, 21.0387062 ], [ 105.84580050000001, 21.0390353 ], [ 105.8450777, 21.0401087 ], [ 105.8451994, 21.040701 ], [ 105.8461449, 21.0415474 ], [ 105.8461124, 21.0421516 ], [ 105.8468339, 21.0433172 ] ] ] } },
{ "type": "Feature", "properties": { "threshold_s": 900, "time_label": "15 minutes" }, "geometry": { "type": "Polygon", "coordinates": [ [ [ 105.843057499999986, 21.0443714 ], [ 105.844290799999982, 21.0460257 ], [ 105.8460657, 21.0464952 ], [ 105.8467931, 21.0465434 ], [ 105.849256199999985, 21.0466879 ], [ 105.850004199999987, 21.0465373 ], [ 105.8508833, 21.0457406 ], [ 105.8511874, 21.0452661 ], [ 105.8514449, 21.0447979 ], [ 105.85162459999998, 21.0444863 ], [ 105.8518257, 21.0441565 ], [ 105.8541987, 21.0433397 ], [ 105.8578416, 21.0430751 ], [ 105.8579587, 21.043194 ], [ 105.8579544, 21.0431524 ], [ 105.8578591, 21.0427823 ], [ 105.857785299999989, 21.0429473 ], [ 105.8577775, 21.0429649 ], [ 105.8540102, 21.0426823 ], [ 105.85372, 21.0403223 ], [ 105.8538095, 21.0401689 ], [ 105.8538517, 21.0400883 ], [ 105.8539648, 21.0399026 ], [ 105.8545469, 21.0392273 ], [ 105.8552544, 21.038343 ], [ 105.8559408, 21.0375631 ], [ 105.8566133, 21.0362827 ], [ 105.8567554, 21.0360628 ], [ 105.8570753, 21.0348341 ], [ 105.8569545, 21.0341982 ], [ 105.8567919, 21.0336774 ], [ 105.8559243, 21.0326476 ], [ 105.8545659, 21.0314536 ], [ 105.8538341, 21.0321923 ], [ 105.851357599999986, 21.031798 ], [ 105.8507011, 21.0323117 ], [ 105.8499725, 21.0329804 ], [ 105.84769249999998, 21.0324873 ], [ 105.846901399999979, 21.0326301 ], [ 105.8455033, 21.033579 ], [ 105.8449379, 21.0348636 ], [ 105.8445168, 21.0360386 ], [ 105.8447313, 21.0372753 ], [ 105.8446578, 21.038614 ], [ 105.8430828, 21.0397581 ], [ 105.842742699999988, 21.0399032 ], [ 105.8419136, 21.0405295 ], [ 105.841936899999979, 21.0406599 ], [ 105.8425574, 21.0423547 ], [ 105.842816, 21.0433331 ], [ 105.843057499999986, 21.0443714 ] ] ] } },
{ "type": "Feature", "properties": { "threshold_s": 300, "time_label": "5 minutes" }, "geometry": { "type": "Polygon", "coordinates": [ [ [ 105.8485616, 21.0402888 ], [ 105.848783899999987, 21.0417041 ], [ 105.84916459999998, 21.0417481 ], [ 105.850603699999979, 21.0415868 ], [ 105.8507258, 21.0414697 ], [ 105.850816699999982, 21.0408913 ], [ 105.8512049, 21.039884 ], [ 105.8515241, 21.0390352 ], [ 105.852338599999982, 21.0385754 ], [ 105.85325779999998, 21.0370348 ], [ 105.852869699999985, 21.0375029 ], [ 105.852247, 21.038528 ], [ 105.850995, 21.0381803 ], [ 105.850764, 21.0370967 ], [ 105.8507168, 21.037089 ], [ 105.849708199999981, 21.0377807 ], [ 105.849019399999989, 21.0379167 ], [ 105.8489157, 21.0379679 ], [ 105.8486499, 21.0381142 ], [ 105.8486487, 21.0382787 ], [ 105.848958, 21.0391337 ], [ 105.8485616, 21.0402888 ] ] ] } },
{ "type": "Feature", "properties": { "threshold_s": 600, "time_label": "10 minutes" }, "geometry": { "type": "Polygon", "coordinates": [ [ [ 105.8468339, 21.0433172 ], [ 105.8471109, 21.04376 ], [ 105.8473342, 21.0439237 ], [ 105.847778599999984, 21.0438115 ], [ 105.849246599999987, 21.0439279 ], [ 105.8501624, 21.0440149 ], [ 105.8515274, 21.0435879 ], [ 105.8518457, 21.0432221 ], [ 105.852234, 21.042414 ], [ 105.8532054, 21.0410502 ], [ 105.8534461, 21.0407254 ], [ 105.853595, 21.0405245 ], [ 105.8545469, 21.0392273 ], [ 105.8552544, 21.038343 ], [ 105.8549741, 21.0366506 ], [ 105.855024799999981, 21.0365439 ], [ 105.855188, 21.0355451 ], [ 105.854381099999983, 21.0343349 ], [ 105.8527079, 21.0347918 ], [ 105.852156799999989, 21.0347124 ], [ 105.851059399999983, 21.0344711 ], [ 105.850374599999981, 21.0346123 ], [ 105.849394799999985, 21.0353124 ], [ 105.8482524, 21.0353972 ], [ 105.8475795, 21.0354757 ], [ 105.8470836, 21.0362915 ], [ 105.846130299999984, 21.0366717 ], [ 105.8462821, 21.0373809 ], [ 105.8465459, 21.0387062 ], [ 105.8458281, 21.0391621 ], [ 105.8454121, 21.0400507 ], [ 105.845568499999985, 21.0405007 ], [ 105.8461124, 21.0421516 ], [ 105.8468339, 21.0433172 ] ] ] } },
{ "type": "Feature", "properties": { "threshold_s": 900, "time_label": "15 minutes" }, "geometry": { "type": "Polygon", "coordinates": [ [ [ 105.8435601, 21.0441836 ], [ 105.844290799999982, 21.0460257 ], [ 105.8466622, 21.0463733 ], [ 105.8488487, 21.0465694 ], [ 105.8498677, 21.0464777 ], [ 105.8508833, 21.0457406 ], [ 105.8511874, 21.0452661 ], [ 105.8514449, 21.0447979 ], [ 105.85162459999998, 21.0444863 ], [ 105.8518257, 21.0441565 ], [ 105.8541987, 21.0433397 ], [ 105.8578416, 21.0430751 ], [ 105.8579587, 21.043194 ], [ 105.8579544, 21.0431524 ], [ 105.8578591, 21.0427823 ], [ 105.857785299999989, 21.0429473 ], [ 105.8577775, 21.0429649 ], [ 105.8540102, 21.0426823 ], [ 105.85372, 21.0403223 ], [ 105.8538095, 21.0401689 ], [ 105.8538517, 21.0400883 ], [ 105.8539648, 21.0399026 ], [ 105.8545469, 21.0392273 ], [ 105.8552544, 21.038343 ], [ 105.8559408, 21.0375631 ], [ 105.8566133, 21.0362827 ], [ 105.8567554, 21.0360628 ], [ 105.8570753, 21.0348341 ], [ 105.856500399999987, 21.033561 ], [ 105.8559243, 21.0326476 ], [ 105.8545659, 21.0314536 ], [ 105.8531632, 21.0322152 ], [ 105.851354, 21.0316436 ], [ 105.8507062, 21.0322111 ], [ 105.8499725, 21.0329804 ], [ 105.84769249999998, 21.0324873 ], [ 105.846901399999979, 21.0326301 ], [ 105.8455033, 21.033579 ], [ 105.8449379, 21.0348636 ], [ 105.8445168, 21.0360386 ], [ 105.8447313, 21.0372753 ], [ 105.8446578, 21.038614 ], [ 105.8430828, 21.0397581 ], [ 105.842742699999988, 21.0399032 ], [ 105.84200629999998, 21.0405161 ], [ 105.841936899999979, 21.0406599 ], [ 105.8420995, 21.0407793 ], [ 105.8429658, 21.0422864 ], [ 105.842816, 21.0433331 ], [ 105.8435601, 21.0441836 ] ] ] } },
{ "type": "Feature", "properties": { "threshold_s": 300, "time_label": "5 minutes" }, "geometry": { "type": "Polygon", "coordinates": [ [ [ 105.897722799999983, 21.0263605 ], [ 105.8977536, 21.0264223 ], [ 105.898224, 21.0262886 ], [ 105.8986336, 21.0262025 ], [ 105.8990619, 21.0265284 ], [ 105.8995049, 21.0266852 ], [ 105.89987330000001, 21.0264504 ], [ 105.899845, 21.026153 ], [ 105.8996604, 21.0257897 ], [ 105.8996374, 21.0257417 ], [ 105.9005192, 21.0253155 ], [ 105.8997586, 21.0249419 ], [ 105.8994811, 21.0245669 ], [ 105.899586099999979, 21.0240441 ], [ 105.8987537, 21.0242118 ], [ 105.898815399999989, 21.0240191 ], [ 105.898309899999987, 21.0238555 ], [ 105.8982293, 21.023675 ], [ 105.8981877, 21.0233759 ], [ 105.8981377, 21.0232259 ], [ 105.897941, 21.0234582 ], [ 105.8978009, 21.0238513 ], [ 105.8976547, 21.0241499 ], [ 105.8976084, 21.0246024 ], [ 105.897587, 21.0249376 ], [ 105.8977975, 21.02476 ], [ 105.8983655, 21.0247846 ], [ 105.898759400000017, 21.0248084 ], [ 105.898951399999987, 21.0251821 ], [ 105.898974, 21.025226 ], [ 105.899165, 21.0255975 ], [ 105.8991291, 21.0259807 ], [ 105.8985419, 21.0260782 ], [ 105.8983998, 21.0254398 ], [ 105.8982474, 21.0253685 ], [ 105.8982468, 21.0255112 ], [ 105.8975345, 21.0259407 ], [ 105.8976255, 21.0261644 ], [ 105.897722799999983, 21.0263605 ] ] ] } },
{ "type": "Feature", "properties": { "threshold_s": 600, "time_label": "10 minutes" }, "geometry": { "type": "Polygon", "coordinates": [ [ [ 105.8949912, 21.0269326 ], [ 105.894623399999986, 21.0276128 ], [ 105.8959342, 21.0280425 ], [ 105.8974777, 21.0288052 ], [ 105.8979108, 21.0287392 ], [ 105.8979996, 21.0286766 ], [ 105.8983242, 21.027365 ], [ 105.898808699999989, 21.0270221 ], [ 105.8989446, 21.0269563 ], [ 105.8990822, 21.0268897 ], [ 105.899216699999982, 21.0268246 ], [ 105.9007358, 21.0277218 ], [ 105.9007707, 21.0277802 ], [ 105.900816299999988, 21.0278583 ], [ 105.9017574, 21.0276059 ], [ 105.9019589, 21.0267111 ], [ 105.901688100000015, 21.026223 ], [ 105.901181, 21.0255624 ], [ 105.9005192, 21.0253155 ], [ 105.9005302, 21.0237779 ], [ 105.9022096, 21.0238404 ], [ 105.9024095, 21.0242745 ], [ 105.902359600000011, 21.0237757 ], [ 105.902042, 21.0230896 ], [ 105.901737, 21.0228142 ], [ 105.901103599999985, 21.0220568 ], [ 105.900969, 21.0212196 ], [ 105.8997463, 21.0212934 ], [ 105.898892599999982, 21.0211746 ], [ 105.8973519, 21.0214463 ], [ 105.8961424, 21.0214205 ], [ 105.8958084, 21.0220959 ], [ 105.8959164, 21.0224951 ], [ 105.8959883, 21.0227987 ], [ 105.8953747, 21.0241848 ], [ 105.8953497, 21.0255478 ], [ 105.8949912, 21.0269326 ] ] ] } },
{ "type": "Feature", "properties": { "threshold_s": 900, "time_label": "15 minutes" }, "geometry": { "type": "Polygon", "coordinates": [ [ [ 105.89171709999998, 21.0283196 ], [ 105.8917528, 21.0284314 ], [ 105.8920096, 21.0283632 ], [ 105.892259899999985, 21.0282978 ], [ 105.8934695, 21.0279818 ], [ 105.8942049, 21.0277893 ], [ 105.896426, 21.0284514 ], [ 105.8966819, 21.0287556 ], [ 105.8973643, 21.0301429 ], [ 105.8982682, 21.030561 ], [ 105.899638699999983, 21.0312693 ], [ 105.8997417, 21.0311984 ], [ 105.8996886, 21.0308115 ], [ 105.899688, 21.0305829 ], [ 105.9014305, 21.0291332 ], [ 105.9022003, 21.0293918 ], [ 105.903149499999984, 21.030181 ], [ 105.9032343, 21.030338 ], [ 105.9033904, 21.0306268 ], [ 105.903466, 21.0305958 ], [ 105.903780199999986, 21.0304496 ], [ 105.9040444, 21.0297373 ], [ 105.902826599999983, 21.0291915 ], [ 105.902247599999981, 21.0285128 ], [ 105.9019589, 21.0267111 ], [ 105.901688100000015, 21.026223 ], [ 105.9024095, 21.0242745 ], [ 105.9040482, 21.0237194 ], [ 105.9050287, 21.0252767 ], [ 105.905340699999982, 21.0258575 ], [ 105.905411099999981, 21.025825 ], [ 105.9061939, 21.0236932 ], [ 105.9061344, 21.0215571 ], [ 105.904941599999987, 21.0215905 ], [ 105.9036614, 21.0211531 ], [ 105.9034626, 21.0190205 ], [ 105.9035223, 21.0189157 ], [ 105.9032981, 21.0188459 ], [ 105.902056, 21.0197353 ], [ 105.89975680000002, 21.0195074 ], [ 105.89871119999998, 21.0212679 ], [ 105.8973519, 21.0214463 ], [ 105.897004599999988, 21.0214914 ], [ 105.894743, 21.0202924 ], [ 105.8931013, 21.0219948 ], [ 105.8935926, 21.024361 ], [ 105.8933544, 21.024983 ], [ 105.892306800000014, 21.0267436 ], [ 105.89217619999998, 21.0268792 ], [ 105.891799, 21.0279419 ], [ 105.89171709999998, 21.0283196 ] ] ] } },
{ "type": "Feature", "properties": { "threshold_s": 300, "time_label": "5 minutes" }, "geometry": { "type": "Polygon", "coordinates": [ [ [ 105.8240959, 21.0073182 ], [ 105.824250099999986, 21.007619 ], [ 105.82428, 21.0076055 ], [ 105.824844299999981, 21.0073307 ], [ 105.825075, 21.0072268 ], [ 105.825332499999988, 21.0071108 ], [ 105.82636669999998, 21.0067908 ], [ 105.8268124, 21.0060057 ], [ 105.8280056, 21.0059851 ], [ 105.828121, 21.0061964 ], [ 105.8282247, 21.0054742 ], [ 105.8280178, 21.0049935 ], [ 105.827596199999988, 21.0041523 ], [ 105.8266772, 21.0043024 ], [ 105.826169, 21.003757 ], [ 105.8253808, 21.0039239 ], [ 105.8249209, 21.0041247 ], [ 105.8250439, 21.0043628 ], [ 105.824813, 21.0054128 ], [ 105.82471169999998, 21.0059108 ], [ 105.824796599999985, 21.0060604 ], [ 105.824474899999984, 21.0071466 ], [ 105.8240959, 21.0073182 ] ] ] } },
{ "type": "Feature", "properties": { "threshold_s": 600, "time_label": "10 minutes" }, "geometry": { "type": "Polygon", "coordinates": [ [ [ 105.8223738, 21.008283 ], [ 105.8224859, 21.0092816 ], [ 105.8233913, 21.0098098 ], [ 105.8244464, 21.0097847 ], [ 105.8249485, 21.0101564 ], [ 105.8251409, 21.0099854 ], [ 105.825204099999979, 21.0097904 ], [ 105.8249681, 21.0094771 ], [ 105.825574, 21.0087416 ], [ 105.8257309, 21.0086668 ], [ 105.8260333, 21.0085341 ], [ 105.8263884, 21.008114 ], [ 105.8272151, 21.0081256 ], [ 105.828260899999989, 21.0082453 ], [ 105.828324499999979, 21.008822 ], [ 105.8284691, 21.008564 ], [ 105.8284222, 21.0084728 ], [ 105.828330899999983, 21.0082146 ], [ 105.8287027, 21.0073278 ], [ 105.8290918, 21.007309 ], [ 105.8297112, 21.0068632 ], [ 105.830619, 21.0064426 ], [ 105.8306978, 21.0063998 ], [ 105.8306677, 21.0063425 ], [ 105.8296839, 21.0068059 ], [ 105.829006699999979, 21.0062064 ], [ 105.8289856, 21.0054413 ], [ 105.828981299999981, 21.0044063 ], [ 105.82922139999998, 21.004289 ], [ 105.829550899999987, 21.0042512 ], [ 105.830539, 21.0046831 ], [ 105.830612, 21.0046671 ], [ 105.831251, 21.0042474 ], [ 105.831165499999983, 21.0039497 ], [ 105.830256799999987, 21.0036574 ], [ 105.8300723, 21.0030956 ], [ 105.829033199999984, 21.0027554 ], [ 105.8286736, 21.0024484 ], [ 105.8278889, 21.0026251 ], [ 105.827458399999983, 21.00286 ], [ 105.8269454, 21.0028033 ], [ 105.8266119, 21.0019106 ], [ 105.8258514, 21.0019207 ], [ 105.8252013, 21.0019872 ], [ 105.8251769, 21.0020453 ], [ 105.8249136, 21.0026569 ], [ 105.8240705, 21.0024545 ], [ 105.8240016, 21.0023542 ], [ 105.823974, 21.0023062 ], [ 105.8233018, 21.0024802 ], [ 105.8226895, 21.0026326 ], [ 105.82230149999998, 21.0031587 ], [ 105.8223853, 21.0032945 ], [ 105.822385, 21.0041874 ], [ 105.8217497, 21.0044381 ], [ 105.8216974, 21.0044676 ], [ 105.821768799999987, 21.0053881 ], [ 105.8214007, 21.0059891 ], [ 105.821277099999989, 21.006946 ], [ 105.8213276, 21.0069832 ], [ 105.8213743, 21.0070161 ], [ 105.822003899999984, 21.006843 ], [ 105.8224315, 21.007414 ], [ 105.8219808, 21.0079009 ], [ 105.8223738, 21.008283 ] ] ] } },
{ "type": "Feature", "properties": { "threshold_s": 900, "time_label": "15 minutes" }, "geometry": { "type": "Polygon", "coordinates": [ [ [ 105.821016799999981, 21.0119249 ], [ 105.8211088, 21.0120825 ], [ 105.82112549999998, 21.0120968 ], [ 105.8233114, 21.0126032 ], [ 105.8238935, 21.0128874 ], [ 105.8263999, 21.0128079 ], [ 105.826551399999985, 21.0128356 ], [ 105.826586799999987, 21.0128179 ], [ 105.8267069, 21.0125919 ], [ 105.827221599999987, 21.0105923 ], [ 105.828554699999984, 21.0105444 ], [ 105.828677199999987, 21.0105009 ], [ 105.8289374, 21.0103171 ], [ 105.829564099999985, 21.0099307 ], [ 105.829935399999982, 21.0093967 ], [ 105.831826299999989, 21.0081388 ], [ 105.8330274, 21.0075696 ], [ 105.8330412, 21.0075533 ], [ 105.8332682, 21.0062273 ], [ 105.832942599999981, 21.0050652 ], [ 105.8322107, 21.0040287 ], [ 105.8324302, 21.0020165 ], [ 105.8317117, 21.0014507 ], [ 105.8300772, 21.000468 ], [ 105.8294397, 21.0001366 ], [ 105.828897699999985, 21.0002704 ], [ 105.8266344, 20.9997273 ], [ 105.8261439, 21.0011288 ], [ 105.823974, 21.0023062 ], [ 105.8236097, 21.0023528 ], [ 105.8220476, 21.0026582 ], [ 105.8202434, 21.0025792 ], [ 105.819768, 21.0024838 ], [ 105.81917679999998, 21.0028596 ], [ 105.819167, 21.0035181 ], [ 105.8193986, 21.0042027 ], [ 105.819599399999987, 21.0058843 ], [ 105.8190277, 21.0073505 ], [ 105.8191443, 21.0082195 ], [ 105.81930509999998, 21.0093271 ], [ 105.819353799999988, 21.0093637 ], [ 105.8194047, 21.0094019 ], [ 105.820994, 21.0103701 ], [ 105.821016799999981, 21.0119249 ] ] ] } },
{ "type": "Feature", "properties": { "threshold_s": 300, "time_label": "5 minutes" }, "geometry": { "type": "Polygon", "coordinates": [ [ [ 105.85204490000001, 21.0339261 ], [ 105.8506755, 21.0340786 ], [ 105.851465099999984, 21.0345383 ], [ 105.852156799999989, 21.0347124 ], [ 105.852004599999987, 21.0352432 ], [ 105.8527079, 21.0347918 ], [ 105.853446, 21.0348609 ], [ 105.854078, 21.0348603 ], [ 105.854353299999985, 21.0348592 ], [ 105.854381099999983, 21.0343349 ], [ 105.855330399999986, 21.0338854 ], [ 105.854767599999988, 21.0338265 ], [ 105.854413799999989, 21.0338031 ], [ 105.8544595, 21.0330415 ], [ 105.853804, 21.0330302 ], [ 105.8530192, 21.033042 ], [ 105.8519128, 21.0322701 ], [ 105.8524913, 21.0318297 ], [ 105.8529359, 21.0322265 ], [ 105.8531632, 21.0322152 ], [ 105.8538341, 21.0321923 ], [ 105.85453339999998, 21.0321628 ], [ 105.8545659, 21.0314536 ], [ 105.8539865, 21.0312777 ], [ 105.853979699999982, 21.0308057 ], [ 105.853889, 21.0303709 ], [ 105.853395599999985, 21.0304733 ], [ 105.8530559, 21.0306972 ], [ 105.8530606, 21.0307495 ], [ 105.8530631, 21.0308046 ], [ 105.8528753, 21.0315069 ], [ 105.852722, 21.0315568 ], [ 105.8525331, 21.0315855 ], [ 105.8523694, 21.0316052 ], [ 105.852205199999986, 21.0316229 ], [ 105.8521114, 21.0316325 ], [ 105.8519222, 21.0316488 ], [ 105.8516318, 21.0316582 ], [ 105.851354, 21.0316436 ], [ 105.851265, 21.0317622 ], [ 105.8507062, 21.0322111 ], [ 105.8507011, 21.0323117 ], [ 105.8513365, 21.0323003 ], [ 105.8511704, 21.0329985 ], [ 105.8518961, 21.0330795 ], [ 105.8519773, 21.0335014 ], [ 105.85204490000001, 21.0339261 ] ] ] } },
{ "type": "Feature", "properties": { "threshold_s": 600, "time_label": "10 minutes" }, "geometry": { "type": "Polygon", "coordinates": [ [ [ 105.8489899, 21.0361005 ], [ 105.8494544, 21.0368842 ], [ 105.849642099999983, 21.0363753 ], [ 105.8508355, 21.0363358 ], [ 105.8507168, 21.037089 ], [ 105.850764, 21.0370967 ], [ 105.851339699999983, 21.0368297 ], [ 105.852105, 21.0373143 ], [ 105.852869699999985, 21.0375029 ], [ 105.853311099999985, 21.0375042 ], [ 105.8535585, 21.0372254 ], [ 105.853756099999984, 21.0368066 ], [ 105.8536025, 21.0366394 ], [ 105.8542072, 21.0356567 ], [ 105.8548032, 21.0355297 ], [ 105.855188, 21.0355451 ], [ 105.8549241, 21.0353016 ], [ 105.8546223, 21.0348472 ], [ 105.855330399999986, 21.0338854 ], [ 105.8555072, 21.0339557 ], [ 105.855146499999989, 21.0331672 ], [ 105.8559243, 21.0326476 ], [ 105.8564139, 21.0323169 ], [ 105.8570473, 21.0320752 ], [ 105.8574234, 21.0312559 ], [ 105.8572306, 21.0306158 ], [ 105.856759100000019, 21.0296143 ], [ 105.8567122, 21.0295793 ], [ 105.856528, 21.0296447 ], [ 105.8558733, 21.030355 ], [ 105.8549501, 21.0302935 ], [ 105.8553189, 21.0289964 ], [ 105.855437800000018, 21.0289498 ], [ 105.8555487, 21.0288623 ], [ 105.8554811, 21.0288462 ], [ 105.855405, 21.0288276 ], [ 105.8553303, 21.0288775 ], [ 105.8545507, 21.0294831 ], [ 105.853927499999983, 21.0288143 ], [ 105.853928699999983, 21.0287392 ], [ 105.854288399999987, 21.0278467 ], [ 105.854282, 21.0278046 ], [ 105.853724799999981, 21.0273097 ], [ 105.8535709, 21.0273332 ], [ 105.8534184, 21.0276444 ], [ 105.853463299999987, 21.0279608 ], [ 105.853482799999981, 21.0280946 ], [ 105.853504099999981, 21.0282385 ], [ 105.8535264, 21.0283894 ], [ 105.8535619, 21.0288793 ], [ 105.853399, 21.0292627 ], [ 105.853357499999987, 21.0293305 ], [ 105.8533349, 21.0294679 ], [ 105.8533263, 21.0297825 ], [ 105.8533477, 21.0302863 ], [ 105.8525607, 21.0307899 ], [ 105.8519222, 21.0316488 ], [ 105.8512303, 21.0306856 ], [ 105.8512821, 21.0305065 ], [ 105.8513118, 21.0303982 ], [ 105.8513388, 21.0302937 ], [ 105.851363, 21.0301442 ], [ 105.8514055, 21.0298406 ], [ 105.851443499999988, 21.0296032 ], [ 105.851467499999984, 21.0294759 ], [ 105.8515171, 21.0291975 ], [ 105.851518, 21.0289361 ], [ 105.851497600000016, 21.0287269 ], [ 105.851401199999984, 21.0285334 ], [ 105.8505729, 21.0291008 ], [ 105.8501894, 21.0298974 ], [ 105.85069, 21.0302351 ], [ 105.850858299999985, 21.0309982 ], [ 105.850555799999981, 21.0315942 ], [ 105.8504709, 21.0321878 ], [ 105.8491377, 21.0313156 ], [ 105.8488561, 21.0305684 ], [ 105.8481374, 21.0308039 ], [ 105.8486543, 21.0310594 ], [ 105.84887710000001, 21.0317532 ], [ 105.848055599999981, 21.0324216 ], [ 105.8485186, 21.0323719 ], [ 105.8499725, 21.0329804 ], [ 105.8498734, 21.0339878 ], [ 105.8480578, 21.0338546 ], [ 105.8480621, 21.0338079 ], [ 105.8480668, 21.0337554 ], [ 105.8480382, 21.0337525 ], [ 105.8472542, 21.0337414 ], [ 105.848043799999985, 21.0342979 ], [ 105.8482524, 21.0353972 ], [ 105.8489899, 21.0361005 ] ] ] } },
{ "type": "Feature", "properties": { "threshold_s": 900, "time_label": "15 minutes" }, "geometry": { "type": "Polygon", "coordinates": [ [ [ 105.8470874, 21.0388953 ], [ 105.8471492, 21.0391674 ], [ 105.8494708, 21.0400656 ], [ 105.8496643, 21.0401812 ], [ 105.8513909, 21.04004 ], [ 105.8534389, 21.0395503 ], [ 105.853999, 21.0394404 ], [ 105.8545469, 21.0392273 ], [ 105.8559408, 21.0375631 ], [ 105.8559647, 21.0363109 ], [ 105.8569545, 21.0341982 ], [ 105.8580537, 21.0336924 ], [ 105.8588286, 21.0330955 ], [ 105.859561899999989, 21.032523 ], [ 105.8600601, 21.0309841 ], [ 105.8598143, 21.0299614 ], [ 105.8595733, 21.0291565 ], [ 105.858447, 21.0275105 ], [ 105.8577176, 21.0266762 ], [ 105.8566112, 21.0254191 ], [ 105.8545163, 21.0250225 ], [ 105.853081099999983, 21.024205 ], [ 105.852806199999989, 21.024288 ], [ 105.851413399999984, 21.0259598 ], [ 105.8502936, 21.0269683 ], [ 105.8490292, 21.0275855 ], [ 105.847791199999989, 21.0281196 ], [ 105.8453413, 21.0287033 ], [ 105.8450687, 21.0291861 ], [ 105.845851199999984, 21.0312344 ], [ 105.845617099999984, 21.0319511 ], [ 105.8452826, 21.0324584 ], [ 105.8449379, 21.0348636 ], [ 105.845039699999987, 21.035347 ], [ 105.846130299999984, 21.0366717 ], [ 105.8470874, 21.0388953 ] ] ] } },
{ "type": "Feature", "properties": { "threshold_s": 300, "time_label": "5 minutes" }, "geometry": { "type": "Polygon", "coordinates": [ [ [ 105.85204490000001, 21.0339261 ], [ 105.8506755, 21.0340786 ], [ 105.851465099999984, 21.0345383 ], [ 105.852156799999989, 21.0347124 ], [ 105.852004599999987, 21.0352432 ], [ 105.8527079, 21.0347918 ], [ 105.853446, 21.0348609 ], [ 105.854078, 21.0348603 ], [ 105.854353299999985, 21.0348592 ], [ 105.854381099999983, 21.0343349 ], [ 105.855330399999986, 21.0338854 ], [ 105.854767599999988, 21.0338265 ], [ 105.854413799999989, 21.0338031 ], [ 105.8544595, 21.0330415 ], [ 105.853804, 21.0330302 ], [ 105.8530192, 21.033042 ], [ 105.8519128, 21.0322701 ], [ 105.8524913, 21.0318297 ], [ 105.8529359, 21.0322265 ], [ 105.8531632, 21.0322152 ], [ 105.8538341, 21.0321923 ], [ 105.85453339999998, 21.0321628 ], [ 105.8545659, 21.0314536 ], [ 105.8539865, 21.0312777 ], [ 105.853979699999982, 21.0308057 ], [ 105.853889, 21.0303709 ], [ 105.853395599999985, 21.0304733 ], [ 105.8530559, 21.0306972 ], [ 105.8530606, 21.0307495 ], [ 105.8530631, 21.0308046 ], [ 105.8528753, 21.0315069 ], [ 105.852722, 21.0315568 ], [ 105.8525331, 21.0315855 ], [ 105.8523694, 21.0316052 ], [ 105.852205199999986, 21.0316229 ], [ 105.8521114, 21.0316325 ], [ 105.8519222, 21.0316488 ], [ 105.8516318, 21.0316582 ], [ 105.851354, 21.0316436 ], [ 105.851265, 21.0317622 ], [ 105.8507062, 21.0322111 ], [ 105.8507011, 21.0323117 ], [ 105.8513365, 21.0323003 ], [ 105.8511704, 21.0329985 ], [ 105.8518961, 21.0330795 ], [ 105.8519773, 21.0335014 ], [ 105.85204490000001, 21.0339261 ] ] ] } },
{ "type": "Feature", "properties": { "threshold_s": 600, "time_label": "10 minutes" }, "geometry": { "type": "Polygon", "coordinates": [ [ [ 105.8489899, 21.0361005 ], [ 105.8494544, 21.0368842 ], [ 105.849642099999983, 21.0363753 ], [ 105.8508355, 21.0363358 ], [ 105.8507168, 21.037089 ], [ 105.850764, 21.0370967 ], [ 105.851339699999983, 21.0368297 ], [ 105.852105, 21.0373143 ], [ 105.852869699999985, 21.0375029 ], [ 105.853311099999985, 21.0375042 ], [ 105.8535585, 21.0372254 ], [ 105.853756099999984, 21.0368066 ], [ 105.8536025, 21.0366394 ], [ 105.8542072, 21.0356567 ], [ 105.8548032, 21.0355297 ], [ 105.855188, 21.0355451 ], [ 105.8549241, 21.0353016 ], [ 105.8546223, 21.0348472 ], [ 105.855330399999986, 21.0338854 ], [ 105.8555072, 21.0339557 ], [ 105.855146499999989, 21.0331672 ], [ 105.8559243, 21.0326476 ], [ 105.8564139, 21.0323169 ], [ 105.8570473, 21.0320752 ], [ 105.8574234, 21.0312559 ], [ 105.8572306, 21.0306158 ], [ 105.856759100000019, 21.0296143 ], [ 105.8567122, 21.0295793 ], [ 105.856528, 21.0296447 ], [ 105.8558733, 21.030355 ], [ 105.8549501, 21.0302935 ], [ 105.8553189, 21.0289964 ], [ 105.855437800000018, 21.0289498 ], [ 105.8555487, 21.0288623 ], [ 105.8554811, 21.0288462 ], [ 105.855405, 21.0288276 ], [ 105.8553303, 21.0288775 ], [ 105.8545507, 21.0294831 ], [ 105.853927499999983, 21.0288143 ], [ 105.853928699999983, 21.0287392 ], [ 105.854288399999987, 21.0278467 ], [ 105.854282, 21.0278046 ], [ 105.853724799999981, 21.0273097 ], [ 105.8535709, 21.0273332 ], [ 105.8534184, 21.0276444 ], [ 105.853463299999987, 21.0279608 ], [ 105.853482799999981, 21.0280946 ], [ 105.853504099999981, 21.0282385 ], [ 105.8535264, 21.0283894 ], [ 105.8535619, 21.0288793 ], [ 105.853399, 21.0292627 ], [ 105.853357499999987, 21.0293305 ], [ 105.8533349, 21.0294679 ], [ 105.8533263, 21.0297825 ], [ 105.8533477, 21.0302863 ], [ 105.8525607, 21.0307899 ], [ 105.8519222, 21.0316488 ], [ 105.8512303, 21.0306856 ], [ 105.8512821, 21.0305065 ], [ 105.8513118, 21.0303982 ], [ 105.8513388, 21.0302937 ], [ 105.851363, 21.0301442 ], [ 105.8514055, 21.0298406 ], [ 105.851443499999988, 21.0296032 ], [ 105.851467499999984, 21.0294759 ], [ 105.8515171, 21.0291975 ], [ 105.851518, 21.0289361 ], [ 105.851497600000016, 21.0287269 ], [ 105.851401199999984, 21.0285334 ], [ 105.8505729, 21.0291008 ], [ 105.8501894, 21.0298974 ], [ 105.85069, 21.0302351 ], [ 105.850858299999985, 21.0309982 ], [ 105.850555799999981, 21.0315942 ], [ 105.8504709, 21.0321878 ], [ 105.8491377, 21.0313156 ], [ 105.8488561, 21.0305684 ], [ 105.8481374, 21.0308039 ], [ 105.8486543, 21.0310594 ], [ 105.84887710000001, 21.0317532 ], [ 105.848055599999981, 21.0324216 ], [ 105.8485186, 21.0323719 ], [ 105.8499725, 21.0329804 ], [ 105.8498734, 21.0339878 ], [ 105.8480578, 21.0338546 ], [ 105.8480621, 21.0338079 ], [ 105.8480668, 21.0337554 ], [ 105.8480382, 21.0337525 ], [ 105.8472542, 21.0337414 ], [ 105.848043799999985, 21.0342979 ], [ 105.8482524, 21.0353972 ], [ 105.8489899, 21.0361005 ] ] ] } },
{ "type": "Feature", "properties": { "threshold_s": 900, "time_label": "15 minutes" }, "geometry": { "type": "Polygon", "coordinates": [ [ [ 105.8470874, 21.0388953 ], [ 105.8471492, 21.0391674 ], [ 105.8494708, 21.0400656 ], [ 105.8496643, 21.0401812 ], [ 105.8513909, 21.04004 ], [ 105.8534389, 21.0395503 ], [ 105.853999, 21.0394404 ], [ 105.8545469, 21.0392273 ], [ 105.8559408, 21.0375631 ], [ 105.8559647, 21.0363109 ], [ 105.8569545, 21.0341982 ], [ 105.8580537, 21.0336924 ], [ 105.8588286, 21.0330955 ], [ 105.859561899999989, 21.032523 ], [ 105.8600601, 21.0309841 ], [ 105.8598143, 21.0299614 ], [ 105.8595733, 21.0291565 ], [ 105.858447, 21.0275105 ], [ 105.8577176, 21.0266762 ], [ 105.8566112, 21.0254191 ], [ 105.8545163, 21.0250225 ], [ 105.853081099999983, 21.024205 ], [ 105.852806199999989, 21.024288 ], [ 105.851413399999984, 21.0259598 ], [ 105.8502936, 21.0269683 ], [ 105.8490292, 21.0275855 ], [ 105.847791199999989, 21.0281196 ], [ 105.8453413, 21.0287033 ], [ 105.8450687, 21.0291861 ], [ 105.845851199999984, 21.0312344 ], [ 105.845617099999984, 21.0319511 ], [ 105.8452826, 21.0324584 ], [ 105.8449379, 21.0348636 ], [ 105.845039699999987, 21.035347 ], [ 105.846130299999984, 21.0366717 ], [ 105.8470874, 21.0388953 ] ] ] } },
{ "type": "Feature", "properties": { "threshold_s": 300, "time_label": "5 minutes" }, "geometry": { "type": "Polygon", "coordinates": [ [ [ 105.7714031, 21.0715253 ], [ 105.7713889, 21.0718092 ], [ 105.772233899999989, 21.0722417 ], [ 105.7728557, 21.0725781 ], [ 105.7731551, 21.0723574 ], [ 105.773874799999987, 21.0717499 ], [ 105.7741027, 21.071537 ], [ 105.7735943, 21.0710577 ], [ 105.7732531, 21.0709026 ], [ 105.7725305, 21.0699632 ], [ 105.773470399999979, 21.0685899 ], [ 105.7726015, 21.0674079 ], [ 105.7723981, 21.0674079 ], [ 105.772551599999986, 21.0691135 ], [ 105.7721452, 21.0701348 ], [ 105.7721998, 21.0709135 ], [ 105.7714031, 21.0715253 ] ] ] } },
{ "type": "Feature", "properties": { "threshold_s": 600, "time_label": "10 minutes" }, "geometry": { "type": "Polygon", "coordinates": [ [ [ 105.7698305, 21.0721888 ], [ 105.7699849, 21.0739166 ], [ 105.770644799999985, 21.0743666 ], [ 105.7721149, 21.0747635 ], [ 105.772486099999981, 21.0747666 ], [ 105.7743643, 21.074182 ], [ 105.77483789999998, 21.0737039 ], [ 105.7751772, 21.0716748 ], [ 105.7763163, 21.0715555 ], [ 105.777115499999979, 21.0715521 ], [ 105.7760331, 21.0701428 ], [ 105.775759699999981, 21.0697848 ], [ 105.7750773, 21.0692772 ], [ 105.7757203, 21.067118 ], [ 105.775517399999984, 21.0670676 ], [ 105.773470399999979, 21.0685899 ], [ 105.7728694, 21.0668327 ], [ 105.772877, 21.0667124 ], [ 105.7729826, 21.065249 ], [ 105.772965, 21.064226 ], [ 105.7729879, 21.063973 ], [ 105.772614799999985, 21.0642323 ], [ 105.772402900000017, 21.0653637 ], [ 105.772335799999979, 21.0667804 ], [ 105.7716328, 21.0681457 ], [ 105.7699419, 21.0693882 ], [ 105.768678799999989, 21.0715284 ], [ 105.7698305, 21.0721888 ] ] ] } },
{ "type": "Feature", "properties": { "threshold_s": 900, "time_label": "15 minutes" }, "geometry": { "type": "Polygon", "coordinates": [ [ [ 105.7695933, 21.0740137 ], [ 105.768358099999986, 21.0754926 ], [ 105.7703939, 21.0774675 ], [ 105.7709573, 21.0775271 ], [ 105.7726211, 21.0776472 ], [ 105.7737911, 21.0772531 ], [ 105.774206699999979, 21.0770583 ], [ 105.7754298, 21.0750273 ], [ 105.7770229, 21.0746529 ], [ 105.7773094, 21.074569 ], [ 105.7772867, 21.0742853 ], [ 105.7788362, 21.0718124 ], [ 105.7805233, 21.071534 ], [ 105.780768499999979, 21.0715327 ], [ 105.780854300000016, 21.0715323 ], [ 105.778697599999987, 21.0691408 ], [ 105.7779223, 21.0667921 ], [ 105.7778643, 21.0662907 ], [ 105.7774188, 21.0655795 ], [ 105.7770799, 21.0652011 ], [ 105.7767878, 21.0654816 ], [ 105.774959, 21.0662146 ], [ 105.7729879, 21.063973 ], [ 105.773082499999987, 21.0632137 ], [ 105.7730948, 21.0629846 ], [ 105.7731046, 21.0623175 ], [ 105.773106699999985, 21.0620448 ], [ 105.7731141, 21.0616283 ], [ 105.77297630000001, 21.0616232 ], [ 105.772617499999981, 21.0620497 ], [ 105.772596, 21.0624878 ], [ 105.772614799999985, 21.0642323 ], [ 105.7712522, 21.0670907 ], [ 105.7704288, 21.0682145 ], [ 105.7700859, 21.0686209 ], [ 105.7699419, 21.0693882 ], [ 105.7698172, 21.0699916 ], [ 105.7650067, 21.0715146 ], [ 105.768678799999989, 21.0715284 ], [ 105.7695933, 21.0740137 ] ] ] } },
{ "type": "Feature", "properties": { "threshold_s": 300, "time_label": "5 minutes" }, "geometry": { "type": "Polygon", "coordinates": [ [ [ 105.737195299999982, 21.0095634 ], [ 105.7369127, 21.009615 ], [ 105.736902699999987, 21.009829 ], [ 105.7375386, 21.009482 ], [ 105.738166, 21.0093305 ], [ 105.738498099999987, 21.009313 ], [ 105.738824099999988, 21.0092954 ], [ 105.7388205, 21.0092337 ], [ 105.738438099999982, 21.0092539 ], [ 105.738189199999979, 21.0092658 ], [ 105.737808, 21.0089538 ], [ 105.7374332, 21.0085439 ], [ 105.7373977, 21.0084546 ], [ 105.737227, 21.0080249 ], [ 105.7377361, 21.0077568 ], [ 105.7379529, 21.0076826 ], [ 105.7384121, 21.0074739 ], [ 105.7390311, 21.0074687 ], [ 105.7391549, 21.0078068 ], [ 105.7392076, 21.0079412 ], [ 105.7395017, 21.0086839 ], [ 105.7395311, 21.0087574 ], [ 105.739589, 21.0087387 ], [ 105.7395592, 21.0086652 ], [ 105.7392794, 21.0079257 ], [ 105.7392199, 21.0077719 ], [ 105.739147099999983, 21.007431 ], [ 105.7396278, 21.007255 ], [ 105.7396872, 21.0072339 ], [ 105.739749599999982, 21.0072117 ], [ 105.7397057, 21.0070282 ], [ 105.7396264, 21.0068835 ], [ 105.73955789999998, 21.0069043 ], [ 105.739499, 21.0069221 ], [ 105.739012, 21.007091 ], [ 105.7388266, 21.0067803 ], [ 105.7387615, 21.0066183 ], [ 105.738513699999984, 21.0061453 ], [ 105.738396699999981, 21.0056804 ], [ 105.738072599999981, 21.0057956 ], [ 105.737755, 21.0059085 ], [ 105.7372406, 21.0060913 ], [ 105.736643199999989, 21.0060528 ], [ 105.7363401, 21.0059913 ], [ 105.736163799999986, 21.006229 ], [ 105.736208, 21.0063739 ], [ 105.7365438, 21.0064756 ], [ 105.736634699999982, 21.0069424 ], [ 105.7368093, 21.007193 ], [ 105.7369182, 21.0074731 ], [ 105.7369808, 21.0078156 ], [ 105.7357459, 21.0081237 ], [ 105.7370286, 21.0079361 ], [ 105.7370834, 21.0080744 ], [ 105.7372807, 21.0085736 ], [ 105.7375451, 21.0090474 ], [ 105.737195299999982, 21.0095634 ] ] ] } },
{ "type": "Feature", "properties": { "threshold_s": 600, "time_label": "10 minutes" }, "geometry": { "type": "Polygon", "coordinates": [ [ [ 105.735777899999988, 21.0095206 ], [ 105.735801399999986, 21.0098634 ], [ 105.7365187, 21.0098496 ], [ 105.736902699999987, 21.009829 ], [ 105.738498099999987, 21.009313 ], [ 105.738824099999988, 21.0092954 ], [ 105.7395051, 21.0089328 ], [ 105.739589, 21.0087387 ], [ 105.742093399999987, 21.0090197 ], [ 105.7421082, 21.0090887 ], [ 105.7421208, 21.0091476 ], [ 105.742321899999979, 21.0090732 ], [ 105.7423481, 21.0089356 ], [ 105.7421676, 21.0078907 ], [ 105.7420093, 21.0079427 ], [ 105.741904799999986, 21.0079769 ], [ 105.7395592, 21.0086652 ], [ 105.739749599999982, 21.0072117 ], [ 105.7397057, 21.0070282 ], [ 105.7396264, 21.0068835 ], [ 105.7395302, 21.0053695 ], [ 105.7407615, 21.0048413 ], [ 105.7409848, 21.0048015 ], [ 105.740925499999989, 21.0045834 ], [ 105.7408024, 21.0044705 ], [ 105.7399816, 21.0040855 ], [ 105.7384316, 21.0034641 ], [ 105.73722859999998, 21.0026784 ], [ 105.7371736, 21.0027035 ], [ 105.7358664, 21.0033203 ], [ 105.735371299999983, 21.0032203 ], [ 105.7352915, 21.0032797 ], [ 105.735030099999989, 21.0045652 ], [ 105.7341612, 21.0051128 ], [ 105.7328717, 21.0052628 ], [ 105.732385899999983, 21.005689 ], [ 105.7330615, 21.0063971 ], [ 105.733752, 21.0071808 ], [ 105.7342147, 21.0076595 ], [ 105.7357459, 21.0081237 ], [ 105.735777899999988, 21.0095206 ] ] ] } },
{ "type": "Feature", "properties": { "threshold_s": 900, "time_label": "15 minutes" }, "geometry": { "type": "Polygon", "coordinates": [ [ [ 105.730513, 21.0095811 ], [ 105.7303316, 21.0100597 ], [ 105.7310343, 21.0100493 ], [ 105.732460399999979, 21.0099631 ], [ 105.732613599999979, 21.0093984 ], [ 105.7341681, 21.008149 ], [ 105.735777899999988, 21.0095206 ], [ 105.735801399999986, 21.0098634 ], [ 105.7365187, 21.0098496 ], [ 105.736902699999987, 21.009829 ], [ 105.738824099999988, 21.0092954 ], [ 105.7395051, 21.0089328 ], [ 105.739589, 21.0087387 ], [ 105.742093399999987, 21.0090197 ], [ 105.7421082, 21.0090887 ], [ 105.7421208, 21.0091476 ], [ 105.744094200000021, 21.009271 ], [ 105.744621199999983, 21.0093632 ], [ 105.7440155, 21.0089986 ], [ 105.743439399999986, 21.0087605 ], [ 105.7421676, 21.0078907 ], [ 105.7418332, 21.0079204 ], [ 105.739749599999982, 21.0072117 ], [ 105.7397057, 21.0070282 ], [ 105.7396264, 21.0068835 ], [ 105.7395302, 21.0053695 ], [ 105.7407615, 21.0048413 ], [ 105.7416464, 21.0049346 ], [ 105.74347, 21.0056076 ], [ 105.7436349, 21.0055402 ], [ 105.743604599999983, 21.005478 ], [ 105.7421365, 21.0045049 ], [ 105.742026399999986, 21.0037578 ], [ 105.7415361, 21.0033281 ], [ 105.7404643, 21.0028289 ], [ 105.7402511, 21.0028351 ], [ 105.7394768, 21.0031561 ], [ 105.7381266, 21.0017047 ], [ 105.73829, 21.0006269 ], [ 105.738273199999981, 21.0005866 ], [ 105.7370836, 21.0001084 ], [ 105.737002, 21.000136 ], [ 105.736936199999988, 21.0001582 ], [ 105.7366442, 21.0013173 ], [ 105.7347165, 21.0008438 ], [ 105.7338056, 21.0006038 ], [ 105.733669299999988, 21.0010399 ], [ 105.733535499999988, 21.0014679 ], [ 105.732841599999986, 21.0026517 ], [ 105.7318887, 21.0033703 ], [ 105.730702, 21.0040073 ], [ 105.7297773, 21.0044768 ], [ 105.729347, 21.0047895 ], [ 105.729666499999979, 21.0048682 ], [ 105.7303758, 21.0050597 ], [ 105.7309849, 21.0053368 ], [ 105.73098419999998, 21.0072191 ], [ 105.7306068, 21.0074469 ], [ 105.730513, 21.0095811 ] ] ] } },
{ "type": "Feature", "properties": { "threshold_s": 300, "time_label": "5 minutes" }, "geometry": { "type": "Polygon", "coordinates": [ [ [ 105.804917799999984, 21.0496217 ], [ 105.8049153, 21.0496339 ], [ 105.805311299999985, 21.0498411 ], [ 105.8056377, 21.0499605 ], [ 105.8065569, 21.0501278 ], [ 105.807442399999985, 21.0503332 ], [ 105.807602799999984, 21.0506723 ], [ 105.8077868, 21.0508638 ], [ 105.8084898, 21.0505563 ], [ 105.8087523, 21.0502557 ], [ 105.808948, 21.049827 ], [ 105.809449599999979, 21.0490598 ], [ 105.8096427, 21.0489033 ], [ 105.8096665, 21.0482647 ], [ 105.810196, 21.0478366 ], [ 105.8096169, 21.0481095 ], [ 105.809202, 21.0472563 ], [ 105.808674399999987, 21.0471679 ], [ 105.8079931, 21.0469508 ], [ 105.80783049999998, 21.0471346 ], [ 105.807391200000012, 21.0474493 ], [ 105.8065818, 21.047525 ], [ 105.806352299999986, 21.047074 ], [ 105.806404, 21.0465669 ], [ 105.806372699999983, 21.0458381 ], [ 105.806124299999979, 21.0459509 ], [ 105.8053757, 21.0463299 ], [ 105.8053678, 21.0469627 ], [ 105.8054116, 21.0477331 ], [ 105.8052287, 21.0482628 ], [ 105.8051624, 21.0484623 ], [ 105.8050121, 21.0492246 ], [ 105.804917799999984, 21.0496217 ] ] ] } },
{ "type": "Feature", "properties": { "threshold_s": 600, "time_label": "10 minutes" }, "geometry": { "type": "Polygon", "coordinates": [ [ [ 105.803771499999982, 21.0514686 ], [ 105.804574, 21.0531306 ], [ 105.804641099999984, 21.0531307 ], [ 105.8057909, 21.052783 ], [ 105.8073869, 21.0534186 ], [ 105.8089214, 21.0536328 ], [ 105.809416699999986, 21.0534459 ], [ 105.8107361, 21.0524424 ], [ 105.811332899999982, 21.0516747 ], [ 105.811216, 21.0510267 ], [ 105.8117006, 21.0495838 ], [ 105.8122967, 21.0487921 ], [ 105.81267440000002, 21.0470148 ], [ 105.8128041, 21.0466482 ], [ 105.8125447, 21.0463299 ], [ 105.8125217, 21.0463024 ], [ 105.812151299999982, 21.0459931 ], [ 105.811321, 21.0459144 ], [ 105.8095086, 21.045206 ], [ 105.809453, 21.0449554 ], [ 105.809019, 21.0446152 ], [ 105.8074406, 21.043878 ], [ 105.8068355, 21.0433885 ], [ 105.806327, 21.0429691 ], [ 105.804978199999979, 21.0439238 ], [ 105.8045096, 21.0439831 ], [ 105.804268, 21.0439895 ], [ 105.8032633, 21.0453134 ], [ 105.8023804, 21.0459928 ], [ 105.8022117, 21.0463151 ], [ 105.8022109, 21.0463808 ], [ 105.802211499999984, 21.0464852 ], [ 105.802421599999988, 21.0466516 ], [ 105.8032979, 21.0476186 ], [ 105.802915899999988, 21.0488372 ], [ 105.8024037, 21.0494371 ], [ 105.8022773, 21.0495365 ], [ 105.802862599999983, 21.0510215 ], [ 105.8032109, 21.0511955 ], [ 105.803771499999982, 21.0514686 ] ] ] } },
{ "type": "Feature", "properties": { "threshold_s": 900, "time_label": "15 minutes" }, "geometry": { "type": "Polygon", "coordinates": [ [ [ 105.800393899999989, 21.051799 ], [ 105.8003941, 21.0519313 ], [ 105.800452199999981, 21.0519313 ], [ 105.801093, 21.051799 ], [ 105.8026473, 21.0511306 ], [ 105.803771499999982, 21.0514686 ], [ 105.804574, 21.0531306 ], [ 105.8042157, 21.0546363 ], [ 105.8045839, 21.0560366 ], [ 105.804655499999981, 21.0560335 ], [ 105.806671399999985, 21.0555796 ], [ 105.8077517, 21.0560299 ], [ 105.80834560000001, 21.0564549 ], [ 105.8088198, 21.0564828 ], [ 105.808895099999987, 21.0564833 ], [ 105.8095012, 21.0560973 ], [ 105.8100984, 21.0554586 ], [ 105.811723299999983, 21.0547895 ], [ 105.8121901, 21.053685 ], [ 105.8125248, 21.0527532 ], [ 105.812782900000016, 21.0518965 ], [ 105.813290599999988, 21.0506848 ], [ 105.814043199999986, 21.0492446 ], [ 105.8142875, 21.0487108 ], [ 105.8142939, 21.047538 ], [ 105.814404399999987, 21.0464718 ], [ 105.8153309, 21.0455109 ], [ 105.8155468, 21.0440305 ], [ 105.8141123, 21.043334 ], [ 105.8126866, 21.0433796 ], [ 105.811451799999986, 21.0431749 ], [ 105.8107555, 21.0429421 ], [ 105.8095061, 21.0422399 ], [ 105.808138299999982, 21.0407782 ], [ 105.8078088, 21.0405629 ], [ 105.8065474, 21.0401167 ], [ 105.8064147, 21.0400785 ], [ 105.80558929999998, 21.0406052 ], [ 105.8041192, 21.0415409 ], [ 105.802512300000018, 21.0427542 ], [ 105.8011087, 21.0441523 ], [ 105.8001789, 21.0452773 ], [ 105.799352299999981, 21.0457583 ], [ 105.7989256, 21.0463093 ], [ 105.7989297, 21.0463848 ], [ 105.7989418, 21.0465382 ], [ 105.798958, 21.0467368 ], [ 105.7994087, 21.0472311 ], [ 105.799847199999988, 21.0475859 ], [ 105.800783699999982, 21.0487462 ], [ 105.8006184, 21.050296 ], [ 105.800393899999989, 21.051799 ] ] ] } },
{ "type": "Feature", "properties": { "threshold_s": 300, "time_label": "5 minutes" }, "geometry": { "type": "Polygon", "coordinates": [ [ [ 105.803428, 21.0472524 ], [ 105.80351659999998, 21.0477956 ], [ 105.804208299999985, 21.0481796 ], [ 105.804337799999985, 21.0482463 ], [ 105.8047034, 21.0483933 ], [ 105.8047911, 21.0484279 ], [ 105.805312599999979, 21.0482691 ], [ 105.8063455, 21.0485044 ], [ 105.806710599999988, 21.0478775 ], [ 105.8065818, 21.047525 ], [ 105.806404, 21.0465669 ], [ 105.8067988, 21.0458487 ], [ 105.806654699999982, 21.0458286 ], [ 105.806372699999983, 21.0458381 ], [ 105.80626909999998, 21.0458332 ], [ 105.805620799999986, 21.0460004 ], [ 105.805183499999984, 21.0451311 ], [ 105.805322499999988, 21.0441697 ], [ 105.806408099999985, 21.0446999 ], [ 105.8059935, 21.0438743 ], [ 105.804978199999979, 21.0439238 ], [ 105.8045488, 21.0435327 ], [ 105.804285899999982, 21.0434337 ], [ 105.804197299999984, 21.0435327 ], [ 105.804208, 21.0436051 ], [ 105.804268, 21.0439895 ], [ 105.8043626, 21.0445852 ], [ 105.803552899999985, 21.0451713 ], [ 105.8032633, 21.0453134 ], [ 105.8025168, 21.0454198 ], [ 105.801931699999983, 21.0459531 ], [ 105.8018389, 21.046037 ], [ 105.8018385, 21.0461327 ], [ 105.802211499999984, 21.0464852 ], [ 105.802421599999988, 21.0466516 ], [ 105.8031977, 21.0463729 ], [ 105.80348960000002, 21.0470328 ], [ 105.803428, 21.0472524 ] ] ] } },
{ "type": "Feature", "properties": { "threshold_s": 600, "time_label": "10 minutes" }, "geometry": { "type": "Polygon", "coordinates": [ [ [ 105.8031277, 21.0506916 ], [ 105.8032109, 21.0511955 ], [ 105.804236299999985, 21.0515678 ], [ 105.8043045, 21.0515709 ], [ 105.8055415, 21.0506707 ], [ 105.8065569, 21.0501278 ], [ 105.807602799999984, 21.0506723 ], [ 105.8077676, 21.0509117 ], [ 105.80791, 21.0510376 ], [ 105.80853, 21.0501228 ], [ 105.809289299999989, 21.0487515 ], [ 105.8096306, 21.0481524 ], [ 105.8102161, 21.0465082 ], [ 105.80942349999998, 21.0462813 ], [ 105.8088219, 21.0446878 ], [ 105.8090323, 21.0442849 ], [ 105.8089197, 21.043767 ], [ 105.8082215, 21.0431539 ], [ 105.807483399999981, 21.0423787 ], [ 105.8071604, 21.0421622 ], [ 105.8059386, 21.0410711 ], [ 105.80558929999998, 21.0406052 ], [ 105.80524250000002, 21.0402738 ], [ 105.8037403, 21.041309 ], [ 105.802515, 21.0422401 ], [ 105.802485599999983, 21.0426045 ], [ 105.802512300000018, 21.0427542 ], [ 105.802515199999988, 21.0431396 ], [ 105.8011087, 21.0441523 ], [ 105.8001789, 21.0452773 ], [ 105.799356, 21.0452698 ], [ 105.7984236, 21.0460267 ], [ 105.7984798, 21.0461069 ], [ 105.798958, 21.0467368 ], [ 105.799847199999988, 21.0475859 ], [ 105.8011534, 21.0487287 ], [ 105.8030421, 21.049065 ], [ 105.8030019, 21.050125 ], [ 105.8031277, 21.0506916 ] ] ] } },
{ "type": "Feature", "properties": { "threshold_s": 900, "time_label": "15 minutes" }, "geometry": { "type": "Polygon", "coordinates": [ [ [ 105.7975653, 21.0483911 ], [ 105.79775189999998, 21.0488792 ], [ 105.797859399999979, 21.0488798 ], [ 105.7999252, 21.049468 ], [ 105.80074639999998, 21.050633 ], [ 105.801093, 21.051799 ], [ 105.8026473, 21.0511306 ], [ 105.803771499999982, 21.0514686 ], [ 105.804574, 21.0531306 ], [ 105.8042157, 21.0546363 ], [ 105.8042788, 21.0546366 ], [ 105.804648299999982, 21.0545977 ], [ 105.8060591, 21.0538701 ], [ 105.8071563, 21.0535997 ], [ 105.8089865, 21.0538584 ], [ 105.809416699999986, 21.0534459 ], [ 105.810260099999979, 21.0516276 ], [ 105.8107672, 21.0512015 ], [ 105.8117006, 21.0495838 ], [ 105.8120306, 21.0486505 ], [ 105.8125447, 21.0463299 ], [ 105.812626, 21.0454833 ], [ 105.8126493, 21.0446502 ], [ 105.8122141, 21.0434598 ], [ 105.8115503, 21.0427141 ], [ 105.810822499999986, 21.0419072 ], [ 105.809436099999985, 21.0406114 ], [ 105.808357499999985, 21.0396432 ], [ 105.806716, 21.0378399 ], [ 105.806550500000014, 21.0374824 ], [ 105.803947399999984, 21.0380429 ], [ 105.8019948, 21.039552 ], [ 105.801146099999983, 21.0403384 ], [ 105.7993718, 21.0421664 ], [ 105.7977251, 21.0433587 ], [ 105.796264399999984, 21.0450916 ], [ 105.7955657, 21.0462859 ], [ 105.7955659, 21.0463726 ], [ 105.797139099999981, 21.0473314 ], [ 105.7975653, 21.0483911 ] ] ] } },
{ "type": "Feature", "properties": { "threshold_s": 300, "time_label": "5 minutes" }, "geometry": { "type": "Polygon", "coordinates": [ [ [ 105.7818605, 21.0509151 ], [ 105.781941799999984, 21.0519545 ], [ 105.7827517, 21.0510449 ], [ 105.7840095, 21.0500969 ], [ 105.783401899999987, 21.049042 ], [ 105.7833526, 21.0482904 ], [ 105.782754499999982, 21.0480187 ], [ 105.781704299999987, 21.0474939 ], [ 105.7817055, 21.0466307 ], [ 105.781532799999979, 21.0462369 ], [ 105.7814371, 21.0460459 ], [ 105.7811332, 21.0464801 ], [ 105.781554799999981, 21.0475012 ], [ 105.781633099999979, 21.0485449 ], [ 105.7816444, 21.0487182 ], [ 105.781661499999984, 21.0489927 ], [ 105.781677799999983, 21.0492679 ], [ 105.7818605, 21.0509151 ] ] ] } },
{ "type": "Feature", "properties": { "threshold_s": 600, "time_label": "10 minutes" }, "geometry": { "type": "Polygon", "coordinates": [ [ [ 105.7822295, 21.0545773 ], [ 105.782248700000011, 21.05468 ], [ 105.7836596, 21.0535956 ], [ 105.785534799999979, 21.0522411 ], [ 105.7860464, 21.0517605 ], [ 105.7868482, 21.0503655 ], [ 105.78561550000002, 21.0500518 ], [ 105.784496599999983, 21.0477758 ], [ 105.7852144, 21.0463283 ], [ 105.7852769, 21.0462596 ], [ 105.7834706, 21.0447931 ], [ 105.7829571, 21.0442926 ], [ 105.781358, 21.0430541 ], [ 105.781313299999979, 21.0430543 ], [ 105.7812095, 21.0430572 ], [ 105.779319499999986, 21.0447424 ], [ 105.778838199999981, 21.0450445 ], [ 105.77874079999998, 21.0455643 ], [ 105.779164, 21.0461272 ], [ 105.7807391, 21.0484279 ], [ 105.7810817, 21.0490121 ], [ 105.7818605, 21.0509151 ], [ 105.781941799999984, 21.0519545 ], [ 105.7819735, 21.052385 ], [ 105.7820964, 21.0537641 ], [ 105.7822295, 21.0545773 ] ] ] } },
{ "type": "Feature", "properties": { "threshold_s": 900, "time_label": "15 minutes" }, "geometry": { "type": "Polygon", "coordinates": [ [ [ 105.78296779999998, 21.0576865 ], [ 105.7829767, 21.0577226 ], [ 105.784339299999985, 21.0565273 ], [ 105.7844732, 21.0563808 ], [ 105.7863645, 21.0544242 ], [ 105.7889477, 21.0524775 ], [ 105.789025099999989, 21.0523451 ], [ 105.7892867, 21.0518621 ], [ 105.789405, 21.051624 ], [ 105.7889908, 21.051343 ], [ 105.788158, 21.0509461 ], [ 105.7868482, 21.0503655 ], [ 105.78561550000002, 21.0500518 ], [ 105.78595, 21.0472409 ], [ 105.7882066, 21.0468096 ], [ 105.7887398, 21.0463321 ], [ 105.788741, 21.0462521 ], [ 105.787475299999983, 21.0457948 ], [ 105.7863306, 21.0435279 ], [ 105.785836, 21.0431214 ], [ 105.7830316, 21.0415287 ], [ 105.7826891, 21.0412926 ], [ 105.782076599999982, 21.0409521 ], [ 105.780580499999985, 21.0401418 ], [ 105.7803951, 21.0406082 ], [ 105.7779609, 21.0422702 ], [ 105.7770629, 21.0441218 ], [ 105.7756152, 21.0446916 ], [ 105.7756336, 21.0447763 ], [ 105.7759983, 21.0453247 ], [ 105.777378, 21.0480498 ], [ 105.7773775, 21.0485024 ], [ 105.779530600000015, 21.0508474 ], [ 105.779753499999984, 21.0512413 ], [ 105.7799975, 21.0513903 ], [ 105.781119299999986, 21.0521549 ], [ 105.7822295, 21.0545773 ], [ 105.782248700000011, 21.05468 ], [ 105.7826165, 21.0562783 ], [ 105.782893099999981, 21.0573835 ], [ 105.78296779999998, 21.0576865 ] ] ] } },
{ "type": "Feature", "properties": { "threshold_s": 300, "time_label": "5 minutes" }, "geometry": { "type": "Polygon", "coordinates": [ [ [ 105.7841268, 21.0452942 ], [ 105.7840436, 21.0460489 ], [ 105.7843945, 21.0463314 ], [ 105.7852144, 21.0463283 ], [ 105.7859574, 21.0464321 ], [ 105.7854126, 21.0471752 ], [ 105.7859135, 21.0472407 ], [ 105.78595, 21.0472409 ], [ 105.78588689999998, 21.0471786 ], [ 105.7860577, 21.0463893 ], [ 105.7864525, 21.0463922 ], [ 105.7867422, 21.0463954 ], [ 105.787142399999979, 21.0464823 ], [ 105.787468899999979, 21.0466048 ], [ 105.788244800000015, 21.0463334 ], [ 105.7882472, 21.0462535 ], [ 105.787689499999985, 21.0462534 ], [ 105.787475299999983, 21.0457948 ], [ 105.7870865, 21.0462578 ], [ 105.7865206, 21.0459718 ], [ 105.7863709, 21.0452714 ], [ 105.786371599999981, 21.0450113 ], [ 105.7863721, 21.0447812 ], [ 105.786372699999987, 21.044547 ], [ 105.7863733, 21.0442887 ], [ 105.7863306, 21.0435279 ], [ 105.786932799999988, 21.0434668 ], [ 105.7872938, 21.0435485 ], [ 105.7879819, 21.0434678 ], [ 105.7875221, 21.0432494 ], [ 105.7875212, 21.042533 ], [ 105.7869071, 21.0422595 ], [ 105.786207299999987, 21.0420301 ], [ 105.786102299999982, 21.0421794 ], [ 105.786219299999985, 21.0426168 ], [ 105.78540049999998, 21.0429028 ], [ 105.7851923, 21.0429903 ], [ 105.785100700000015, 21.043124 ], [ 105.785100299999982, 21.0431522 ], [ 105.785220199999983, 21.043415 ], [ 105.7847189, 21.0440079 ], [ 105.7845286, 21.0441589 ], [ 105.784189499999982, 21.0447295 ], [ 105.7837286, 21.0449557 ], [ 105.7834671, 21.0452382 ], [ 105.7837294, 21.0452378 ], [ 105.7841268, 21.0452942 ] ] ] } },
{ "type": "Feature", "properties": { "threshold_s": 600, "time_label": "10 minutes" }, "geometry": { "type": "Polygon", "coordinates": [ [ [ 105.7811332, 21.0464801 ], [ 105.7814899, 21.0469047 ], [ 105.7826015, 21.0477459 ], [ 105.7834723, 21.0488545 ], [ 105.7842889, 21.0491942 ], [ 105.784443399999986, 21.0490411 ], [ 105.784439799999987, 21.048853 ], [ 105.7844359, 21.0486508 ], [ 105.7844339, 21.0485474 ], [ 105.7853056, 21.047304 ], [ 105.786916, 21.0480906 ], [ 105.7883842, 21.0481895 ], [ 105.7887998, 21.0481936 ], [ 105.790062899999981, 21.0482062 ], [ 105.790430699999987, 21.047514 ], [ 105.7911873, 21.0467116 ], [ 105.791834399999985, 21.0460843 ], [ 105.791836499999988, 21.0460111 ], [ 105.791363600000011, 21.0455883 ], [ 105.790718699999985, 21.0447602 ], [ 105.7907472, 21.0439514 ], [ 105.790745, 21.0437095 ], [ 105.790736199999984, 21.0432413 ], [ 105.790624799999989, 21.041693 ], [ 105.790507299999987, 21.0415421 ], [ 105.7890282, 21.0405702 ], [ 105.7883005, 21.0399569 ], [ 105.7878175, 21.0401152 ], [ 105.7863937, 21.0395141 ], [ 105.7861961, 21.0391781 ], [ 105.7860278, 21.0388761 ], [ 105.7860824, 21.0391913 ], [ 105.786094899999981, 21.039535 ], [ 105.786114199999986, 21.0400689 ], [ 105.7861168, 21.040141 ], [ 105.7861258, 21.0403896 ], [ 105.7847337, 21.0414314 ], [ 105.7840836, 21.0408563 ], [ 105.7840098, 21.0407921 ], [ 105.7836079, 21.0416936 ], [ 105.7836123, 21.0418473 ], [ 105.7837622, 21.0422739 ], [ 105.7841578, 21.0432544 ], [ 105.7829571, 21.0442926 ], [ 105.7814713, 21.0452003 ], [ 105.7809808, 21.0458111 ], [ 105.7809873, 21.0459159 ], [ 105.780998699999984, 21.0460408 ], [ 105.7811332, 21.0464801 ] ] ] } },
{ "type": "Feature", "properties": { "threshold_s": 900, "time_label": "15 minutes" }, "geometry": { "type": "Polygon", "coordinates": [ [ [ 105.7810817, 21.0490121 ], [ 105.781800099999984, 21.0501996 ], [ 105.7824089, 21.0507893 ], [ 105.7838441, 21.0517827 ], [ 105.785534799999979, 21.0522411 ], [ 105.7860464, 21.0517605 ], [ 105.7868482, 21.0503655 ], [ 105.7885906, 21.0499875 ], [ 105.789637499999984, 21.0509612 ], [ 105.7896973, 21.0510389 ], [ 105.791383599999989, 21.0500353 ], [ 105.792158, 21.0492501 ], [ 105.7928616, 21.048495 ], [ 105.7933557, 21.0479378 ], [ 105.7947596, 21.0463667 ], [ 105.7947566, 21.0460988 ], [ 105.794755699999982, 21.0460298 ], [ 105.7943184, 21.0438932 ], [ 105.7936082, 21.0423518 ], [ 105.7936187, 21.0416866 ], [ 105.7936197, 21.041626 ], [ 105.7925149, 21.0396499 ], [ 105.792076, 21.0391693 ], [ 105.792037599999986, 21.0391304 ], [ 105.7906043, 21.038482 ], [ 105.7903315, 21.0383701 ], [ 105.7902746, 21.0383798 ], [ 105.7891232, 21.0396979 ], [ 105.787767299999985, 21.0391741 ], [ 105.78713759999998, 21.0391192 ], [ 105.7859936, 21.03798 ], [ 105.786876299999989, 21.0366966 ], [ 105.7868733, 21.0366352 ], [ 105.78687050000002, 21.0365773 ], [ 105.7855296, 21.0364166 ], [ 105.785409, 21.036465 ], [ 105.7851296, 21.0366452 ], [ 105.785131799999988, 21.0366983 ], [ 105.785142500000021, 21.0369495 ], [ 105.785324399999979, 21.0375584 ], [ 105.7833056, 21.0385422 ], [ 105.7830431, 21.0385483 ], [ 105.782633, 21.03898 ], [ 105.7818292, 21.0402531 ], [ 105.781102299999986, 21.0409809 ], [ 105.780753, 21.0424644 ], [ 105.7802463, 21.0436753 ], [ 105.7788074, 21.0443006 ], [ 105.7783604, 21.0447158 ], [ 105.7779687, 21.045064 ], [ 105.778127799999979, 21.0456712 ], [ 105.779164, 21.0461272 ], [ 105.7796723, 21.0462948 ], [ 105.7807416, 21.0481428 ], [ 105.7807418, 21.0482023 ], [ 105.780739800000021, 21.0483962 ], [ 105.7807391, 21.0484279 ], [ 105.7810817, 21.0490121 ] ] ] } },
{ "type": "Feature", "properties": { "threshold_s": 300, "time_label": "5 minutes" }, "geometry": { "type": "Polygon", "coordinates": [ [ [ 105.7855969, 21.0333761 ], [ 105.7853886, 21.0339014 ], [ 105.785788499999981, 21.0339511 ], [ 105.786475, 21.034106 ], [ 105.787117499999979, 21.0344063 ], [ 105.787175099999985, 21.0346336 ], [ 105.7874956, 21.0352638 ], [ 105.7873133, 21.0355417 ], [ 105.7875916, 21.0356594 ], [ 105.787835, 21.0357195 ], [ 105.7881488, 21.035363 ], [ 105.7888401, 21.0355052 ], [ 105.789576699999984, 21.0353924 ], [ 105.789758299999988, 21.0350434 ], [ 105.7899627, 21.0345167 ], [ 105.790312499999985, 21.034105 ], [ 105.7904035, 21.0336571 ], [ 105.79037, 21.0330731 ], [ 105.7908049, 21.0328873 ], [ 105.7902193, 21.0323952 ], [ 105.7895626, 21.0319861 ], [ 105.7890802, 21.0316734 ], [ 105.788526100000013, 21.0316341 ], [ 105.7877059, 21.0315303 ], [ 105.7878162, 21.0319517 ], [ 105.787004399999987, 21.0321523 ], [ 105.786663799999985, 21.0321518 ], [ 105.7863316, 21.0320499 ], [ 105.7860842, 21.0319361 ], [ 105.7859763, 21.0318346 ], [ 105.7863528, 21.0311807 ], [ 105.7859516, 21.0318251 ], [ 105.7857603, 21.0325363 ], [ 105.785906499999982, 21.0327923 ], [ 105.7855969, 21.0333761 ] ] ] } },
{ "type": "Feature", "properties": { "threshold_s": 600, "time_label": "10 minutes" }, "geometry": { "type": "Polygon", "coordinates": [ [ [ 105.7831403, 21.0340107 ], [ 105.782713199999989, 21.0345653 ], [ 105.783513899999988, 21.0349453 ], [ 105.784392299999979, 21.0354726 ], [ 105.7844993, 21.0355224 ], [ 105.7848304, 21.0357022 ], [ 105.785409, 21.036465 ], [ 105.785531899999981, 21.0365189 ], [ 105.785641799999979, 21.0365156 ], [ 105.785859299999984, 21.0365051 ], [ 105.786044799999985, 21.0364954 ], [ 105.7868733, 21.0366352 ], [ 105.7877411, 21.0372803 ], [ 105.7880377, 21.0375629 ], [ 105.7882749, 21.0377174 ], [ 105.7886934, 21.0379832 ], [ 105.789771699999989, 21.0382452 ], [ 105.7902746, 21.0383798 ], [ 105.7903315, 21.0383701 ], [ 105.7902615, 21.0380986 ], [ 105.7910761, 21.0373603 ], [ 105.7918174, 21.0366555 ], [ 105.7918017, 21.0365907 ], [ 105.7922206, 21.0355758 ], [ 105.792199199999985, 21.0355223 ], [ 105.7913192, 21.0354644 ], [ 105.790982699999986, 21.034834 ], [ 105.7909904, 21.0347362 ], [ 105.7914173, 21.034111 ], [ 105.792178, 21.0343667 ], [ 105.7922058, 21.0341309 ], [ 105.7931303, 21.033546 ], [ 105.7929102, 21.0331535 ], [ 105.7928038, 21.0329768 ], [ 105.7921522, 21.0323736 ], [ 105.7916145, 21.0319587 ], [ 105.7918505, 21.0310596 ], [ 105.792360699999989, 21.0310392 ], [ 105.791733, 21.0304388 ], [ 105.790855399999984, 21.0298028 ], [ 105.7897695, 21.029897 ], [ 105.789467, 21.029528 ], [ 105.789192699999987, 21.0289076 ], [ 105.7891809, 21.0288598 ], [ 105.7882653, 21.0285872 ], [ 105.787712, 21.0281282 ], [ 105.7876198, 21.0280911 ], [ 105.78746, 21.0281025 ], [ 105.787405799999988, 21.0281473 ], [ 105.7875671, 21.0291414 ], [ 105.7875753, 21.0291907 ], [ 105.787583399999988, 21.0292389 ], [ 105.7877841, 21.0301291 ], [ 105.786719199999979, 21.0301441 ], [ 105.7862179, 21.0294464 ], [ 105.7862109, 21.0294098 ], [ 105.7862043, 21.0293753 ], [ 105.7858969, 21.0286486 ], [ 105.7858483, 21.0280056 ], [ 105.7857227, 21.0280227 ], [ 105.785419, 21.0287209 ], [ 105.7854784, 21.0290883 ], [ 105.78460819999998, 21.0296789 ], [ 105.783945, 21.0302408 ], [ 105.783287699999988, 21.0309224 ], [ 105.783872499999987, 21.0317404 ], [ 105.783344, 21.0327208 ], [ 105.7832734, 21.033511 ], [ 105.7831403, 21.0340107 ] ] ] } },
{ "type": "Feature", "properties": { "threshold_s": 900, "time_label": "15 minutes" }, "geometry": { "type": "Polygon", "coordinates": [ [ [ 105.780072099999984, 21.0351082 ], [ 105.780775199999979, 21.0359563 ], [ 105.7817907, 21.036624 ], [ 105.7832439, 21.0376455 ], [ 105.783743499999986, 21.0382176 ], [ 105.784439699999979, 21.0385157 ], [ 105.7860824, 21.0391913 ], [ 105.788059299999986, 21.0390216 ], [ 105.788300899999982, 21.0397073 ], [ 105.7891199, 21.0403634 ], [ 105.790219199999981, 21.0415607 ], [ 105.790369, 21.0415337 ], [ 105.7913826, 21.0405908 ], [ 105.79248, 21.0388523 ], [ 105.7938014, 21.037832 ], [ 105.794343899999987, 21.0371853 ], [ 105.795214299999984, 21.0353539 ], [ 105.79589009999998, 21.0343638 ], [ 105.7955576, 21.032812 ], [ 105.7953934, 21.0318295 ], [ 105.7952016, 21.0312398 ], [ 105.7944127, 21.0299837 ], [ 105.794198699999981, 21.0289989 ], [ 105.7939295, 21.0287373 ], [ 105.791898599999982, 21.0280242 ], [ 105.790169700000021, 21.0268402 ], [ 105.788201599999979, 21.0260056 ], [ 105.7870826, 21.0259694 ], [ 105.7856109, 21.0259907 ], [ 105.7843118, 21.0263502 ], [ 105.784305099999983, 21.0264381 ], [ 105.7842785, 21.0267897 ], [ 105.7828874, 21.0280861 ], [ 105.782752499999987, 21.0281058 ], [ 105.7825438, 21.0283843 ], [ 105.7814386, 21.0300371 ], [ 105.7804173, 21.0308752 ], [ 105.7800808, 21.0314291 ], [ 105.780322699999985, 21.0330628 ], [ 105.7800149, 21.0347816 ], [ 105.7800349, 21.0348958 ], [ 105.780072099999984, 21.0351082 ] ] ] } },
{ "type": "Feature", "properties": { "threshold_s": 300, "time_label": "5 minutes" }, "geometry": { "type": "Polygon", "coordinates": [ [ [ 105.8454918, 21.0375308 ], [ 105.8456003, 21.0380648 ], [ 105.8460762, 21.03742 ], [ 105.8462821, 21.0373809 ], [ 105.847111399999989, 21.0375183 ], [ 105.847716, 21.0375564 ], [ 105.8479192, 21.0377886 ], [ 105.847265299999989, 21.0387498 ], [ 105.8471313, 21.0386835 ], [ 105.8469021, 21.0388204 ], [ 105.8470127, 21.0391722 ], [ 105.8471523, 21.0392431 ], [ 105.847203800000017, 21.0392414 ], [ 105.8476039, 21.0389682 ], [ 105.84766759999998, 21.0388293 ], [ 105.8486487, 21.0382787 ], [ 105.848880199999982, 21.0382075 ], [ 105.8487972, 21.0381723 ], [ 105.8486499, 21.0381142 ], [ 105.8480787, 21.0375461 ], [ 105.8491289, 21.0375801 ], [ 105.8491471, 21.0375518 ], [ 105.8486639, 21.0367611 ], [ 105.8494544, 21.0368842 ], [ 105.849978399999983, 21.0369695 ], [ 105.849642099999983, 21.0363753 ], [ 105.8489899, 21.0361005 ], [ 105.849394799999985, 21.0353124 ], [ 105.8482524, 21.0353972 ], [ 105.848156599999982, 21.0348966 ], [ 105.848043799999985, 21.0342979 ], [ 105.847499, 21.0350358 ], [ 105.847024799999986, 21.0344199 ], [ 105.8473737, 21.0343717 ], [ 105.8470165, 21.0342899 ], [ 105.8472542, 21.0337414 ], [ 105.846995, 21.0337203 ], [ 105.846899099999987, 21.0342913 ], [ 105.846388499999989, 21.0345752 ], [ 105.8464493, 21.0348094 ], [ 105.8463136, 21.0353414 ], [ 105.845829, 21.0352131 ], [ 105.8457273, 21.0347159 ], [ 105.845709099999979, 21.0346237 ], [ 105.8456694, 21.0347273 ], [ 105.8455017, 21.0352686 ], [ 105.845039699999987, 21.035347 ], [ 105.8455472, 21.035627 ], [ 105.845924, 21.0356714 ], [ 105.8464667, 21.0356087 ], [ 105.8470504, 21.0355456 ], [ 105.8475795, 21.0354757 ], [ 105.847722399999981, 21.0362416 ], [ 105.8470836, 21.0362915 ], [ 105.846553, 21.036621 ], [ 105.846130299999984, 21.0366717 ], [ 105.8454067, 21.0371265 ], [ 105.8451591, 21.0373498 ], [ 105.8454918, 21.0375308 ] ] ] } },
{ "type": "Feature", "properties": { "threshold_s": 600, "time_label": "10 minutes" }, "geometry": { "type": "Polygon", "coordinates": [ [ [ 105.843940099999983, 21.0397282 ], [ 105.844797499999984, 21.0410272 ], [ 105.845321199999987, 21.0411123 ], [ 105.8455008, 21.0411372 ], [ 105.8472071, 21.0419565 ], [ 105.847933199999986, 21.0418213 ], [ 105.8489952, 21.0413484 ], [ 105.849991099999983, 21.0408047 ], [ 105.8512049, 21.039884 ], [ 105.8518113, 21.0387176 ], [ 105.852869699999985, 21.0375029 ], [ 105.85325779999998, 21.0370348 ], [ 105.853296899999989, 21.0369383 ], [ 105.85314080000002, 21.0366868 ], [ 105.852792800000017, 21.0360548 ], [ 105.852156799999989, 21.0347124 ], [ 105.85204490000001, 21.0339261 ], [ 105.8511704, 21.0329985 ], [ 105.850743, 21.0322218 ], [ 105.84887710000001, 21.0317532 ], [ 105.8477628, 21.0316054 ], [ 105.8467286, 21.0312332 ], [ 105.846286, 21.0310279 ], [ 105.846263, 21.0310171 ], [ 105.845064, 21.0313485 ], [ 105.8443984, 21.0323126 ], [ 105.843543299999979, 21.0334064 ], [ 105.843611, 21.0337263 ], [ 105.8449379, 21.0348636 ], [ 105.8447622, 21.0357407 ], [ 105.8445168, 21.0360386 ], [ 105.8447313, 21.0372753 ], [ 105.8446578, 21.038614 ], [ 105.843940099999983, 21.0397282 ] ] ] } },
{ "type": "Feature", "properties": { "threshold_s": 900, "time_label": "15 minutes" }, "geometry": { "type": "Polygon", "coordinates": [ [ [ 105.840854899999982, 21.0408553 ], [ 105.8420969, 21.0424654 ], [ 105.842360299999982, 21.0426876 ], [ 105.842721699999984, 21.0429519 ], [ 105.8432518, 21.0432142 ], [ 105.845337499999985, 21.0443198 ], [ 105.845952499999981, 21.0446982 ], [ 105.8473342, 21.0439237 ], [ 105.847585, 21.0437306 ], [ 105.8499464, 21.0427059 ], [ 105.8505349, 21.0426335 ], [ 105.8510793, 21.042542 ], [ 105.851780399999981, 21.0416726 ], [ 105.8520986, 21.0404431 ], [ 105.853645500000013, 21.0392653 ], [ 105.853582099999983, 21.0386175 ], [ 105.853447800000012, 21.0379546 ], [ 105.8536025, 21.0366394 ], [ 105.855188, 21.0355451 ], [ 105.855330399999986, 21.0338854 ], [ 105.8544595, 21.0330415 ], [ 105.8534222, 21.0313677 ], [ 105.8532995, 21.0311492 ], [ 105.851467499999984, 21.0294759 ], [ 105.850687099999988, 21.0289977 ], [ 105.8493156, 21.0287098 ], [ 105.847791199999989, 21.0281196 ], [ 105.845987099999988, 21.0275442 ], [ 105.8439273, 21.0285542 ], [ 105.8428205, 21.0303654 ], [ 105.84148519999998, 21.0322405 ], [ 105.841180199999982, 21.0327568 ], [ 105.8415775, 21.032684 ], [ 105.843611, 21.0337263 ], [ 105.8447622, 21.0357407 ], [ 105.8445168, 21.0360386 ], [ 105.8447313, 21.0372753 ], [ 105.8446578, 21.038614 ], [ 105.8430828, 21.0397581 ], [ 105.8419535, 21.0393831 ], [ 105.8418699, 21.0393974 ], [ 105.8418084, 21.0394077 ], [ 105.8408984, 21.0407653 ], [ 105.840854899999982, 21.0408553 ] ] ] } },
{ "type": "Feature", "properties": { "threshold_s": 300, "time_label": "5 minutes" }, "geometry": { "type": "Polygon", "coordinates": [ [ [ 105.8602129, 21.0095101 ], [ 105.860447799999989, 21.0100284 ], [ 105.8604782, 21.0100487 ], [ 105.861336899999984, 21.0100555 ], [ 105.8623105, 21.0106289 ], [ 105.862173700000014, 21.0114201 ], [ 105.8627621, 21.011911 ], [ 105.8630693, 21.0115761 ], [ 105.862968, 21.0109979 ], [ 105.8629252, 21.0104518 ], [ 105.864058899999989, 21.010046 ], [ 105.864554199999986, 21.0100688 ], [ 105.8646076, 21.0099894 ], [ 105.864800399999979, 21.0097328 ], [ 105.8650091, 21.0094733 ], [ 105.8659756, 21.0088613 ], [ 105.866148899999985, 21.008615 ], [ 105.8662302, 21.0082852 ], [ 105.8657047, 21.0079752 ], [ 105.865037300000012, 21.0075089 ], [ 105.864555900000013, 21.0070759 ], [ 105.8640954, 21.0068977 ], [ 105.86283779999998, 21.007255 ], [ 105.8621493, 21.0076668 ], [ 105.861242399999981, 21.0084799 ], [ 105.8606927, 21.0086974 ], [ 105.860530399999988, 21.008808 ], [ 105.860419399999984, 21.0089796 ], [ 105.8602129, 21.0095101 ] ] ] } },
{ "type": "Feature", "properties": { "threshold_s": 600, "time_label": "10 minutes" }, "geometry": { "type": "Polygon", "coordinates": [ [ [ 105.8584207, 21.0123153 ], [ 105.858442, 21.0124844 ], [ 105.858480799999981, 21.012509 ], [ 105.858556899999982, 21.012412 ], [ 105.858624799999987, 21.0123263 ], [ 105.859638499999988, 21.0119908 ], [ 105.860338, 21.0121198 ], [ 105.860500400000021, 21.0122364 ], [ 105.859986699999979, 21.0133833 ], [ 105.8598598, 21.0135189 ], [ 105.8598515, 21.0135671 ], [ 105.8598405, 21.0136307 ], [ 105.859933, 21.0137192 ], [ 105.860863499999979, 21.013714 ], [ 105.860927, 21.01363 ], [ 105.8617943, 21.0132425 ], [ 105.8627092, 21.0141198 ], [ 105.86400519999998, 21.0139579 ], [ 105.8644008, 21.0140818 ], [ 105.8641317, 21.0136234 ], [ 105.8640881, 21.0128463 ], [ 105.864851, 21.0124401 ], [ 105.8657318, 21.0120932 ], [ 105.86551679999998, 21.0114161 ], [ 105.865740599999981, 21.0104438 ], [ 105.8665672, 21.0102809 ], [ 105.8671791, 21.0107111 ], [ 105.8673533, 21.010962 ], [ 105.8680303, 21.0100022 ], [ 105.868157399999987, 21.0098388 ], [ 105.8683241, 21.0096302 ], [ 105.8687022, 21.0091516 ], [ 105.8687963, 21.0090292 ], [ 105.868420199999989, 21.0081073 ], [ 105.868578, 21.0074237 ], [ 105.86858549999998, 21.0072141 ], [ 105.8685206, 21.0071697 ], [ 105.8682236, 21.0059741 ], [ 105.867764300000019, 21.0058559 ], [ 105.8670749, 21.0056412 ], [ 105.866026799999986, 21.0051596 ], [ 105.8658944, 21.0049656 ], [ 105.8655135, 21.0047518 ], [ 105.864432399999984, 21.0044235 ], [ 105.8642115, 21.0054439 ], [ 105.8633312, 21.0056154 ], [ 105.8632516, 21.005665 ], [ 105.862740799999983, 21.0058148 ], [ 105.8617773, 21.0054006 ], [ 105.861516099999989, 21.0053757 ], [ 105.8614581, 21.0053713 ], [ 105.860890699999985, 21.0062438 ], [ 105.8605112, 21.0062813 ], [ 105.8591838, 21.0065084 ], [ 105.859287599999988, 21.0067509 ], [ 105.8593831, 21.0076905 ], [ 105.8583945, 21.007876 ], [ 105.858652, 21.0085882 ], [ 105.8575621, 21.0088953 ], [ 105.8571534, 21.0085838 ], [ 105.8573793, 21.0092148 ], [ 105.85709319999998, 21.009946 ], [ 105.8573517, 21.0099757 ], [ 105.8581692, 21.0102784 ], [ 105.8585457, 21.0108589 ], [ 105.8587142, 21.0118659 ], [ 105.8584207, 21.0123153 ] ] ] } },
{ "type": "Feature", "properties": { "threshold_s": 900, "time_label": "15 minutes" }, "geometry": { "type": "Polygon", "coordinates": [ [ [ 105.8560736, 21.0140983 ], [ 105.8567269, 21.0152951 ], [ 105.858601299999989, 21.0151958 ], [ 105.859715, 21.0150169 ], [ 105.862306599999982, 21.0160831 ], [ 105.862405199999984, 21.0171982 ], [ 105.863182899999984, 21.0173522 ], [ 105.8646958, 21.016354 ], [ 105.8656874, 21.0156811 ], [ 105.8659067, 21.0137624 ], [ 105.866679799999986, 21.012724699999989 ], [ 105.8673116, 21.01185 ], [ 105.8676025, 21.0110946 ], [ 105.8689156, 21.008874 ], [ 105.8690229, 21.0087345 ], [ 105.8693222, 21.0083453 ], [ 105.8700458, 21.0074954 ], [ 105.8706502, 21.0066181 ], [ 105.8705268, 21.0037938 ], [ 105.870262, 21.0034543 ], [ 105.8697268, 21.0030382 ], [ 105.8696348, 21.0030314 ], [ 105.866781499999988, 21.0030349 ], [ 105.8656664, 21.0025466 ], [ 105.864925899999989, 21.0025602 ], [ 105.862731599999989, 21.0026238 ], [ 105.8613494, 21.0024668 ], [ 105.8612487, 21.0024585 ], [ 105.860263099999983, 21.0029181 ], [ 105.8601878, 21.002993 ], [ 105.858373, 21.0048949 ], [ 105.8573281, 21.0048318 ], [ 105.857132400000012, 21.0048052 ], [ 105.856908299999986, 21.0075399 ], [ 105.855183899999986, 21.0079216 ], [ 105.8550351, 21.0079328 ], [ 105.8547295, 21.007937 ], [ 105.8546699, 21.0079371 ], [ 105.8533579, 21.0087844 ], [ 105.8539908, 21.0095932 ], [ 105.855737399999981, 21.011978 ], [ 105.8558751, 21.0133974 ], [ 105.8560736, 21.0140983 ] ] ] } },
{ "type": "Feature", "properties": { "threshold_s": 300, "time_label": "5 minutes" }, "geometry": { "type": "Polygon", "coordinates": [ [ [ 105.8940274, 21.0603904 ], [ 105.8943002, 21.0615301 ], [ 105.895359299999981, 21.0617918 ], [ 105.8959162, 21.0615802 ], [ 105.896869699999982, 21.0612541 ], [ 105.8975467, 21.0605454 ], [ 105.8984762, 21.0603891 ], [ 105.89942139999998, 21.0605648 ], [ 105.899138, 21.0597231 ], [ 105.898581, 21.0594185 ], [ 105.8984842, 21.0586066 ], [ 105.8985563, 21.0584693 ], [ 105.8983537, 21.0581503 ], [ 105.8973174, 21.0578509 ], [ 105.896752399999983, 21.0576217 ], [ 105.8963826, 21.0579222 ], [ 105.89526189999998, 21.0574126 ], [ 105.8948578, 21.0575605 ], [ 105.89454139999998, 21.057691 ], [ 105.89463139999998, 21.0584159 ], [ 105.894417499999989, 21.0592284 ], [ 105.8943442, 21.0601272 ], [ 105.8940274, 21.0603904 ] ] ] } },
{ "type": "Feature", "properties": { "threshold_s": 600, "time_label": "10 minutes" }, "geometry": { "type": "Polygon", "coordinates": [ [ [ 105.8952386, 21.0637781 ], [ 105.8957907, 21.0643396 ], [ 105.8969921, 21.064201 ], [ 105.8969759, 21.0634354 ], [ 105.898148299999988, 21.0626605 ], [ 105.8981789, 21.0623645 ], [ 105.8981871, 21.0622858 ], [ 105.8999575, 21.0624709 ], [ 105.900327299999987, 21.0624286 ], [ 105.8999861, 21.0623929 ], [ 105.8982521, 21.0618845 ], [ 105.8982497, 21.0617216 ], [ 105.8984762, 21.0603891 ], [ 105.89942139999998, 21.0605648 ], [ 105.9006135, 21.0607864 ], [ 105.900817599999982, 21.0605105 ], [ 105.9012976, 21.0598703 ], [ 105.9015394, 21.0594349 ], [ 105.9013648, 21.0589385 ], [ 105.901339300000018, 21.0578725 ], [ 105.9013238, 21.0573969 ], [ 105.9012254, 21.0573661 ], [ 105.9008901, 21.0573465 ], [ 105.8998877, 21.0563039 ], [ 105.8999387, 21.0561634 ], [ 105.900081, 21.0557908 ], [ 105.899823900000015, 21.0552163 ], [ 105.8985581, 21.0552072 ], [ 105.897342099999989, 21.0556668 ], [ 105.8969684, 21.0547989 ], [ 105.895607499999983, 21.0548759 ], [ 105.894118, 21.0552761 ], [ 105.893090299999983, 21.055613 ], [ 105.8934971, 21.0564676 ], [ 105.8935677, 21.0571459 ], [ 105.8928407, 21.0583723 ], [ 105.8922529, 21.058038 ], [ 105.892081099999984, 21.0583055 ], [ 105.8917063, 21.0588055 ], [ 105.891827099999986, 21.0597029 ], [ 105.892037699999989, 21.0599989 ], [ 105.892800799999989, 21.0604304 ], [ 105.8934436, 21.061307 ], [ 105.893701899999982, 21.0614876 ], [ 105.8939164, 21.061597 ], [ 105.8943002, 21.0615301 ], [ 105.8950987, 21.0619304 ], [ 105.895119899999983, 21.0627848 ], [ 105.8952386, 21.0637781 ] ] ] } },
{ "type": "Feature", "properties": { "threshold_s": 900, "time_label": "15 minutes" }, "geometry": { "type": "Polygon", "coordinates": [ [ [ 105.8925524, 21.0654738 ], [ 105.89275259999998, 21.0658002 ], [ 105.8942377, 21.0654161 ], [ 105.8959803, 21.0667916 ], [ 105.8968963, 21.0668495 ], [ 105.897067399999983, 21.0668176 ], [ 105.8989087, 21.0663883 ], [ 105.898985899999985, 21.0663257 ], [ 105.8993712, 21.0644174 ], [ 105.9000321, 21.0629043 ], [ 105.9023256, 21.0626501 ], [ 105.9024876, 21.0625147 ], [ 105.9025979, 21.0620732 ], [ 105.902609, 21.0608803 ], [ 105.9020083, 21.0591139 ], [ 105.903722799999983, 21.0583543 ], [ 105.9039142, 21.0583839 ], [ 105.9040307, 21.0582875 ], [ 105.904047299999988, 21.0581517 ], [ 105.90372379999998, 21.0569385 ], [ 105.903147899999979, 21.0555024 ], [ 105.902112299999985, 21.0538108 ], [ 105.9009711, 21.0521666 ], [ 105.899422699999988, 21.0522789 ], [ 105.8974525, 21.0522148 ], [ 105.896828299999981, 21.0521727 ], [ 105.8967109, 21.0524468 ], [ 105.8948156, 21.0540245 ], [ 105.8937513, 21.0536183 ], [ 105.8931136, 21.0533712 ], [ 105.8911261, 21.0549695 ], [ 105.8905052, 21.0564773 ], [ 105.8895227, 21.0578283 ], [ 105.88999339999998, 21.057973 ], [ 105.891827099999986, 21.0597029 ], [ 105.892037699999989, 21.0599989 ], [ 105.892800799999989, 21.0604304 ], [ 105.8934436, 21.061307 ], [ 105.8932471, 21.0631636 ], [ 105.8926029, 21.0641817 ], [ 105.8925524, 21.0654738 ] ] ] } },
{ "type": "Feature", "properties": { "threshold_s": 300, "time_label": "5 minutes" }, "geometry": { "type": "Polygon", "coordinates": [ [ [ 105.7911478, 21.021152 ], [ 105.7910382, 21.0213274 ], [ 105.7912241, 21.0214191 ], [ 105.7919669, 21.0207014 ], [ 105.7922255, 21.02068 ], [ 105.7929167, 21.0200776 ], [ 105.794019799999987, 21.0200457 ], [ 105.794363, 21.0202504 ], [ 105.794681, 21.0204381 ], [ 105.795165299999979, 21.0205118 ], [ 105.794732199999984, 21.0200051 ], [ 105.7949843, 21.0193528 ], [ 105.794390800000016, 21.0189775 ], [ 105.794597399999986, 21.0181864 ], [ 105.794782600000019, 21.0178589 ], [ 105.794546499999981, 21.0173183 ], [ 105.794373, 21.0164016 ], [ 105.7941895, 21.0161404 ], [ 105.7934019, 21.0162851 ], [ 105.7930683, 21.0164527 ], [ 105.7923067, 21.0172091 ], [ 105.791201799999982, 21.0175843 ], [ 105.790548, 21.0170227 ], [ 105.790480099999982, 21.0169889 ], [ 105.7900441, 21.0173725 ], [ 105.789869900000014, 21.0176442 ], [ 105.7899246, 21.0178467 ], [ 105.7902643, 21.0186873 ], [ 105.790188699999987, 21.0192098 ], [ 105.790495899999982, 21.0194809 ], [ 105.7909966, 21.0196268 ], [ 105.791804, 21.02008 ], [ 105.7916715, 21.0207087 ], [ 105.7911478, 21.021152 ] ] ] } },
{ "type": "Feature", "properties": { "threshold_s": 600, "time_label": "10 minutes" }, "geometry": { "type": "Polygon", "coordinates": [ [ [ 105.788895, 21.0225984 ], [ 105.789391, 21.024061 ], [ 105.789457499999983, 21.0241001 ], [ 105.7897016, 21.0241021 ], [ 105.7907666, 21.0239287 ], [ 105.7919054, 21.0238596 ], [ 105.7933249, 21.0235746 ], [ 105.7948579, 21.0232148 ], [ 105.7963675, 21.0226781 ], [ 105.798025599999988, 21.022191 ], [ 105.7977389, 21.0213033 ], [ 105.797531899999981, 21.0202059 ], [ 105.797703199999987, 21.0187777 ], [ 105.797803799999983, 21.018011 ], [ 105.797499, 21.0171224 ], [ 105.797205299999987, 21.017132 ], [ 105.796264899999983, 21.0158275 ], [ 105.7964298, 21.0155399 ], [ 105.796484099999986, 21.0154251 ], [ 105.7963941, 21.0147638 ], [ 105.7958908, 21.0141692 ], [ 105.7946413, 21.0135183 ], [ 105.7939015, 21.0140028 ], [ 105.7935934, 21.0146459 ], [ 105.7924312, 21.0152693 ], [ 105.791564399999984, 21.0159068 ], [ 105.7909014, 21.0162247 ], [ 105.7897056, 21.0155837 ], [ 105.7893789, 21.0153504 ], [ 105.7889966, 21.0150845 ], [ 105.7873938, 21.0156372 ], [ 105.7872582, 21.0158041 ], [ 105.7872302, 21.0158387 ], [ 105.787192599999983, 21.0158852 ], [ 105.7872357, 21.0173424 ], [ 105.7872593, 21.0174256 ], [ 105.7874281, 21.0180642 ], [ 105.7877011, 21.0194528 ], [ 105.7878365, 21.0201631 ], [ 105.7881222, 21.0204351 ], [ 105.788248, 21.0204631 ], [ 105.789295399999986, 21.0209311 ], [ 105.7889408, 21.0221619 ], [ 105.7888484, 21.022223 ], [ 105.788895, 21.0225984 ] ] ] } },
{ "type": "Feature", "properties": { "threshold_s": 900, "time_label": "15 minutes" }, "geometry": { "type": "Polygon", "coordinates": [ [ [ 105.7880408, 21.0261672 ], [ 105.7880629, 21.0266832 ], [ 105.7881157, 21.0267113 ], [ 105.788249799999988, 21.0267756 ], [ 105.7882725, 21.026733 ], [ 105.788503299999988, 21.0264 ], [ 105.788550499999985, 21.0263123 ], [ 105.7884829, 21.0261603 ], [ 105.789441599999989, 21.0248593 ], [ 105.7904815, 21.0255613 ], [ 105.7908937, 21.0261634 ], [ 105.7909802, 21.0262411 ], [ 105.7919473, 21.0257926 ], [ 105.793115700000016, 21.0258658 ], [ 105.793869799999982, 21.0259035 ], [ 105.7950124, 21.0259342 ], [ 105.7958136, 21.0253043 ], [ 105.7973361, 21.0248387 ], [ 105.798322399999989, 21.0244282 ], [ 105.7985492, 21.0240915 ], [ 105.799222199999988, 21.0224034 ], [ 105.7996385, 21.0218244 ], [ 105.799782099999987, 21.0216499 ], [ 105.8000717, 21.0212299 ], [ 105.80021739999998, 21.0209986 ], [ 105.80048050000002, 21.020573 ], [ 105.800581, 21.0204009 ], [ 105.8001389, 21.0186022 ], [ 105.8007066, 21.0176996 ], [ 105.8005639, 21.0165158 ], [ 105.800799699999985, 21.0156956 ], [ 105.800242499999982, 21.0152362 ], [ 105.799657499999981, 21.0135718 ], [ 105.7988564, 21.0128871 ], [ 105.798204799999979, 21.0130048 ], [ 105.7979185, 21.0130253 ], [ 105.79702709999998, 21.0129591 ], [ 105.79608039999998, 21.0116365 ], [ 105.7952317, 21.010919 ], [ 105.7937976, 21.011824 ], [ 105.7923404, 21.011725 ], [ 105.790455, 21.0124061 ], [ 105.7901715, 21.0124152 ], [ 105.7885772, 21.0126637 ], [ 105.7881541, 21.0129152 ], [ 105.787649799999983, 21.0134306 ], [ 105.7873558, 21.0137969 ], [ 105.7855966, 21.0143602 ], [ 105.7852351, 21.0141701 ], [ 105.7844529, 21.0144578 ], [ 105.7848148, 21.0148566 ], [ 105.7854082, 21.0161977 ], [ 105.784945099999987, 21.0168428 ], [ 105.7848665, 21.0181773 ], [ 105.7849176, 21.0183665 ], [ 105.7855061, 21.0202029 ], [ 105.786050399999979, 21.0214287 ], [ 105.7859856, 21.0222077 ], [ 105.7861096, 21.0225953 ], [ 105.787061099999988, 21.0241875 ], [ 105.7875527, 21.0247419 ], [ 105.7880408, 21.0261672 ] ] ] } }
]
}
