{
"type": "FeatureCollection",
"name": "isochrone_amenity_food_court_multimodal",
"crs": { "type": "name", "properties": { "name": "urn:ogc:def:crs:OGC:1.3:CRS84" } },
"features": [
{ "type": "Feature", "properties": { "threshold_s": 300, "time_label": "5 minutes" }, "geometry": { "type": "Polygon", "coordinates": [ [ [ 105.847279499999985, 21.0415931 ], [ 105.8472071, 21.0419565 ], [ 105.8475316, 21.041645 ], [ 105.8481951, 21.0413577 ], [ 105.8484423, 21.0414351 ], [ 105.848489199999989, 21.0414373 ], [ 105.8489297, 21.0412859 ], [ 105.849286899999981, 21.0407126 ], [ 105.849861499999989, 21.040757 ], [ 105.8500269, 21.0408374 ], [ 105.8503796, 21.0402714 ], [ 105.850303299999979, 21.0395193 ], [ 105.850186199999982, 21.0387759 ], [ 105.8505606, 21.0383929 ], [ 105.850348, 21.038136 ], [ 105.849998199999987, 21.0378991 ], [ 105.849708199999981, 21.0377807 ], [ 105.849978399999983, 21.0369695 ], [ 105.8494544, 21.0368842 ], [ 105.8486639, 21.0367611 ], [ 105.8478139, 21.0366504 ], [ 105.8479737, 21.037451 ], [ 105.847714599999989, 21.0374715 ], [ 105.847111399999989, 21.0375183 ], [ 105.8462821, 21.0373809 ], [ 105.8460762, 21.03742 ], [ 105.8465459, 21.0387062 ], [ 105.8465661, 21.0388062 ], [ 105.8470127, 21.0391722 ], [ 105.8467549, 21.0397937 ], [ 105.8459856, 21.0399317 ], [ 105.8466159, 21.040351 ], [ 105.8463795, 21.040874 ], [ 105.846485499999986, 21.0408664 ], [ 105.847177499999987, 21.0411631 ], [ 105.847279499999985, 21.0415931 ] ] ] } },
{ "type": "Feature", "properties": { "threshold_s": 600, "time_label": "10 minutes" }, "geometry": { "type": "Polygon", "coordinates": [ [ [ 105.843334, 21.0417834 ], [ 105.8430677, 21.0422693 ], [ 105.8442339, 21.0428116 ], [ 105.8451227, 21.0435941 ], [ 105.845270299999981, 21.0441631 ], [ 105.8454113, 21.0442767 ], [ 105.845952499999981, 21.0446982 ], [ 105.8473342, 21.0439237 ], [ 105.847585, 21.0437306 ], [ 105.8487683, 21.0426265 ], [ 105.8492516, 21.0426635 ], [ 105.8499464, 21.0427059 ], [ 105.8505349, 21.0426335 ], [ 105.8510793, 21.042542 ], [ 105.851780399999981, 21.0416726 ], [ 105.8520986, 21.0404431 ], [ 105.8520591, 21.0400191 ], [ 105.852338599999982, 21.0385754 ], [ 105.852869699999985, 21.0375029 ], [ 105.852603500000015, 21.0366534 ], [ 105.851799499999984, 21.0358902 ], [ 105.851291499999988, 21.0348225 ], [ 105.8506755, 21.0340786 ], [ 105.8499357, 21.033994 ], [ 105.8498734, 21.0339878 ], [ 105.849394799999985, 21.0353124 ], [ 105.848156599999982, 21.0348966 ], [ 105.848043799999985, 21.0342979 ], [ 105.847946199999981, 21.0337964 ], [ 105.846995, 21.0337203 ], [ 105.845709099999979, 21.0346237 ], [ 105.8449379, 21.0348636 ], [ 105.8445168, 21.0360386 ], [ 105.8447313, 21.0372753 ], [ 105.8446578, 21.038614 ], [ 105.843940099999983, 21.0397282 ], [ 105.8430828, 21.0397581 ], [ 105.842742699999988, 21.0399032 ], [ 105.8426454, 21.0405307 ], [ 105.843334, 21.0417834 ] ] ] } },
{ "type": "Feature", "properties": { "threshold_s": 900, "time_label": "15 minutes" }, "geometry": { "type": "Polygon", "coordinates": [ [ [ 105.8423895, 21.0448497 ], [ 105.8435481, 21.0467655 ], [ 105.8436314, 21.0468335 ], [ 105.8455468, 21.0468901 ], [ 105.8471968, 21.0470787 ], [ 105.8471889, 21.0468384 ], [ 105.849343299999987, 21.0454907 ], [ 105.8504069, 21.0451835 ], [ 105.8514449, 21.0447979 ], [ 105.8531558, 21.0432341 ], [ 105.853701499999985, 21.0430169 ], [ 105.8537404, 21.0424793 ], [ 105.8538095, 21.0401689 ], [ 105.8539648, 21.0399026 ], [ 105.8545469, 21.0392273 ], [ 105.8552544, 21.038343 ], [ 105.855024799999981, 21.0365439 ], [ 105.855188, 21.0355451 ], [ 105.854413799999989, 21.0338031 ], [ 105.8531572, 21.0320671 ], [ 105.8525331, 21.0315855 ], [ 105.851112799999981, 21.0306141 ], [ 105.85104579999998, 21.0305977 ], [ 105.8486543, 21.0310594 ], [ 105.846263, 21.0310171 ], [ 105.845064, 21.0313485 ], [ 105.8442457, 21.0315949 ], [ 105.8434081, 21.0327684 ], [ 105.8434994, 21.0331993 ], [ 105.843543299999979, 21.0334064 ], [ 105.843611, 21.0337263 ], [ 105.8445168, 21.0360386 ], [ 105.8447313, 21.0372753 ], [ 105.8446578, 21.038614 ], [ 105.8430828, 21.0397581 ], [ 105.841783599999985, 21.0383976 ], [ 105.8416945, 21.0384135 ], [ 105.8416329, 21.0384244 ], [ 105.8400153, 21.0398062 ], [ 105.8397986, 21.0400063 ], [ 105.8395439, 21.040379 ], [ 105.8392184, 21.0411302 ], [ 105.840167599999987, 21.0431539 ], [ 105.84161779999998, 21.0441715 ], [ 105.8423895, 21.0448497 ] ] ] } },
{ "type": "Feature", "properties": { "threshold_s": 300, "time_label": "5 minutes" }, "geometry": { "type": "Polygon", "coordinates": [ [ [ 105.8527887, 21.0038886 ], [ 105.852801699999986, 21.0042833 ], [ 105.8530806, 21.0042072 ], [ 105.8538036, 21.0044097 ], [ 105.8541316, 21.0048101 ], [ 105.8541588, 21.0052293 ], [ 105.854253199999988, 21.0052204 ], [ 105.85489339999998, 21.0054975 ], [ 105.854839, 21.0058176 ], [ 105.8549034, 21.0058078 ], [ 105.855181699999989, 21.0055334 ], [ 105.8551811, 21.0054667 ], [ 105.8549485, 21.0048029 ], [ 105.8549485, 21.0044907 ], [ 105.85495, 21.0041704 ], [ 105.8550966, 21.0036972 ], [ 105.855916199999982, 21.0035549 ], [ 105.856045499999979, 21.003955 ], [ 105.8561241, 21.0043738 ], [ 105.8560674, 21.004535 ], [ 105.8561811, 21.0049846 ], [ 105.856286199999985, 21.0049664 ], [ 105.856202599999989, 21.0045881 ], [ 105.8567634, 21.0041997 ], [ 105.856911199999985, 21.0038458 ], [ 105.856305099999986, 21.0034864 ], [ 105.8563376, 21.0027509 ], [ 105.8568141, 21.0027438 ], [ 105.856813099999982, 21.0026808 ], [ 105.85682509999998, 21.0021584 ], [ 105.8577897, 21.0027958 ], [ 105.8579563, 21.0027965 ], [ 105.857958899999986, 21.0027343 ], [ 105.856964, 21.0017469 ], [ 105.8562487, 21.0016022 ], [ 105.855894699999979, 21.0012466 ], [ 105.8561462, 21.0007437 ], [ 105.856008, 21.0006199 ], [ 105.8556968, 21.0005041 ], [ 105.855187, 21.0007078 ], [ 105.854878099999979, 21.0010212 ], [ 105.8542459, 21.0012482 ], [ 105.8537832, 21.0010554 ], [ 105.853357499999987, 21.0010244 ], [ 105.8530584, 21.0014961 ], [ 105.852709399999981, 21.0018429 ], [ 105.8532339, 21.0022357 ], [ 105.8530316, 21.0028951 ], [ 105.852657099999988, 21.0029288 ], [ 105.852344, 21.0027111 ], [ 105.8519792, 21.002978 ], [ 105.851983, 21.0030453 ], [ 105.852212, 21.003578 ], [ 105.8527887, 21.0038886 ] ] ] } },
{ "type": "Feature", "properties": { "threshold_s": 600, "time_label": "10 minutes" }, "geometry": { "type": "Polygon", "coordinates": [ [ [ 105.8506003, 21.0064369 ], [ 105.8508089, 21.006797 ], [ 105.851317099999989, 21.0072498 ], [ 105.8530186, 21.0078629 ], [ 105.8543592, 21.008674 ], [ 105.8544512, 21.0090682 ], [ 105.85448, 21.0090754 ], [ 105.8546974, 21.009046 ], [ 105.854936899999984, 21.0088968 ], [ 105.855332799999985, 21.0082502 ], [ 105.856144499999985, 21.006825 ], [ 105.8566462, 21.0065112 ], [ 105.856634199999988, 21.0062524 ], [ 105.85808609999998, 21.0052583 ], [ 105.8589171, 21.0057513 ], [ 105.859188399999979, 21.005141 ], [ 105.8603527, 21.003757 ], [ 105.8610249, 21.0033588 ], [ 105.861355399999979, 21.0031322 ], [ 105.861311199999989, 21.0028856 ], [ 105.860910499999989, 21.0024346 ], [ 105.8597692, 21.0013112 ], [ 105.859136699999979, 21.0010079 ], [ 105.8587157, 20.9996847 ], [ 105.8583574, 20.99895 ], [ 105.8576816, 20.9984903 ], [ 105.8560843, 20.9980852 ], [ 105.855814899999984, 20.998017 ], [ 105.854921, 20.9980591 ], [ 105.8530888, 20.9984479 ], [ 105.852189, 20.9981048 ], [ 105.851848499999988, 20.9984573 ], [ 105.8514522, 21.00019 ], [ 105.8506088, 21.0004991 ], [ 105.8505549, 21.0005063 ], [ 105.8505048, 21.0005117 ], [ 105.8499406, 21.0014593 ], [ 105.8502087, 21.0026607 ], [ 105.848910900000021, 21.0033905 ], [ 105.8481605, 21.0033162 ], [ 105.8482496, 21.0034402 ], [ 105.8495584, 21.004127 ], [ 105.850198099999986, 21.0050005 ], [ 105.8506003, 21.0064369 ] ] ] } },
{ "type": "Feature", "properties": { "threshold_s": 900, "time_label": "15 minutes" }, "geometry": { "type": "Polygon", "coordinates": [ [ [ 105.848132599999985, 21.0070995 ], [ 105.84894629999998, 21.0084322 ], [ 105.8498138, 21.0089144 ], [ 105.8514528, 21.0101741 ], [ 105.853546099999988, 21.0110583 ], [ 105.8538428, 21.0111509 ], [ 105.854599599999986, 21.011112 ], [ 105.85709319999998, 21.009946 ], [ 105.8573517, 21.0099757 ], [ 105.8596067, 21.0088936 ], [ 105.860795, 21.0076553 ], [ 105.8612373, 21.0071328 ], [ 105.8617773, 21.0054006 ], [ 105.863618399999979, 21.0044837 ], [ 105.864330699999982, 21.0034281 ], [ 105.864450299999987, 21.0029831 ], [ 105.864449899999983, 21.0029305 ], [ 105.863635099999982, 21.0020735 ], [ 105.8620876, 21.0001367 ], [ 105.8610312, 20.9987872 ], [ 105.8596757, 20.9974327 ], [ 105.859222099999982, 20.9955041 ], [ 105.8587604, 20.9954104 ], [ 105.8581707, 20.9956602 ], [ 105.8578366, 20.9958052 ], [ 105.85626019999998, 20.9965183 ], [ 105.85400629999998, 20.9968547 ], [ 105.8520758, 20.9971072 ], [ 105.8500515, 20.9968868 ], [ 105.8499609, 20.9968962 ], [ 105.849509699999984, 20.9979778 ], [ 105.849224, 20.9993836 ], [ 105.847618900000015, 21.0003435 ], [ 105.847228799999982, 21.0003867 ], [ 105.8459958, 21.0013115 ], [ 105.8458518, 21.0014372 ], [ 105.8454172, 21.0019159 ], [ 105.845777899999987, 21.004206 ], [ 105.845791700000021, 21.0049572 ], [ 105.8464739, 21.0055664 ], [ 105.848132599999985, 21.0070995 ] ] ] } },
{ "type": "Feature", "properties": { "threshold_s": 300, "time_label": "5 minutes" }, "geometry": { "type": "Polygon", "coordinates": [ [ [ 105.81391, 21.0234963 ], [ 105.813882799999988, 21.0236915 ], [ 105.8146592, 21.0235674 ], [ 105.8153231, 21.0236709 ], [ 105.8160451, 21.0235033 ], [ 105.8163864, 21.0236247 ], [ 105.8165785, 21.0234819 ], [ 105.8170393, 21.0231689 ], [ 105.816952199999989, 21.0229574 ], [ 105.8173933, 21.0224023 ], [ 105.817886699999988, 21.0226689 ], [ 105.8180852, 21.0229261 ], [ 105.8181124, 21.0230227 ], [ 105.8181497, 21.0231554 ], [ 105.8181913, 21.0233686 ], [ 105.818984799999981, 21.0231983 ], [ 105.8184534, 21.02293 ], [ 105.8181933, 21.0228911 ], [ 105.8178379, 21.0223162 ], [ 105.817365099999989, 21.0222457 ], [ 105.8173375, 21.0215396 ], [ 105.8176138, 21.021248 ], [ 105.8172611, 21.0214565 ], [ 105.8165501, 21.0217932 ], [ 105.8164488, 21.021621 ], [ 105.8156842, 21.0216009 ], [ 105.815601500000014, 21.0213686 ], [ 105.8155548, 21.0212551 ], [ 105.8165929, 21.0208442 ], [ 105.815874199999982, 21.0205195 ], [ 105.8157392, 21.0202931 ], [ 105.815724099999983, 21.0202678 ], [ 105.815283099999988, 21.0205997 ], [ 105.814929299999989, 21.0205974 ], [ 105.8145843, 21.0211825 ], [ 105.8140462, 21.0213847 ], [ 105.8141003, 21.0220579 ], [ 105.8140873, 21.022182 ], [ 105.814077, 21.0222985 ], [ 105.814029199999979, 21.0226909 ], [ 105.8147276, 21.0227575 ], [ 105.814693, 21.0233374 ], [ 105.81391, 21.0234963 ] ] ] } },
{ "type": "Feature", "properties": { "threshold_s": 600, "time_label": "10 minutes" }, "geometry": { "type": "Polygon", "coordinates": [ [ [ 105.8109853, 21.02434 ], [ 105.81168049999998, 21.0254991 ], [ 105.8117174, 21.0254488 ], [ 105.8117825, 21.0245785 ], [ 105.813128500000019, 21.0238959 ], [ 105.8136167, 21.023907 ], [ 105.813858499999981, 21.0239011 ], [ 105.8153231, 21.0236709 ], [ 105.8166355, 21.0238535 ], [ 105.8173148, 21.0247608 ], [ 105.817979099999988, 21.0253203 ], [ 105.818884299999979, 21.0250909 ], [ 105.8191819, 21.024783 ], [ 105.821045, 21.0245766 ], [ 105.821132099999986, 21.0245431 ], [ 105.8211824, 21.0245026 ], [ 105.8212979, 21.0230519 ], [ 105.821127899999979, 21.0223041 ], [ 105.8208624, 21.0217557 ], [ 105.8200632, 21.021484 ], [ 105.8192599, 21.0200159 ], [ 105.818479600000018, 21.0191699 ], [ 105.8174654, 21.018315 ], [ 105.8162417, 21.018242 ], [ 105.8161805, 21.0182819 ], [ 105.8156337, 21.0196363 ], [ 105.8143419, 21.0200532 ], [ 105.8131721, 21.0204556 ], [ 105.812240599999981, 21.020162 ], [ 105.8120887, 21.0201499 ], [ 105.8117879, 21.0201229 ], [ 105.8108518, 21.0208816 ], [ 105.810863, 21.0210598 ], [ 105.811245199999988, 21.0217959 ], [ 105.8112463, 21.0232726 ], [ 105.810823299999981, 21.0239645 ], [ 105.8109853, 21.02434 ] ] ] } },
{ "type": "Feature", "properties": { "threshold_s": 900, "time_label": "15 minutes" }, "geometry": { "type": "Polygon", "coordinates": [ [ [ 105.810287, 21.0262139 ], [ 105.8106065, 21.0265398 ], [ 105.8124382, 21.0282113 ], [ 105.812878399999988, 21.0281866 ], [ 105.8138205, 21.0270628 ], [ 105.8154903, 21.0265113 ], [ 105.817041599999982, 21.0276481 ], [ 105.817569099999986, 21.02819 ], [ 105.8176258, 21.0281977 ], [ 105.817700099999982, 21.0281773 ], [ 105.8183612, 21.0270384 ], [ 105.8184917, 21.0255117 ], [ 105.820901, 21.0260923 ], [ 105.821269199999989, 21.0268254 ], [ 105.82145, 21.0269679 ], [ 105.8223688, 21.0272677 ], [ 105.8232933, 21.027126 ], [ 105.8237102, 21.0261565 ], [ 105.823724499999983, 21.0259304 ], [ 105.8236924, 21.0250639 ], [ 105.824257599999981, 21.02296 ], [ 105.824635099999981, 21.0223078 ], [ 105.8248755, 21.0210168 ], [ 105.8247227, 21.0207605 ], [ 105.823969599999984, 21.0208073 ], [ 105.822182899999987, 21.0191316 ], [ 105.8217917, 21.0190768 ], [ 105.821050299999982, 21.0190995 ], [ 105.8196938, 21.0191323 ], [ 105.8193248, 21.0190549 ], [ 105.817834, 21.018201 ], [ 105.8177545, 21.0160969 ], [ 105.8154149, 21.0155339 ], [ 105.814570599999982, 21.0157446 ], [ 105.81451, 21.0157834 ], [ 105.8143551, 21.0158798 ], [ 105.814307500000012, 21.0159099 ], [ 105.813501599999981, 21.0168931 ], [ 105.8117961, 21.0169169 ], [ 105.81098, 21.0173329 ], [ 105.8101347, 21.0180111 ], [ 105.8094186, 21.0191804 ], [ 105.8093769, 21.0192847 ], [ 105.8088205, 21.0207171 ], [ 105.8091757, 21.0219443 ], [ 105.809626099999988, 21.0229577 ], [ 105.8105135, 21.0236591 ], [ 105.81083150000002, 21.0251376 ], [ 105.810287, 21.0262139 ] ] ] } },
{ "type": "Feature", "properties": { "threshold_s": 300, "time_label": "5 minutes" }, "geometry": { "type": "Polygon", "coordinates": [ [ [ 105.811319199999986, 21.0748047 ], [ 105.811102, 21.0749521 ], [ 105.8118067, 21.0749068 ], [ 105.8121176, 21.0747486 ], [ 105.812489, 21.0745293 ], [ 105.812522699999988, 21.0745093 ], [ 105.8131953, 21.0754793 ], [ 105.8134717, 21.0756876 ], [ 105.8141041, 21.0757169 ], [ 105.8141055, 21.0750632 ], [ 105.8136615, 21.075212 ], [ 105.813294299999981, 21.0754225 ], [ 105.8126181, 21.0744521 ], [ 105.8126373, 21.0744406 ], [ 105.8127193, 21.0743915 ], [ 105.8129894, 21.0738641 ], [ 105.813627, 21.0739815 ], [ 105.8142212, 21.0735319 ], [ 105.814454600000019, 21.0736458 ], [ 105.8146645, 21.0731588 ], [ 105.8144379, 21.0727443 ], [ 105.8144104, 21.0721996 ], [ 105.814389100000014, 21.0721357 ], [ 105.8141544, 21.0722116 ], [ 105.813904599999987, 21.0722702 ], [ 105.8136233, 21.0723368 ], [ 105.8137652, 21.0726296 ], [ 105.813825599999987, 21.0733761 ], [ 105.8134688, 21.0736595 ], [ 105.8128192, 21.0731737 ], [ 105.812655699999979, 21.0728456 ], [ 105.8123668, 21.0719104 ], [ 105.812272, 21.0719327 ], [ 105.8118334, 21.0728751 ], [ 105.811469699999989, 21.0731275 ], [ 105.811339899999979, 21.0734417 ], [ 105.81166039999998, 21.0735926 ], [ 105.8119386, 21.0742614 ], [ 105.8115159, 21.0746862 ], [ 105.811319199999986, 21.0748047 ] ] ] } },
{ "type": "Feature", "properties": { "threshold_s": 600, "time_label": "10 minutes" }, "geometry": { "type": "Polygon", "coordinates": [ [ [ 105.812375, 21.0774812 ], [ 105.8126328, 21.0779007 ], [ 105.8143234, 21.0781378 ], [ 105.8159818, 21.0784862 ], [ 105.8161256, 21.0776677 ], [ 105.8168665, 21.0761499 ], [ 105.8164588, 21.0758357 ], [ 105.816147, 21.0744992 ], [ 105.817125, 21.0738077 ], [ 105.817134599999989, 21.0736088 ], [ 105.8167631, 21.0734323 ], [ 105.8153994, 21.0735799 ], [ 105.81475279999998, 21.0726808 ], [ 105.814389100000014, 21.0721357 ], [ 105.8141314, 21.0715324 ], [ 105.8140868, 21.0714449 ], [ 105.8140077, 21.0712896 ], [ 105.813477599999985, 21.0715229 ], [ 105.811991299999988, 21.0709928 ], [ 105.811892, 21.0702868 ], [ 105.812451, 21.0690924 ], [ 105.8114722, 21.0689147 ], [ 105.8113749, 21.0689404 ], [ 105.810833500000015, 21.0696012 ], [ 105.8104347, 21.0701192 ], [ 105.810118099999983, 21.0705748 ], [ 105.8100457, 21.0712524 ], [ 105.8101921, 21.0727074 ], [ 105.8105879, 21.0736839 ], [ 105.8111367, 21.0752367 ], [ 105.811379499999987, 21.0756226 ], [ 105.811927, 21.0762282 ], [ 105.81230739999998, 21.0773711 ], [ 105.812375, 21.0774812 ] ] ] } },
{ "type": "Feature", "properties": { "threshold_s": 900, "time_label": "15 minutes" }, "geometry": { "type": "Polygon", "coordinates": [ [ [ 105.81230739999998, 21.0773711 ], [ 105.813156299999989, 21.0794467 ], [ 105.814589499999983, 21.080438 ], [ 105.8158323, 21.0808616 ], [ 105.815955, 21.0808782 ], [ 105.8179139, 21.0810099 ], [ 105.818005400000018, 21.0808584 ], [ 105.81881030000001, 21.0789291 ], [ 105.8189087, 21.0778514 ], [ 105.8188372, 21.0750797 ], [ 105.8191833, 21.0746916 ], [ 105.8175233, 21.0723626 ], [ 105.816568099999984, 21.0727953 ], [ 105.8141314, 21.0715324 ], [ 105.8140868, 21.0714449 ], [ 105.8140077, 21.0712896 ], [ 105.812451, 21.0690924 ], [ 105.8123599, 21.0688327 ], [ 105.8116724, 21.0675572 ], [ 105.811406, 21.0670372 ], [ 105.810456799999983, 21.0658955 ], [ 105.810322099999979, 21.0659271 ], [ 105.808799799999989, 21.0679946 ], [ 105.808148, 21.0690728 ], [ 105.807660899999988, 21.0709592 ], [ 105.8093616, 21.0722653 ], [ 105.8105879, 21.0736839 ], [ 105.8111367, 21.0752367 ], [ 105.81230739999998, 21.0773711 ] ] ] } },
{ "type": "Feature", "properties": { "threshold_s": 300, "time_label": "5 minutes" }, "geometry": { "type": "Polygon", "coordinates": [ [ [ 105.8161043, 21.0362992 ], [ 105.8159554, 21.036605 ], [ 105.8166537, 21.0366982 ], [ 105.8171289, 21.0367436 ], [ 105.8178987, 21.0370672 ], [ 105.818356899999984, 21.0373425 ], [ 105.81883089999998, 21.0380357 ], [ 105.81913609999998, 21.0377565 ], [ 105.8195728, 21.0371042 ], [ 105.820471499999982, 21.0370212 ], [ 105.8209558, 21.036544 ], [ 105.8204197, 21.0363503 ], [ 105.819915499999979, 21.035916 ], [ 105.8203401, 21.0352888 ], [ 105.820776899999984, 21.0352416 ], [ 105.820956, 21.0352316 ], [ 105.821467899999988, 21.0354021 ], [ 105.82164539999998, 21.0353977 ], [ 105.8222169, 21.0351414 ], [ 105.8215095, 21.0345171 ], [ 105.820959299999984, 21.0342283 ], [ 105.820170899999979, 21.0338372 ], [ 105.820971199999988, 21.034469 ], [ 105.820622899999989, 21.0350057 ], [ 105.8199921, 21.0351781 ], [ 105.8197016, 21.0353383 ], [ 105.8192885, 21.0353638 ], [ 105.818693199999984, 21.0346988 ], [ 105.8186787, 21.034309 ], [ 105.8184815, 21.0341425 ], [ 105.817997199999979, 21.0338554 ], [ 105.8170709, 21.03356 ], [ 105.8167488, 21.034141 ], [ 105.8170342, 21.0344082 ], [ 105.8165655, 21.0351473 ], [ 105.8162613, 21.0355482 ], [ 105.8161043, 21.0362992 ] ] ] } },
{ "type": "Feature", "properties": { "threshold_s": 600, "time_label": "10 minutes" }, "geometry": { "type": "Polygon", "coordinates": [ [ [ 105.813469699999985, 21.0369732 ], [ 105.813171199999985, 21.0379523 ], [ 105.8139213, 21.0384826 ], [ 105.8151428, 21.0389598 ], [ 105.8157625, 21.039273 ], [ 105.8158514, 21.0392559 ], [ 105.8170892, 21.039034 ], [ 105.818117599999979, 21.0392255 ], [ 105.81849339999998, 21.0398757 ], [ 105.819107499999987, 21.0401641 ], [ 105.8200247, 21.0404743 ], [ 105.820237300000016, 21.0401756 ], [ 105.8211515, 21.0395011 ], [ 105.822110399999985, 21.0387318 ], [ 105.8227865, 21.0377743 ], [ 105.8233488, 21.0374553 ], [ 105.8236353, 21.0369406 ], [ 105.824266, 21.0362297 ], [ 105.8249039, 21.0355326 ], [ 105.825554899999986, 21.0348728 ], [ 105.8252664, 21.0345648 ], [ 105.8245439, 21.0341617 ], [ 105.8240372, 21.0335635 ], [ 105.8236536, 21.0337138 ], [ 105.822794799999983, 21.0336495 ], [ 105.82270029999998, 21.0324 ], [ 105.8225168, 21.0322541 ], [ 105.8213224, 21.0318174 ], [ 105.8203026, 21.032427 ], [ 105.818976799999987, 21.0324943 ], [ 105.818496599999989, 21.0324126 ], [ 105.8175854, 21.0317727 ], [ 105.8173598, 21.0308168 ], [ 105.8172566, 21.030683 ], [ 105.8171545, 21.0305372 ], [ 105.817088899999987, 21.0307804 ], [ 105.8165916, 21.0317314 ], [ 105.816458399999988, 21.0325928 ], [ 105.8158106, 21.0334434 ], [ 105.8149508, 21.0336465 ], [ 105.8142874, 21.0336209 ], [ 105.814126, 21.0338598 ], [ 105.8141717, 21.0340086 ], [ 105.814379699999989, 21.0347047 ], [ 105.81393749999998, 21.0357958 ], [ 105.813469699999985, 21.0369732 ] ] ] } },
{ "type": "Feature", "properties": { "threshold_s": 900, "time_label": "15 minutes" }, "geometry": { "type": "Polygon", "coordinates": [ [ [ 105.811533299999979, 21.0399467 ], [ 105.8121005, 21.0405304 ], [ 105.813010599999984, 21.0408524 ], [ 105.8141836, 21.0409353 ], [ 105.815773, 21.0418689 ], [ 105.816118, 21.042133 ], [ 105.816206, 21.0421971 ], [ 105.8169507, 21.0421108 ], [ 105.818655099999987, 21.0429562 ], [ 105.8206195, 21.0428263 ], [ 105.8210531, 21.0422861 ], [ 105.8209871, 21.0418965 ], [ 105.8233287, 21.0412791 ], [ 105.8235192, 21.0411797 ], [ 105.8246247, 21.0394822 ], [ 105.825864599999989, 21.0381136 ], [ 105.8265879, 21.0372917 ], [ 105.8280025, 21.0355165 ], [ 105.8285371, 21.035115 ], [ 105.828919099999979, 21.0346225 ], [ 105.8275685, 21.0333946 ], [ 105.8258119, 21.031797 ], [ 105.8256673, 21.0317019 ], [ 105.824291499999987, 21.0312486 ], [ 105.823547399999981, 21.0292082 ], [ 105.8235738, 21.0291043 ], [ 105.8212399, 21.0292332 ], [ 105.8207201, 21.0295285 ], [ 105.8184929, 21.029415 ], [ 105.8177788, 21.0277326 ], [ 105.8176462, 21.0277127 ], [ 105.8157983, 21.0288333 ], [ 105.815613299999981, 21.0289767 ], [ 105.813855599999982, 21.0303065 ], [ 105.813172599999987, 21.0307143 ], [ 105.812366199999985, 21.0316055 ], [ 105.812466, 21.0326656 ], [ 105.811202599999987, 21.0342096 ], [ 105.810559499999982, 21.0361601 ], [ 105.8099378, 21.0378171 ], [ 105.8101548, 21.0382785 ], [ 105.811533299999979, 21.0399467 ] ] ] } },
{ "type": "Feature", "properties": { "threshold_s": 300, "time_label": "5 minutes" }, "geometry": { "type": "Polygon", "coordinates": [ [ [ 105.86056, 21.0271642 ], [ 105.8610681, 21.0278258 ], [ 105.8611152, 21.0276458 ], [ 105.861129700000021, 21.02759 ], [ 105.8611463, 21.0275187 ], [ 105.8618604, 21.0270123 ], [ 105.8617715, 21.0265934 ], [ 105.861773199999988, 21.025698 ], [ 105.862282099999987, 21.0256878 ], [ 105.8618868, 21.0252951 ], [ 105.8620378, 21.0248247 ], [ 105.86210149999998, 21.0246067 ], [ 105.862678, 21.0241486 ], [ 105.8626854, 21.023646 ], [ 105.8630868, 21.0230317 ], [ 105.8630721, 21.022198 ], [ 105.862794, 21.0218006 ], [ 105.8625621, 21.0219187 ], [ 105.862607399999987, 21.0225295 ], [ 105.8622537, 21.0231355 ], [ 105.861286800000016, 21.0228198 ], [ 105.86116509999998, 21.0231574 ], [ 105.861934599999984, 21.0235276 ], [ 105.86195979999998, 21.0239511 ], [ 105.8614245, 21.0242646 ], [ 105.8607254, 21.0240373 ], [ 105.860348, 21.0244715 ], [ 105.86021479999998, 21.024606 ], [ 105.859962, 21.0250573 ], [ 105.8604035, 21.0252509 ], [ 105.861147399999979, 21.0253566 ], [ 105.861393899999982, 21.0255753 ], [ 105.861485300000012, 21.0265098 ], [ 105.861360199999979, 21.0268851 ], [ 105.86056, 21.0271642 ] ] ] } },
{ "type": "Feature", "properties": { "threshold_s": 600, "time_label": "10 minutes" }, "geometry": { "type": "Polygon", "coordinates": [ [ [ 105.8603817, 21.0291546 ], [ 105.859229700000014, 21.0297031 ], [ 105.8598143, 21.0299614 ], [ 105.860150799999985, 21.03008 ], [ 105.86078879999998, 21.0302755 ], [ 105.8610955, 21.0294989 ], [ 105.8613337, 21.0288933 ], [ 105.861129, 21.0278462 ], [ 105.8618604, 21.0270123 ], [ 105.862282099999987, 21.0256878 ], [ 105.862678, 21.0241486 ], [ 105.8630868, 21.0230317 ], [ 105.863379399999985, 21.0217687 ], [ 105.863676, 21.0208434 ], [ 105.863899, 21.018973 ], [ 105.863634099999985, 21.019321 ], [ 105.8630751, 21.0200104 ], [ 105.861942299999981, 21.0203228 ], [ 105.861876199999983, 21.0203177 ], [ 105.8608693, 21.0213934 ], [ 105.8605928, 21.0216684 ], [ 105.8592177, 21.0228712 ], [ 105.8591662, 21.0231976 ], [ 105.8572877, 21.0237614 ], [ 105.856694899999979, 21.0244824 ], [ 105.8568413, 21.0247178 ], [ 105.8576873, 21.0262038 ], [ 105.8577176, 21.0266762 ], [ 105.858359300000018, 21.0274769 ], [ 105.858447, 21.0275105 ], [ 105.8598586, 21.0277828 ], [ 105.860043, 21.0279772 ], [ 105.8603817, 21.0291546 ] ] ] } },
{ "type": "Feature", "properties": { "threshold_s": 900, "time_label": "15 minutes" }, "geometry": { "type": "Polygon", "coordinates": [ [ [ 105.8562358, 21.0296748 ], [ 105.857528299999984, 21.0328617 ], [ 105.8580605, 21.0330154 ], [ 105.8583675, 21.0330002 ], [ 105.859561899999989, 21.032523 ], [ 105.861271699999989, 21.0304235 ], [ 105.8618301, 21.0281317 ], [ 105.862282099999987, 21.0256878 ], [ 105.8630868, 21.0230317 ], [ 105.863676, 21.0208434 ], [ 105.864448899999985, 21.0179396 ], [ 105.8651885, 21.0164253 ], [ 105.865017899999984, 21.0159812 ], [ 105.8627141, 21.0166919 ], [ 105.861213, 21.018231 ], [ 105.8582515, 21.0207665 ], [ 105.8560357, 21.0211751 ], [ 105.8558784, 21.0212225 ], [ 105.8545585, 21.0236922 ], [ 105.8543726, 21.0243485 ], [ 105.854298299999982, 21.0250868 ], [ 105.8543338, 21.0252013 ], [ 105.8544906, 21.0256015 ], [ 105.8553136, 21.0276132 ], [ 105.8562358, 21.0296748 ] ] ] } },
{ "type": "Feature", "properties": { "threshold_s": 300, "time_label": "5 minutes" }, "geometry": { "type": "Polygon", "coordinates": [ [ [ 105.8459339, 21.0336255 ], [ 105.8455033, 21.033579 ], [ 105.8458888, 21.0337422 ], [ 105.846899099999987, 21.0342913 ], [ 105.847024799999986, 21.0344199 ], [ 105.8473737, 21.0343717 ], [ 105.848156599999982, 21.0348966 ], [ 105.848043799999985, 21.0342979 ], [ 105.8480578, 21.0338546 ], [ 105.8480621, 21.0338079 ], [ 105.8480668, 21.0337554 ], [ 105.8480382, 21.0337525 ], [ 105.847946199999981, 21.0337964 ], [ 105.8472542, 21.0337414 ], [ 105.846995, 21.0337203 ], [ 105.846901399999979, 21.0326301 ], [ 105.84769249999998, 21.0324873 ], [ 105.848055599999981, 21.0324216 ], [ 105.8485186, 21.0323719 ], [ 105.84887710000001, 21.0317532 ], [ 105.849698100000012, 21.0326161 ], [ 105.8499725, 21.0329804 ], [ 105.850261500000016, 21.0331052 ], [ 105.8507011, 21.0323117 ], [ 105.8504709, 21.0321878 ], [ 105.8491377, 21.0313156 ], [ 105.8491746, 21.029779 ], [ 105.8488561, 21.0305684 ], [ 105.8481374, 21.0308039 ], [ 105.8474725, 21.0304548 ], [ 105.8478206, 21.0313634 ], [ 105.846937399999987, 21.0315 ], [ 105.8467286, 21.0312332 ], [ 105.846286, 21.0310279 ], [ 105.846263, 21.0310171 ], [ 105.845974500000011, 21.0317052 ], [ 105.845617099999984, 21.0319511 ], [ 105.845834300000021, 21.0320332 ], [ 105.846356699999987, 21.0327226 ], [ 105.8459339, 21.0336255 ] ] ] } },
{ "type": "Feature", "properties": { "threshold_s": 600, "time_label": "10 minutes" }, "geometry": { "type": "Polygon", "coordinates": [ [ [ 105.8447768, 21.0340917 ], [ 105.8445168, 21.0360386 ], [ 105.846163, 21.0371918 ], [ 105.847111399999989, 21.0375183 ], [ 105.8479192, 21.0377886 ], [ 105.8480787, 21.0375461 ], [ 105.849978399999983, 21.0369695 ], [ 105.850948099999982, 21.0356251 ], [ 105.852156799999989, 21.0347124 ], [ 105.8527555, 21.0342474 ], [ 105.8530192, 21.033042 ], [ 105.8538341, 21.0321923 ], [ 105.8531895, 21.0310982 ], [ 105.851363, 21.0301442 ], [ 105.8514055, 21.0298406 ], [ 105.851443499999988, 21.0296032 ], [ 105.851467499999984, 21.0294759 ], [ 105.8515171, 21.0291975 ], [ 105.851518, 21.0289361 ], [ 105.851497600000016, 21.0287269 ], [ 105.8514771, 21.0285279 ], [ 105.8515379, 21.0276191 ], [ 105.8514312, 21.0273336 ], [ 105.8502936, 21.0269683 ], [ 105.8496394, 21.0273647 ], [ 105.847790500000016, 21.0270442 ], [ 105.845987099999988, 21.0275442 ], [ 105.8453413, 21.0287033 ], [ 105.8439851, 21.0285916 ], [ 105.843629599999986, 21.0293298 ], [ 105.8439386, 21.0301487 ], [ 105.845064, 21.0313485 ], [ 105.8445669, 21.0331121 ], [ 105.844622199999989, 21.0333673 ], [ 105.8446504, 21.0335002 ], [ 105.844685, 21.0336632 ], [ 105.8447768, 21.0340917 ] ] ] } },
{ "type": "Feature", "properties": { "threshold_s": 900, "time_label": "15 minutes" }, "geometry": { "type": "Polygon", "coordinates": [ [ [ 105.8446578, 21.038614 ], [ 105.84469559999998, 21.0388408 ], [ 105.8450942, 21.0391467 ], [ 105.846976399999988, 21.04074 ], [ 105.8471138, 21.0407276 ], [ 105.8494708, 21.0400656 ], [ 105.8515241, 21.0390352 ], [ 105.852869699999985, 21.0375029 ], [ 105.85325779999998, 21.0370348 ], [ 105.8546701, 21.035414 ], [ 105.8547385, 21.0352913 ], [ 105.855330399999986, 21.0338854 ], [ 105.8559243, 21.0326476 ], [ 105.8564395, 21.0315136 ], [ 105.8565198, 21.0313238 ], [ 105.8562058, 21.0307153 ], [ 105.8545507, 21.0294831 ], [ 105.853875099999982, 21.0285008 ], [ 105.8533791, 21.0260713 ], [ 105.8534105, 21.0256484 ], [ 105.8534289, 21.0254568 ], [ 105.8534146, 21.0254056 ], [ 105.8533972, 21.0253457 ], [ 105.851334, 21.0245245 ], [ 105.8493316, 21.0236288 ], [ 105.8490175, 21.0237418 ], [ 105.847108, 21.0244508 ], [ 105.8463801, 21.0245553 ], [ 105.8451423, 21.0247326 ], [ 105.845086899999984, 21.0247504 ], [ 105.8450297, 21.0247688 ], [ 105.843485, 21.0264455 ], [ 105.8414747, 21.0273896 ], [ 105.841098099999982, 21.0276654 ], [ 105.8407147, 21.0289876 ], [ 105.8401524, 21.0309609 ], [ 105.840284, 21.031701 ], [ 105.84249149999998, 21.0322441 ], [ 105.843611, 21.0337263 ], [ 105.8445168, 21.0360386 ], [ 105.8447313, 21.0372753 ], [ 105.8446578, 21.038614 ] ] ] } },
{ "type": "Feature", "properties": { "threshold_s": 300, "time_label": "5 minutes" }, "geometry": { "type": "Polygon", "coordinates": [ [ [ 105.8315284, 20.9860267 ], [ 105.831736299999989, 20.9868573 ], [ 105.832104499999986, 20.9871445 ], [ 105.8327602, 20.9869454 ], [ 105.833957499999983, 20.9867234 ], [ 105.8343116, 20.9868445 ], [ 105.8350308, 20.9874058 ], [ 105.835470199999989, 20.9874075 ], [ 105.8358253, 20.9872693 ], [ 105.835783, 20.9872006 ], [ 105.835016, 20.9865215 ], [ 105.834568, 20.9856922 ], [ 105.8344493, 20.9852482 ], [ 105.8344184, 20.9850993 ], [ 105.8343316, 20.9845902 ], [ 105.834411100000011, 20.9837409 ], [ 105.834449399999983, 20.9835612 ], [ 105.8335179, 20.9835469 ], [ 105.8328663, 20.9832094 ], [ 105.8327196, 20.9837268 ], [ 105.831886199999985, 20.984133 ], [ 105.831631900000019, 20.9843413 ], [ 105.8313587, 20.9849407 ], [ 105.8315284, 20.9860267 ] ] ] } },
{ "type": "Feature", "properties": { "threshold_s": 600, "time_label": "10 minutes" }, "geometry": { "type": "Polygon", "coordinates": [ [ [ 105.8287634, 20.9871249 ], [ 105.8294156, 20.9886027 ], [ 105.83023679999998, 20.9892601 ], [ 105.8317377, 20.9897181 ], [ 105.8338032, 20.9900507 ], [ 105.8338908, 20.9901036 ], [ 105.835690899999989, 20.9895686 ], [ 105.8371792, 20.9895086 ], [ 105.838306, 20.9883597 ], [ 105.8384462, 20.9874936 ], [ 105.8384898, 20.9869057 ], [ 105.8368166, 20.986243 ], [ 105.8362299, 20.9843371 ], [ 105.836474, 20.9839366 ], [ 105.8367474, 20.9835958 ], [ 105.835579899999985, 20.9821247 ], [ 105.8355885, 20.9817564 ], [ 105.835552, 20.9808861 ], [ 105.835146, 20.9803499 ], [ 105.833897599999986, 20.9802244 ], [ 105.83263239999998, 20.9807046 ], [ 105.8307479, 20.9812782 ], [ 105.8300499, 20.982232 ], [ 105.829291, 20.9837801 ], [ 105.829045799999989, 20.9841455 ], [ 105.8284813, 20.9850956 ], [ 105.8286874, 20.9860119 ], [ 105.8287634, 20.9871249 ] ] ] } },
{ "type": "Feature", "properties": { "threshold_s": 900, "time_label": "15 minutes" }, "geometry": { "type": "Polygon", "coordinates": [ [ [ 105.8273041, 20.9895844 ], [ 105.8289963, 20.9918595 ], [ 105.8319069, 20.9922176 ], [ 105.832303599999989, 20.9924276 ], [ 105.832391199999989, 20.992474 ], [ 105.833551899999989, 20.9919989 ], [ 105.8364742, 20.9923373 ], [ 105.8366972, 20.9923998 ], [ 105.8388564, 20.9909185 ], [ 105.8389972, 20.9898163 ], [ 105.8390118, 20.9881051 ], [ 105.840966499999979, 20.9869198 ], [ 105.8412741, 20.9868023 ], [ 105.841383099999987, 20.986516 ], [ 105.841386199999988, 20.9864593 ], [ 105.8409549, 20.9861322 ], [ 105.8409086, 20.9861278 ], [ 105.8406848, 20.9861238 ], [ 105.83825539999998, 20.9856422 ], [ 105.8367474, 20.9835958 ], [ 105.8357796, 20.9817079 ], [ 105.8367169, 20.9805359 ], [ 105.8365823, 20.9788727 ], [ 105.836566099999985, 20.9781514 ], [ 105.834729699999983, 20.9777353 ], [ 105.8335933, 20.9779307 ], [ 105.832728, 20.978179 ], [ 105.83125219999998, 20.9800767 ], [ 105.8304418, 20.980685 ], [ 105.8289156, 20.9815081 ], [ 105.827490899999987, 20.982024 ], [ 105.8265356, 20.9830982 ], [ 105.8262953, 20.9845397 ], [ 105.826157699999982, 20.9871098 ], [ 105.8262988, 20.9875639 ], [ 105.8273041, 20.9895844 ] ] ] } },
{ "type": "Feature", "properties": { "threshold_s": 300, "time_label": "5 minutes" }, "geometry": { "type": "Polygon", "coordinates": [ [ [ 105.8704457, 21.1117038 ], [ 105.870586799999984, 21.1123919 ], [ 105.870663, 21.1124284 ], [ 105.87209249999998, 21.1124594 ], [ 105.8720389, 21.11316 ], [ 105.8725592, 21.1130875 ], [ 105.873117099999988, 21.1132301 ], [ 105.8737978, 21.1139206 ], [ 105.8736214, 21.1149516 ], [ 105.8739755, 21.1139319 ], [ 105.874381799999981, 21.1135529 ], [ 105.87494169999998, 21.1129267 ], [ 105.8756706, 21.1131725 ], [ 105.8756331, 21.1124544 ], [ 105.8765389, 21.1121139 ], [ 105.8766355, 21.111809 ], [ 105.8756626, 21.1121167 ], [ 105.8750203, 21.1120826 ], [ 105.874128399999989, 21.1120022 ], [ 105.8743141, 21.1110182 ], [ 105.874783199999982, 21.1101906 ], [ 105.8743968, 21.1102167 ], [ 105.8736596, 21.1105878 ], [ 105.872674499999988, 21.1097974 ], [ 105.8727812, 21.1108296 ], [ 105.872780099999986, 21.1109187 ], [ 105.8735946, 21.1110044 ], [ 105.8735421, 21.1120173 ], [ 105.872511099999983, 21.1124703 ], [ 105.8718249, 21.112059 ], [ 105.871627, 21.1120475 ], [ 105.8704457, 21.1117038 ] ] ] } },
{ "type": "Feature", "properties": { "threshold_s": 600, "time_label": "10 minutes" }, "geometry": { "type": "Polygon", "coordinates": [ [ [ 105.8694327, 21.1148129 ], [ 105.8695699, 21.1152769 ], [ 105.870949899999985, 21.1159124 ], [ 105.8720411, 21.1166488 ], [ 105.872505599999982, 21.1168407 ], [ 105.8741308, 21.1175433 ], [ 105.874210099999985, 21.1175751 ], [ 105.875563199999988, 21.1162602 ], [ 105.8765175, 21.1155297 ], [ 105.8781847, 21.1146236 ], [ 105.8784604, 21.1142672 ], [ 105.878896, 21.1127947 ], [ 105.8792809, 21.1116237 ], [ 105.8790221, 21.1115378 ], [ 105.8787427, 21.1114585 ], [ 105.877588599999982, 21.1097192 ], [ 105.8776069, 21.1095539 ], [ 105.8772864, 21.108971 ], [ 105.875294499999981, 21.1070458 ], [ 105.874783199999982, 21.1101906 ], [ 105.8743968, 21.1102167 ], [ 105.8727953, 21.1093892 ], [ 105.8723018, 21.1090865 ], [ 105.871324799999982, 21.1091765 ], [ 105.8700009, 21.1102036 ], [ 105.868630899999985, 21.1100702 ], [ 105.867736599999986, 21.1116337 ], [ 105.8690018, 21.1113947 ], [ 105.869723799999989, 21.1129204 ], [ 105.8694667, 21.1134828 ], [ 105.8694327, 21.1148129 ] ] ] } },
{ "type": "Feature", "properties": { "threshold_s": 900, "time_label": "15 minutes" }, "geometry": { "type": "Polygon", "coordinates": [ [ [ 105.8672713, 21.1165904 ], [ 105.868114599999984, 21.1178098 ], [ 105.8690735, 21.1180011 ], [ 105.870184, 21.1187205 ], [ 105.8718947, 21.119595 ], [ 105.8734536, 21.1208279 ], [ 105.8740237, 21.1203311 ], [ 105.873400899999979, 21.1194312 ], [ 105.874975899999981, 21.118163 ], [ 105.875563199999988, 21.1162602 ], [ 105.876633, 21.1159957 ], [ 105.8785902, 21.1166436 ], [ 105.8790985, 21.1167631 ], [ 105.8800399, 21.1156359 ], [ 105.8792688, 21.1150629 ], [ 105.8805362, 21.1135334 ], [ 105.88067359999998, 21.1133089 ], [ 105.881375599999984, 21.1121404 ], [ 105.880356899999981, 21.1119165 ], [ 105.879416799999987, 21.1103819 ], [ 105.8776069, 21.1095539 ], [ 105.8772864, 21.108971 ], [ 105.877049, 21.1086531 ], [ 105.876740799999979, 21.1089476 ], [ 105.8770013, 21.1106998 ], [ 105.8767552, 21.1116243 ], [ 105.8756626, 21.1121167 ], [ 105.8743141, 21.1110182 ], [ 105.874783199999982, 21.1101906 ], [ 105.8743968, 21.1102167 ], [ 105.8727953, 21.1093892 ], [ 105.8723018, 21.1090865 ], [ 105.873535599999983, 21.1070505 ], [ 105.874161199999989, 21.1070001 ], [ 105.875294499999981, 21.1070458 ], [ 105.87333169999998, 21.1064666 ], [ 105.8719573, 21.1069745 ], [ 105.871324799999982, 21.1091765 ], [ 105.8696099, 21.1095292 ], [ 105.86789349999998, 21.1091778 ], [ 105.8670366, 21.1084784 ], [ 105.8662168, 21.1093462 ], [ 105.8657766, 21.1101895 ], [ 105.8662856, 21.1101027 ], [ 105.8666678, 21.1100591 ], [ 105.867736599999986, 21.1116337 ], [ 105.8690018, 21.1113947 ], [ 105.869723799999989, 21.1129204 ], [ 105.8694667, 21.1134828 ], [ 105.8682302, 21.1147864 ], [ 105.8676025, 21.1151217 ], [ 105.8662534, 21.1136154 ], [ 105.866430399999985, 21.1152843 ], [ 105.8672713, 21.1165904 ] ] ] } },
{ "type": "Feature", "properties": { "threshold_s": 300, "time_label": "5 minutes" }, "geometry": { "type": "Polygon", "coordinates": [ [ [ 105.8455033, 21.033579 ], [ 105.8456694, 21.0347273 ], [ 105.8457273, 21.0347159 ], [ 105.846388499999989, 21.0345752 ], [ 105.8473737, 21.0343717 ], [ 105.8480578, 21.0338546 ], [ 105.8480621, 21.0338079 ], [ 105.8480668, 21.0337554 ], [ 105.8485186, 21.0323719 ], [ 105.84887710000001, 21.0317532 ], [ 105.8486543, 21.0310594 ], [ 105.848212299999986, 21.0297241 ], [ 105.847795099999985, 21.0291543 ], [ 105.8464, 21.0291195 ], [ 105.846568, 21.0299584 ], [ 105.846263, 21.0310171 ], [ 105.845851199999984, 21.0312344 ], [ 105.844845300000017, 21.0303614 ], [ 105.8447427, 21.0299832 ], [ 105.845064, 21.0313485 ], [ 105.845176599999988, 21.0319201 ], [ 105.8452826, 21.0324584 ], [ 105.8455033, 21.033579 ] ] ] } },
{ "type": "Feature", "properties": { "threshold_s": 600, "time_label": "10 minutes" }, "geometry": { "type": "Polygon", "coordinates": [ [ [ 105.8445168, 21.0360386 ], [ 105.845441099999988, 21.0372928 ], [ 105.8460762, 21.03742 ], [ 105.8479192, 21.0377886 ], [ 105.8480787, 21.0375461 ], [ 105.8486639, 21.0367611 ], [ 105.849642099999983, 21.0363753 ], [ 105.850024, 21.0353227 ], [ 105.850615299999987, 21.0347411 ], [ 105.8506755, 21.0340786 ], [ 105.8511704, 21.0329985 ], [ 105.8519128, 21.0322701 ], [ 105.851383100000021, 21.0316766 ], [ 105.851112799999981, 21.0306141 ], [ 105.8511096, 21.0303112 ], [ 105.8507907, 21.0289352 ], [ 105.85010579999998, 21.0282493 ], [ 105.849878299999986, 21.0281776 ], [ 105.848740599999985, 21.0269996 ], [ 105.848671, 21.0267966 ], [ 105.8475386, 21.026049 ], [ 105.8474754, 21.0260672 ], [ 105.8474004, 21.0260889 ], [ 105.8455637, 21.0260126 ], [ 105.8454073, 21.0260003 ], [ 105.8451899, 21.0272087 ], [ 105.844121, 21.0277723 ], [ 105.8440065, 21.0278048 ], [ 105.8428379, 21.0278811 ], [ 105.84225210000001, 21.0285565 ], [ 105.842234, 21.0286721 ], [ 105.8425112, 21.029371 ], [ 105.8420829, 21.0305079 ], [ 105.8420999, 21.0305916 ], [ 105.8431004, 21.0315982 ], [ 105.844453699999988, 21.0325764 ], [ 105.843611, 21.0337263 ], [ 105.8449379, 21.0348636 ], [ 105.8447622, 21.0357407 ], [ 105.8445168, 21.0360386 ] ] ] } },
{ "type": "Feature", "properties": { "threshold_s": 900, "time_label": "15 minutes" }, "geometry": { "type": "Polygon", "coordinates": [ [ [ 105.8447842, 21.0392933 ], [ 105.8448462, 21.0396322 ], [ 105.8454121, 21.0400507 ], [ 105.846636, 21.0406583 ], [ 105.8474489, 21.040873 ], [ 105.849608599999982, 21.0398489 ], [ 105.849865699999981, 21.0397005 ], [ 105.8514748, 21.03797 ], [ 105.852105, 21.0373143 ], [ 105.8525179, 21.0367986 ], [ 105.854353299999985, 21.0348592 ], [ 105.855511799999988, 21.0325231 ], [ 105.853889, 21.0303709 ], [ 105.8537711, 21.0301832 ], [ 105.853593499999988, 21.0301436 ], [ 105.853390599999983, 21.0301091 ], [ 105.8514771, 21.0285279 ], [ 105.8514521, 21.0280788 ], [ 105.8515379, 21.0276191 ], [ 105.851632, 21.0272476 ], [ 105.8522016, 21.0262246 ], [ 105.8518535, 21.0258289 ], [ 105.851744499999981, 21.0257795 ], [ 105.8497545, 21.0247226 ], [ 105.849336899999983, 21.0243294 ], [ 105.848470699999979, 21.0239694 ], [ 105.8466373, 21.0234938 ], [ 105.844176099999984, 21.0232694 ], [ 105.842991, 21.0246071 ], [ 105.841625, 21.0257921 ], [ 105.8402245, 21.0273746 ], [ 105.839459, 21.028738 ], [ 105.839112, 21.0294544 ], [ 105.838487699999988, 21.0311274 ], [ 105.8385022, 21.0311973 ], [ 105.83852, 21.0312806 ], [ 105.8391606, 21.0326673 ], [ 105.840682299999983, 21.0328473 ], [ 105.8407384, 21.0328372 ], [ 105.841180199999982, 21.0327568 ], [ 105.843611, 21.0337263 ], [ 105.8445168, 21.0360386 ], [ 105.8447313, 21.0372753 ], [ 105.8446578, 21.038614 ], [ 105.84469559999998, 21.0388408 ], [ 105.8447665, 21.0392081 ], [ 105.8447842, 21.0392933 ] ] ] } }
]
}
