{
"type": "FeatureCollection",
"name": "healthy_offers_addis",
"crs": { "type": "name", "properties": { "name": "urn:ogc:def:crs:OGC:1.3:CRS84" } },
"features": [
{ "type": "Feature", "properties": { "id": 659241017, "category": "shop", "label": "butcher" }, "geometry": { "type": "Point", "coordinates": [ 38.791322995316023, 8.993173609476177 ] } },
{ "type": "Feature", "properties": { "id": 1726969868, "category": "shop", "label": "butcher" }, "geometry": { "type": "Point", "coordinates": [ 38.731293027080063, 8.972322190314481 ] } },
{ "type": "Feature", "properties": { "id": 1960101299, "category": "shop", "label": "butcher" }, "geometry": { "type": "Point", "coordinates": [ 38.699012611566936, 9.053439684089353 ] } },
{ "type": "Feature", "properties": { "id": 4500492190, "category": "shop", "label": "butcher" }, "geometry": { "type": "Point", "coordinates": [ 38.713362896307352, 8.960070832967951 ] } },
{ "type": "Feature", "properties": { "id": 4817515421, "category": "shop", "label": "butcher" }, "geometry": { "type": "Point", "coordinates": [ 38.808553353012989, 8.994838202866786 ] } },
{ "type": "Feature", "properties": { "id": 4841527321, "category": "shop", "label": "butcher" }, "geometry": { "type": "Point", "coordinates": [ 38.819486201857622, 9.018749770943217 ] } },
{ "type": "Feature", "properties": { "id": 5035241921, "category": "shop", "label": "butcher" }, "geometry": { "type": "Point", "coordinates": [ 38.683311965516083, 8.995963903361842 ] } },
{ "type": "Feature", "properties": { "id": 5230077423, "category": "shop", "label": "butcher" }, "geometry": { "type": "Point", "coordinates": [ 38.796425383563275, 9.01208058454012 ] } },
{ "type": "Feature", "properties": { "id": 5230098221, "category": "shop", "label": "butcher" }, "geometry": { "type": "Point", "coordinates": [ 38.797745547935136, 9.010435116968505 ] } },
{ "type": "Feature", "properties": { "id": 5428870326, "category": "shop", "label": "butcher" }, "geometry": { "type": "Point", "coordinates": [ 38.852307984048714, 9.009764591147867 ] } },
{ "type": "Feature", "properties": { "id": 5428871421, "category": "shop", "label": "butcher" }, "geometry": { "type": "Point", "coordinates": [ 38.8367402285661, 9.011268537643835 ] } },
{ "type": "Feature", "properties": { "id": 5906830986, "category": "shop", "label": "butcher" }, "geometry": { "type": "Point", "coordinates": [ 38.782684264646683, 9.016658550677684 ] } },
{ "type": "Feature", "properties": { "id": 6186718385, "category": "shop", "label": "butcher" }, "geometry": { "type": "Point", "coordinates": [ 38.845039504440486, 9.050012049153253 ] } },
{ "type": "Feature", "properties": { "id": 6471705395, "category": "shop", "label": "butcher" }, "geometry": { "type": "Point", "coordinates": [ 38.858429722682899, 8.989904036033904 ] } },
{ "type": "Feature", "properties": { "id": 6814354218, "category": "shop", "label": "butcher" }, "geometry": { "type": "Point", "coordinates": [ 38.749454105136969, 8.981235249852562 ] } },
{ "type": "Feature", "properties": { "id": 7107656485, "category": "shop", "label": "butcher" }, "geometry": { "type": "Point", "coordinates": [ 38.78764722292437, 8.867861181434771 ] } },
{ "type": "Feature", "properties": { "id": 7840028194, "category": "shop", "label": "butcher" }, "geometry": { "type": "Point", "coordinates": [ 38.7702314316981, 9.01216465405404 ] } },
{ "type": "Feature", "properties": { "id": 8493717528, "category": "shop", "label": "butcher" }, "geometry": { "type": "Point", "coordinates": [ 38.766585667978603, 8.993864289382589 ] } },
{ "type": "Feature", "properties": { "id": 8493718319, "category": "shop", "label": "butcher" }, "geometry": { "type": "Point", "coordinates": [ 38.6984978649444, 8.982933784024777 ] } },
{ "type": "Feature", "properties": { "id": 8568509928, "category": "shop", "label": "butcher" }, "geometry": { "type": "Point", "coordinates": [ 38.860648041509968, 9.04136221168255 ] } },
{ "type": "Feature", "properties": { "id": 8568510021, "category": "shop", "label": "butcher" }, "geometry": { "type": "Point", "coordinates": [ 38.781386775992331, 9.010706157954893 ] } },
{ "type": "Feature", "properties": { "id": 8806555919, "category": "shop", "label": "butcher" }, "geometry": { "type": "Point", "coordinates": [ 38.768538038460441, 8.999618154049573 ] } },
{ "type": "Feature", "properties": { "id": 10568467709, "category": "shop", "label": "butcher" }, "geometry": { "type": "Point", "coordinates": [ 38.790750452460976, 8.992096925628452 ] } },
{ "type": "Feature", "properties": { "id": 704284598, "category": "shop", "label": "butcher" }, "geometry": { "type": "Point", "coordinates": [ 38.760548265661271, 8.974621654143808 ] } },
{ "type": "Feature", "properties": { "id": 1693414561, "category": "shop", "label": "greengrocer" }, "geometry": { "type": "Point", "coordinates": [ 38.775752289560621, 9.008428272543402 ] } },
{ "type": "Feature", "properties": { "id": 1726969850, "category": "shop", "label": "greengrocer" }, "geometry": { "type": "Point", "coordinates": [ 38.730863474813162, 8.972484603822465 ] } },
{ "type": "Feature", "properties": { "id": 4836673921, "category": "shop", "label": "greengrocer" }, "geometry": { "type": "Point", "coordinates": [ 38.843332548384929, 9.035470178055368 ] } },
{ "type": "Feature", "properties": { "id": 4967390141, "category": "shop", "label": "greengrocer" }, "geometry": { "type": "Point", "coordinates": [ 38.80407617046891, 9.01955402625039 ] } },
{ "type": "Feature", "properties": { "id": 4967709979, "category": "shop", "label": "greengrocer" }, "geometry": { "type": "Point", "coordinates": [ 38.816149527887475, 9.019456433409873 ] } },
{ "type": "Feature", "properties": { "id": 4967800853, "category": "shop", "label": "greengrocer" }, "geometry": { "type": "Point", "coordinates": [ 38.819787704788155, 9.018808771163316 ] } },
{ "type": "Feature", "properties": { "id": 4967928746, "category": "shop", "label": "greengrocer" }, "geometry": { "type": "Point", "coordinates": [ 38.820874666281945, 9.018684561832549 ] } },
{ "type": "Feature", "properties": { "id": 4989499943, "category": "shop", "label": "greengrocer" }, "geometry": { "type": "Point", "coordinates": [ 38.853932668737535, 9.020485592945402 ] } },
{ "type": "Feature", "properties": { "id": 5664014221, "category": "shop", "label": "greengrocer" }, "geometry": { "type": "Point", "coordinates": [ 38.781232012793744, 8.992581910915478 ] } },
{ "type": "Feature", "properties": { "id": 6306527685, "category": "shop", "label": "greengrocer" }, "geometry": { "type": "Point", "coordinates": [ 38.777719600032839, 9.005420533884458 ] } },
{ "type": "Feature", "properties": { "id": 6373575886, "category": "shop", "label": "greengrocer" }, "geometry": { "type": "Point", "coordinates": [ 38.784492897275101, 8.999706648757007 ] } },
{ "type": "Feature", "properties": { "id": 6373575888, "category": "shop", "label": "greengrocer" }, "geometry": { "type": "Point", "coordinates": [ 38.784241368995552, 8.99958243286043 ] } },
{ "type": "Feature", "properties": { "id": 6471701697, "category": "shop", "label": "greengrocer" }, "geometry": { "type": "Point", "coordinates": [ 38.846844961145834, 9.010238227106845 ] } },
{ "type": "Feature", "properties": { "id": 6698676487, "category": "shop", "label": "greengrocer" }, "geometry": { "type": "Point", "coordinates": [ 38.845281892551469, 9.010318077834667 ] } },
{ "type": "Feature", "properties": { "id": 6700606186, "category": "shop", "label": "greengrocer" }, "geometry": { "type": "Point", "coordinates": [ 38.737385243775869, 8.987116263560099 ] } },
{ "type": "Feature", "properties": { "id": 6716252327, "category": "shop", "label": "greengrocer" }, "geometry": { "type": "Point", "coordinates": [ 38.715897542179732, 8.952492668245354 ] } },
{ "type": "Feature", "properties": { "id": 6728599286, "category": "shop", "label": "greengrocer" }, "geometry": { "type": "Point", "coordinates": [ 38.747949431517121, 9.034024090717432 ] } },
{ "type": "Feature", "properties": { "id": 6813834790, "category": "shop", "label": "greengrocer" }, "geometry": { "type": "Point", "coordinates": [ 38.848452945504413, 9.041937577383441 ] } },
{ "type": "Feature", "properties": { "id": 6814283327, "category": "shop", "label": "greengrocer" }, "geometry": { "type": "Point", "coordinates": [ 38.811774732453813, 8.994578271278794 ] } },
{ "type": "Feature", "properties": { "id": 6814283332, "category": "shop", "label": "greengrocer" }, "geometry": { "type": "Point", "coordinates": [ 38.759322103014071, 8.993557910690781 ] } },
{ "type": "Feature", "properties": { "id": 7077078356, "category": "shop", "label": "greengrocer" }, "geometry": { "type": "Point", "coordinates": [ 38.815511724035751, 9.003699279854141 ] } },
{ "type": "Feature", "properties": { "id": 7136786035, "category": "shop", "label": "greengrocer" }, "geometry": { "type": "Point", "coordinates": [ 38.77052409460704, 9.015987434397143 ] } },
{ "type": "Feature", "properties": { "id": 7136786036, "category": "shop", "label": "greengrocer" }, "geometry": { "type": "Point", "coordinates": [ 38.772599202913362, 9.016422170115538 ] } },
{ "type": "Feature", "properties": { "id": 7136786037, "category": "shop", "label": "greengrocer" }, "geometry": { "type": "Point", "coordinates": [ 38.770533077759879, 9.0176199086729 ] } },
{ "type": "Feature", "properties": { "id": 7136786038, "category": "shop", "label": "greengrocer" }, "geometry": { "type": "Point", "coordinates": [ 38.774925839499232, 9.017362617021593 ] } },
{ "type": "Feature", "properties": { "id": 7136786039, "category": "shop", "label": "greengrocer" }, "geometry": { "type": "Point", "coordinates": [ 38.771197831070133, 9.01567690856356 ] } },
{ "type": "Feature", "properties": { "id": 7136786040, "category": "shop", "label": "greengrocer" }, "geometry": { "type": "Point", "coordinates": [ 38.770200701104756, 9.017557803808337 ] } },
{ "type": "Feature", "properties": { "id": 7136786041, "category": "shop", "label": "greengrocer" }, "geometry": { "type": "Point", "coordinates": [ 38.775905003158918, 9.017531187434541 ] } },
{ "type": "Feature", "properties": { "id": 7136786042, "category": "shop", "label": "greengrocer" }, "geometry": { "type": "Point", "coordinates": [ 38.773542433961687, 9.017043220233854 ] } },
{ "type": "Feature", "properties": { "id": 7136786044, "category": "shop", "label": "greengrocer" }, "geometry": { "type": "Point", "coordinates": [ 38.773183107848041, 9.0167060788736 ] } },
{ "type": "Feature", "properties": { "id": 7136786047, "category": "shop", "label": "greengrocer" }, "geometry": { "type": "Point", "coordinates": [ 38.771395460432636, 9.017158557995351 ] } },
{ "type": "Feature", "properties": { "id": 7136786048, "category": "shop", "label": "greengrocer" }, "geometry": { "type": "Point", "coordinates": [ 38.776318228189616, 9.017628780795537 ] } },
{ "type": "Feature", "properties": { "id": 7045994231, "category": "shop", "label": "health_food" }, "geometry": { "type": "Point", "coordinates": [ 38.77524923300151, 9.032666715114246 ] } },
{ "type": "Feature", "properties": { "id": 1594370155, "category": "shop", "label": "seafood" }, "geometry": { "type": "Point", "coordinates": [ 38.766751170413741, 8.944115782516207 ] } },
{ "type": "Feature", "properties": { "id": 4954579026, "category": "shop", "label": "seafood" }, "geometry": { "type": "Point", "coordinates": [ 38.732336711879121, 9.020370256246913 ] } },
{ "type": "Feature", "properties": { "id": 622357094, "category": "amenity", "label": "marketplace" }, "geometry": { "type": "Point", "coordinates": [ 38.741041386982239, 9.029419639010291 ] } },
{ "type": "Feature", "properties": { "id": 622357200, "category": "amenity", "label": "marketplace" }, "geometry": { "type": "Point", "coordinates": [ 38.794814539889636, 9.024087628207184 ] } },
{ "type": "Feature", "properties": { "id": 622357223, "category": "amenity", "label": "marketplace" }, "geometry": { "type": "Point", "coordinates": [ 38.73726846278894, 9.059591477754163 ] } },
{ "type": "Feature", "properties": { "id": 4242764822, "category": "amenity", "label": "marketplace" }, "geometry": { "type": "Point", "coordinates": [ 38.691759810495448, 9.06224392355773 ] } },
{ "type": "Feature", "properties": { "id": 4242764823, "category": "amenity", "label": "marketplace" }, "geometry": { "type": "Point", "coordinates": [ 38.702431796070783, 9.06319312181294 ] } },
{ "type": "Feature", "properties": { "id": 4547496903, "category": "amenity", "label": "marketplace" }, "geometry": { "type": "Point", "coordinates": [ 38.744724479647125, 9.033846656288532 ] } },
{ "type": "Feature", "properties": { "id": 5032060364, "category": "amenity", "label": "marketplace" }, "geometry": { "type": "Point", "coordinates": [ 38.739604082527649, 9.029623691102065 ] } },
{ "type": "Feature", "properties": { "id": 6310821320, "category": "amenity", "label": "marketplace" }, "geometry": { "type": "Point", "coordinates": [ 38.825806417191757, 9.013032992080106 ] } },
{ "type": "Feature", "properties": { "id": 7156962205, "category": "amenity", "label": "marketplace" }, "geometry": { "type": "Point", "coordinates": [ 38.781771001964216, 8.989290110455482 ] } },
{ "type": "Feature", "properties": { "id": 9132045548, "category": "amenity", "label": "marketplace" }, "geometry": { "type": "Point", "coordinates": [ 38.780953535055673, 9.005331809650215 ] } },
{ "type": "Feature", "properties": { "id": 9199393662, "category": "amenity", "label": "marketplace" }, "geometry": { "type": "Point", "coordinates": [ 38.786954281153584, 8.989006180173121 ] } },
{ "type": "Feature", "properties": { "id": 43040304, "category": "amenity", "label": "marketplace" }, "geometry": { "type": "Point", "coordinates": [ 38.772509371384942, 9.058970500991538 ] } },
{ "type": "Feature", "properties": { "id": 203593660, "category": "amenity", "label": "marketplace" }, "geometry": { "type": "Point", "coordinates": [ 38.781600322060235, 8.989653895804469 ] } },
{ "type": "Feature", "properties": { "id": 206800433, "category": "amenity", "label": "marketplace" }, "geometry": { "type": "Point", "coordinates": [ 38.761217548263559, 9.060682620037515 ] } },
{ "type": "Feature", "properties": { "id": 548378566, "category": "amenity", "label": "marketplace" }, "geometry": { "type": "Point", "coordinates": [ 38.786774618096764, 8.868031724208393 ] } },
{ "type": "Feature", "properties": { "id": 648826822, "category": "amenity", "label": "marketplace" }, "geometry": { "type": "Point", "coordinates": [ 38.691607096897144, 9.062075374072609 ] } },
{ "type": "Feature", "properties": { "id": 648826823, "category": "amenity", "label": "marketplace" }, "geometry": { "type": "Point", "coordinates": [ 38.691912524093745, 9.062598764320533 ] } },
{ "type": "Feature", "properties": { "id": 648826825, "category": "amenity", "label": "marketplace" }, "geometry": { "type": "Point", "coordinates": [ 38.692235917596022, 9.062412472963768 ] } },
{ "type": "Feature", "properties": { "id": 718289828, "category": "amenity", "label": "marketplace" }, "geometry": { "type": "Point", "coordinates": [ 38.711217319549469, 8.960461179213453 ] } },
{ "type": "Feature", "properties": { "id": 1271438775, "category": "amenity", "label": "marketplace" }, "geometry": { "type": "Point", "coordinates": [ 38.877288866124651, 9.027751730626212 ] } },
{ "type": "Feature", "properties": { "id": 4681739604, "category": "amenity", "label": "drinking_water" }, "geometry": { "type": "Point", "coordinates": [ 38.708681866477619, 8.966615754320893 ] } },
{ "type": "Feature", "properties": { "id": 6665462785, "category": "amenity", "label": "drinking_water" }, "geometry": { "type": "Point", "coordinates": [ 38.818319794926595, 8.838607349031101 ] } },
{ "type": "Feature", "properties": { "id": 10800986807, "category": "amenity", "label": "drinking_water" }, "geometry": { "type": "Point", "coordinates": [ 38.731476026924604, 8.958501544533489 ] } },
{ "type": "Feature", "properties": { "id": 11508014152, "category": "amenity", "label": "drinking_water" }, "geometry": { "type": "Point", "coordinates": [ 38.797114678150876, 8.983317746427385 ] } },
{ "type": "Feature", "properties": { "id": 11508014157, "category": "amenity", "label": "drinking_water" }, "geometry": { "type": "Point", "coordinates": [ 38.795431875061801, 8.982882655410526 ] } }
]
}
