{
"type": "FeatureCollection",
"name": "isochrone_shop_spices_multimodal",
"crs": { "type": "name", "properties": { "name": "urn:ogc:def:crs:OGC:1.3:CRS84" } },
"features": [
{ "type": "Feature", "properties": { "threshold_s": 300, "time_label": "5 minutes" }, "geometry": { "type": "Polygon", "coordinates": [ [ [ 38.7754067, 9.0226716 ], [ 38.7752849, 9.0229793 ], [ 38.7763746, 9.0235218 ], [ 38.7766007, 9.0235376 ], [ 38.7778352, 9.0234959 ], [ 38.7782289, 9.0233603 ], [ 38.7792527, 9.0229481 ], [ 38.7803283, 9.0233325 ], [ 38.7805001, 9.0240666 ], [ 38.7811291, 9.0235631 ], [ 38.7811059, 9.0234327 ], [ 38.7809206, 9.0228037 ], [ 38.780621, 9.0225737 ], [ 38.7796941, 9.0220515 ], [ 38.7796967, 9.0215989 ], [ 38.779146, 9.0208354 ], [ 38.7788424, 9.0209346 ], [ 38.7778802, 9.0213627 ], [ 38.7775249, 9.0210434 ], [ 38.7765361, 9.0218303 ], [ 38.7765304, 9.0219176 ], [ 38.7764838, 9.0227621 ], [ 38.7754067, 9.0226716 ] ] ] } },
{ "type": "Feature", "properties": { "threshold_s": 600, "time_label": "10 minutes" }, "geometry": { "type": "Polygon", "coordinates": [ [ [ 38.7752482, 9.0271537 ], [ 38.7752165, 9.0276289 ], [ 38.7761492, 9.027044 ], [ 38.7767279, 9.0261779 ], [ 38.7778281, 9.0263133 ], [ 38.7783603, 9.0264075 ], [ 38.7781887, 9.0261563 ], [ 38.778014, 9.025166 ], [ 38.777594, 9.0246542 ], [ 38.7787771, 9.0234759 ], [ 38.7792248, 9.023721 ], [ 38.7803454, 9.0244369 ], [ 38.7806417, 9.0258586 ], [ 38.7808259, 9.0265729 ], [ 38.7811591, 9.0269391 ], [ 38.7823693, 9.0265065 ], [ 38.7823913, 9.0264422 ], [ 38.7826753, 9.0251546 ], [ 38.7834913, 9.0235954 ], [ 38.7836573, 9.0236438 ], [ 38.7843689, 9.0231356 ], [ 38.7846348, 9.0227478 ], [ 38.7845997, 9.0226513 ], [ 38.7837476, 9.021184 ], [ 38.782688, 9.0198901 ], [ 38.7822697, 9.0199832 ], [ 38.7816323, 9.020193 ], [ 38.780964, 9.020229 ], [ 38.780123, 9.0187263 ], [ 38.7791933, 9.017458 ], [ 38.7796107, 9.0184813 ], [ 38.7780195, 9.0189515 ], [ 38.7776519, 9.0186828 ], [ 38.777311, 9.0184464 ], [ 38.7772229, 9.0183928 ], [ 38.7760465, 9.0188958 ], [ 38.7759723, 9.0190074 ], [ 38.7757621, 9.0195208 ], [ 38.774444, 9.0200616 ], [ 38.7736137, 9.020805 ], [ 38.7722851, 9.0209297 ], [ 38.7730777, 9.0217135 ], [ 38.7726157, 9.0232898 ], [ 38.772721, 9.023269 ], [ 38.7734231, 9.0249135 ], [ 38.7746655, 9.0258189 ], [ 38.7752482, 9.0271537 ] ] ] } },
{ "type": "Feature", "properties": { "threshold_s": 900, "time_label": "15 minutes" }, "geometry": { "type": "Polygon", "coordinates": [ [ [ 38.7727188, 9.0282905 ], [ 38.7738375, 9.030361 ], [ 38.7741301, 9.0305373 ], [ 38.7747707, 9.0302428 ], [ 38.7761426, 9.0292092 ], [ 38.7785546, 9.0285409 ], [ 38.7813864, 9.0285192 ], [ 38.7836703, 9.0293036 ], [ 38.7852752, 9.028258 ], [ 38.7845201, 9.0274837 ], [ 38.7838822, 9.0265785 ], [ 38.7838478, 9.0265422 ], [ 38.7834995, 9.0261202 ], [ 38.783076, 9.0248046 ], [ 38.7846621, 9.0234334 ], [ 38.7860295, 9.0246382 ], [ 38.7863276, 9.0246843 ], [ 38.7872123, 9.0231976 ], [ 38.7876736, 9.021887 ], [ 38.7863688, 9.0207494 ], [ 38.7855651, 9.0185913 ], [ 38.7846333, 9.0173506 ], [ 38.7828065, 9.0165446 ], [ 38.7819011, 9.0162539 ], [ 38.7795994, 9.0155365 ], [ 38.7767685, 9.0159505 ], [ 38.775128, 9.0168441 ], [ 38.7737666, 9.0173089 ], [ 38.7713192, 9.0182653 ], [ 38.7704765, 9.0188531 ], [ 38.7701968, 9.0198391 ], [ 38.7707143, 9.0204246 ], [ 38.7713214, 9.0206571 ], [ 38.7717222, 9.0232818 ], [ 38.7719931, 9.0256488 ], [ 38.7717946, 9.0280784 ], [ 38.7727188, 9.0282905 ] ] ] } }
]
}
