{
"type": "FeatureCollection",
"name": "isochrone_shop_pastry_multimodal",
"crs": { "type": "name", "properties": { "name": "urn:ogc:def:crs:OGC:1.3:CRS84" } },
"features": [
{ "type": "Feature", "properties": { "threshold_s": 300, "time_label": "5 minutes" }, "geometry": { "type": "Polygon", "coordinates": [ [ [ 38.8746351, 9.0291335 ], [ 38.87461960000001, 9.029592 ], [ 38.8758281, 9.0295949 ], [ 38.8758197, 9.0300967 ], [ 38.8758153, 9.0307601 ], [ 38.876965, 9.031774 ], [ 38.8769763, 9.0313121 ], [ 38.8785021, 9.0300891 ], [ 38.8779738, 9.0301076 ], [ 38.8776201, 9.030072 ], [ 38.8770003, 9.0291666 ], [ 38.8770002, 9.0287136 ], [ 38.8770072, 9.0282688 ], [ 38.876997, 9.0278429 ], [ 38.876996, 9.0278016 ], [ 38.8770094, 9.0273534 ], [ 38.8770119, 9.0269047 ], [ 38.8776164, 9.0260412 ], [ 38.8769821, 9.0255481 ], [ 38.8770063, 9.0260316 ], [ 38.8770126, 9.0264448 ], [ 38.8758509, 9.0268933 ], [ 38.8758455, 9.0273522 ], [ 38.8746874, 9.027762 ], [ 38.8739929, 9.0284733 ], [ 38.8746351, 9.0291335 ] ] ] } },
{ "type": "Feature", "properties": { "threshold_s": 600, "time_label": "10 minutes" }, "geometry": { "type": "Polygon", "coordinates": [ [ [ 38.8746006, 9.0322828 ], [ 38.8745945, 9.0328456 ], [ 38.8757936, 9.0340195 ], [ 38.8769484, 9.0349156 ], [ 38.877925, 9.0340255 ], [ 38.878458, 9.0335562 ], [ 38.8795035, 9.0324256 ], [ 38.8805566, 9.03152 ], [ 38.8815986, 9.0307736 ], [ 38.8819716, 9.030147 ], [ 38.8811768, 9.0291928 ], [ 38.8806386, 9.0285125 ], [ 38.8795715, 9.0273383 ], [ 38.8785297, 9.0262179 ], [ 38.879586, 9.0250697 ], [ 38.879592, 9.0249598 ], [ 38.8781517, 9.0239011 ], [ 38.8764304, 9.023792 ], [ 38.8760856, 9.0233127 ], [ 38.8750565, 9.0233114 ], [ 38.8750685, 9.0237032 ], [ 38.8750646, 9.0237706 ], [ 38.8750615, 9.0240843 ], [ 38.8750561, 9.0243297 ], [ 38.8733519, 9.0250334 ], [ 38.8740531, 9.025514 ], [ 38.8735101, 9.0271462 ], [ 38.8727899, 9.0273422 ], [ 38.8725441, 9.0273659 ], [ 38.8717479, 9.0271382 ], [ 38.8728559, 9.0284044 ], [ 38.871983899999989, 9.0295753 ], [ 38.8725337, 9.0295832 ], [ 38.8729201, 9.0294594 ], [ 38.8745996, 9.0300826 ], [ 38.8745982, 9.0307306 ], [ 38.874594, 9.0312755 ], [ 38.8745846, 9.0317379 ], [ 38.8746006, 9.0322828 ] ] ] } },
{ "type": "Feature", "properties": { "threshold_s": 900, "time_label": "15 minutes" }, "geometry": { "type": "Polygon", "coordinates": [ [ [ 38.8745851, 9.0340029 ], [ 38.8737038, 9.0355245 ], [ 38.874539, 9.0360076 ], [ 38.8755414, 9.0371322 ], [ 38.8766073, 9.0364984 ], [ 38.8774529, 9.0376217 ], [ 38.8774276, 9.0379942 ], [ 38.8778056, 9.037232 ], [ 38.8789271, 9.0365552 ], [ 38.8793805, 9.0361003 ], [ 38.8805932, 9.0349898 ], [ 38.8811669, 9.0340296 ], [ 38.882069, 9.033697 ], [ 38.8828004, 9.0328946 ], [ 38.8831554, 9.0324387 ], [ 38.8831477, 9.0319754 ], [ 38.8831634, 9.0315339 ], [ 38.8833645, 9.0300945 ], [ 38.8850328, 9.0297938 ], [ 38.8844389, 9.028397 ], [ 38.8838633, 9.0276163 ], [ 38.8827292, 9.0273676 ], [ 38.8822445, 9.0265259 ], [ 38.8828029, 9.0253122 ], [ 38.881436, 9.0244124 ], [ 38.8808203, 9.0228123 ], [ 38.8795812, 9.0216418 ], [ 38.8793022, 9.0216134 ], [ 38.878410100000011, 9.021569 ], [ 38.8765632, 9.0215303 ], [ 38.8764947, 9.0212238 ], [ 38.8764778, 9.0205652 ], [ 38.8757868, 9.0208335 ], [ 38.8753005, 9.0211214 ], [ 38.8737938, 9.0211951 ], [ 38.872551799999989, 9.0219836 ], [ 38.872017, 9.0227837 ], [ 38.8708484, 9.0236676 ], [ 38.8707725, 9.0237753 ], [ 38.8701761, 9.0254044 ], [ 38.8694559, 9.0259726 ], [ 38.8684342, 9.0269428 ], [ 38.8688798, 9.0286458 ], [ 38.8699132, 9.0304839 ], [ 38.8705033, 9.029909 ], [ 38.871983899999989, 9.0295753 ], [ 38.8725337, 9.0295832 ], [ 38.8729201, 9.0294594 ], [ 38.8745996, 9.0300826 ], [ 38.8745982, 9.0307306 ], [ 38.874594, 9.0312755 ], [ 38.8745846, 9.0317379 ], [ 38.8746006, 9.0322828 ], [ 38.8745945, 9.0328456 ], [ 38.8745877, 9.0334639 ], [ 38.8745851, 9.0340029 ] ] ] } },
{ "type": "Feature", "properties": { "threshold_s": 300, "time_label": "5 minutes" }, "geometry": { "type": "Polygon", "coordinates": [ [ [ 38.8134627, 9.0213571 ], [ 38.8130429, 9.0212578 ], [ 38.8133974, 9.0214247 ], [ 38.8136935, 9.0215161 ], [ 38.8142719, 9.021704 ], [ 38.8143108, 9.0220924 ], [ 38.8147871, 9.0225069 ], [ 38.8148975, 9.0223145 ], [ 38.81506, 9.0219887 ], [ 38.8156474, 9.0222936 ], [ 38.8151143, 9.0219123 ], [ 38.8146516, 9.0217388 ], [ 38.8151325, 9.0204597 ], [ 38.813926, 9.0209635 ], [ 38.8136597, 9.0207658 ], [ 38.8134627, 9.0213571 ] ] ] } },
{ "type": "Feature", "properties": { "threshold_s": 600, "time_label": "10 minutes" }, "geometry": { "type": "Polygon", "coordinates": [ [ [ 38.8126059, 9.0242704 ], [ 38.8130036, 9.0250592 ], [ 38.8138323, 9.0248574 ], [ 38.8143808, 9.0258468 ], [ 38.8151405, 9.0255481 ], [ 38.8163343, 9.0250546 ], [ 38.8168929, 9.0242509 ], [ 38.8182977, 9.0240359 ], [ 38.8191783, 9.0239736 ], [ 38.8192466, 9.0238812 ], [ 38.8186367, 9.0229963 ], [ 38.8183831, 9.0224476 ], [ 38.8177469, 9.0224574 ], [ 38.8167652, 9.0230157 ], [ 38.8156474, 9.0222936 ], [ 38.8151143, 9.0219123 ], [ 38.8162526, 9.0205635 ], [ 38.8167639, 9.0208415 ], [ 38.8177121, 9.0200309 ], [ 38.8169497, 9.0197374 ], [ 38.8166821, 9.0200545 ], [ 38.8151325, 9.0204597 ], [ 38.8141871, 9.0196762 ], [ 38.8141689, 9.019207 ], [ 38.8133688, 9.0197109 ], [ 38.8121935, 9.0194857 ], [ 38.811054, 9.0201534 ], [ 38.8110726, 9.0213249 ], [ 38.8101048, 9.021435 ], [ 38.8095743, 9.0211978 ], [ 38.8103332, 9.0222355 ], [ 38.8116829, 9.0221071 ], [ 38.8119006, 9.0226128 ], [ 38.8119681, 9.0221034 ], [ 38.8130429, 9.0212578 ], [ 38.8133974, 9.0214247 ], [ 38.8140629, 9.0222336 ], [ 38.8135538, 9.0232472 ], [ 38.8132795, 9.0233933 ], [ 38.8126059, 9.0242704 ] ] ] } },
{ "type": "Feature", "properties": { "threshold_s": 900, "time_label": "15 minutes" }, "geometry": { "type": "Polygon", "coordinates": [ [ [ 38.8074333, 9.0229306 ], [ 38.8084495, 9.0242274 ], [ 38.8105009, 9.0258601 ], [ 38.811411, 9.025818 ], [ 38.8123349, 9.0259918 ], [ 38.8143496, 9.0279621 ], [ 38.8145866, 9.0285717 ], [ 38.8149153, 9.0281424 ], [ 38.816761, 9.0265301 ], [ 38.8173676, 9.0265292 ], [ 38.8191069, 9.0273668 ], [ 38.8191392, 9.0273882 ], [ 38.8195984, 9.0273403 ], [ 38.8201207, 9.0263461 ], [ 38.8219882, 9.0245452 ], [ 38.8225077, 9.0247005 ], [ 38.8220186, 9.023904 ], [ 38.821077099999989, 9.0225039 ], [ 38.8214779, 9.0198759 ], [ 38.821491, 9.0194624 ], [ 38.821483, 9.0189667 ], [ 38.8204923, 9.0190843 ], [ 38.8198926, 9.0192105 ], [ 38.817409, 9.0183752 ], [ 38.8171611, 9.0191599 ], [ 38.8166821, 9.0200545 ], [ 38.8141689, 9.019207 ], [ 38.8121384, 9.0175858 ], [ 38.8107566, 9.0174231 ], [ 38.8103827, 9.0179892 ], [ 38.8094372, 9.0193462 ], [ 38.8078818, 9.0205801 ], [ 38.8064869, 9.0210836 ], [ 38.8064724, 9.0211697 ], [ 38.8074333, 9.0229306 ] ] ] } },
{ "type": "Feature", "properties": { "threshold_s": 300, "time_label": "5 minutes" }, "geometry": { "type": "Polygon", "coordinates": [ [ [ 38.8348678, 9.0209395 ], [ 38.8348874, 9.0216123 ], [ 38.8359818, 9.0209015 ], [ 38.8368236, 9.0215274 ], [ 38.8375525, 9.0214989 ], [ 38.8387001, 9.0214504 ], [ 38.8392593, 9.0214433 ], [ 38.839267, 9.0209447 ], [ 38.8408486, 9.021363 ], [ 38.8398413, 9.020336 ], [ 38.8392953, 9.0198684 ], [ 38.8382151, 9.0191495 ], [ 38.8372615, 9.0185124 ], [ 38.8372936, 9.0187794 ], [ 38.8363666, 9.0197399 ], [ 38.8359588, 9.0197611 ], [ 38.8353704, 9.0205201 ], [ 38.8348678, 9.0209395 ] ] ] } },
{ "type": "Feature", "properties": { "threshold_s": 600, "time_label": "10 minutes" }, "geometry": { "type": "Polygon", "coordinates": [ [ [ 38.8315603, 9.0210402 ], [ 38.83203240000001, 9.021741 ], [ 38.8335088, 9.021666 ], [ 38.8339238, 9.0216463 ], [ 38.8348874, 9.0216123 ], [ 38.8368236, 9.0215274 ], [ 38.8375525, 9.0214989 ], [ 38.839912, 9.0219177 ], [ 38.8414063, 9.0230654 ], [ 38.8426556, 9.0223882 ], [ 38.8434076, 9.0218799 ], [ 38.8439448, 9.0214513 ], [ 38.843856, 9.0212365 ], [ 38.842265, 9.0194214 ], [ 38.8415667, 9.018703 ], [ 38.8396774, 9.0168167 ], [ 38.83879, 9.0159833 ], [ 38.8387312, 9.0159937 ], [ 38.8362554, 9.0171932 ], [ 38.8357315, 9.0164937 ], [ 38.8353788, 9.0168573 ], [ 38.8350449, 9.0172041 ], [ 38.8343885, 9.0179297 ], [ 38.8329719, 9.0194067 ], [ 38.8315603, 9.0210402 ] ] ] } },
{ "type": "Feature", "properties": { "threshold_s": 900, "time_label": "15 minutes" }, "geometry": { "type": "Polygon", "coordinates": [ [ [ 38.828601, 9.0198933 ], [ 38.82778, 9.0204984 ], [ 38.8287024, 9.0208684 ], [ 38.83203240000001, 9.021741 ], [ 38.8335088, 9.021666 ], [ 38.8339238, 9.0216463 ], [ 38.8348874, 9.0216123 ], [ 38.8368236, 9.0215274 ], [ 38.839049, 9.0239634 ], [ 38.8391805, 9.0248429 ], [ 38.8399681, 9.0260265 ], [ 38.8410533, 9.0263478 ], [ 38.843967, 9.0247653 ], [ 38.8451309, 9.0243045 ], [ 38.8457262, 9.023831 ], [ 38.846241, 9.0233995 ], [ 38.8475516, 9.0210203 ], [ 38.8449974, 9.0186613 ], [ 38.844224, 9.0177353 ], [ 38.8427442, 9.0165877 ], [ 38.8409554, 9.0148765 ], [ 38.838889, 9.0135176 ], [ 38.8379266, 9.0135641 ], [ 38.837314, 9.0136039 ], [ 38.8372292, 9.0136215 ], [ 38.8341153, 9.0143829 ], [ 38.8322084, 9.0165913 ], [ 38.8319253, 9.0173013 ], [ 38.831572199999989, 9.0179345 ], [ 38.828601, 9.0198933 ] ] ] } },
{ "type": "Feature", "properties": { "threshold_s": 300, "time_label": "5 minutes" }, "geometry": { "type": "Polygon", "coordinates": [ [ [ 38.7193139, 8.9499458 ], [ 38.7194398, 8.9500952 ], [ 38.7202785, 8.9504337 ], [ 38.7208734, 8.9505535 ], [ 38.7217604, 8.9504769 ], [ 38.7225452, 8.9499854 ], [ 38.724000599999989, 8.9502911 ], [ 38.7239636, 8.9499045 ], [ 38.7239063, 8.9490538 ], [ 38.7246257, 8.9489119 ], [ 38.7245224, 8.948293 ], [ 38.724488, 8.9479138 ], [ 38.7235512, 8.947985 ], [ 38.7235223, 8.9475782 ], [ 38.7235045, 8.947238 ], [ 38.7233447, 8.9469378 ], [ 38.7224928, 8.9465191 ], [ 38.7225066, 8.9470093 ], [ 38.7216909, 8.9471178 ], [ 38.7213351, 8.9466677 ], [ 38.7210992, 8.9463756 ], [ 38.720565, 8.9463484 ], [ 38.7204429, 8.9469808 ], [ 38.7203915, 8.9479292 ], [ 38.7198163, 8.9479187 ], [ 38.7198791, 8.9479981 ], [ 38.7200108, 8.9481692 ], [ 38.7202343, 8.9484637 ], [ 38.720328, 8.9485884 ], [ 38.7204387, 8.9493771 ], [ 38.7202137, 8.9495754 ], [ 38.7193139, 8.9499458 ] ] ] } },
{ "type": "Feature", "properties": { "threshold_s": 600, "time_label": "10 minutes" }, "geometry": { "type": "Polygon", "coordinates": [ [ [ 38.716772, 8.9506312 ], [ 38.7164359, 8.9522134 ], [ 38.7175932, 8.9521482 ], [ 38.718907, 8.9520314 ], [ 38.7195469, 8.9528554 ], [ 38.7202218, 8.953008 ], [ 38.7218002, 8.9533475 ], [ 38.7232722, 8.9528105 ], [ 38.7248746, 8.9532825 ], [ 38.7256403, 8.9522273 ], [ 38.7265196, 8.9509018 ], [ 38.7258445, 8.9501351 ], [ 38.7264084, 8.949004 ], [ 38.726556, 8.9489061 ], [ 38.7268296, 8.9487631 ], [ 38.7280274, 8.9486778 ], [ 38.7285335, 8.9487268 ], [ 38.7287682, 8.9486224 ], [ 38.7279814, 8.9479089 ], [ 38.7266615, 8.9476138 ], [ 38.7261636, 8.9469224 ], [ 38.7258076, 8.9457889 ], [ 38.7253649, 8.9451573 ], [ 38.7252582, 8.945024 ], [ 38.7243162, 8.9445506 ], [ 38.7233013, 8.9441731 ], [ 38.7224146, 8.9441322 ], [ 38.7211776, 8.9440089 ], [ 38.7200412, 8.9438544 ], [ 38.7190995, 8.9445798 ], [ 38.7187848, 8.9448291 ], [ 38.7184805, 8.9450718 ], [ 38.7181738, 8.9453953 ], [ 38.7176467, 8.9462596 ], [ 38.7170885, 8.9474695 ], [ 38.7168825, 8.9488362 ], [ 38.716772, 8.9506312 ] ] ] } },
{ "type": "Feature", "properties": { "threshold_s": 900, "time_label": "15 minutes" }, "geometry": { "type": "Polygon", "coordinates": [ [ [ 38.7142994, 8.9526966 ], [ 38.7146281, 8.9543658 ], [ 38.7161207, 8.9537604 ], [ 38.7177689, 8.9541565 ], [ 38.7198537, 8.9546209 ], [ 38.7212727, 8.9543369 ], [ 38.7233466, 8.954489 ], [ 38.7249555, 8.9541127 ], [ 38.7259094, 8.9535975 ], [ 38.727503, 8.9529559 ], [ 38.7285055, 8.9524321 ], [ 38.7300556, 8.9508681 ], [ 38.7307463, 8.9498035 ], [ 38.7318733, 8.9484838 ], [ 38.7308692, 8.9474182 ], [ 38.7298992, 8.9464768 ], [ 38.7287719, 8.9457979 ], [ 38.728182, 8.9450135 ], [ 38.7277224, 8.9443807 ], [ 38.7274624, 8.9427144 ], [ 38.7264715, 8.9426197 ], [ 38.7245481, 8.9418507 ], [ 38.7234686, 8.9415294 ], [ 38.7216557, 8.9412921 ], [ 38.7206742, 8.9426557 ], [ 38.7193211, 8.9427911 ], [ 38.7178098, 8.9440724 ], [ 38.7169259, 8.9451545 ], [ 38.7157618, 8.9461813 ], [ 38.715178, 8.9474874 ], [ 38.7147032, 8.9481447 ], [ 38.714547, 8.9485382 ], [ 38.7145074, 8.9501105 ], [ 38.7144603, 8.9515343 ], [ 38.7142994, 8.9526966 ] ] ] } },
{ "type": "Feature", "properties": { "threshold_s": 300, "time_label": "5 minutes" }, "geometry": { "type": "Polygon", "coordinates": [ [ [ 38.6814599, 9.0048582 ], [ 38.6822216, 9.0057205 ], [ 38.6829954, 9.0062285 ], [ 38.6833911, 9.0067391 ], [ 38.6843915, 9.007506 ], [ 38.6850711, 9.0066388 ], [ 38.6856361, 9.006104 ], [ 38.6861832, 9.0054927 ], [ 38.6868726, 9.0045973 ], [ 38.6874965, 9.0041191 ], [ 38.6874928, 9.0040583 ], [ 38.6871268, 9.0037398 ], [ 38.6868229, 9.0037548 ], [ 38.6860303, 9.0028237 ], [ 38.6860236, 9.0027747 ], [ 38.6850981, 9.0023889 ], [ 38.6840898, 9.0024514 ], [ 38.6827111, 9.0024887 ], [ 38.681885, 9.0032965 ], [ 38.6815209, 9.0040556 ], [ 38.6810427, 9.0044503 ], [ 38.6810433, 9.0044976 ], [ 38.6814599, 9.0048582 ] ] ] } },
{ "type": "Feature", "properties": { "threshold_s": 600, "time_label": "10 minutes" }, "geometry": { "type": "Polygon", "coordinates": [ [ [ 38.6808819, 9.007759 ], [ 38.6815864, 9.0090066 ], [ 38.6824678, 9.0098588 ], [ 38.6830021, 9.0093246 ], [ 38.6832476, 9.0090637 ], [ 38.683719, 9.0086142 ], [ 38.6843432, 9.008171 ], [ 38.6855712, 9.0076249 ], [ 38.6866924, 9.0074711 ], [ 38.6874921, 9.0079472 ], [ 38.6875373, 9.0079658 ], [ 38.6882508, 9.0069304 ], [ 38.6888273, 9.0067511 ], [ 38.6893778, 9.0064053 ], [ 38.6902267, 9.0052807 ], [ 38.6909008, 9.0039243 ], [ 38.6897627, 9.0028833 ], [ 38.6890291, 9.0022938 ], [ 38.6884612, 9.0016995 ], [ 38.6880099, 9.0014631 ], [ 38.6877623, 9.0015978 ], [ 38.6873203, 9.0020958 ], [ 38.6859753, 9.0016023 ], [ 38.68448, 9.0011189 ], [ 38.6840898, 9.0024514 ], [ 38.6832218, 9.0024845 ], [ 38.6827111, 9.0024887 ], [ 38.681811, 9.0025343 ], [ 38.6805597, 9.0028378 ], [ 38.679567, 9.0021291 ], [ 38.6794898, 9.002021 ], [ 38.678433, 9.0027965 ], [ 38.6792685, 9.0037939 ], [ 38.6794, 9.0039535 ], [ 38.6785212, 9.0052556 ], [ 38.679475, 9.0063252 ], [ 38.6804688, 9.0074226 ], [ 38.6808819, 9.007759 ] ] ] } },
{ "type": "Feature", "properties": { "threshold_s": 900, "time_label": "15 minutes" }, "geometry": { "type": "Polygon", "coordinates": [ [ [ 38.6788072, 9.0104002 ], [ 38.6788367, 9.0107684 ], [ 38.6796163, 9.0112534 ], [ 38.6800851, 9.0119121 ], [ 38.6810731, 9.0112918 ], [ 38.681331, 9.011034 ], [ 38.6819616, 9.0104092 ], [ 38.6832798, 9.0113804 ], [ 38.6852123, 9.0110916 ], [ 38.6830021, 9.0093246 ], [ 38.6832476, 9.0090637 ], [ 38.683719, 9.0086142 ], [ 38.6840039, 9.008359 ], [ 38.6843432, 9.008171 ], [ 38.6855712, 9.0076249 ], [ 38.6866924, 9.0074711 ], [ 38.6875907, 9.008682 ], [ 38.6878939, 9.0095187 ], [ 38.6883806, 9.0099695 ], [ 38.6892277, 9.0097295 ], [ 38.689518, 9.0092792 ], [ 38.6908087, 9.0086809 ], [ 38.691642, 9.0086237 ], [ 38.6916881, 9.008557 ], [ 38.6916751, 9.0084081 ], [ 38.6910903, 9.0081737 ], [ 38.690984, 9.0067819 ], [ 38.6920513, 9.0064306 ], [ 38.6926313, 9.0068093 ], [ 38.6929344, 9.007012 ], [ 38.6932427, 9.0071935 ], [ 38.6929813, 9.0062695 ], [ 38.6933083, 9.0048556 ], [ 38.6940917, 9.0039813 ], [ 38.6939826, 9.0034168 ], [ 38.6926125, 9.0025058 ], [ 38.6920796, 9.0018311 ], [ 38.6918219, 9.0015735 ], [ 38.6908137, 9.0006756 ], [ 38.6903593, 9.0000015 ], [ 38.6903975, 9.0001214 ], [ 38.6902069, 9.0012325 ], [ 38.6888359, 9.00105 ], [ 38.6884551, 9.0011586 ], [ 38.6868927, 9.0007255 ], [ 38.6869897, 9.0000439 ], [ 38.6865432, 8.9995398 ], [ 38.6862586, 8.9991645 ], [ 38.6859782, 8.9987605 ], [ 38.6847018, 8.9986507 ], [ 38.6842421, 8.9992568 ], [ 38.6828085, 8.9996335 ], [ 38.6813404, 8.9997504 ], [ 38.6805967, 8.9998448 ], [ 38.6791743, 8.9995971 ], [ 38.6776951, 9.0001183 ], [ 38.6767809, 9.0001016 ], [ 38.6763154, 9.0008142 ], [ 38.6759949, 9.0014871 ], [ 38.675992, 9.0029731 ], [ 38.6773104, 9.0035716 ], [ 38.6769319, 9.0043748 ], [ 38.6775304, 9.0034661 ], [ 38.679062, 9.0031204 ], [ 38.6792685, 9.0037939 ], [ 38.6785212, 9.0052556 ], [ 38.6779603, 9.0059583 ], [ 38.6771041, 9.0062263 ], [ 38.6768565, 9.0062612 ], [ 38.6761504, 9.0065197 ], [ 38.6763978, 9.0066158 ], [ 38.6769037, 9.0067779 ], [ 38.6775573, 9.0080862 ], [ 38.6779354, 9.0083988 ], [ 38.6787819, 9.0097957 ], [ 38.6788072, 9.0104002 ] ] ] } },
{ "type": "Feature", "properties": { "threshold_s": 300, "time_label": "5 minutes" }, "geometry": { "type": "Polygon", "coordinates": [ [ [ 38.7460263, 9.0241043 ], [ 38.7464572, 9.0246276 ], [ 38.7466154, 9.0246799 ], [ 38.7465749, 9.0241065 ], [ 38.7470167, 9.0237922 ], [ 38.7472, 9.0237412 ], [ 38.7472519, 9.0235341 ], [ 38.748433, 9.0240763 ], [ 38.7488745, 9.0229183 ], [ 38.7487907, 9.0227806 ], [ 38.7471967, 9.022532 ], [ 38.7477265, 9.0217389 ], [ 38.7482576, 9.0219958 ], [ 38.74878, 9.0217971 ], [ 38.7494485, 9.0212461 ], [ 38.7494549, 9.0211793 ], [ 38.7494568, 9.0211261 ], [ 38.7494566, 9.0210514 ], [ 38.7485439, 9.0209991 ], [ 38.7478737, 9.0209883 ], [ 38.7475793, 9.0207992 ], [ 38.7475502, 9.0209719 ], [ 38.7475765, 9.0210798 ], [ 38.747628, 9.0216931 ], [ 38.74713830000001, 9.0224901 ], [ 38.7466739, 9.0231346 ], [ 38.7462137, 9.0235673 ], [ 38.7460263, 9.0241043 ] ] ] } },
{ "type": "Feature", "properties": { "threshold_s": 600, "time_label": "10 minutes" }, "geometry": { "type": "Polygon", "coordinates": [ [ [ 38.7446363, 9.0266686 ], [ 38.7441766, 9.0275157 ], [ 38.7442397, 9.0275461 ], [ 38.7459522, 9.0274025 ], [ 38.7471391, 9.0276918 ], [ 38.748782, 9.0262905 ], [ 38.7503238, 9.0244243 ], [ 38.7507988, 9.0236751 ], [ 38.7520594, 9.0220584 ], [ 38.752741, 9.02144 ], [ 38.7520019, 9.0203444 ], [ 38.7505777, 9.0189647 ], [ 38.7487809, 9.0188427 ], [ 38.7466047, 9.0184173 ], [ 38.7464378, 9.0176211 ], [ 38.7466061, 9.0167028 ], [ 38.746608, 9.0166891 ], [ 38.7461521, 9.0165541 ], [ 38.745913, 9.0165389 ], [ 38.7459234, 9.0166488 ], [ 38.7459275, 9.0166906 ], [ 38.7445428, 9.0193766 ], [ 38.744642, 9.0193753 ], [ 38.7466125, 9.018984 ], [ 38.7475793, 9.0207992 ], [ 38.7475502, 9.0209719 ], [ 38.74713830000001, 9.0224901 ], [ 38.7466739, 9.0231346 ], [ 38.7462137, 9.0235673 ], [ 38.7460263, 9.0241043 ], [ 38.745275, 9.0256588 ], [ 38.7449778, 9.0260597 ], [ 38.7446363, 9.0266686 ] ] ] } },
{ "type": "Feature", "properties": { "threshold_s": 900, "time_label": "15 minutes" }, "geometry": { "type": "Polygon", "coordinates": [ [ [ 38.7414596, 9.0288964 ], [ 38.7412699, 9.0295461 ], [ 38.7418619, 9.0299892 ], [ 38.7419312, 9.0300338 ], [ 38.7427752, 9.0293362 ], [ 38.744473, 9.0293587 ], [ 38.745241, 9.0302293 ], [ 38.7452999, 9.0301931 ], [ 38.746431, 9.0288773 ], [ 38.7471532, 9.0287196 ], [ 38.7484588, 9.0288283 ], [ 38.7489523, 9.0289841 ], [ 38.7496045, 9.028671 ], [ 38.750805, 9.0274554 ], [ 38.751757499999989, 9.0253567 ], [ 38.7523074, 9.025126 ], [ 38.752218, 9.0240002 ], [ 38.7522691, 9.0233545 ], [ 38.7536067, 9.0215262 ], [ 38.754346, 9.0216889 ], [ 38.7546091, 9.0217117 ], [ 38.7555976, 9.0217609 ], [ 38.7556484, 9.021117 ], [ 38.7540567, 9.0198052 ], [ 38.7537369, 9.0181425 ], [ 38.7520667, 9.0165742 ], [ 38.7503028, 9.0158043 ], [ 38.7486963, 9.0152019 ], [ 38.7472262, 9.0143697 ], [ 38.7465169, 9.0139897 ], [ 38.7450376, 9.0132941 ], [ 38.74465, 9.0141566 ], [ 38.7445575, 9.0147705 ], [ 38.7433552, 9.0162217 ], [ 38.7427584, 9.0162719 ], [ 38.7427155, 9.0163732 ], [ 38.7427906, 9.0182415 ], [ 38.7424342, 9.0191552 ], [ 38.742181, 9.0197035 ], [ 38.742114, 9.0213713 ], [ 38.7427872, 9.0221872 ], [ 38.7439453, 9.0231991 ], [ 38.7440472, 9.0232515 ], [ 38.7460263, 9.0241043 ], [ 38.745275, 9.0256588 ], [ 38.7449778, 9.0260597 ], [ 38.7446363, 9.0266686 ], [ 38.7427112, 9.0274712 ], [ 38.7422454, 9.0269872 ], [ 38.7415548, 9.0262879 ], [ 38.7418089, 9.0274527 ], [ 38.7414596, 9.0288964 ] ] ] } },
{ "type": "Feature", "properties": { "threshold_s": 300, "time_label": "5 minutes" }, "geometry": { "type": "Polygon", "coordinates": [ [ [ 38.7179755, 9.0629483 ], [ 38.7178494, 9.0640633 ], [ 38.7189063, 9.0637102 ], [ 38.718756, 9.0632522 ], [ 38.7190834, 9.0625462 ], [ 38.7198748, 9.0623225 ], [ 38.7201776, 9.063156 ], [ 38.7202186, 9.0632794 ], [ 38.7206962, 9.0629582 ], [ 38.7208433, 9.0651421 ], [ 38.7205002, 9.065913 ], [ 38.7211518, 9.0660766 ], [ 38.7210405, 9.0657376 ], [ 38.7209883, 9.0655758 ], [ 38.7222854, 9.0640636 ], [ 38.7212152, 9.0627863 ], [ 38.7217762, 9.0625895 ], [ 38.7222944, 9.0623953 ], [ 38.7227971, 9.0622444 ], [ 38.7231835, 9.0622209 ], [ 38.7219384, 9.061539 ], [ 38.720741, 9.0612815 ], [ 38.7204858, 9.0613356 ], [ 38.7201613, 9.0614549 ], [ 38.7195573, 9.0613802 ], [ 38.719293, 9.060405 ], [ 38.7190113, 9.0614463 ], [ 38.7185482, 9.0614857 ], [ 38.7185513, 9.062359 ], [ 38.7179849, 9.062646 ], [ 38.7179755, 9.0629483 ] ] ] } },
{ "type": "Feature", "properties": { "threshold_s": 600, "time_label": "10 minutes" }, "geometry": { "type": "Polygon", "coordinates": [ [ [ 38.7154944, 9.0661054 ], [ 38.7157479, 9.0667755 ], [ 38.7177467, 9.0672627 ], [ 38.7179131, 9.0673145 ], [ 38.7184889, 9.067525 ], [ 38.7188479, 9.0676554 ], [ 38.718996, 9.0677059 ], [ 38.7192194, 9.0677897 ], [ 38.7211341, 9.0693755 ], [ 38.7213764, 9.0694621 ], [ 38.7215298, 9.0693004 ], [ 38.7217388, 9.0682257 ], [ 38.7236433, 9.0667966 ], [ 38.7239207, 9.0662725 ], [ 38.7247849, 9.0643769 ], [ 38.7243964, 9.0633485 ], [ 38.7253625, 9.0615434 ], [ 38.7244942, 9.0597834 ], [ 38.7243579, 9.0596315 ], [ 38.722404, 9.0586845 ], [ 38.7221458, 9.0586179 ], [ 38.7206783, 9.058177 ], [ 38.7192059, 9.0569699 ], [ 38.7177971, 9.0580943 ], [ 38.7176294, 9.0593392 ], [ 38.7175503, 9.0612463 ], [ 38.7172703, 9.0624235 ], [ 38.717228, 9.0626398 ], [ 38.7172392, 9.0631189 ], [ 38.7161169, 9.0649894 ], [ 38.7159044, 9.0653812 ], [ 38.7154944, 9.0661054 ] ] ] } },
{ "type": "Feature", "properties": { "threshold_s": 900, "time_label": "15 minutes" }, "geometry": { "type": "Polygon", "coordinates": [ [ [ 38.7157479, 9.0667755 ], [ 38.716975, 9.0684375 ], [ 38.7172258, 9.0686296 ], [ 38.7175758, 9.0688659 ], [ 38.717952, 9.0690613 ], [ 38.7197901, 9.0703112 ], [ 38.7215999, 9.0727251 ], [ 38.7215124, 9.0716122 ], [ 38.7217079, 9.0706514 ], [ 38.7233214, 9.0693875 ], [ 38.7248123, 9.0674636 ], [ 38.7253127, 9.0670643 ], [ 38.7256729, 9.0667716 ], [ 38.7259472, 9.0665559 ], [ 38.726472, 9.0661305 ], [ 38.7273741, 9.0653952 ], [ 38.7274165, 9.0648581 ], [ 38.7274235, 9.0640076 ], [ 38.7283916, 9.0619307 ], [ 38.7279057, 9.0606005 ], [ 38.7278622, 9.0588561 ], [ 38.7273879, 9.0582935 ], [ 38.7258937, 9.0573798 ], [ 38.7237909, 9.0560565 ], [ 38.7228872, 9.0559206 ], [ 38.7212818, 9.0557318 ], [ 38.7199992, 9.0542787 ], [ 38.7195439, 9.0541978 ], [ 38.717808, 9.0563214 ], [ 38.7171333, 9.0558216 ], [ 38.7163179, 9.0556455 ], [ 38.7162639, 9.0557243 ], [ 38.7172968, 9.0576841 ], [ 38.7176294, 9.0593392 ], [ 38.7175503, 9.0612463 ], [ 38.7172703, 9.0624235 ], [ 38.7149406, 9.0636434 ], [ 38.7154944, 9.0661054 ], [ 38.7157479, 9.0667755 ] ] ] } },
{ "type": "Feature", "properties": { "threshold_s": 300, "time_label": "5 minutes" }, "geometry": { "type": "Polygon", "coordinates": [ [ [ 38.7137614, 8.9571961 ], [ 38.7131641, 8.958331 ], [ 38.7141168, 8.9576912 ], [ 38.7145335, 8.9583044 ], [ 38.7154394, 8.9576853 ], [ 38.7150154, 8.9570799 ], [ 38.7159333, 8.9564812 ], [ 38.7152314, 8.9554302 ], [ 38.714923, 8.9554041 ], [ 38.7143612, 8.9553566 ], [ 38.714075, 8.9548655 ], [ 38.7139443, 8.9548284 ], [ 38.7137833, 8.9553078 ], [ 38.7132906, 8.9559684 ], [ 38.7128683, 8.9566946 ], [ 38.712302, 8.9569045 ], [ 38.7126868, 8.9569961 ], [ 38.7128143, 8.9569829 ], [ 38.7129569, 8.9567343 ], [ 38.7133864, 8.9560024 ], [ 38.7139621, 8.9561262 ], [ 38.7137614, 8.9571961 ] ] ] } },
{ "type": "Feature", "properties": { "threshold_s": 600, "time_label": "10 minutes" }, "geometry": { "type": "Polygon", "coordinates": [ [ [ 38.7098852, 8.9591364 ], [ 38.7103525, 8.9597938 ], [ 38.7116251, 8.9603827 ], [ 38.7117078, 8.9604128 ], [ 38.7120137, 8.960298 ], [ 38.7139017, 8.9610745 ], [ 38.7150516, 8.9611706 ], [ 38.7168691, 8.9605385 ], [ 38.717893, 8.9590309 ], [ 38.7181512, 8.9583556 ], [ 38.718214, 8.9578401 ], [ 38.7181476, 8.9559264 ], [ 38.7180653, 8.9552998 ], [ 38.7166151, 8.9555162 ], [ 38.7155025, 8.9548746 ], [ 38.7151109, 8.9538214 ], [ 38.7167485, 8.9526048 ], [ 38.7165219, 8.9523081 ], [ 38.7164359, 8.9522134 ], [ 38.7152369, 8.9517939 ], [ 38.7148842, 8.9520775 ], [ 38.7142994, 8.9526966 ], [ 38.714506, 8.9529219 ], [ 38.7139443, 8.9548284 ], [ 38.7127281, 8.9547367 ], [ 38.7120212, 8.9546961 ], [ 38.7112694, 8.9546488 ], [ 38.7093868, 8.9554634 ], [ 38.7092999, 8.9567875 ], [ 38.7090676, 8.9579017 ], [ 38.7098852, 8.9591364 ] ] ] } },
{ "type": "Feature", "properties": { "threshold_s": 900, "time_label": "15 minutes" }, "geometry": { "type": "Polygon", "coordinates": [ [ [ 38.7114208, 8.963849 ], [ 38.7114121, 8.9645081 ], [ 38.7120306, 8.9638736 ], [ 38.7136356, 8.9631317 ], [ 38.7143151, 8.9626967 ], [ 38.7161542, 8.9625726 ], [ 38.7174451, 8.9623531 ], [ 38.719092, 8.9615537 ], [ 38.7193582, 8.9614162 ], [ 38.7195989, 8.9608922 ], [ 38.7204976, 8.9588953 ], [ 38.7206795, 8.9585989 ], [ 38.7207274, 8.9582417 ], [ 38.7209098, 8.9564643 ], [ 38.7216447, 8.9555647 ], [ 38.7206413, 8.9540548 ], [ 38.7195469, 8.9528554 ], [ 38.7183944, 8.9507422 ], [ 38.7194398, 8.9500952 ], [ 38.7193642, 8.9500049 ], [ 38.7193139, 8.9499458 ], [ 38.7186016, 8.9497413 ], [ 38.718015, 8.9496304 ], [ 38.7166525, 8.9498574 ], [ 38.7153634, 8.9494634 ], [ 38.7143315, 8.9492402 ], [ 38.7138288, 8.9492417 ], [ 38.71177, 8.9492929 ], [ 38.7115609, 8.9511337 ], [ 38.7122503, 8.9525536 ], [ 38.7112694, 8.9546488 ], [ 38.7093868, 8.9554634 ], [ 38.70881760000001, 8.9545068 ], [ 38.7079386, 8.9550552 ], [ 38.7068067, 8.9555528 ], [ 38.7067599, 8.9572374 ], [ 38.7066028, 8.9589294 ], [ 38.7066794, 8.9589522 ], [ 38.706807, 8.9589847 ], [ 38.7082998, 8.9591877 ], [ 38.7088192, 8.9610706 ], [ 38.7105954, 8.9614016 ], [ 38.7114597, 8.962623 ], [ 38.7114208, 8.963849 ] ] ] } },
{ "type": "Feature", "properties": { "threshold_s": 300, "time_label": "5 minutes" }, "geometry": { "type": "Polygon", "coordinates": [ [ [ 38.8685721, 9.0670748 ], [ 38.8691649, 9.0679515 ], [ 38.8708792, 9.0668042 ], [ 38.8704053, 9.0659576 ], [ 38.870847, 9.0657957 ], [ 38.870202, 9.0655281 ], [ 38.8699803, 9.065075 ], [ 38.8703358, 9.064524 ], [ 38.8700741, 9.0638828 ], [ 38.8693879, 9.0638168 ], [ 38.8671465, 9.0644843 ], [ 38.8671613, 9.064532 ], [ 38.8675924, 9.0654789 ], [ 38.8676293, 9.0655372 ], [ 38.8679812, 9.0661419 ], [ 38.8680518, 9.0662537 ], [ 38.8691917, 9.0658458 ], [ 38.8685721, 9.0670748 ] ] ] } },
{ "type": "Feature", "properties": { "threshold_s": 600, "time_label": "10 minutes" }, "geometry": { "type": "Polygon", "coordinates": [ [ [ 38.8645595, 9.0664682 ], [ 38.8640623, 9.0671851 ], [ 38.8641772, 9.0672416 ], [ 38.8653615, 9.0674085 ], [ 38.8659299, 9.0672223 ], [ 38.8651512, 9.0664324 ], [ 38.8651037, 9.0663238 ], [ 38.8660012, 9.0652882 ], [ 38.8663727, 9.0652114 ], [ 38.8676293, 9.0655372 ], [ 38.8679812, 9.0661419 ], [ 38.8680518, 9.0662537 ], [ 38.8685721, 9.0670748 ], [ 38.8664941, 9.0686275 ], [ 38.8668743, 9.0689474 ], [ 38.8675323, 9.0694514 ], [ 38.8678667, 9.0697076 ], [ 38.8683307, 9.069305 ], [ 38.8691649, 9.0679515 ], [ 38.8695243, 9.0683753 ], [ 38.8700527, 9.0673608 ], [ 38.8708792, 9.0668042 ], [ 38.8719659, 9.0663597 ], [ 38.8718115, 9.0682905 ], [ 38.8713944, 9.068602 ], [ 38.8723791, 9.0689991 ], [ 38.873059499999989, 9.0685488 ], [ 38.8730732, 9.067261 ], [ 38.8726222, 9.0661239 ], [ 38.8724077, 9.0652843 ], [ 38.8727362, 9.0645598 ], [ 38.8736118, 9.0640332 ], [ 38.8735915, 9.063936 ], [ 38.873333, 9.0630357 ], [ 38.8730737, 9.062317 ], [ 38.8726088, 9.0627097 ], [ 38.871349, 9.0626494 ], [ 38.8711006, 9.0619951 ], [ 38.8698425, 9.0633233 ], [ 38.8694948, 9.0624223 ], [ 38.8685238, 9.0615602 ], [ 38.8689503, 9.0610024 ], [ 38.8683253, 9.0610092 ], [ 38.8673839, 9.0610092 ], [ 38.8667938, 9.0621985 ], [ 38.8679364, 9.0625058 ], [ 38.8680759, 9.0636632 ], [ 38.8671465, 9.0644843 ], [ 38.8664759, 9.064532 ], [ 38.866244, 9.0644923 ], [ 38.8654581, 9.0643254 ], [ 38.8653481, 9.0642989 ], [ 38.8645448, 9.0640658 ], [ 38.8641055, 9.0638466 ], [ 38.8645595, 9.0664682 ] ] ] } },
{ "type": "Feature", "properties": { "threshold_s": 900, "time_label": "15 minutes" }, "geometry": { "type": "Polygon", "coordinates": [ [ [ 38.8656995, 9.0709021 ], [ 38.8652556, 9.0713391 ], [ 38.8661662, 9.071125 ], [ 38.8687035, 9.0713511 ], [ 38.8691187, 9.0714858 ], [ 38.8704517, 9.0714178 ], [ 38.8729417, 9.0720707 ], [ 38.8747316, 9.0703526 ], [ 38.8753939, 9.0696336 ], [ 38.8755786, 9.0679181 ], [ 38.8762337, 9.066275 ], [ 38.8771014, 9.0654226 ], [ 38.8767548, 9.0634335 ], [ 38.8766498, 9.0631739 ], [ 38.8743908, 9.0630486 ], [ 38.8728605, 9.0613278 ], [ 38.8724887, 9.0600928 ], [ 38.8722576, 9.0591727 ], [ 38.8706964, 9.0610005 ], [ 38.8689503, 9.0610024 ], [ 38.8683253, 9.0610092 ], [ 38.8673839, 9.0610092 ], [ 38.866303, 9.0610648 ], [ 38.8661857, 9.0611458 ], [ 38.8650155, 9.0624886 ], [ 38.8634759, 9.0618383 ], [ 38.8618827, 9.0633957 ], [ 38.8617942, 9.0635851 ], [ 38.8633472, 9.0656047 ], [ 38.8627798, 9.0661636 ], [ 38.8616836, 9.0667285 ], [ 38.86142730000001, 9.0673199 ], [ 38.8622164, 9.0677126 ], [ 38.8637897, 9.0684627 ], [ 38.8658872, 9.0691937 ], [ 38.8656995, 9.0709021 ] ] ] } },
{ "type": "Feature", "properties": { "threshold_s": 300, "time_label": "5 minutes" }, "geometry": { "type": "Polygon", "coordinates": [ [ [ 38.7782481, 9.0051158 ], [ 38.7780823, 9.0053305 ], [ 38.7781773, 9.0053519 ], [ 38.778296, 9.0051979 ], [ 38.7794724, 9.0056821 ], [ 38.7796256, 9.0059179 ], [ 38.7805417, 9.0063265 ], [ 38.781114, 9.0070292 ], [ 38.7817273, 9.007227 ], [ 38.7822558, 9.006623 ], [ 38.7827072, 9.0061669 ], [ 38.7827901, 9.0058712 ], [ 38.7824454, 9.0050943 ], [ 38.7824663, 9.0048444 ], [ 38.7824927, 9.004531 ], [ 38.7836494, 9.0045185 ], [ 38.7838566, 9.0045185 ], [ 38.7831014, 9.0039907 ], [ 38.782213, 9.0034965 ], [ 38.7822103, 9.0030031 ], [ 38.7821554, 9.0025561 ], [ 38.7816243, 9.0021541 ], [ 38.7805632, 9.0019087 ], [ 38.7797689, 9.0015699 ], [ 38.7799164, 9.0025541 ], [ 38.7792411, 9.0026554 ], [ 38.7798272, 9.0026634 ], [ 38.7799647, 9.0034833 ], [ 38.779138, 9.0039362 ], [ 38.7791347, 9.0046913 ], [ 38.7782481, 9.0051158 ] ] ] } },
{ "type": "Feature", "properties": { "threshold_s": 600, "time_label": "10 minutes" }, "geometry": { "type": "Polygon", "coordinates": [ [ [ 38.7759588, 9.0070067 ], [ 38.7763593, 9.0077319 ], [ 38.7767099, 9.0071045 ], [ 38.7767849, 9.0069623 ], [ 38.7785178, 9.006465 ], [ 38.7790846, 9.007266 ], [ 38.7790943, 9.0080133 ], [ 38.7788281, 9.0086468 ], [ 38.7792599, 9.0090637 ], [ 38.7798812, 9.0096691 ], [ 38.7810637, 9.010816 ], [ 38.7817363, 9.009675 ], [ 38.7833831, 9.0092518 ], [ 38.7843461, 9.0078941 ], [ 38.7859386, 9.007004 ], [ 38.7857234, 9.0053434 ], [ 38.7869585, 9.0047681 ], [ 38.7862196, 9.0034032 ], [ 38.7852721, 9.0022342 ], [ 38.7848335, 9.0009182 ], [ 38.7839798, 8.9998376 ], [ 38.7827763, 8.9993254 ], [ 38.7819173, 8.9988803 ], [ 38.7800713, 8.9993625 ], [ 38.7793511, 8.9981399 ], [ 38.7787335, 8.9986333 ], [ 38.7794906, 8.9991652 ], [ 38.7795597, 9.0006527 ], [ 38.7797689, 9.0015699 ], [ 38.7792411, 9.0026554 ], [ 38.7787355, 9.0030202 ], [ 38.7768292, 9.0030111 ], [ 38.7759407, 9.0043032 ], [ 38.7758341, 9.0048954 ], [ 38.7759649, 9.0065026 ], [ 38.7759588, 9.0070067 ] ] ] } },
{ "type": "Feature", "properties": { "threshold_s": 900, "time_label": "15 minutes" }, "geometry": { "type": "Polygon", "coordinates": [ [ [ 38.773689, 9.0090041 ], [ 38.7746289, 9.010785 ], [ 38.774881, 9.0108722 ], [ 38.7770095, 9.0108942 ], [ 38.7782262, 9.0118166 ], [ 38.7792254, 9.0132141 ], [ 38.7793668, 9.0132882 ], [ 38.7817494, 9.0139229 ], [ 38.7825499, 9.0130512 ], [ 38.7836253, 9.0118787 ], [ 38.7857111, 9.0102443 ], [ 38.7876204, 9.009073 ], [ 38.7886856, 9.0082793 ], [ 38.7887931, 9.0078893 ], [ 38.7898343, 9.0055715 ], [ 38.7892042, 9.0040436 ], [ 38.7882698, 9.0017096 ], [ 38.7880442, 9.0011082 ], [ 38.78759, 8.9998962 ], [ 38.78693160000001, 8.9978532 ], [ 38.7869198, 8.9978256 ], [ 38.7868816, 8.9977798 ], [ 38.7865017, 8.9973294 ], [ 38.784963, 8.9974392 ], [ 38.783123, 8.9962669 ], [ 38.7822003, 8.9957636 ], [ 38.7812836, 8.9954543 ], [ 38.7790627, 8.9951092 ], [ 38.7785485, 8.9951933 ], [ 38.7781307, 8.9965431 ], [ 38.7776278, 8.9979624 ], [ 38.777362, 8.9984848 ], [ 38.7779966, 8.9994625 ], [ 38.7762056, 9.001101 ], [ 38.7753335, 9.0004719 ], [ 38.7752118, 9.0003829 ], [ 38.7757839, 9.001319 ], [ 38.7757771, 9.0033548 ], [ 38.7753379, 9.0044741 ], [ 38.77382510000001, 9.0059662 ], [ 38.7728032, 9.0057086 ], [ 38.7736581, 9.0079186 ], [ 38.773689, 9.0090041 ] ] ] } }
]
}
