{
"type": "FeatureCollection",
"name": "isochrone_shop_alcohol_multimodal",
"crs": { "type": "name", "properties": { "name": "urn:ogc:def:crs:OGC:1.3:CRS84" } },
"features": [
{ "type": "Feature", "properties": { "threshold_s": 300, "time_label": "5 minutes" }, "geometry": { "type": "Polygon", "coordinates": [ [ [ 38.7136565, 9.0306848 ], [ 38.7135253, 9.0310458 ], [ 38.7145661, 9.031372 ], [ 38.7145907, 9.0310287 ], [ 38.7146084, 9.0306771 ], [ 38.7146264, 9.0303259 ], [ 38.7138598, 9.0300175 ], [ 38.7141753, 9.0295168 ], [ 38.7143965, 9.0294098 ], [ 38.7146617, 9.0292857 ], [ 38.7147073, 9.0292698 ], [ 38.7143541, 9.0283547 ], [ 38.7147665, 9.0283196 ], [ 38.7143767, 9.0276131 ], [ 38.7145182, 9.0267568 ], [ 38.714852, 9.0268221 ], [ 38.7148898, 9.0260835 ], [ 38.7149263, 9.0253368 ], [ 38.7145231, 9.0256541 ], [ 38.7140145, 9.0263275 ], [ 38.7132615, 9.0265003 ], [ 38.7132489, 9.026924 ], [ 38.713813, 9.0269732 ], [ 38.7136193, 9.0277912 ], [ 38.7134125, 9.0283521 ], [ 38.713268, 9.0289167 ], [ 38.7126191, 9.0288362 ], [ 38.7125593, 9.02878 ], [ 38.7127304, 9.0295635 ], [ 38.7130462, 9.0292225 ], [ 38.7136186, 9.0291897 ], [ 38.7135566, 9.0297946 ], [ 38.7137263, 9.0304695 ], [ 38.7136565, 9.0306848 ] ] ] } },
{ "type": "Feature", "properties": { "threshold_s": 600, "time_label": "10 minutes" }, "geometry": { "type": "Polygon", "coordinates": [ [ [ 38.7093544, 9.0292577 ], [ 38.7095507, 9.0314809 ], [ 38.7106745, 9.0320467 ], [ 38.7115115, 9.0334577 ], [ 38.7127033, 9.0335155 ], [ 38.7143648, 9.0347807 ], [ 38.7144637, 9.0348317 ], [ 38.7155962, 9.0341892 ], [ 38.7146782, 9.0325913 ], [ 38.7145661, 9.031372 ], [ 38.7145907, 9.0310287 ], [ 38.7146084, 9.0306771 ], [ 38.7146264, 9.0303259 ], [ 38.7147073, 9.0292698 ], [ 38.7147665, 9.0283196 ], [ 38.714852, 9.0268221 ], [ 38.7160495, 9.0251233 ], [ 38.7160564, 9.0247204 ], [ 38.7152763, 9.0236018 ], [ 38.7154025, 9.0220043 ], [ 38.7141804, 9.022482 ], [ 38.7120412, 9.0235873 ], [ 38.7114282, 9.0244084 ], [ 38.7108492, 9.0261124 ], [ 38.7100589, 9.0273606 ], [ 38.7093544, 9.0292577 ] ] ] } },
{ "type": "Feature", "properties": { "threshold_s": 900, "time_label": "15 minutes" }, "geometry": { "type": "Polygon", "coordinates": [ [ [ 38.7082229, 9.033299 ], [ 38.7092562, 9.0355759 ], [ 38.7112367, 9.0371328 ], [ 38.7136608, 9.0379828 ], [ 38.7138967, 9.0380452 ], [ 38.7164375, 9.0373809 ], [ 38.7167493, 9.0356481 ], [ 38.7172763, 9.0339223 ], [ 38.7173663, 9.0334891 ], [ 38.7173975, 9.0329228 ], [ 38.7173333, 9.0326811 ], [ 38.7170359, 9.0313399 ], [ 38.7166645, 9.030632 ], [ 38.7154136, 9.0298438 ], [ 38.7157982, 9.028156 ], [ 38.7162008, 9.0279014 ], [ 38.7171154, 9.0273967 ], [ 38.7179467, 9.0266738 ], [ 38.7190476, 9.0258184 ], [ 38.7192666, 9.0255281 ], [ 38.7193422, 9.0251398 ], [ 38.7192179, 9.0248179 ], [ 38.7183583, 9.0231599 ], [ 38.718069, 9.0224181 ], [ 38.7168807, 9.0212489 ], [ 38.7164604, 9.0193427 ], [ 38.7162042, 9.0192385 ], [ 38.714144, 9.0204375 ], [ 38.7136447, 9.0204898 ], [ 38.7117542, 9.0204905 ], [ 38.7105531, 9.021182 ], [ 38.7113392, 9.0229746 ], [ 38.7114282, 9.0244084 ], [ 38.7110057, 9.0257422 ], [ 38.7092743, 9.0276958 ], [ 38.7075345, 9.0288485 ], [ 38.7073941, 9.0289409 ], [ 38.7073585, 9.0295626 ], [ 38.7080116, 9.0313403 ], [ 38.7078106, 9.0326454 ], [ 38.7082229, 9.033299 ] ] ] } },
{ "type": "Feature", "properties": { "threshold_s": 300, "time_label": "5 minutes" }, "geometry": { "type": "Polygon", "coordinates": [ [ [ 38.7858963, 9.0022532 ], [ 38.7857958, 9.0024607 ], [ 38.7858673, 9.0024836 ], [ 38.7859564, 9.0022885 ], [ 38.7865212, 9.0017309 ], [ 38.7872227, 9.002121 ], [ 38.787735, 9.001911 ], [ 38.7882698, 9.0017096 ], [ 38.7880442, 9.0011082 ], [ 38.7883566, 9.0003414 ], [ 38.7889105, 9.0000486 ], [ 38.7894879, 8.9990878 ], [ 38.7886674, 8.9994336 ], [ 38.7881863, 8.9992837 ], [ 38.7880017, 8.9984669 ], [ 38.7876106, 8.9988273 ], [ 38.7872413, 8.9989824 ], [ 38.7862813, 8.9984227 ], [ 38.7866955, 8.9981628 ], [ 38.7868335, 8.9981402 ], [ 38.7869011, 8.9980859 ], [ 38.7873295, 8.9978484 ], [ 38.7867466, 8.9977213 ], [ 38.7867212, 8.9977217 ], [ 38.7865356, 8.9978286 ], [ 38.7863321, 8.9980775 ], [ 38.785766, 8.9987532 ], [ 38.7856127, 8.9987552 ], [ 38.7852672, 8.999087 ], [ 38.785657, 8.9988254 ], [ 38.7862625, 8.9999559 ], [ 38.7856932, 9.0002523 ], [ 38.7852584, 9.0000068 ], [ 38.78526, 9.0005414 ], [ 38.7848335, 9.0009182 ], [ 38.785561, 9.0011166 ], [ 38.7856291, 9.0010559 ], [ 38.7863731, 9.000907 ], [ 38.7864858, 9.0016719 ], [ 38.7858963, 9.0022532 ] ] ] } },
{ "type": "Feature", "properties": { "threshold_s": 600, "time_label": "10 minutes" }, "geometry": { "type": "Polygon", "coordinates": [ [ [ 38.783476, 9.0033747 ], [ 38.7838566, 9.0045185 ], [ 38.7849616, 9.0055543 ], [ 38.7850243, 9.0055756 ], [ 38.7857234, 9.0053434 ], [ 38.7871496, 9.0051748 ], [ 38.7883516, 9.0046885 ], [ 38.7893752, 9.0054718 ], [ 38.7894137, 9.0054806 ], [ 38.7900075, 9.0045602 ], [ 38.7892042, 9.0040436 ], [ 38.7895508, 9.0022211 ], [ 38.7882698, 9.0017096 ], [ 38.7889105, 9.0000486 ], [ 38.7897293, 8.9996859 ], [ 38.7906855, 8.9993148 ], [ 38.7913789, 8.9990156 ], [ 38.7920983, 8.9987684 ], [ 38.792624, 8.9985777 ], [ 38.7929452, 8.9978425 ], [ 38.7922475, 8.9975302 ], [ 38.79154650000001, 8.9972637 ], [ 38.7902302, 8.9961391 ], [ 38.7895004, 8.9949998 ], [ 38.7891596, 8.9951631 ], [ 38.787379, 8.9954801 ], [ 38.7860637, 8.9950606 ], [ 38.78561, 8.9950403 ], [ 38.7854666, 8.9953642 ], [ 38.7837104, 8.996249 ], [ 38.7831216, 8.9974816 ], [ 38.7827763, 8.9993254 ], [ 38.7828391, 9.0003345 ], [ 38.7823378, 9.0013971 ], [ 38.7821554, 9.0025561 ], [ 38.783476, 9.0033747 ] ] ] } },
{ "type": "Feature", "properties": { "threshold_s": 900, "time_label": "15 minutes" }, "geometry": { "type": "Polygon", "coordinates": [ [ [ 38.7797689, 9.0015699 ], [ 38.7796307, 9.0042357 ], [ 38.7800604, 9.0045554 ], [ 38.7819016, 9.0059648 ], [ 38.7828239, 9.0074981 ], [ 38.784106, 9.0088471 ], [ 38.7841769, 9.008861 ], [ 38.786227, 9.0083458 ], [ 38.7886856, 9.0082793 ], [ 38.7896106, 9.0081431 ], [ 38.7912769, 9.0068298 ], [ 38.7917664, 9.0063258 ], [ 38.7917436, 9.0057285 ], [ 38.7917389, 9.0056483 ], [ 38.7905674, 9.0042118 ], [ 38.7895508, 9.0022211 ], [ 38.7897293, 8.9996859 ], [ 38.7906855, 8.9993148 ], [ 38.7913789, 8.9990156 ], [ 38.7920983, 8.9987684 ], [ 38.792624, 8.9985777 ], [ 38.7931544, 8.9983837 ], [ 38.7936291, 8.9982041 ], [ 38.7941482, 8.9979968 ], [ 38.7946719, 8.9978068 ], [ 38.7951352, 8.9973643 ], [ 38.7948523, 8.9966292 ], [ 38.7935455, 8.9953446 ], [ 38.7916283, 8.993625 ], [ 38.7914777, 8.992812 ], [ 38.7913479, 8.9928249 ], [ 38.7885437, 8.9923131 ], [ 38.7872777, 8.9926361 ], [ 38.7852648, 8.9915358 ], [ 38.7843922, 8.9918375 ], [ 38.7831059, 8.9933946 ], [ 38.7816229, 8.9949502 ], [ 38.7812836, 8.9954543 ], [ 38.7799647, 8.9973783 ], [ 38.7800713, 8.9993625 ], [ 38.7797689, 9.0015699 ] ] ] } },
{ "type": "Feature", "properties": { "threshold_s": 300, "time_label": "5 minutes" }, "geometry": { "type": "Polygon", "coordinates": [ [ [ 38.8091872, 9.0135131 ], [ 38.8089354, 9.0141642 ], [ 38.8099253, 9.0141804 ], [ 38.8101101, 9.0145325 ], [ 38.8109781, 9.0138911 ], [ 38.8115097, 9.0148216 ], [ 38.812003, 9.0146785 ], [ 38.811043, 9.0138626 ], [ 38.8107811, 9.013385 ], [ 38.8103015, 9.0125789 ], [ 38.8113445, 9.0119949 ], [ 38.8115966, 9.0124347 ], [ 38.8117229, 9.0129526 ], [ 38.8118664, 9.0132148 ], [ 38.8123114, 9.013138 ], [ 38.8129994, 9.0138904 ], [ 38.8132233, 9.0144189 ], [ 38.8135439, 9.0136162 ], [ 38.8128841, 9.0134943 ], [ 38.8122518, 9.0124888 ], [ 38.8122967, 9.0119373 ], [ 38.8127466, 9.0114028 ], [ 38.812744, 9.0109566 ], [ 38.8127388, 9.0105059 ], [ 38.812315, 9.0105082 ], [ 38.811847, 9.0105148 ], [ 38.8118527, 9.0109672 ], [ 38.8118426, 9.0114005 ], [ 38.8108202, 9.0112452 ], [ 38.8102475, 9.0114704 ], [ 38.8102636, 9.0124917 ], [ 38.8096078, 9.0125658 ], [ 38.8092967, 9.0129858 ], [ 38.8091872, 9.0135131 ] ] ] } },
{ "type": "Feature", "properties": { "threshold_s": 600, "time_label": "10 minutes" }, "geometry": { "type": "Polygon", "coordinates": [ [ [ 38.8061084, 9.0155969 ], [ 38.8057726, 9.0157653 ], [ 38.8069087, 9.0161644 ], [ 38.807387, 9.0159145 ], [ 38.8086752, 9.0161888 ], [ 38.8092947, 9.0164943 ], [ 38.8097624, 9.0168261 ], [ 38.8108409, 9.0176114 ], [ 38.8110989, 9.0165559 ], [ 38.8126573, 9.0167641 ], [ 38.8136096, 9.0164957 ], [ 38.8143143, 9.0164965 ], [ 38.8148704, 9.0164868 ], [ 38.8153657, 9.0157124 ], [ 38.8149607, 9.0141972 ], [ 38.8135439, 9.0136162 ], [ 38.8128841, 9.0134943 ], [ 38.8122518, 9.0124888 ], [ 38.8127466, 9.0114028 ], [ 38.8132188, 9.0105012 ], [ 38.8138905, 9.0100125 ], [ 38.8152041, 9.0109634 ], [ 38.815215, 9.0114295 ], [ 38.8152355, 9.0119172 ], [ 38.8161268, 9.0119246 ], [ 38.8172197, 9.0119786 ], [ 38.8172691, 9.0119811 ], [ 38.817654, 9.0119948 ], [ 38.8164575, 9.011285 ], [ 38.8162523, 9.0108916 ], [ 38.8152062, 9.0100285 ], [ 38.8151919, 9.0095855 ], [ 38.8151912, 9.0095039 ], [ 38.8147569, 9.0088398 ], [ 38.8138372, 9.0083381 ], [ 38.8126827, 9.0073092 ], [ 38.8122471, 9.0067603 ], [ 38.8112267, 9.0074471 ], [ 38.81043, 9.0080851 ], [ 38.8096198, 9.0082847 ], [ 38.808711, 9.0095177 ], [ 38.8084584, 9.0098803 ], [ 38.8072124, 9.0109257 ], [ 38.8073395, 9.0123784 ], [ 38.8069504, 9.0129683 ], [ 38.8067256, 9.0137114 ], [ 38.8074242, 9.0149396 ], [ 38.8065164, 9.0154162 ], [ 38.8061084, 9.0155969 ] ] ] } },
{ "type": "Feature", "properties": { "threshold_s": 900, "time_label": "15 minutes" }, "geometry": { "type": "Polygon", "coordinates": [ [ [ 38.8039934, 9.0166301 ], [ 38.8027118, 9.0169641 ], [ 38.8044858, 9.017809 ], [ 38.8049849, 9.0180621 ], [ 38.8064365, 9.0187638 ], [ 38.8069135, 9.0186613 ], [ 38.8086521, 9.0194152 ], [ 38.809637, 9.0202318 ], [ 38.810139, 9.0201299 ], [ 38.8110194, 9.0199451 ], [ 38.8116207, 9.0198412 ], [ 38.813209, 9.0199514 ], [ 38.8133654, 9.0199396 ], [ 38.8133688, 9.0197109 ], [ 38.8129569, 9.0194588 ], [ 38.8121563, 9.0183102 ], [ 38.8121384, 9.0175858 ], [ 38.8136096, 9.0164957 ], [ 38.8143143, 9.0164965 ], [ 38.8156012, 9.0178428 ], [ 38.8161175, 9.0177277 ], [ 38.8163025, 9.0169909 ], [ 38.8158358, 9.015769 ], [ 38.8149607, 9.0141972 ], [ 38.8135439, 9.0136162 ], [ 38.8122518, 9.0124888 ], [ 38.8127466, 9.0114028 ], [ 38.8132188, 9.0105012 ], [ 38.8152041, 9.0109634 ], [ 38.815215, 9.0114295 ], [ 38.8152355, 9.0119172 ], [ 38.8161268, 9.0119246 ], [ 38.8172197, 9.0119786 ], [ 38.8172691, 9.0119811 ], [ 38.817654, 9.0119948 ], [ 38.8186794, 9.0137801 ], [ 38.8183136, 9.0119977 ], [ 38.8198282, 9.0115553 ], [ 38.8201494, 9.0114735 ], [ 38.8193872, 9.0104136 ], [ 38.8182659, 9.0114084 ], [ 38.8164575, 9.011285 ], [ 38.8163723, 9.0101154 ], [ 38.81632, 9.0090955 ], [ 38.8175875, 9.0082488 ], [ 38.8175565, 9.0081431 ], [ 38.8164127, 9.0069929 ], [ 38.8154839, 9.0061205 ], [ 38.81392420000001, 9.0048092 ], [ 38.8128331, 9.0038105 ], [ 38.8121889, 9.0035668 ], [ 38.8115832, 9.0041456 ], [ 38.8111481, 9.0051072 ], [ 38.8092765, 9.0052556 ], [ 38.8087829, 9.0056212 ], [ 38.8084673, 9.0069902 ], [ 38.8063154, 9.0069259 ], [ 38.8065903, 9.0074332 ], [ 38.8067854, 9.0078187 ], [ 38.8053625, 9.0090823 ], [ 38.805272, 9.01104 ], [ 38.8040681, 9.0123412 ], [ 38.8039416, 9.0124797 ], [ 38.8040207, 9.0125036 ], [ 38.804126599999989, 9.0125327 ], [ 38.8043118, 9.0125923 ], [ 38.8045773, 9.0125896 ], [ 38.8061391, 9.0126899 ], [ 38.8067256, 9.0137114 ], [ 38.8061084, 9.0155969 ], [ 38.8057726, 9.0157653 ], [ 38.8054571, 9.0159235 ], [ 38.8050866, 9.0161148 ], [ 38.8039934, 9.0166301 ] ] ] } },
{ "type": "Feature", "properties": { "threshold_s": 300, "time_label": "5 minutes" }, "geometry": { "type": "Polygon", "coordinates": [ [ [ 38.8171611, 9.0191599 ], [ 38.8171751, 9.0194641 ], [ 38.8174625, 9.0194205 ], [ 38.8199606, 9.0189684 ], [ 38.82083, 9.0188161 ], [ 38.8212509, 9.0187748 ], [ 38.8215588, 9.0187509 ], [ 38.8222674, 9.0177774 ], [ 38.822608, 9.0174956 ], [ 38.8216767, 9.0168867 ], [ 38.8208946, 9.0170286 ], [ 38.8203869, 9.016437 ], [ 38.8203736, 9.0163276 ], [ 38.8196928, 9.0158391 ], [ 38.819362, 9.0164901 ], [ 38.8194153, 9.0171491 ], [ 38.8194273, 9.0176486 ], [ 38.8171611, 9.0191599 ] ] ] } },
{ "type": "Feature", "properties": { "threshold_s": 600, "time_label": "10 minutes" }, "geometry": { "type": "Polygon", "coordinates": [ [ [ 38.8155185, 9.0169905 ], [ 38.8133688, 9.0197109 ], [ 38.8141871, 9.0196762 ], [ 38.8171751, 9.0194641 ], [ 38.8174625, 9.0194205 ], [ 38.8199606, 9.0189684 ], [ 38.82083, 9.0188161 ], [ 38.8212509, 9.0187748 ], [ 38.8215588, 9.0187509 ], [ 38.8235368, 9.0189136 ], [ 38.8259263, 9.0200121 ], [ 38.8260633, 9.0200614 ], [ 38.8260162, 9.0169832 ], [ 38.8238827, 9.0149469 ], [ 38.8232273, 9.0147013 ], [ 38.8196501, 9.0156462 ], [ 38.8175437, 9.0163151 ], [ 38.8155185, 9.0169905 ] ] ] } },
{ "type": "Feature", "properties": { "threshold_s": 900, "time_label": "15 minutes" }, "geometry": { "type": "Polygon", "coordinates": [ [ [ 38.8108795, 9.0190988 ], [ 38.810139, 9.0201299 ], [ 38.8114472, 9.0213592 ], [ 38.8144426, 9.0217712 ], [ 38.8146516, 9.0217388 ], [ 38.8174625, 9.0194205 ], [ 38.8199606, 9.0189684 ], [ 38.8228887, 9.0194977 ], [ 38.8248824, 9.0211988 ], [ 38.8257156, 9.022524 ], [ 38.8264276, 9.0234039 ], [ 38.8265137, 9.0234793 ], [ 38.8285495, 9.0210826 ], [ 38.8287024, 9.0208684 ], [ 38.8285938, 9.0186405 ], [ 38.8288702, 9.0160176 ], [ 38.8283509, 9.014774 ], [ 38.82823, 9.0146017 ], [ 38.8259101, 9.012311 ], [ 38.8215799, 9.01153 ], [ 38.8208147, 9.013098 ], [ 38.8174128, 9.0151084 ], [ 38.8149607, 9.0141972 ], [ 38.8141595, 9.01432 ], [ 38.8133219, 9.0156396 ], [ 38.8108795, 9.0190988 ] ] ] } },
{ "type": "Feature", "properties": { "threshold_s": 300, "time_label": "5 minutes" }, "geometry": { "type": "Polygon", "coordinates": [ [ [ 38.6921596, 9.0708906 ], [ 38.6921716, 9.0713568 ], [ 38.692942, 9.0715948 ], [ 38.6932731, 9.0718925 ], [ 38.6937095, 9.07193 ], [ 38.6940712, 9.0719548 ], [ 38.6947811, 9.0717378 ], [ 38.6951123, 9.0709418 ], [ 38.6951271, 9.0706887 ], [ 38.6952025, 9.0702369 ], [ 38.6953996, 9.0696928 ], [ 38.6944806, 9.0694564 ], [ 38.6950548, 9.0687711 ], [ 38.6948612, 9.0679927 ], [ 38.6950819, 9.0672329 ], [ 38.6947086, 9.0671631 ], [ 38.6943065, 9.0672004 ], [ 38.6937235, 9.0667431 ], [ 38.6937311, 9.0662661 ], [ 38.6934091, 9.0662336 ], [ 38.6930621, 9.0666791 ], [ 38.6934493, 9.0674275 ], [ 38.6935383, 9.0682228 ], [ 38.6933729, 9.0686052 ], [ 38.6925799, 9.0684369 ], [ 38.6924706, 9.0684707 ], [ 38.6921754, 9.0685942 ], [ 38.6913906, 9.0686195 ], [ 38.6914859, 9.0688468 ], [ 38.6912349, 9.0696005 ], [ 38.6913199, 9.0698756 ], [ 38.6915115, 9.0706229 ], [ 38.6921596, 9.0708906 ] ] ] } },
{ "type": "Feature", "properties": { "threshold_s": 600, "time_label": "10 minutes" }, "geometry": { "type": "Polygon", "coordinates": [ [ [ 38.6881426, 9.0716797 ], [ 38.6885981, 9.0724329 ], [ 38.6903109, 9.0732221 ], [ 38.690748, 9.0729067 ], [ 38.6917743, 9.0715285 ], [ 38.6932044, 9.0722988 ], [ 38.6933118, 9.0726747 ], [ 38.6938391, 9.0730859 ], [ 38.6945052, 9.0723955 ], [ 38.6962476, 9.0733363 ], [ 38.6965004, 9.0734872 ], [ 38.6965741, 9.0728489 ], [ 38.6947811, 9.0717378 ], [ 38.6951123, 9.0709418 ], [ 38.6951271, 9.0706887 ], [ 38.6952025, 9.0702369 ], [ 38.6952085, 9.0702119 ], [ 38.6953996, 9.0696928 ], [ 38.6966857, 9.0685979 ], [ 38.6963716, 9.0673118 ], [ 38.6973144, 9.065732 ], [ 38.6972442, 9.0656717 ], [ 38.6968281, 9.0659482 ], [ 38.6960317, 9.0661013 ], [ 38.6949129, 9.064549 ], [ 38.6949087, 9.0637396 ], [ 38.6940303, 9.0630964 ], [ 38.6936891, 9.0631298 ], [ 38.6919923, 9.0640414 ], [ 38.6912961, 9.0640159 ], [ 38.6910561, 9.0640268 ], [ 38.6905536, 9.0651414 ], [ 38.6904144, 9.0668404 ], [ 38.6898069, 9.0677562 ], [ 38.6893149, 9.0685795 ], [ 38.6893412, 9.069898 ], [ 38.6881161, 9.0715892 ], [ 38.6881426, 9.0716797 ] ] ] } },
{ "type": "Feature", "properties": { "threshold_s": 900, "time_label": "15 minutes" }, "geometry": { "type": "Polygon", "coordinates": [ [ [ 38.6869946, 9.071453 ], [ 38.6859727, 9.0736382 ], [ 38.6884663, 9.0751061 ], [ 38.6892316, 9.0752247 ], [ 38.6894957, 9.0748463 ], [ 38.6900282, 9.0740514 ], [ 38.690748, 9.0729067 ], [ 38.6933118, 9.0726747 ], [ 38.6938391, 9.0730859 ], [ 38.6962476, 9.0733363 ], [ 38.6969933, 9.0753069 ], [ 38.69751140000001, 9.0755957 ], [ 38.6965741, 9.0728489 ], [ 38.6951271, 9.0706887 ], [ 38.6952025, 9.0702369 ], [ 38.6952085, 9.0702119 ], [ 38.6966857, 9.0685979 ], [ 38.698357799999989, 9.0683166 ], [ 38.6993963, 9.0672054 ], [ 38.6997166, 9.0668442 ], [ 38.6999183, 9.0662753 ], [ 38.6995185, 9.0650127 ], [ 38.699623699999989, 9.063205 ], [ 38.698693, 9.0629553 ], [ 38.6985998, 9.063679 ], [ 38.6964191, 9.0650237 ], [ 38.6949087, 9.0637396 ], [ 38.6944909, 9.0629642 ], [ 38.6949377, 9.0608855 ], [ 38.6944431, 9.0598183 ], [ 38.6930613, 9.0598603 ], [ 38.69164030000001, 9.0608355 ], [ 38.6895502, 9.0616846 ], [ 38.6896231, 9.0622892 ], [ 38.6896388, 9.0624727 ], [ 38.6896929, 9.0631057 ], [ 38.6886651, 9.0658104 ], [ 38.6878622, 9.0685103 ], [ 38.6862621, 9.069335 ], [ 38.6864601, 9.070055 ], [ 38.6869946, 9.071453 ] ] ] } },
{ "type": "Feature", "properties": { "threshold_s": 300, "time_label": "5 minutes" }, "geometry": { "type": "Polygon", "coordinates": [ [ [ 38.7808259, 9.0265729 ], [ 38.7811591, 9.0269391 ], [ 38.7818751, 9.0269915 ], [ 38.7822294, 9.0273956 ], [ 38.7830209, 9.0272291 ], [ 38.7833126, 9.0271766 ], [ 38.7835315, 9.0268058 ], [ 38.7834995, 9.0261202 ], [ 38.7831799, 9.0257482 ], [ 38.783076, 9.0248046 ], [ 38.7828882, 9.0246894 ], [ 38.7824329, 9.0248921 ], [ 38.7822071, 9.0249734 ], [ 38.7815222, 9.0250387 ], [ 38.7811291, 9.0235631 ], [ 38.7817299, 9.0233442 ], [ 38.7822092, 9.023458 ], [ 38.7821862, 9.0233313 ], [ 38.7811702, 9.0225738 ], [ 38.780621, 9.0225737 ], [ 38.7805548, 9.0226166 ], [ 38.7803424, 9.0232403 ], [ 38.7798161, 9.0233066 ], [ 38.7797893, 9.0235655 ], [ 38.7805001, 9.0240666 ], [ 38.7803454, 9.0244369 ], [ 38.7806955, 9.0246812 ], [ 38.7810352, 9.0250527 ], [ 38.7806417, 9.0258586 ], [ 38.7808259, 9.0265729 ] ] ] } },
{ "type": "Feature", "properties": { "threshold_s": 600, "time_label": "10 minutes" }, "geometry": { "type": "Polygon", "coordinates": [ [ [ 38.7763746, 9.0235218 ], [ 38.777128, 9.0248365 ], [ 38.778014, 9.025166 ], [ 38.777594, 9.0246542 ], [ 38.7787771, 9.0234759 ], [ 38.7792248, 9.023721 ], [ 38.7803454, 9.0244369 ], [ 38.7806417, 9.0258586 ], [ 38.7808259, 9.0265729 ], [ 38.7808481, 9.0273608 ], [ 38.7808903, 9.0284557 ], [ 38.7812108, 9.028916 ], [ 38.7823238, 9.0296015 ], [ 38.7825041, 9.0296272 ], [ 38.7842055, 9.0301541 ], [ 38.785542, 9.0298968 ], [ 38.7856785, 9.0288105 ], [ 38.7864765, 9.028295 ], [ 38.7856874, 9.0274652 ], [ 38.7849554, 9.0271178 ], [ 38.7838478, 9.0265422 ], [ 38.7834995, 9.0261202 ], [ 38.783076, 9.0248046 ], [ 38.7836573, 9.0236438 ], [ 38.7844447, 9.0234322 ], [ 38.7846621, 9.0234334 ], [ 38.7854865, 9.0225353 ], [ 38.7848897, 9.0225805 ], [ 38.7838593, 9.0218425 ], [ 38.7837476, 9.021184 ], [ 38.7831854, 9.0201498 ], [ 38.782435, 9.0193034 ], [ 38.7823698, 9.0192907 ], [ 38.780964, 9.020229 ], [ 38.7800908, 9.0202484 ], [ 38.7803991, 9.020821 ], [ 38.779167, 9.0218594 ], [ 38.7783492, 9.0214258 ], [ 38.7783365, 9.021744 ], [ 38.7782833, 9.0227338 ], [ 38.776509, 9.0228451 ], [ 38.7762974, 9.0233738 ], [ 38.7763746, 9.0235218 ] ] ] } },
{ "type": "Feature", "properties": { "threshold_s": 900, "time_label": "15 minutes" }, "geometry": { "type": "Polygon", "coordinates": [ [ [ 38.7739329, 9.0250723 ], [ 38.7738726, 9.0262877 ], [ 38.7752165, 9.0276289 ], [ 38.7777275, 9.0282723 ], [ 38.7788257, 9.0295019 ], [ 38.7799938, 9.0303326 ], [ 38.7808223, 9.0319061 ], [ 38.7817318, 9.0329631 ], [ 38.7820987, 9.0327323 ], [ 38.7840456, 9.0319194 ], [ 38.7862229, 9.0319805 ], [ 38.7871477, 9.0320642 ], [ 38.7878908, 9.0319756 ], [ 38.7883327, 9.0293321 ], [ 38.7890062, 9.0288156 ], [ 38.7892601, 9.0286765 ], [ 38.788861, 9.027759 ], [ 38.7874317, 9.0261847 ], [ 38.7874492, 9.0239546 ], [ 38.7881353, 9.0228568 ], [ 38.7883744, 9.0221877 ], [ 38.7883043, 9.0217939 ], [ 38.787837, 9.0208872 ], [ 38.7872799, 9.0205644 ], [ 38.7860842, 9.0182336 ], [ 38.785699, 9.0179732 ], [ 38.7851743, 9.0176441 ], [ 38.7846333, 9.0173506 ], [ 38.7828065, 9.0165446 ], [ 38.7819098, 9.0159584 ], [ 38.7817509, 9.0160428 ], [ 38.7810454, 9.0164749 ], [ 38.7796488, 9.0187175 ], [ 38.7776237, 9.019461 ], [ 38.7767495, 9.0195951 ], [ 38.7762733, 9.0199861 ], [ 38.7743121, 9.0213249 ], [ 38.7733109, 9.021571 ], [ 38.7734743, 9.0221066 ], [ 38.7738381, 9.0235314 ], [ 38.7739329, 9.0250723 ] ] ] } },
{ "type": "Feature", "properties": { "threshold_s": 300, "time_label": "5 minutes" }, "geometry": { "type": "Polygon", "coordinates": [ [ [ 38.8753549, 9.0217066 ], [ 38.8750795, 9.0224152 ], [ 38.8752333, 9.0224214 ], [ 38.8757849, 9.0219119 ], [ 38.8762187, 9.0216982 ], [ 38.8765632, 9.0215303 ], [ 38.8771721, 9.0222144 ], [ 38.8775803, 9.0227876 ], [ 38.8779101, 9.0212599 ], [ 38.8793194, 9.0206127 ], [ 38.879238, 9.0205993 ], [ 38.8779246, 9.0205748 ], [ 38.8779134, 9.0199602 ], [ 38.877921, 9.0194162 ], [ 38.8779264, 9.0188608 ], [ 38.8764855, 9.0197393 ], [ 38.8764791, 9.0199591 ], [ 38.8764778, 9.0205652 ], [ 38.8757868, 9.0208335 ], [ 38.8753005, 9.0211214 ], [ 38.8752516, 9.0212513 ], [ 38.8753549, 9.0217066 ] ] ] } },
{ "type": "Feature", "properties": { "threshold_s": 600, "time_label": "10 minutes" }, "geometry": { "type": "Polygon", "coordinates": [ [ [ 38.872017, 9.0227837 ], [ 38.8724168, 9.0232273 ], [ 38.873755, 9.0240773 ], [ 38.8737514, 9.0244871 ], [ 38.8747875, 9.0250639 ], [ 38.875055, 9.0250647 ], [ 38.8758645, 9.0250714 ], [ 38.8769821, 9.0255481 ], [ 38.8779759, 9.0262323 ], [ 38.8790865, 9.0250808 ], [ 38.8795993, 9.0244664 ], [ 38.8795994, 9.0239047 ], [ 38.8808203, 9.0228123 ], [ 38.8813462, 9.0224386 ], [ 38.8824388, 9.0214957 ], [ 38.8813415, 9.0210047 ], [ 38.8807852, 9.0199611 ], [ 38.8807936, 9.019455 ], [ 38.8806715, 9.0183216 ], [ 38.8793242, 9.017456 ], [ 38.879325, 9.0171984 ], [ 38.8792581, 9.0171847 ], [ 38.8779491, 9.0154495 ], [ 38.8779536, 9.016062 ], [ 38.8779482, 9.0166177 ], [ 38.8779426, 9.017195 ], [ 38.8768106, 9.0180733 ], [ 38.8762324, 9.017194 ], [ 38.8761976, 9.0177202 ], [ 38.8765792, 9.0188719 ], [ 38.876574, 9.0194041 ], [ 38.8764855, 9.0197393 ], [ 38.8757868, 9.0208335 ], [ 38.8753005, 9.0211214 ], [ 38.8737938, 9.0211951 ], [ 38.8734232, 9.0204522 ], [ 38.8734134, 9.0200097 ], [ 38.8741028, 9.0189236 ], [ 38.8746138, 9.0181865 ], [ 38.8739151, 9.0177115 ], [ 38.873664, 9.0172847 ], [ 38.8727935, 9.0168561 ], [ 38.8733066, 9.0177453 ], [ 38.8722213, 9.0189084 ], [ 38.8731412, 9.020056 ], [ 38.8728838, 9.0207276 ], [ 38.8713707, 9.0206794 ], [ 38.8713787, 9.0215514 ], [ 38.872017, 9.0227837 ] ] ] } },
{ "type": "Feature", "properties": { "threshold_s": 900, "time_label": "15 minutes" }, "geometry": { "type": "Polygon", "coordinates": [ [ [ 38.8713118, 9.0249797 ], [ 38.871514, 9.0255043 ], [ 38.8729307, 9.0263647 ], [ 38.8739654, 9.0276971 ], [ 38.8746625, 9.0284588 ], [ 38.8770002, 9.0287136 ], [ 38.878505, 9.0290182 ], [ 38.879569, 9.0279048 ], [ 38.8806787, 9.0268026 ], [ 38.8823091, 9.0252736 ], [ 38.8836307, 9.0234482 ], [ 38.8847877, 9.0219121 ], [ 38.8858947, 9.0216818 ], [ 38.8846574, 9.0203811 ], [ 38.8837311, 9.0198773 ], [ 38.8831148, 9.0184049 ], [ 38.8821195, 9.0167043 ], [ 38.8813086, 9.0158149 ], [ 38.8803388, 9.0147691 ], [ 38.8787559, 9.0130779 ], [ 38.8786948, 9.0130902 ], [ 38.8774643, 9.0136264 ], [ 38.8769276, 9.0147408 ], [ 38.8746165, 9.015171 ], [ 38.8730838, 9.0145262 ], [ 38.8709099, 9.0144631 ], [ 38.8704715, 9.0153958 ], [ 38.8704761, 9.015898 ], [ 38.8704749, 9.0163464 ], [ 38.869444, 9.0182316 ], [ 38.8686888, 9.0201554 ], [ 38.867883, 9.0208283 ], [ 38.8682184, 9.0214591 ], [ 38.8699062, 9.022363 ], [ 38.8702927, 9.0231006 ], [ 38.8704741, 9.0233383 ], [ 38.8713118, 9.0249797 ] ] ] } },
{ "type": "Feature", "properties": { "threshold_s": 300, "time_label": "5 minutes" }, "geometry": { "type": "Polygon", "coordinates": [ [ [ 38.8621357, 8.9962419 ], [ 38.8620936, 8.9963338 ], [ 38.8622044, 8.9963269 ], [ 38.863330499999989, 8.9968197 ], [ 38.8641715, 8.9962063 ], [ 38.865325, 8.9966277 ], [ 38.8650462, 8.9957033 ], [ 38.8658631, 8.9953807 ], [ 38.8648751, 8.9953168 ], [ 38.8648398, 8.9950496 ], [ 38.8647621, 8.9947766 ], [ 38.8638527, 8.9950823 ], [ 38.8639457, 8.9954635 ], [ 38.8639605, 8.9955114 ], [ 38.8626001, 8.9961263 ], [ 38.8625642, 8.9960631 ], [ 38.8622376, 8.9962273 ], [ 38.8615346, 8.9953829 ], [ 38.8621357, 8.9962419 ] ] ] } },
{ "type": "Feature", "properties": { "threshold_s": 600, "time_label": "10 minutes" }, "geometry": { "type": "Polygon", "coordinates": [ [ [ 38.85965, 8.9980193 ], [ 38.8595914, 8.9994288 ], [ 38.8607645, 8.9994858 ], [ 38.8621925, 8.9992314 ], [ 38.8620264, 8.9982205 ], [ 38.863330499999989, 8.9968197 ], [ 38.865325, 8.9966277 ], [ 38.8673329, 8.996602 ], [ 38.8685319, 8.9965702 ], [ 38.8683298, 8.9954969 ], [ 38.8678702, 8.9957018 ], [ 38.8658631, 8.9953807 ], [ 38.8647621, 8.9947766 ], [ 38.8638527, 8.9950823 ], [ 38.8629837, 8.9934799 ], [ 38.8615346, 8.9953829 ], [ 38.8610331, 8.9945874 ], [ 38.8608822, 8.9931282 ], [ 38.8608551, 8.9930806 ], [ 38.859802, 8.9930417 ], [ 38.8590765, 8.9937681 ], [ 38.8591227, 8.9938164 ], [ 38.8603565, 8.9953164 ], [ 38.8593936, 8.9962152 ], [ 38.859155, 8.996546 ], [ 38.8589432, 8.9972043 ], [ 38.85965, 8.9980193 ] ] ] } },
{ "type": "Feature", "properties": { "threshold_s": 900, "time_label": "15 minutes" }, "geometry": { "type": "Polygon", "coordinates": [ [ [ 38.8558403, 8.9992759 ], [ 38.8568931, 9.0012885 ], [ 38.859124, 9.0023653 ], [ 38.8592902, 9.0024571 ], [ 38.8599998, 9.0021747 ], [ 38.8616534, 9.0013971 ], [ 38.8621925, 8.9992314 ], [ 38.8620264, 8.9982205 ], [ 38.863330499999989, 8.9968197 ], [ 38.865325, 8.9966277 ], [ 38.8673329, 8.996602 ], [ 38.8685319, 8.9965702 ], [ 38.8683298, 8.9954969 ], [ 38.8658631, 8.9953807 ], [ 38.8647621, 8.9947766 ], [ 38.8629837, 8.9934799 ], [ 38.8638173, 8.9912566 ], [ 38.8637898, 8.9912337 ], [ 38.8637297, 8.99125 ], [ 38.8627698, 8.9918304 ], [ 38.8615039, 8.9920033 ], [ 38.8605139, 8.9926173 ], [ 38.8588725, 8.9917772 ], [ 38.8593632, 8.9902947 ], [ 38.8582063, 8.9893403 ], [ 38.8573229, 8.9907128 ], [ 38.8566639, 8.9919246 ], [ 38.8562381, 8.9934576 ], [ 38.8560798, 8.9945076 ], [ 38.8560811, 8.9945648 ], [ 38.8570309, 8.9933285 ], [ 38.8590765, 8.9937681 ], [ 38.8591227, 8.9938164 ], [ 38.8593936, 8.9962152 ], [ 38.8580862, 8.9971206 ], [ 38.8565035, 8.9972101 ], [ 38.8556806, 8.9973701 ], [ 38.8558403, 8.9992759 ] ] ] } },
{ "type": "Feature", "properties": { "threshold_s": 300, "time_label": "5 minutes" }, "geometry": { "type": "Polygon", "coordinates": [ [ [ 38.7161055, 9.0709197 ], [ 38.7159582, 9.0714508 ], [ 38.7161979, 9.0713967 ], [ 38.7167309, 9.0716663 ], [ 38.7165311, 9.071322 ], [ 38.7163549, 9.0708684 ], [ 38.7171494, 9.0707671 ], [ 38.7173949, 9.0702747 ], [ 38.7173433, 9.0701614 ], [ 38.7167381, 9.0704175 ], [ 38.7170645, 9.0691976 ], [ 38.7165693, 9.0688361 ], [ 38.7157814, 9.0690374 ], [ 38.7158404, 9.0681164 ], [ 38.7155081, 9.0679436 ], [ 38.7149379, 9.0683236 ], [ 38.714509, 9.0682505 ], [ 38.7146036, 9.0688953 ], [ 38.7149821, 9.0688865 ], [ 38.715433, 9.0689713 ], [ 38.7158887, 9.0697486 ], [ 38.7160869, 9.0702208 ], [ 38.7154321, 9.0703548 ], [ 38.7151902, 9.0700342 ], [ 38.715507, 9.070681 ], [ 38.7161055, 9.0709197 ] ] ] } },
{ "type": "Feature", "properties": { "threshold_s": 600, "time_label": "10 minutes" }, "geometry": { "type": "Polygon", "coordinates": [ [ [ 38.7160362, 9.0719192 ], [ 38.7174216, 9.0738289 ], [ 38.7181498, 9.071257 ], [ 38.7183818, 9.0711855 ], [ 38.7186165, 9.0711339 ], [ 38.7197901, 9.0703112 ], [ 38.7191502, 9.0700738 ], [ 38.7184079, 9.0698393 ], [ 38.7170645, 9.0691976 ], [ 38.7165693, 9.0688361 ], [ 38.7158404, 9.0681164 ], [ 38.7155081, 9.0679436 ], [ 38.7146542, 9.0654346 ], [ 38.7145067, 9.0631844 ], [ 38.7138864, 9.0658193 ], [ 38.714509, 9.0682505 ], [ 38.7146036, 9.0688953 ], [ 38.7151902, 9.0700342 ], [ 38.7157707, 9.0714928 ], [ 38.7160362, 9.0719192 ] ] ] } },
{ "type": "Feature", "properties": { "threshold_s": 900, "time_label": "15 minutes" }, "geometry": { "type": "Polygon", "coordinates": [ [ [ 38.7146768, 9.0764693 ], [ 38.7146012, 9.0768933 ], [ 38.7149405, 9.0768933 ], [ 38.7182799, 9.0763662 ], [ 38.7185535, 9.0760458 ], [ 38.7180519, 9.0751029 ], [ 38.7174216, 9.0738289 ], [ 38.7186165, 9.0711339 ], [ 38.7215999, 9.0727251 ], [ 38.7215124, 9.0716122 ], [ 38.7233214, 9.0693875 ], [ 38.7212644, 9.0687352 ], [ 38.7184079, 9.0698393 ], [ 38.7170645, 9.0691976 ], [ 38.7165693, 9.0688361 ], [ 38.7158404, 9.0681164 ], [ 38.7146542, 9.0654346 ], [ 38.7146339, 9.062817 ], [ 38.7143868, 9.0611467 ], [ 38.7130486, 9.0624733 ], [ 38.7133973, 9.0631611 ], [ 38.7127827, 9.0665411 ], [ 38.7134667, 9.0670456 ], [ 38.7146036, 9.0688953 ], [ 38.7151902, 9.0700342 ], [ 38.7126982, 9.0726927 ], [ 38.7147031, 9.074563 ], [ 38.7146768, 9.0764693 ] ] ] } },
{ "type": "Feature", "properties": { "threshold_s": 300, "time_label": "5 minutes" }, "geometry": { "type": "Polygon", "coordinates": [ [ [ 38.7579791, 9.0380662 ], [ 38.7570073, 9.0383314 ], [ 38.7577526, 9.038866 ], [ 38.7587492, 9.0383793 ], [ 38.7588696, 9.0384456 ], [ 38.7587746, 9.0381862 ], [ 38.7596878, 9.0375009 ], [ 38.760293, 9.0375511 ], [ 38.7608394, 9.0373362 ], [ 38.7608651, 9.0372753 ], [ 38.7605569, 9.0371168 ], [ 38.7601264, 9.0369917 ], [ 38.7596169, 9.0366557 ], [ 38.7594039, 9.036561 ], [ 38.7587068, 9.036244 ], [ 38.7585036, 9.0357844 ], [ 38.7589817, 9.0353307 ], [ 38.7603589, 9.0356761 ], [ 38.7604704, 9.0342887 ], [ 38.7604394, 9.0342093 ], [ 38.760384, 9.0341082 ], [ 38.7599654, 9.0337094 ], [ 38.7596682, 9.034679 ], [ 38.7591436, 9.0351761 ], [ 38.7583145, 9.0347513 ], [ 38.7582166, 9.0342678 ], [ 38.7579095, 9.0339593 ], [ 38.7580195, 9.0345421 ], [ 38.7575617, 9.0352112 ], [ 38.7573179, 9.0358262 ], [ 38.7581953, 9.0360799 ], [ 38.7585566, 9.0361732 ], [ 38.7584061, 9.0370047 ], [ 38.7588587, 9.0376845 ], [ 38.7579791, 9.0380662 ] ] ] } },
{ "type": "Feature", "properties": { "threshold_s": 600, "time_label": "10 minutes" }, "geometry": { "type": "Polygon", "coordinates": [ [ [ 38.7555773, 9.0394358 ], [ 38.7557028, 9.0397766 ], [ 38.7566857, 9.0404507 ], [ 38.75772, 9.0409807 ], [ 38.7581499, 9.0417016 ], [ 38.7592181, 9.0408393 ], [ 38.7595116, 9.0405678 ], [ 38.7607634, 9.0397207 ], [ 38.7623237, 9.0395687 ], [ 38.7625107, 9.0387169 ], [ 38.763485, 9.0378991 ], [ 38.7644975, 9.0379228 ], [ 38.7634966, 9.0378188 ], [ 38.7629161, 9.0365657 ], [ 38.7620831, 9.0353314 ], [ 38.7632315, 9.0343164 ], [ 38.7634921, 9.0340003 ], [ 38.7636485, 9.0328556 ], [ 38.7635584, 9.0325216 ], [ 38.7633047, 9.0321817 ], [ 38.7626424, 9.0323766 ], [ 38.7617219, 9.031628 ], [ 38.7616276, 9.0311284 ], [ 38.7615913, 9.0308121 ], [ 38.7601304, 9.0315607 ], [ 38.7598172, 9.0314772 ], [ 38.7595237, 9.0328211 ], [ 38.7590509, 9.0331043 ], [ 38.7579095, 9.0339593 ], [ 38.7570673, 9.0349685 ], [ 38.7573179, 9.0358262 ], [ 38.7581953, 9.0360799 ], [ 38.7584061, 9.0370047 ], [ 38.7579791, 9.0380662 ], [ 38.7570073, 9.0383314 ], [ 38.7555497, 9.0379841 ], [ 38.7555773, 9.0394358 ] ] ] } },
{ "type": "Feature", "properties": { "threshold_s": 900, "time_label": "15 minutes" }, "geometry": { "type": "Polygon", "coordinates": [ [ [ 38.7517222, 9.0401875 ], [ 38.7526987, 9.0430204 ], [ 38.7540054, 9.043656 ], [ 38.755529, 9.045349 ], [ 38.7576017, 9.0440163 ], [ 38.7588095, 9.0437687 ], [ 38.7611534, 9.0441026 ], [ 38.7613074, 9.0440921 ], [ 38.7613587, 9.0440663 ], [ 38.7614694, 9.0439155 ], [ 38.7624014, 9.0425864 ], [ 38.7647638, 9.0406035 ], [ 38.7667914, 9.0405272 ], [ 38.7672748, 9.0385298 ], [ 38.7672893, 9.0381433 ], [ 38.767127, 9.0371605 ], [ 38.765935, 9.0342337 ], [ 38.7661077, 9.0335143 ], [ 38.7663647, 9.032801 ], [ 38.7664081, 9.0326913 ], [ 38.7646982, 9.0307998 ], [ 38.7639705, 9.0296349 ], [ 38.7619278, 9.0277646 ], [ 38.7603101, 9.0279024 ], [ 38.7593016, 9.0295105 ], [ 38.7598172, 9.0314772 ], [ 38.7590509, 9.0331043 ], [ 38.7579095, 9.0339593 ], [ 38.7550527, 9.0350946 ], [ 38.7550015, 9.0351155 ], [ 38.753972, 9.0355871 ], [ 38.7527812, 9.0361288 ], [ 38.7519403, 9.0374029 ], [ 38.7511373, 9.0393782 ], [ 38.7511782, 9.0394709 ], [ 38.7517222, 9.0401875 ] ] ] } },
{ "type": "Feature", "properties": { "threshold_s": 300, "time_label": "5 minutes" }, "geometry": { "type": "Polygon", "coordinates": [ [ [ 38.774324, 9.0086107 ], [ 38.7742737, 9.0086372 ], [ 38.7751447, 9.0097636 ], [ 38.7754892, 9.0093199 ], [ 38.7753949, 9.008012 ], [ 38.7759286, 9.0076709 ], [ 38.7763593, 9.0077319 ], [ 38.7770297, 9.0082385 ], [ 38.7770129, 9.0090246 ], [ 38.777605, 9.0085597 ], [ 38.7782046, 9.0076547 ], [ 38.7778705, 9.0077206 ], [ 38.7767099, 9.0071045 ], [ 38.7767849, 9.0069623 ], [ 38.776921, 9.0067186 ], [ 38.7768298, 9.0066669 ], [ 38.7774528, 9.0057013 ], [ 38.7781773, 9.0053519 ], [ 38.778296, 9.0051979 ], [ 38.7782481, 9.0051158 ], [ 38.7775795, 9.0043913 ], [ 38.7767098, 9.0045986 ], [ 38.7759649, 9.0065026 ], [ 38.7756144, 9.0062905 ], [ 38.7749376, 9.0058728 ], [ 38.7747095, 9.005959 ], [ 38.77382510000001, 9.0059662 ], [ 38.7747609, 9.0062335 ], [ 38.7747833, 9.0070232 ], [ 38.7751502, 9.0076662 ], [ 38.774324, 9.0086107 ] ] ] } },
{ "type": "Feature", "properties": { "threshold_s": 600, "time_label": "10 minutes" }, "geometry": { "type": "Polygon", "coordinates": [ [ [ 38.7717272, 9.0079713 ], [ 38.7716724, 9.0100378 ], [ 38.7721689, 9.010043 ], [ 38.7724962, 9.0100703 ], [ 38.772598, 9.0100844 ], [ 38.7738585, 9.0107737 ], [ 38.7742634, 9.0124589 ], [ 38.7743465, 9.0124832 ], [ 38.7760015, 9.0120058 ], [ 38.7768362, 9.0119613 ], [ 38.7770095, 9.0108942 ], [ 38.7770129, 9.0090246 ], [ 38.777605, 9.0085597 ], [ 38.7793227, 9.0073006 ], [ 38.7801531, 9.0070802 ], [ 38.7810221, 9.0058338 ], [ 38.7808941, 9.0048329 ], [ 38.7810322, 9.0029607 ], [ 38.780006899999989, 9.0025548 ], [ 38.7799164, 9.0025541 ], [ 38.7792411, 9.0026554 ], [ 38.7772268, 9.0028263 ], [ 38.7762203, 9.001462 ], [ 38.7757771, 9.0033548 ], [ 38.7738653, 9.0030627 ], [ 38.773622, 9.0018561 ], [ 38.7727683, 9.0030296 ], [ 38.7715514, 9.0043418 ], [ 38.771041, 9.0056867 ], [ 38.7719898, 9.0068159 ], [ 38.7717272, 9.0079713 ] ] ] } },
{ "type": "Feature", "properties": { "threshold_s": 900, "time_label": "15 minutes" }, "geometry": { "type": "Polygon", "coordinates": [ [ [ 38.7718846, 9.0146755 ], [ 38.7725467, 9.0156687 ], [ 38.772901, 9.015674 ], [ 38.7741335, 9.0152535 ], [ 38.7756066, 9.0140259 ], [ 38.7772287, 9.0140474 ], [ 38.7774734, 9.014126 ], [ 38.7793196, 9.0134699 ], [ 38.7798366, 9.0130278 ], [ 38.7798588, 9.0109705 ], [ 38.7808196, 9.0096836 ], [ 38.7825194, 9.0091421 ], [ 38.7828239, 9.0074981 ], [ 38.7841301, 9.0065027 ], [ 38.7846418, 9.004535 ], [ 38.7845137, 9.003219 ], [ 38.7842169, 9.0026576 ], [ 38.7839846, 9.0025018 ], [ 38.783090799999989, 9.0006189 ], [ 38.7834549, 9.0004129 ], [ 38.7835287, 9.0002109 ], [ 38.7828391, 9.0003345 ], [ 38.7812856, 8.9996232 ], [ 38.7800713, 8.9993625 ], [ 38.7793303, 8.9988134 ], [ 38.7794906, 8.9991652 ], [ 38.7795597, 9.0006527 ], [ 38.7797689, 9.0015699 ], [ 38.7792411, 9.0026554 ], [ 38.7787355, 9.0030202 ], [ 38.7772268, 9.0028263 ], [ 38.7768014, 9.00144 ], [ 38.7762056, 9.001101 ], [ 38.7749536, 8.9996857 ], [ 38.7739914, 8.9989883 ], [ 38.7729631, 8.9990413 ], [ 38.772146, 9.0007666 ], [ 38.7716421, 9.0009861 ], [ 38.7713341, 9.0014454 ], [ 38.7701344, 9.0029403 ], [ 38.7699389, 9.0030404 ], [ 38.7698957, 9.003069 ], [ 38.7680657, 9.0039884 ], [ 38.7680989, 9.0044977 ], [ 38.7681567, 9.0045808 ], [ 38.7684475, 9.0050954 ], [ 38.7687166, 9.0066328 ], [ 38.769385, 9.0079857 ], [ 38.7698977, 9.0094015 ], [ 38.7690658, 9.0102768 ], [ 38.7690866, 9.0104551 ], [ 38.7693993, 9.0107478 ], [ 38.7695029, 9.0107419 ], [ 38.7704495, 9.0107837 ], [ 38.7708979, 9.010699 ], [ 38.7725128, 9.0102701 ], [ 38.7732789, 9.0121882 ], [ 38.7734911, 9.0140732 ], [ 38.7721337, 9.0143144 ], [ 38.7718846, 9.0146755 ] ] ] } },
{ "type": "Feature", "properties": { "threshold_s": 300, "time_label": "5 minutes" }, "geometry": { "type": "Polygon", "coordinates": [ [ [ 38.7813866, 9.0287571 ], [ 38.7818312, 9.0297687 ], [ 38.7823238, 9.0296015 ], [ 38.7825041, 9.0296272 ], [ 38.7829637, 9.0303831 ], [ 38.782939, 9.0305886 ], [ 38.7842055, 9.0301541 ], [ 38.7844864, 9.0303093 ], [ 38.7845669, 9.0299151 ], [ 38.7854655, 9.0299026 ], [ 38.785542, 9.0298968 ], [ 38.7850285, 9.0291129 ], [ 38.7856785, 9.0288105 ], [ 38.7864765, 9.028295 ], [ 38.7857026, 9.0282428 ], [ 38.7856874, 9.0274652 ], [ 38.7852437, 9.0267237 ], [ 38.7849554, 9.0271178 ], [ 38.7845201, 9.0274837 ], [ 38.7839222, 9.0271689 ], [ 38.7838822, 9.0265785 ], [ 38.7838478, 9.0265422 ], [ 38.7834995, 9.0261202 ], [ 38.7831799, 9.0257482 ], [ 38.7823234, 9.0254736 ], [ 38.7820078, 9.0254283 ], [ 38.7813799, 9.0254233 ], [ 38.78171050000001, 9.025784 ], [ 38.7819812, 9.0264938 ], [ 38.7816188, 9.026738 ], [ 38.7812611, 9.0274963 ], [ 38.7811207, 9.0277942 ], [ 38.7808903, 9.0284557 ], [ 38.7808912, 9.0286663 ], [ 38.7812108, 9.028916 ], [ 38.7813866, 9.0287571 ] ] ] } },
{ "type": "Feature", "properties": { "threshold_s": 600, "time_label": "10 minutes" }, "geometry": { "type": "Polygon", "coordinates": [ [ [ 38.7799938, 9.0303326 ], [ 38.7803192, 9.03193 ], [ 38.7817318, 9.0329631 ], [ 38.7820987, 9.0327323 ], [ 38.7834835, 9.0321406 ], [ 38.7840456, 9.0319194 ], [ 38.7857415, 9.0317249 ], [ 38.7862229, 9.0319805 ], [ 38.7871477, 9.0320642 ], [ 38.7878908, 9.0319756 ], [ 38.7865994, 9.0309953 ], [ 38.7867588, 9.0301967 ], [ 38.7874505, 9.0295787 ], [ 38.7883327, 9.0293321 ], [ 38.7890062, 9.0288156 ], [ 38.7892601, 9.0286765 ], [ 38.788861, 9.027759 ], [ 38.7886413, 9.0266215 ], [ 38.7874317, 9.0261847 ], [ 38.7869021, 9.0255778 ], [ 38.7863276, 9.0246843 ], [ 38.7856655, 9.0255148 ], [ 38.7855547, 9.0261301 ], [ 38.7838478, 9.0265422 ], [ 38.7834995, 9.0261202 ], [ 38.783076, 9.0248046 ], [ 38.7828882, 9.0246894 ], [ 38.7817299, 9.0233442 ], [ 38.7811702, 9.0225738 ], [ 38.780621, 9.0225737 ], [ 38.7798161, 9.0233066 ], [ 38.7797893, 9.0235655 ], [ 38.7803454, 9.0244369 ], [ 38.7806417, 9.0258586 ], [ 38.7808259, 9.0265729 ], [ 38.7795984, 9.0278705 ], [ 38.7794641, 9.0279072 ], [ 38.7780345, 9.027686 ], [ 38.7778075, 9.0275426 ], [ 38.7777821, 9.0276153 ], [ 38.7777275, 9.0282723 ], [ 38.7788257, 9.0295019 ], [ 38.7799938, 9.0303326 ] ] ] } },
{ "type": "Feature", "properties": { "threshold_s": 900, "time_label": "15 minutes" }, "geometry": { "type": "Polygon", "coordinates": [ [ [ 38.7766955, 9.0306261 ], [ 38.7767635, 9.0316395 ], [ 38.7774388, 9.031858 ], [ 38.7783115, 9.0321512 ], [ 38.7787707, 9.0321413 ], [ 38.7802809, 9.0334359 ], [ 38.7799358, 9.0345924 ], [ 38.7815934, 9.0338997 ], [ 38.7834012, 9.0337818 ], [ 38.7853003, 9.0340705 ], [ 38.7858289, 9.0336612 ], [ 38.7878757, 9.0333009 ], [ 38.7882319, 9.0348824 ], [ 38.7885775, 9.034125 ], [ 38.7888122, 9.0332358 ], [ 38.7882844, 9.0322426 ], [ 38.7897626, 9.030932 ], [ 38.7918447, 9.0297488 ], [ 38.7926615, 9.0283931 ], [ 38.7926964, 9.0264009 ], [ 38.7924283, 9.0251427 ], [ 38.7905653, 9.0246714 ], [ 38.7896088, 9.0234397 ], [ 38.7881353, 9.0228568 ], [ 38.7868398, 9.0221014 ], [ 38.7862093, 9.0222595 ], [ 38.7854865, 9.0225353 ], [ 38.7837476, 9.021184 ], [ 38.7830473, 9.0200919 ], [ 38.782688, 9.0198901 ], [ 38.7822697, 9.0199832 ], [ 38.7800908, 9.0202484 ], [ 38.7783365, 9.021744 ], [ 38.7764095, 9.0231921 ], [ 38.7763592, 9.0232278 ], [ 38.7762974, 9.0233738 ], [ 38.7763746, 9.0235218 ], [ 38.7764432, 9.0256874 ], [ 38.7749916, 9.0257399 ], [ 38.7752508, 9.0269569 ], [ 38.774781, 9.0284029 ], [ 38.7761426, 9.0292092 ], [ 38.7766955, 9.0306261 ] ] ] } },
{ "type": "Feature", "properties": { "threshold_s": 300, "time_label": "5 minutes" }, "geometry": { "type": "Polygon", "coordinates": [ [ [ 38.7787355, 9.0030202 ], [ 38.7788495, 9.0036191 ], [ 38.7796307, 9.0042357 ], [ 38.7800604, 9.0045554 ], [ 38.7805226, 9.0045304 ], [ 38.7806882, 9.0033184 ], [ 38.7810322, 9.0029607 ], [ 38.7816243, 9.0021541 ], [ 38.7819455, 9.0018084 ], [ 38.7813813, 9.0009494 ], [ 38.7819998, 9.0002778 ], [ 38.7820454, 9.000199 ], [ 38.7816457, 8.9992002 ], [ 38.7812856, 8.9996232 ], [ 38.7803416, 8.9995823 ], [ 38.7800713, 8.9993625 ], [ 38.7794474, 8.9988227 ], [ 38.7793303, 8.9988134 ], [ 38.7794906, 8.9991652 ], [ 38.7802523, 8.9999692 ], [ 38.7795597, 9.0006527 ], [ 38.7797689, 9.0015699 ], [ 38.7792411, 9.0026554 ], [ 38.7787355, 9.0030202 ] ] ] } },
{ "type": "Feature", "properties": { "threshold_s": 600, "time_label": "10 minutes" }, "geometry": { "type": "Polygon", "coordinates": [ [ [ 38.7775795, 9.0043913 ], [ 38.7774528, 9.0057013 ], [ 38.7785178, 9.006465 ], [ 38.7793227, 9.0073006 ], [ 38.7810148, 9.0078206 ], [ 38.7817273, 9.007227 ], [ 38.7831612, 9.0062702 ], [ 38.7841033, 9.0045257 ], [ 38.7844356, 9.0035094 ], [ 38.7845137, 9.003219 ], [ 38.7844332, 9.0012765 ], [ 38.7847739, 8.9993148 ], [ 38.7839102, 8.9987704 ], [ 38.7831216, 8.9974816 ], [ 38.7822043, 8.9962199 ], [ 38.7809383, 8.9959589 ], [ 38.7798823, 8.9953285 ], [ 38.7785485, 8.9951933 ], [ 38.7781307, 8.9965431 ], [ 38.777362, 8.9984848 ], [ 38.7779966, 8.9994625 ], [ 38.7795597, 9.0006527 ], [ 38.7792411, 9.0026554 ], [ 38.7787355, 9.0030202 ], [ 38.7775795, 9.0043913 ] ] ] } },
{ "type": "Feature", "properties": { "threshold_s": 900, "time_label": "15 minutes" }, "geometry": { "type": "Polygon", "coordinates": [ [ [ 38.7747095, 9.005959 ], [ 38.774324, 9.0086107 ], [ 38.7754892, 9.0093199 ], [ 38.7788254, 9.0095605 ], [ 38.7791667, 9.0096975 ], [ 38.7809817, 9.0108855 ], [ 38.7818241, 9.010273 ], [ 38.784106, 9.0088471 ], [ 38.7859386, 9.007004 ], [ 38.7872382, 9.0048582 ], [ 38.7871067, 9.0018216 ], [ 38.7872522, 8.9999453 ], [ 38.7873295, 8.9978484 ], [ 38.7862862, 8.9969378 ], [ 38.7842643, 8.9950205 ], [ 38.7835463, 8.9941187 ], [ 38.78140770000001, 8.9924461 ], [ 38.7792204, 8.9924686 ], [ 38.7785505, 8.9925918 ], [ 38.7779248, 8.992709 ], [ 38.7770092, 8.9949946 ], [ 38.7776278, 8.9979624 ], [ 38.777362, 8.9984848 ], [ 38.7762203, 9.001462 ], [ 38.7753379, 9.0044741 ], [ 38.7747095, 9.005959 ] ] ] } },
{ "type": "Feature", "properties": { "threshold_s": 300, "time_label": "5 minutes" }, "geometry": { "type": "Polygon", "coordinates": [ [ [ 38.7663074, 8.9636459 ], [ 38.7666165, 8.9646906 ], [ 38.7672373, 8.9639379 ], [ 38.7680505, 8.9638347 ], [ 38.7689089, 8.9633673 ], [ 38.7693638, 8.9630323 ], [ 38.7701002, 8.9618346 ], [ 38.7701771, 8.9605403 ], [ 38.7697599, 8.9598733 ], [ 38.7689144, 8.9594757 ], [ 38.7682133, 8.9587071 ], [ 38.7677763, 8.9586487 ], [ 38.7682428, 8.9592714 ], [ 38.7676332, 8.9605345 ], [ 38.7675583, 8.9608874 ], [ 38.7674181, 8.9615098 ], [ 38.7671471, 8.9623968 ], [ 38.7662926, 8.9635619 ], [ 38.7663074, 8.9636459 ] ] ] } },
{ "type": "Feature", "properties": { "threshold_s": 600, "time_label": "10 minutes" }, "geometry": { "type": "Polygon", "coordinates": [ [ [ 38.7651042, 8.9661541 ], [ 38.7649932, 8.9666377 ], [ 38.7662108, 8.9676225 ], [ 38.7664978, 8.9676049 ], [ 38.767911, 8.9663687 ], [ 38.7681896, 8.9660117 ], [ 38.768958499999989, 8.9650687 ], [ 38.7696234, 8.9636751 ], [ 38.7705221, 8.9624911 ], [ 38.7718099, 8.962378 ], [ 38.7726464, 8.9617668 ], [ 38.7728745, 8.9603473 ], [ 38.7728159, 8.9599105 ], [ 38.7723338, 8.957994 ], [ 38.770911, 8.9575947 ], [ 38.7703479, 8.9569176 ], [ 38.7696409, 8.9569236 ], [ 38.7691437, 8.9567911 ], [ 38.768134, 8.9554679 ], [ 38.767763, 8.9554364 ], [ 38.7676108, 8.9562197 ], [ 38.7662447, 8.9572923 ], [ 38.7666186, 8.95733 ], [ 38.7677763, 8.9586487 ], [ 38.7671116, 8.9599743 ], [ 38.7665363, 8.9607523 ], [ 38.7651939, 8.961646 ], [ 38.7642731, 8.9618718 ], [ 38.7634032, 8.9632481 ], [ 38.7633086, 8.9638436 ], [ 38.7632587, 8.9641906 ], [ 38.7642704, 8.9641557 ], [ 38.7654878, 8.9646567 ], [ 38.7651042, 8.9661541 ] ] ] } },
{ "type": "Feature", "properties": { "threshold_s": 900, "time_label": "15 minutes" }, "geometry": { "type": "Polygon", "coordinates": [ [ [ 38.762602, 8.9674346 ], [ 38.7627354, 8.9676055 ], [ 38.7649967, 8.969361 ], [ 38.7666752, 8.9710198 ], [ 38.7670588, 8.9707017 ], [ 38.7673138, 8.9697666 ], [ 38.7676983, 8.9680927 ], [ 38.768958499999989, 8.9650687 ], [ 38.7718099, 8.962378 ], [ 38.7726464, 8.9617668 ], [ 38.7746049, 8.9599046 ], [ 38.775242, 8.9583361 ], [ 38.7751256, 8.9575571 ], [ 38.7745982, 8.9553157 ], [ 38.7734368, 8.9554558 ], [ 38.7707686, 8.9540323 ], [ 38.7695125, 8.9526964 ], [ 38.7690376, 8.9525519 ], [ 38.7684572, 8.9529803 ], [ 38.7652641, 8.9549039 ], [ 38.7638816, 8.9562193 ], [ 38.7637294, 8.9567795 ], [ 38.7638096, 8.9575442 ], [ 38.7638272, 8.9577078 ], [ 38.7637591, 8.9608204 ], [ 38.7623257, 8.9643852 ], [ 38.7621561, 8.9651266 ], [ 38.7621264, 8.9658193 ], [ 38.7621352, 8.9665994 ], [ 38.762602, 8.9674346 ] ] ] } },
{ "type": "Feature", "properties": { "threshold_s": 300, "time_label": "5 minutes" }, "geometry": { "type": "Polygon", "coordinates": [ [ [ 38.7818469, 9.0080756 ], [ 38.7820243, 9.0086886 ], [ 38.7825194, 9.0091421 ], [ 38.7828936, 9.0091551 ], [ 38.7831538, 9.00811 ], [ 38.7843038, 9.0083295 ], [ 38.7843461, 9.0078941 ], [ 38.7837833, 9.0077407 ], [ 38.7832671, 9.0076047 ], [ 38.7830203, 9.0068467 ], [ 38.7836044, 9.0063722 ], [ 38.7841301, 9.0065027 ], [ 38.7846753, 9.0066285 ], [ 38.7847403, 9.0066431 ], [ 38.7853284, 9.00681 ], [ 38.7859386, 9.007004 ], [ 38.7865522, 9.0071981 ], [ 38.7860788, 9.0059955 ], [ 38.7857234, 9.0053434 ], [ 38.7853398, 9.0043516 ], [ 38.7852708, 9.0043406 ], [ 38.7846418, 9.004535 ], [ 38.7839671, 9.0034577 ], [ 38.7837241, 9.0040286 ], [ 38.7836494, 9.0045185 ], [ 38.7824927, 9.004531 ], [ 38.7822177, 9.004539 ], [ 38.7814647, 9.0050556 ], [ 38.7808424, 9.0051589 ], [ 38.7807284, 9.0052172 ], [ 38.7810221, 9.0058338 ], [ 38.7811549, 9.0064925 ], [ 38.7817273, 9.007227 ], [ 38.7818469, 9.0080756 ] ] ] } },
{ "type": "Feature", "properties": { "threshold_s": 600, "time_label": "10 minutes" }, "geometry": { "type": "Polygon", "coordinates": [ [ [ 38.7810637, 9.010816 ], [ 38.7811587, 9.0112123 ], [ 38.782751, 9.0114268 ], [ 38.7835543, 9.0118734 ], [ 38.7836253, 9.0118787 ], [ 38.7842348, 9.0111045 ], [ 38.7851768, 9.0101595 ], [ 38.7857111, 9.0102443 ], [ 38.7864858, 9.0087789 ], [ 38.7869079, 9.0088869 ], [ 38.7876204, 9.009073 ], [ 38.7884709, 9.0091113 ], [ 38.7896106, 9.0081431 ], [ 38.7897254, 9.0080009 ], [ 38.7890474, 9.0069271 ], [ 38.7890131, 9.0068663 ], [ 38.7884815, 9.0061521 ], [ 38.7884995, 9.005243 ], [ 38.7881072, 9.0046141 ], [ 38.7875667, 9.0037098 ], [ 38.7868164, 9.0023031 ], [ 38.7865212, 9.0017309 ], [ 38.7864858, 9.0016719 ], [ 38.7856291, 9.0010559 ], [ 38.7848335, 9.0009182 ], [ 38.7839279, 9.0010036 ], [ 38.7831923, 9.0024359 ], [ 38.7821554, 9.0025561 ], [ 38.7815539, 9.0023892 ], [ 38.780006899999989, 9.0025548 ], [ 38.7799164, 9.0025541 ], [ 38.7792411, 9.0026554 ], [ 38.779138, 9.0039362 ], [ 38.7782481, 9.0051158 ], [ 38.7781381, 9.0052986 ], [ 38.7794724, 9.0056821 ], [ 38.7793355, 9.0069961 ], [ 38.7790846, 9.007266 ], [ 38.7790943, 9.0080133 ], [ 38.7796166, 9.0095556 ], [ 38.7798812, 9.0096691 ], [ 38.7810637, 9.010816 ] ] ] } },
{ "type": "Feature", "properties": { "threshold_s": 900, "time_label": "15 minutes" }, "geometry": { "type": "Polygon", "coordinates": [ [ [ 38.7782262, 9.0118166 ], [ 38.7792254, 9.0132141 ], [ 38.7793668, 9.0132882 ], [ 38.7812692, 9.0141888 ], [ 38.7832979, 9.0148016 ], [ 38.7834846, 9.01484 ], [ 38.7846189, 9.0145445 ], [ 38.7851496, 9.0138266 ], [ 38.7859647, 9.0127606 ], [ 38.7878286, 9.0118477 ], [ 38.7887416, 9.011563 ], [ 38.789243, 9.0112607 ], [ 38.7904845, 9.0105537 ], [ 38.7909578, 9.0099514 ], [ 38.7920814, 9.0086222 ], [ 38.7925181, 9.0080703 ], [ 38.7917664, 9.0063258 ], [ 38.7917436, 9.0057285 ], [ 38.7917389, 9.0056483 ], [ 38.7905674, 9.0042118 ], [ 38.7889548, 9.0034296 ], [ 38.7882698, 9.0017096 ], [ 38.7889105, 9.0000486 ], [ 38.7880436, 8.9997064 ], [ 38.7870403, 8.9997513 ], [ 38.785766, 8.9987532 ], [ 38.7856127, 8.9987552 ], [ 38.7845898, 8.998985 ], [ 38.7839798, 8.9998376 ], [ 38.782378, 8.9997652 ], [ 38.7812856, 8.9996232 ], [ 38.7794474, 8.9988227 ], [ 38.7793303, 8.9988134 ], [ 38.7795597, 9.0006527 ], [ 38.7792411, 9.0026554 ], [ 38.7787355, 9.0030202 ], [ 38.7768754, 9.0031859 ], [ 38.7759407, 9.0043032 ], [ 38.7758341, 9.0048954 ], [ 38.7759588, 9.0070067 ], [ 38.7763593, 9.0077319 ], [ 38.7780831, 9.0090041 ], [ 38.7778545, 9.009386 ], [ 38.7776996, 9.0101831 ], [ 38.7778365, 9.0113481 ], [ 38.7782262, 9.0118166 ] ] ] } },
{ "type": "Feature", "properties": { "threshold_s": 300, "time_label": "5 minutes" }, "geometry": { "type": "Polygon", "coordinates": [ [ [ 38.7412389, 8.9554323 ], [ 38.741532, 8.9558019 ], [ 38.7422287, 8.9561532 ], [ 38.7426077, 8.9561671 ], [ 38.7428757, 8.9561712 ], [ 38.7428778, 8.9561296 ], [ 38.7428878, 8.9557906 ], [ 38.7428955, 8.9554628 ], [ 38.7436611, 8.9548258 ], [ 38.7439639, 8.9548402 ], [ 38.7437058, 8.9538676 ], [ 38.7437159, 8.953544 ], [ 38.7437265, 8.9532302 ], [ 38.7426528, 8.9535119 ], [ 38.7426591, 8.9531932 ], [ 38.7427995, 8.9527835 ], [ 38.7428686, 8.9523515 ], [ 38.7421748, 8.952504 ], [ 38.7418642, 8.9517837 ], [ 38.7419392, 8.951485 ], [ 38.7419973, 8.9512249 ], [ 38.7420067, 8.9511743 ], [ 38.7411131, 8.9516133 ], [ 38.7407055, 8.952488 ], [ 38.740496, 8.952441 ], [ 38.7401446, 8.9523628 ], [ 38.7398113, 8.9522853 ], [ 38.7393635, 8.9526991 ], [ 38.7397643, 8.9527963 ], [ 38.7408343, 8.9530557 ], [ 38.7409466, 8.9535255 ], [ 38.7407423, 8.9543131 ], [ 38.7410898, 8.9550802 ], [ 38.7412389, 8.9554323 ] ] ] } },
{ "type": "Feature", "properties": { "threshold_s": 600, "time_label": "10 minutes" }, "geometry": { "type": "Polygon", "coordinates": [ [ [ 38.7372737, 8.9516334 ], [ 38.7381752, 8.9526622 ], [ 38.7388181, 8.9533071 ], [ 38.7391974, 8.9534311 ], [ 38.739611, 8.9535942 ], [ 38.7407423, 8.9543131 ], [ 38.7410898, 8.9550802 ], [ 38.7412389, 8.9554323 ], [ 38.741532, 8.9558019 ], [ 38.7422287, 8.9561532 ], [ 38.7429693, 8.9567245 ], [ 38.7435275, 8.9575373 ], [ 38.7442371, 8.957178 ], [ 38.745216, 8.9570471 ], [ 38.7459107, 8.9567583 ], [ 38.7455081, 8.95601 ], [ 38.7455313, 8.9555491 ], [ 38.7464126, 8.9546611 ], [ 38.7463812, 8.9542043 ], [ 38.7465044, 8.9531234 ], [ 38.7464627, 8.952713 ], [ 38.7461382, 8.9518 ], [ 38.7453727, 8.9508673 ], [ 38.7450554, 8.9505404 ], [ 38.744119, 8.9500842 ], [ 38.7439246, 8.9491932 ], [ 38.7431185, 8.9484161 ], [ 38.7427741, 8.9480084 ], [ 38.742193, 8.9482344 ], [ 38.7416137, 8.9484972 ], [ 38.7403698, 8.9493268 ], [ 38.7399756, 8.9492734 ], [ 38.7390992, 8.9499318 ], [ 38.7382146, 8.9501484 ], [ 38.7374691, 8.9501173 ], [ 38.7372219, 8.9509049 ], [ 38.7372737, 8.9516334 ] ] ] } },
{ "type": "Feature", "properties": { "threshold_s": 900, "time_label": "15 minutes" }, "geometry": { "type": "Polygon", "coordinates": [ [ [ 38.7372737, 8.9516334 ], [ 38.7381752, 8.9526622 ], [ 38.7388181, 8.9533071 ], [ 38.7391974, 8.9534311 ], [ 38.739611, 8.9535942 ], [ 38.7410898, 8.9550802 ], [ 38.7412389, 8.9554323 ], [ 38.741532, 8.9558019 ], [ 38.7422287, 8.9561532 ], [ 38.7435275, 8.9575373 ], [ 38.7442371, 8.957178 ], [ 38.745216, 8.9570471 ], [ 38.746077, 8.9588322 ], [ 38.7456364, 8.9594204 ], [ 38.7458009, 8.9594581 ], [ 38.7472702, 8.9581202 ], [ 38.7479981, 8.9578798 ], [ 38.7479847, 8.9578427 ], [ 38.7459107, 8.9567583 ], [ 38.7464686, 8.9554513 ], [ 38.7473767, 8.9545751 ], [ 38.7474093, 8.9541199 ], [ 38.747598, 8.9529993 ], [ 38.7488279, 8.9515738 ], [ 38.7489388, 8.9514326 ], [ 38.7478513, 8.9502842 ], [ 38.7476658, 8.9492291 ], [ 38.7464827, 8.9481564 ], [ 38.7455904, 8.9469519 ], [ 38.7442272, 8.9459567 ], [ 38.7435338, 8.9449501 ], [ 38.7432776, 8.9448945 ], [ 38.7431643, 8.9448719 ], [ 38.7416962, 8.9456903 ], [ 38.7407381, 8.9460972 ], [ 38.7392811, 8.9472242 ], [ 38.7376166, 8.9475227 ], [ 38.7369655, 8.947526 ], [ 38.7362403, 8.9474797 ], [ 38.7351549, 8.9482016 ], [ 38.7363612, 8.9498128 ], [ 38.7364631, 8.950322 ], [ 38.7372737, 8.9516334 ] ] ] } },
{ "type": "Feature", "properties": { "threshold_s": 300, "time_label": "5 minutes" }, "geometry": { "type": "Polygon", "coordinates": [ [ [ 38.7780499, 9.0051597 ], [ 38.7776747, 9.0055086 ], [ 38.7781773, 9.0053519 ], [ 38.778296, 9.0051979 ], [ 38.7794724, 9.0056821 ], [ 38.7796256, 9.0059179 ], [ 38.7805417, 9.0063265 ], [ 38.781114, 9.0070292 ], [ 38.7812226, 9.0070596 ], [ 38.7818259, 9.0064664 ], [ 38.7823277, 9.0060781 ], [ 38.7823866, 9.0056114 ], [ 38.7824454, 9.0050943 ], [ 38.7824927, 9.004531 ], [ 38.782213, 9.0034965 ], [ 38.7822103, 9.0030031 ], [ 38.7821554, 9.0025561 ], [ 38.7819455, 9.0018084 ], [ 38.7809066, 9.0015258 ], [ 38.7799883, 9.0014249 ], [ 38.7797689, 9.0015699 ], [ 38.7799164, 9.0025541 ], [ 38.7792411, 9.0026554 ], [ 38.7787355, 9.0030202 ], [ 38.779138, 9.0039362 ], [ 38.7791347, 9.0046913 ], [ 38.7782481, 9.0051158 ], [ 38.7780499, 9.0051597 ] ] ] } },
{ "type": "Feature", "properties": { "threshold_s": 600, "time_label": "10 minutes" }, "geometry": { "type": "Polygon", "coordinates": [ [ [ 38.775304, 9.0062872 ], [ 38.7753949, 9.008012 ], [ 38.7770297, 9.0082385 ], [ 38.7788281, 9.0086468 ], [ 38.7792599, 9.0090637 ], [ 38.780713, 9.0097015 ], [ 38.7817363, 9.009675 ], [ 38.7828936, 9.0091551 ], [ 38.7843461, 9.0078941 ], [ 38.7853284, 9.00681 ], [ 38.7850243, 9.0055756 ], [ 38.7852859, 9.0045649 ], [ 38.7853398, 9.0043516 ], [ 38.7849636, 9.0033462 ], [ 38.7852721, 9.0022342 ], [ 38.7851237, 9.0014757 ], [ 38.7848335, 9.0009182 ], [ 38.7839798, 8.9998376 ], [ 38.7822224, 8.9988671 ], [ 38.7817443, 8.9986419 ], [ 38.7800713, 8.9993625 ], [ 38.7793511, 8.9981399 ], [ 38.7792988, 8.9978577 ], [ 38.7791942, 8.9979054 ], [ 38.7783258, 8.9985267 ], [ 38.7787335, 8.9986333 ], [ 38.7794906, 8.9991652 ], [ 38.7795597, 9.0006527 ], [ 38.7797689, 9.0015699 ], [ 38.7792411, 9.0026554 ], [ 38.7772268, 9.0028263 ], [ 38.7768292, 9.0030111 ], [ 38.7759407, 9.0043032 ], [ 38.7753379, 9.0044741 ], [ 38.775304, 9.0062872 ] ] ] } },
{ "type": "Feature", "properties": { "threshold_s": 900, "time_label": "15 minutes" }, "geometry": { "type": "Polygon", "coordinates": [ [ [ 38.7730641, 9.0075053 ], [ 38.7727248, 9.0097637 ], [ 38.7746465, 9.0115406 ], [ 38.7750935, 9.011388 ], [ 38.7778365, 9.0113481 ], [ 38.7782262, 9.0118166 ], [ 38.7792254, 9.0132141 ], [ 38.7817163, 9.0136245 ], [ 38.7836253, 9.0118787 ], [ 38.7857111, 9.0102443 ], [ 38.7869079, 9.0088869 ], [ 38.7887931, 9.0078893 ], [ 38.7888099, 9.0053423 ], [ 38.7885672, 9.004992 ], [ 38.7883516, 9.0046885 ], [ 38.7881713, 9.0043853 ], [ 38.787735, 9.001911 ], [ 38.7880442, 9.0011082 ], [ 38.78759, 8.9998962 ], [ 38.7873295, 8.9978484 ], [ 38.7865017, 8.9973294 ], [ 38.7849529, 8.9969014 ], [ 38.7831297, 8.9956881 ], [ 38.7812836, 8.9954543 ], [ 38.7792063, 8.995031 ], [ 38.7785183, 8.9945482 ], [ 38.7784264, 8.9944714 ], [ 38.7777683, 8.9954023 ], [ 38.7776278, 8.9979624 ], [ 38.777362, 8.9984848 ], [ 38.7779966, 8.9994625 ], [ 38.7762056, 9.001101 ], [ 38.7753335, 9.0004719 ], [ 38.7752118, 9.0003829 ], [ 38.7747263, 9.000099 ], [ 38.7746622, 9.0000656 ], [ 38.774843, 9.0010288 ], [ 38.7757771, 9.0033548 ], [ 38.7734664, 9.0036753 ], [ 38.7728032, 9.0057086 ], [ 38.7720133, 9.0060404 ], [ 38.7730641, 9.0075053 ] ] ] } },
{ "type": "Feature", "properties": { "threshold_s": 300, "time_label": "5 minutes" }, "geometry": { "type": "Polygon", "coordinates": [ [ [ 38.7822043, 8.9962199 ], [ 38.7821989, 8.9967544 ], [ 38.7831297, 8.9956881 ], [ 38.7831292, 8.9955145 ], [ 38.782616, 8.9950866 ], [ 38.7821735, 8.9939806 ], [ 38.7821728, 8.9934872 ], [ 38.7818248, 8.9926732 ], [ 38.7821482, 8.9918317 ], [ 38.7830847, 8.9921255 ], [ 38.7835448, 8.9912989 ], [ 38.7835142, 8.9912231 ], [ 38.7830448, 8.9911225 ], [ 38.7817577, 8.9913003 ], [ 38.7808029, 8.9921666 ], [ 38.7807766, 8.9922331 ], [ 38.7809926, 8.9933249 ], [ 38.7807734, 8.9938303 ], [ 38.7805353, 8.9943244 ], [ 38.7812836, 8.9954543 ], [ 38.7822043, 8.9962199 ] ] ] } },
{ "type": "Feature", "properties": { "threshold_s": 600, "time_label": "10 minutes" }, "geometry": { "type": "Polygon", "coordinates": [ [ [ 38.7781307, 8.9965431 ], [ 38.7786457, 8.9975875 ], [ 38.7793511, 8.9981399 ], [ 38.7806393, 8.9975317 ], [ 38.7817443, 8.9986419 ], [ 38.7812856, 8.9996232 ], [ 38.7827763, 8.9993254 ], [ 38.783416, 8.9991267 ], [ 38.7837379, 8.9980147 ], [ 38.784963, 8.9974392 ], [ 38.7855356, 8.9969067 ], [ 38.7845103, 8.9958517 ], [ 38.7842643, 8.9950205 ], [ 38.7848684, 8.9936965 ], [ 38.7860104, 8.9923858 ], [ 38.7862157, 8.9911515 ], [ 38.7867924, 8.9899722 ], [ 38.7850903, 8.9893134 ], [ 38.7847764, 8.9890768 ], [ 38.7835729, 8.9882331 ], [ 38.7820635, 8.9884861 ], [ 38.7812904, 8.9882357 ], [ 38.7809162, 8.9889418 ], [ 38.78009, 8.9905694 ], [ 38.7787228, 8.9903263 ], [ 38.7780505, 8.991738 ], [ 38.7779845, 8.9920851 ], [ 38.7779248, 8.992709 ], [ 38.7779972, 8.993111 ], [ 38.7785183, 8.9945482 ], [ 38.7781307, 8.9965431 ] ] ] } },
{ "type": "Feature", "properties": { "threshold_s": 900, "time_label": "15 minutes" }, "geometry": { "type": "Polygon", "coordinates": [ [ [ 38.7795597, 9.0006527 ], [ 38.7797689, 9.0015699 ], [ 38.7805632, 9.0019087 ], [ 38.7816243, 9.0021541 ], [ 38.782411, 9.0014722 ], [ 38.783090799999989, 9.0006189 ], [ 38.7835287, 9.0002109 ], [ 38.7855175, 9.0003646 ], [ 38.7862933, 9.0000274 ], [ 38.7868335, 8.9981402 ], [ 38.7873295, 8.9978484 ], [ 38.7864896, 8.9969136 ], [ 38.7876687, 8.9957904 ], [ 38.787635, 8.995753 ], [ 38.7875536, 8.9956627 ], [ 38.7873682, 8.9940098 ], [ 38.7880334, 8.9933872 ], [ 38.7887993, 8.9927548 ], [ 38.7886027, 8.9912301 ], [ 38.7892605, 8.9895906 ], [ 38.7896179, 8.9886266 ], [ 38.7895664, 8.9885849 ], [ 38.7878494, 8.9877103 ], [ 38.786632, 8.9870718 ], [ 38.785606, 8.9859282 ], [ 38.7851306, 8.9856381 ], [ 38.7846151, 8.9853846 ], [ 38.784115, 8.9851798 ], [ 38.7829011, 8.9860035 ], [ 38.7814712, 8.9855099 ], [ 38.7803636, 8.9851876 ], [ 38.779944, 8.9862597 ], [ 38.7786151, 8.9867668 ], [ 38.777445299999989, 8.9880264 ], [ 38.7769009, 8.9885584 ], [ 38.776855, 8.9886044 ], [ 38.776481, 8.989139 ], [ 38.7768315, 8.9896015 ], [ 38.7769319, 8.990373 ], [ 38.7750877, 8.9907234 ], [ 38.7750958, 8.9913513 ], [ 38.7753801, 8.9924898 ], [ 38.7744085, 8.9935113 ], [ 38.7743139, 8.993575 ], [ 38.774301, 8.9940623 ], [ 38.7745281, 8.9942727 ], [ 38.7746717, 8.9942237 ], [ 38.7748349, 8.9941601 ], [ 38.7765583, 8.9936071 ], [ 38.7770092, 8.9949946 ], [ 38.7781307, 8.9965431 ], [ 38.7776278, 8.9979624 ], [ 38.777362, 8.9984848 ], [ 38.7779966, 8.9994625 ], [ 38.7795597, 9.0006527 ] ] ] } }
]
}
