{
"type": "FeatureCollection",
"name": "isochrone_shop_kiosk_multimodal",
"crs": { "type": "name", "properties": { "name": "urn:ogc:def:crs:OGC:1.3:CRS84" } },
"features": [
{ "type": "Feature", "properties": { "threshold_s": 300, "time_label": "5 minutes" }, "geometry": { "type": "Polygon", "coordinates": [ [ [ 38.7511134, 9.0272287 ], [ 38.7508772, 9.0273428 ], [ 38.751567, 9.0276031 ], [ 38.7517847, 9.0276236 ], [ 38.7519917, 9.0274854 ], [ 38.7520469, 9.0273197 ], [ 38.7521239, 9.0269641 ], [ 38.7521154, 9.0268598 ], [ 38.7541621, 9.0265885 ], [ 38.7541936, 9.026673 ], [ 38.7548754, 9.0266116 ], [ 38.7548785, 9.0265448 ], [ 38.7543934, 9.0265644 ], [ 38.7535565, 9.0258127 ], [ 38.7529988, 9.0254039 ], [ 38.7536041, 9.0241676 ], [ 38.7526061, 9.0247498 ], [ 38.752218, 9.0240002 ], [ 38.7522691, 9.0233545 ], [ 38.7520335, 9.0233397 ], [ 38.7519742, 9.0239852 ], [ 38.7518575, 9.0242085 ], [ 38.7508048, 9.0245939 ], [ 38.7511489, 9.024811 ], [ 38.7513308, 9.0251193 ], [ 38.7511448, 9.025789 ], [ 38.7515782, 9.0265038 ], [ 38.7511134, 9.0272287 ] ] ] } },
{ "type": "Feature", "properties": { "threshold_s": 600, "time_label": "10 minutes" }, "geometry": { "type": "Polygon", "coordinates": [ [ [ 38.7480175, 9.0280594 ], [ 38.7480031, 9.0281187 ], [ 38.7484588, 9.0288283 ], [ 38.7489523, 9.0289841 ], [ 38.7506515, 9.0298759 ], [ 38.7512775, 9.0305243 ], [ 38.7523914, 9.0301702 ], [ 38.7531912, 9.0297342 ], [ 38.7526328, 9.0285574 ], [ 38.7520469, 9.0273197 ], [ 38.7521239, 9.0269641 ], [ 38.7541936, 9.026673 ], [ 38.7548754, 9.0266116 ], [ 38.7552246, 9.0265647 ], [ 38.756242, 9.0266529 ], [ 38.7570509, 9.0269689 ], [ 38.757176, 9.0270112 ], [ 38.7578252, 9.0271727 ], [ 38.7581126, 9.0269965 ], [ 38.7577313, 9.0264413 ], [ 38.7573693, 9.0258112 ], [ 38.7569493, 9.0243252 ], [ 38.7567715, 9.0239365 ], [ 38.7551053, 9.0237342 ], [ 38.7546091, 9.0217117 ], [ 38.753803499999989, 9.0201135 ], [ 38.7524589, 9.0188007 ], [ 38.7522606, 9.0190529 ], [ 38.7516362, 9.0201176 ], [ 38.750257499999989, 9.0211257 ], [ 38.7494568, 9.0211261 ], [ 38.7494123, 9.0211759 ], [ 38.7494485, 9.0212461 ], [ 38.7505797, 9.0229467 ], [ 38.7508048, 9.0245939 ], [ 38.75011, 9.0262182 ], [ 38.7494022, 9.027615 ], [ 38.7480859, 9.027872 ], [ 38.7480175, 9.0280594 ] ] ] } },
{ "type": "Feature", "properties": { "threshold_s": 900, "time_label": "15 minutes" }, "geometry": { "type": "Polygon", "coordinates": [ [ [ 38.7472081, 9.0293312 ], [ 38.7476809, 9.032044 ], [ 38.7498634, 9.0331639 ], [ 38.7501953, 9.0340712 ], [ 38.7502615, 9.0341018 ], [ 38.7511778, 9.0335783 ], [ 38.7537317, 9.0330835 ], [ 38.7540889, 9.0329092 ], [ 38.7543443, 9.0327333 ], [ 38.7559834, 9.0307648 ], [ 38.7573225, 9.0296974 ], [ 38.7586122, 9.0287572 ], [ 38.7606042, 9.0274668 ], [ 38.76061210000001, 9.0274013 ], [ 38.76061330000001, 9.0273217 ], [ 38.7605964, 9.0266468 ], [ 38.7603009, 9.0259014 ], [ 38.7591047, 9.0249154 ], [ 38.7575279, 9.0235574 ], [ 38.7571803, 9.0219117 ], [ 38.7565524, 9.0195638 ], [ 38.755531, 9.0174041 ], [ 38.7545526, 9.0166205 ], [ 38.7535535, 9.0163947 ], [ 38.7516063, 9.015912 ], [ 38.7514878, 9.0159781 ], [ 38.7508067, 9.0168402 ], [ 38.7492908, 9.0183245 ], [ 38.7477413, 9.0193554 ], [ 38.7475793, 9.0207992 ], [ 38.7466739, 9.0231346 ], [ 38.7466013, 9.0257342 ], [ 38.7452193, 9.0273356 ], [ 38.745625, 9.0284495 ], [ 38.746431, 9.0288773 ], [ 38.7472081, 9.0293312 ] ] ] } },
{ "type": "Feature", "properties": { "threshold_s": 300, "time_label": "5 minutes" }, "geometry": { "type": "Polygon", "coordinates": [ [ [ 38.762325, 8.9214375 ], [ 38.7617196, 8.9218839 ], [ 38.7623961, 8.9221456 ], [ 38.7629854, 8.9225283 ], [ 38.7631679, 8.9225352 ], [ 38.764025, 8.9221465 ], [ 38.7645713, 8.9231355 ], [ 38.763818, 8.9233681 ], [ 38.7640598, 8.9241124 ], [ 38.7644447, 8.9241004 ], [ 38.7650369, 8.9238746 ], [ 38.7657949, 8.9247256 ], [ 38.7658328, 8.9234764 ], [ 38.7656528, 8.9231776 ], [ 38.7660252, 8.9224462 ], [ 38.7654567, 8.922813 ], [ 38.7648154, 8.9231575 ], [ 38.7651441, 8.9218263 ], [ 38.7655915, 8.92146 ], [ 38.7660433, 8.9212692 ], [ 38.766152, 8.9205944 ], [ 38.7657205, 8.9208414 ], [ 38.7651461, 8.9209936 ], [ 38.7644956, 8.9210513 ], [ 38.7642021, 8.9202824 ], [ 38.7651195, 8.9198591 ], [ 38.7644028, 8.9193183 ], [ 38.7634813, 8.9196234 ], [ 38.7626731, 8.919576 ], [ 38.7625209, 8.9196684 ], [ 38.7627912, 8.9201324 ], [ 38.7629092, 8.9200967 ], [ 38.7638171, 8.9204988 ], [ 38.7637316, 8.9213882 ], [ 38.7636795, 8.9216597 ], [ 38.7626818, 8.9219414 ], [ 38.762325, 8.9214375 ] ] ] } },
{ "type": "Feature", "properties": { "threshold_s": 600, "time_label": "10 minutes" }, "geometry": { "type": "Polygon", "coordinates": [ [ [ 38.7598168, 8.9205519 ], [ 38.7589368, 8.9225986 ], [ 38.7605102, 8.923062 ], [ 38.7620106, 8.9247642 ], [ 38.7639596, 8.9256452 ], [ 38.7639378, 8.9262255 ], [ 38.7650469, 8.9256148 ], [ 38.7670466, 8.9278226 ], [ 38.7673383, 8.9277736 ], [ 38.7672173, 8.927562 ], [ 38.766051, 8.9251588 ], [ 38.7667353, 8.9252531 ], [ 38.7673006, 8.9244971 ], [ 38.7679181, 8.923879 ], [ 38.7681958, 8.923601 ], [ 38.7678686, 8.9220124 ], [ 38.768427, 8.9210203 ], [ 38.7693007, 8.9204716 ], [ 38.7683555, 8.9184518 ], [ 38.767195, 8.9177147 ], [ 38.7650368, 8.917144 ], [ 38.7648314, 8.9169911 ], [ 38.7627254, 8.9169209 ], [ 38.7614259, 8.9167831 ], [ 38.7609878, 8.9167407 ], [ 38.760184, 8.9183187 ], [ 38.7598168, 8.9205519 ] ] ] } },
{ "type": "Feature", "properties": { "threshold_s": 900, "time_label": "15 minutes" }, "geometry": { "type": "Polygon", "coordinates": [ [ [ 38.7569234, 8.921074 ], [ 38.7559728, 8.9243256 ], [ 38.758277, 8.9262719 ], [ 38.758919, 8.9269675 ], [ 38.7611108, 8.9273252 ], [ 38.7644032, 8.9285321 ], [ 38.7646767, 8.9288832 ], [ 38.7652629, 8.9297203 ], [ 38.767584, 8.9309732 ], [ 38.7686906, 8.9304561 ], [ 38.7688774, 8.9287179 ], [ 38.7689924, 8.9267885 ], [ 38.77019, 8.9237123 ], [ 38.7697688, 8.921807 ], [ 38.7716048, 8.9191467 ], [ 38.7720574, 8.9188636 ], [ 38.7707201, 8.9171091 ], [ 38.7695128, 8.9160491 ], [ 38.7664882, 8.9142046 ], [ 38.7633776, 8.912433 ], [ 38.7609315, 8.9136422 ], [ 38.7599674, 8.9157688 ], [ 38.7582412, 8.9164931 ], [ 38.7575448, 8.9172296 ], [ 38.7575976, 8.9176298 ], [ 38.7569234, 8.921074 ] ] ] } },
{ "type": "Feature", "properties": { "threshold_s": 300, "time_label": "5 minutes" }, "geometry": { "type": "Polygon", "coordinates": [ [ [ 38.7313315, 8.99621 ], [ 38.7309689, 8.9974523 ], [ 38.7316547, 8.9970266 ], [ 38.7317139, 8.9959519 ], [ 38.7324621, 8.9965338 ], [ 38.7327133, 8.9962945 ], [ 38.7331104, 8.9960335 ], [ 38.7338063, 8.9959675 ], [ 38.7343846, 8.996604 ], [ 38.7337268, 8.9973737 ], [ 38.7344089, 8.9966973 ], [ 38.7344921, 8.9967019 ], [ 38.7345609, 8.996708 ], [ 38.7347849, 8.9966736 ], [ 38.7351872, 8.9964457 ], [ 38.7363319, 8.9957165 ], [ 38.7349678, 8.9955992 ], [ 38.734162, 8.9953306 ], [ 38.733685199999989, 8.9946549 ], [ 38.7338937, 8.9945089 ], [ 38.7351712, 8.9945303 ], [ 38.735666, 8.99357 ], [ 38.7337403, 8.9942985 ], [ 38.7335208, 8.9943908 ], [ 38.7329313, 8.9947462 ], [ 38.7326592, 8.9953344 ], [ 38.7322609, 8.9956067 ], [ 38.7314196, 8.9954826 ], [ 38.7313315, 8.99621 ] ] ] } },
{ "type": "Feature", "properties": { "threshold_s": 600, "time_label": "10 minutes" }, "geometry": { "type": "Polygon", "coordinates": [ [ [ 38.7286546, 8.9974645 ], [ 38.728349, 8.997969 ], [ 38.7289264, 8.9982376 ], [ 38.7302594, 8.9977804 ], [ 38.7313583, 8.9986976 ], [ 38.7316653, 9.000071 ], [ 38.7323917, 8.9996261 ], [ 38.7314417, 8.9986263 ], [ 38.7316547, 8.9970266 ], [ 38.7337268, 8.9973737 ], [ 38.7346893, 8.9983293 ], [ 38.7363821, 8.9968527 ], [ 38.738701, 8.996288 ], [ 38.7387586, 8.9962709 ], [ 38.738917, 8.9944997 ], [ 38.7384997, 8.9935111 ], [ 38.7381533, 8.9935934 ], [ 38.7376181, 8.9936145 ], [ 38.7357491, 8.9923739 ], [ 38.7358524, 8.9916612 ], [ 38.7359147, 8.9911257 ], [ 38.7356628, 8.9906408 ], [ 38.7352876, 8.9909264 ], [ 38.7345891, 8.9924189 ], [ 38.7330547, 8.9934011 ], [ 38.7329313, 8.9947462 ], [ 38.7312993, 8.9952907 ], [ 38.7294514, 8.9951728 ], [ 38.7290869, 8.9955912 ], [ 38.7286546, 8.9974645 ] ] ] } },
{ "type": "Feature", "properties": { "threshold_s": 900, "time_label": "15 minutes" }, "geometry": { "type": "Polygon", "coordinates": [ [ [ 38.7253797, 8.9978604 ], [ 38.7256919, 8.9982672 ], [ 38.7268985, 8.9991841 ], [ 38.7274674, 8.99912 ], [ 38.7289264, 8.9982376 ], [ 38.7313583, 8.9986976 ], [ 38.7316653, 9.000071 ], [ 38.732501, 9.001813 ], [ 38.7326358, 9.0031899 ], [ 38.7334632, 9.0033383 ], [ 38.7332062, 9.0025069 ], [ 38.7337294, 9.0008275 ], [ 38.7332922, 8.9993466 ], [ 38.7346893, 8.9983293 ], [ 38.7363821, 8.9968527 ], [ 38.7372738, 8.9969263 ], [ 38.738951, 8.9979083 ], [ 38.7391193, 8.9981333 ], [ 38.7395538, 8.9994585 ], [ 38.7396005, 8.9995756 ], [ 38.7396167, 8.9996153 ], [ 38.7405065, 8.9976194 ], [ 38.7405704, 8.9970087 ], [ 38.7407357, 8.9957392 ], [ 38.7414043, 8.9942008 ], [ 38.7419007, 8.9927539 ], [ 38.740073, 8.9910751 ], [ 38.739861, 8.9909553 ], [ 38.7387546, 8.9904328 ], [ 38.7375006, 8.9887629 ], [ 38.7362266, 8.9892398 ], [ 38.7350048, 8.9882145 ], [ 38.7336409, 8.9878794 ], [ 38.7325734, 8.9896107 ], [ 38.7324572, 8.9906072 ], [ 38.7314819, 8.9928798 ], [ 38.7291461, 8.9928174 ], [ 38.7266778, 8.9925634 ], [ 38.7271369, 8.9932141 ], [ 38.7278068, 8.9946508 ], [ 38.7258931, 8.995587 ], [ 38.7255468, 8.9955578 ], [ 38.725314, 8.9973518 ], [ 38.7253797, 8.9978604 ] ] ] } },
{ "type": "Feature", "properties": { "threshold_s": 300, "time_label": "5 minutes" }, "geometry": { "type": "Polygon", "coordinates": [ [ [ 38.7506399, 9.039573 ], [ 38.7506134, 9.0403402 ], [ 38.7506914, 9.0404107 ], [ 38.7507771, 9.0404561 ], [ 38.7508381, 9.0404643 ], [ 38.7517222, 9.0401875 ], [ 38.7521131, 9.0406747 ], [ 38.7528402, 9.0401109 ], [ 38.7532317, 9.0402887 ], [ 38.7533702, 9.0402684 ], [ 38.753436, 9.0402057 ], [ 38.7531208, 9.0396428 ], [ 38.7528454, 9.039135 ], [ 38.7522609, 9.0392807 ], [ 38.7518096, 9.0386992 ], [ 38.7525465, 9.0380504 ], [ 38.752778, 9.0378629 ], [ 38.7523463, 9.0373285 ], [ 38.752432399999989, 9.0362771 ], [ 38.7535757, 9.0366681 ], [ 38.7527812, 9.0361288 ], [ 38.7526921, 9.0353904 ], [ 38.7525571, 9.0353366 ], [ 38.7523151, 9.0353183 ], [ 38.7522417, 9.0353395 ], [ 38.7521577, 9.0353733 ], [ 38.7520862, 9.035407 ], [ 38.7517404, 9.0357303 ], [ 38.7517364, 9.035842 ], [ 38.7519532, 9.0361278 ], [ 38.7522779, 9.0362655 ], [ 38.7517063, 9.0371802 ], [ 38.7504012, 9.0368155 ], [ 38.7499883, 9.0367735 ], [ 38.7509278, 9.037822 ], [ 38.7515636, 9.0385699 ], [ 38.7507947, 9.0391991 ], [ 38.750328, 9.0389292 ], [ 38.7506399, 9.039573 ] ] ] } },
{ "type": "Feature", "properties": { "threshold_s": 600, "time_label": "10 minutes" }, "geometry": { "type": "Polygon", "coordinates": [ [ [ 38.7490189, 9.043285 ], [ 38.7490781, 9.0433622 ], [ 38.7494834, 9.0435616 ], [ 38.7498467, 9.0434292 ], [ 38.7512411, 9.0430711 ], [ 38.7524455, 9.0434144 ], [ 38.7527328, 9.0435769 ], [ 38.7540054, 9.043656 ], [ 38.7541353, 9.043349 ], [ 38.7542711, 9.0428536 ], [ 38.7543348, 9.0412716 ], [ 38.7557028, 9.0397766 ], [ 38.7566857, 9.0404507 ], [ 38.7567861, 9.0393991 ], [ 38.7555497, 9.0379841 ], [ 38.7555013, 9.03796 ], [ 38.754862, 9.0375543 ], [ 38.753972, 9.0355871 ], [ 38.7550015, 9.0351155 ], [ 38.7550527, 9.0350946 ], [ 38.7540889, 9.0329092 ], [ 38.7543443, 9.0327333 ], [ 38.7544733, 9.0322082 ], [ 38.7536486, 9.0324959 ], [ 38.7516808, 9.0332202 ], [ 38.75095, 9.0327385 ], [ 38.7495122, 9.0340272 ], [ 38.7487176, 9.0350745 ], [ 38.7487552, 9.0368698 ], [ 38.7472835, 9.0371837 ], [ 38.7471869, 9.0372114 ], [ 38.7471493, 9.037788 ], [ 38.7474383, 9.0393107 ], [ 38.7474791, 9.0401015 ], [ 38.7486602, 9.0417728 ], [ 38.7490189, 9.043285 ] ] ] } },
{ "type": "Feature", "properties": { "threshold_s": 900, "time_label": "15 minutes" }, "geometry": { "type": "Polygon", "coordinates": [ [ [ 38.746521, 9.0449528 ], [ 38.7471864, 9.046054 ], [ 38.7489726, 9.0459551 ], [ 38.7501494, 9.0459252 ], [ 38.7511836, 9.0462683 ], [ 38.7521066, 9.0449463 ], [ 38.7538972, 9.0449981 ], [ 38.7552401, 9.0458515 ], [ 38.755617, 9.0458933 ], [ 38.7559345, 9.0455129 ], [ 38.7560377, 9.0453047 ], [ 38.755947, 9.0451863 ], [ 38.7557127, 9.045227 ], [ 38.7543042, 9.0447138 ], [ 38.7541353, 9.043349 ], [ 38.7557499, 9.0426901 ], [ 38.7565811, 9.0429639 ], [ 38.7578811, 9.0430027 ], [ 38.7580985, 9.0429252 ], [ 38.7581195, 9.0426789 ], [ 38.7598478, 9.0417817 ], [ 38.7595116, 9.0405678 ], [ 38.7586538, 9.0400002 ], [ 38.7588696, 9.0384456 ], [ 38.7587746, 9.0381862 ], [ 38.7586829, 9.0362997 ], [ 38.7587068, 9.036244 ], [ 38.7585036, 9.0357844 ], [ 38.7582831, 9.0359975 ], [ 38.7581953, 9.0360799 ], [ 38.7584061, 9.0370047 ], [ 38.7570073, 9.0383314 ], [ 38.7555497, 9.0379841 ], [ 38.7555013, 9.03796 ], [ 38.754862, 9.0375543 ], [ 38.7535757, 9.0366681 ], [ 38.753972, 9.0355871 ], [ 38.7550015, 9.0351155 ], [ 38.7550527, 9.0350946 ], [ 38.7549, 9.0340673 ], [ 38.7553975, 9.0323865 ], [ 38.7558521, 9.0318884 ], [ 38.7559834, 9.0307648 ], [ 38.7568262, 9.030107 ], [ 38.7567933, 9.0300636 ], [ 38.7549655, 9.03052 ], [ 38.7540557, 9.0299897 ], [ 38.7524673, 9.0299527 ], [ 38.7515085, 9.0292871 ], [ 38.7513996, 9.0292771 ], [ 38.7504043, 9.0309179 ], [ 38.7499859, 9.0310799 ], [ 38.7484038, 9.0311236 ], [ 38.7472213, 9.032079 ], [ 38.7469049, 9.0323628 ], [ 38.7471559, 9.0325573 ], [ 38.7475026, 9.0333951 ], [ 38.7460726, 9.0341827 ], [ 38.7455097, 9.0345712 ], [ 38.7451851, 9.035801 ], [ 38.7447888, 9.0365216 ], [ 38.7445018, 9.0369724 ], [ 38.7443637, 9.0371691 ], [ 38.744816299999989, 9.038175 ], [ 38.7453087, 9.0395617 ], [ 38.7447332, 9.040759 ], [ 38.7463036, 9.041451 ], [ 38.7460287, 9.0423927 ], [ 38.7456693, 9.0428139 ], [ 38.7456264, 9.0428556 ], [ 38.7457128, 9.0429139 ], [ 38.746313, 9.0432814 ], [ 38.746521, 9.0449528 ] ] ] } },
{ "type": "Feature", "properties": { "threshold_s": 300, "time_label": "5 minutes" }, "geometry": { "type": "Polygon", "coordinates": [ [ [ 38.8167652, 9.0230157 ], [ 38.8156474, 9.0222936 ], [ 38.8164009, 9.0238867 ], [ 38.8168929, 9.0242509 ], [ 38.8172477, 9.0233316 ], [ 38.8177388, 9.023521 ], [ 38.8180627, 9.0238603 ], [ 38.8182977, 9.0240359 ], [ 38.8184062, 9.0239385 ], [ 38.8191783, 9.0239736 ], [ 38.8191899, 9.0245375 ], [ 38.8192183, 9.0245736 ], [ 38.8193408, 9.0259309 ], [ 38.8193351, 9.0247139 ], [ 38.8196583, 9.0239999 ], [ 38.8204419, 9.0241321 ], [ 38.8208135, 9.0241331 ], [ 38.8203388, 9.0240147 ], [ 38.8198519, 9.0239225 ], [ 38.8200954, 9.0230986 ], [ 38.8196572, 9.0225474 ], [ 38.8194563, 9.0222227 ], [ 38.8196788, 9.0214653 ], [ 38.8193575, 9.0212993 ], [ 38.818579, 9.0211651 ], [ 38.8181267, 9.021843 ], [ 38.8174877, 9.0217276 ], [ 38.8177469, 9.0224574 ], [ 38.8169372, 9.0230296 ], [ 38.8167652, 9.0230157 ] ] ] } },
{ "type": "Feature", "properties": { "threshold_s": 600, "time_label": "10 minutes" }, "geometry": { "type": "Polygon", "coordinates": [ [ [ 38.8134498, 9.0240091 ], [ 38.8144012, 9.025465 ], [ 38.8149537, 9.0255482 ], [ 38.8151405, 9.0255481 ], [ 38.8163433, 9.0259836 ], [ 38.816761, 9.0265301 ], [ 38.8171817, 9.0272446 ], [ 38.8185783, 9.0276477 ], [ 38.8188645, 9.0286643 ], [ 38.8198017, 9.0291692 ], [ 38.820582, 9.0290534 ], [ 38.820523, 9.0286587 ], [ 38.8203098, 9.0279514 ], [ 38.8202976, 9.0275475 ], [ 38.8214323, 9.0264389 ], [ 38.8201207, 9.0263461 ], [ 38.8193408, 9.0259309 ], [ 38.8193351, 9.0247139 ], [ 38.8204419, 9.0241321 ], [ 38.8208135, 9.0241331 ], [ 38.8219882, 9.0245452 ], [ 38.8225077, 9.0247005 ], [ 38.8235283, 9.0254876 ], [ 38.82377970000001, 9.0254817 ], [ 38.8240251, 9.0254785 ], [ 38.8239905, 9.0243811 ], [ 38.8233724, 9.0236638 ], [ 38.822162, 9.0233834 ], [ 38.821077099999989, 9.0225039 ], [ 38.8203241, 9.0209281 ], [ 38.8209895, 9.0194016 ], [ 38.8204923, 9.0190843 ], [ 38.8198926, 9.0192105 ], [ 38.8187501, 9.0202826 ], [ 38.8184792, 9.0210654 ], [ 38.8167639, 9.0208415 ], [ 38.8169497, 9.0197374 ], [ 38.8166821, 9.0200545 ], [ 38.8151325, 9.0204597 ], [ 38.8136597, 9.0207658 ], [ 38.8120655, 9.0212972 ], [ 38.812560499999989, 9.021281 ], [ 38.8133974, 9.0214247 ], [ 38.8140629, 9.0222336 ], [ 38.8135538, 9.0232472 ], [ 38.8132795, 9.0233933 ], [ 38.8134498, 9.0240091 ] ] ] } },
{ "type": "Feature", "properties": { "threshold_s": 900, "time_label": "15 minutes" }, "geometry": { "type": "Polygon", "coordinates": [ [ [ 38.8148688, 9.0299234 ], [ 38.8149015, 9.0299632 ], [ 38.8160702, 9.0304005 ], [ 38.8170572, 9.0307173 ], [ 38.818501, 9.0306999 ], [ 38.8196889, 9.0308282 ], [ 38.820823, 9.0316723 ], [ 38.8219205, 9.0322375 ], [ 38.8212486, 9.0313766 ], [ 38.8208033, 9.0302269 ], [ 38.8209589, 9.0292428 ], [ 38.8228669, 9.0278268 ], [ 38.8240645, 9.0284802 ], [ 38.8240636, 9.0276059 ], [ 38.8254681, 9.0263115 ], [ 38.8273686, 9.0260606 ], [ 38.8272819, 9.0259255 ], [ 38.8264064, 9.0246068 ], [ 38.8264276, 9.0234039 ], [ 38.8244766, 9.0219515 ], [ 38.8244417, 9.0216998 ], [ 38.8244149, 9.0213634 ], [ 38.8232996, 9.0204045 ], [ 38.82342, 9.0190943 ], [ 38.8229662, 9.0190218 ], [ 38.821483, 9.0189667 ], [ 38.8204923, 9.0190843 ], [ 38.8198926, 9.0192105 ], [ 38.8177121, 9.0200309 ], [ 38.8169497, 9.0197374 ], [ 38.8166821, 9.0200545 ], [ 38.8151325, 9.0204597 ], [ 38.8141689, 9.019207 ], [ 38.8121935, 9.0194857 ], [ 38.8116229, 9.0195476 ], [ 38.8096449, 9.0204194 ], [ 38.8089624, 9.0209787 ], [ 38.8087602, 9.0214872 ], [ 38.8093463, 9.0220663 ], [ 38.8104577, 9.0228264 ], [ 38.8119471, 9.0247814 ], [ 38.811411, 9.025818 ], [ 38.8123349, 9.0259918 ], [ 38.8140818, 9.0259528 ], [ 38.8143496, 9.0279621 ], [ 38.8146882, 9.0292547 ], [ 38.8148688, 9.0299234 ] ] ] } },
{ "type": "Feature", "properties": { "threshold_s": 300, "time_label": "5 minutes" }, "geometry": { "type": "Polygon", "coordinates": [ [ [ 38.7711271, 8.8965292 ], [ 38.7708232, 8.8971105 ], [ 38.771106, 8.8968641 ], [ 38.7719236, 8.8967234 ], [ 38.772606, 8.8974002 ], [ 38.7735133, 8.8972245 ], [ 38.7740834, 8.8966701 ], [ 38.7750401, 8.896331 ], [ 38.77562, 8.8961169 ], [ 38.7761359, 8.8956775 ], [ 38.7751083, 8.8953778 ], [ 38.7751655, 8.8947905 ], [ 38.7752804, 8.8943603 ], [ 38.7752508, 8.8933821 ], [ 38.7748798, 8.8929927 ], [ 38.7743815, 8.8925011 ], [ 38.7740112, 8.8931773 ], [ 38.7739845, 8.8938308 ], [ 38.7732134, 8.894635 ], [ 38.7729752, 8.8946812 ], [ 38.7724302, 8.8952355 ], [ 38.7713098, 8.8933635 ], [ 38.7712643, 8.895292 ], [ 38.7711315, 8.895661 ], [ 38.7711271, 8.8965292 ] ] ] } },
{ "type": "Feature", "properties": { "threshold_s": 600, "time_label": "10 minutes" }, "geometry": { "type": "Polygon", "coordinates": [ [ [ 38.7687215, 8.8981856 ], [ 38.7687192, 8.8991233 ], [ 38.7692547, 8.8994905 ], [ 38.7717155, 8.8998047 ], [ 38.7742224, 8.8997468 ], [ 38.774598, 8.89969 ], [ 38.7758955, 8.8993104 ], [ 38.7777465, 8.8981904 ], [ 38.7787349, 8.8971119 ], [ 38.7791848, 8.8966163 ], [ 38.7786306, 8.895075 ], [ 38.7780874, 8.8932482 ], [ 38.7775691, 8.8916364 ], [ 38.77761, 8.8903657 ], [ 38.7774897, 8.8902265 ], [ 38.7757484, 8.8897945 ], [ 38.7734745, 8.8904273 ], [ 38.7726255, 8.890159 ], [ 38.7710036, 8.8908824 ], [ 38.7684853, 8.8906231 ], [ 38.7691574, 8.8917298 ], [ 38.769388, 8.8920306 ], [ 38.7696986, 8.8922607 ], [ 38.7704194, 8.8941161 ], [ 38.769615, 8.8952553 ], [ 38.7694613, 8.8965164 ], [ 38.7687215, 8.8981856 ] ] ] } },
{ "type": "Feature", "properties": { "threshold_s": 900, "time_label": "15 minutes" }, "geometry": { "type": "Polygon", "coordinates": [ [ [ 38.7659995, 8.9008158 ], [ 38.7671007, 8.9020267 ], [ 38.7689645, 8.902235 ], [ 38.7720164, 8.9019507 ], [ 38.7745412, 8.8999916 ], [ 38.7759648, 8.8999247 ], [ 38.7787346, 8.8999228 ], [ 38.7790363, 8.8998086 ], [ 38.7790239, 8.8989217 ], [ 38.7821218, 8.8970893 ], [ 38.7824573, 8.8971472 ], [ 38.7818375, 8.8969634 ], [ 38.7800203, 8.8969528 ], [ 38.7786306, 8.895075 ], [ 38.7792023, 8.8932906 ], [ 38.7800619, 8.8923949 ], [ 38.779728, 8.8911799 ], [ 38.779997, 8.8881024 ], [ 38.7791525, 8.8888501 ], [ 38.7765214, 8.8892097 ], [ 38.7759513, 8.8878617 ], [ 38.7761149, 8.8868364 ], [ 38.7746148, 8.8868447 ], [ 38.7721829, 8.887023 ], [ 38.7713514, 8.8876607 ], [ 38.7692016, 8.8888506 ], [ 38.7679665, 8.8886359 ], [ 38.766392, 8.8884913 ], [ 38.7661037, 8.8889221 ], [ 38.767459, 8.8903263 ], [ 38.7681694, 8.8913436 ], [ 38.7686987, 8.8923565 ], [ 38.769615, 8.8952553 ], [ 38.7690662, 8.8963102 ], [ 38.7662753, 8.8964056 ], [ 38.7656786, 8.8988701 ], [ 38.7654357, 8.8996979 ], [ 38.7659995, 8.9008158 ] ] ] } },
{ "type": "Feature", "properties": { "threshold_s": 300, "time_label": "5 minutes" }, "geometry": { "type": "Polygon", "coordinates": [ [ [ 38.7532753, 8.9469527 ], [ 38.7533661, 8.9473794 ], [ 38.7536539, 8.9471171 ], [ 38.753968, 8.9467924 ], [ 38.7542597, 8.9465076 ], [ 38.755486, 8.9465727 ], [ 38.7555871, 8.9468866 ], [ 38.7555693, 8.9476492 ], [ 38.7558394, 8.947598 ], [ 38.7561004, 8.9474479 ], [ 38.7563914, 8.9470942 ], [ 38.7566986, 8.9464707 ], [ 38.7570606, 8.946184 ], [ 38.7576346, 8.9460449 ], [ 38.7581194, 8.9458735 ], [ 38.7582274, 8.9452593 ], [ 38.7579869, 8.9456607 ], [ 38.7578036, 8.9458224 ], [ 38.7568662, 8.945564 ], [ 38.7570242, 8.9451522 ], [ 38.7572817, 8.9445015 ], [ 38.7578472, 8.9443697 ], [ 38.7578478, 8.9438418 ], [ 38.7578505, 8.9436484 ], [ 38.757294, 8.9438948 ], [ 38.7569584, 8.9433679 ], [ 38.7570584, 8.9440753 ], [ 38.7568006, 8.9446845 ], [ 38.7563375, 8.9447518 ], [ 38.7559928, 8.9446019 ], [ 38.7556219, 8.9444305 ], [ 38.7552479, 8.9442328 ], [ 38.7549415, 8.9439788 ], [ 38.7546225, 8.943703 ], [ 38.7548465, 8.9444975 ], [ 38.7547785, 8.9451267 ], [ 38.7551061, 8.9458062 ], [ 38.7546046, 8.9461878 ], [ 38.7532161, 8.946207 ], [ 38.7532753, 8.9469527 ] ] ] } },
{ "type": "Feature", "properties": { "threshold_s": 600, "time_label": "10 minutes" }, "geometry": { "type": "Polygon", "coordinates": [ [ [ 38.7504042, 8.9473121 ], [ 38.7511932, 8.9487361 ], [ 38.7523361, 8.949291 ], [ 38.7526911, 8.9489601 ], [ 38.75407, 8.9487144 ], [ 38.7549597, 8.9484684 ], [ 38.7558394, 8.947598 ], [ 38.7561004, 8.9474479 ], [ 38.7563914, 8.9470942 ], [ 38.7579176, 8.9477817 ], [ 38.7581723, 8.9465868 ], [ 38.7581194, 8.9458735 ], [ 38.7588309, 8.9448533 ], [ 38.7594397, 8.944691 ], [ 38.7586706, 8.943708 ], [ 38.7585063, 8.9432019 ], [ 38.7584641, 8.9421169 ], [ 38.758741, 8.9406331 ], [ 38.7585533, 8.9407457 ], [ 38.7568782, 8.9405762 ], [ 38.7566878, 8.9405205 ], [ 38.7561031, 8.940502 ], [ 38.7556064, 8.941638 ], [ 38.7544911, 8.9413565 ], [ 38.7541265, 8.9406319 ], [ 38.7526397, 8.941173 ], [ 38.7522889, 8.9418676 ], [ 38.7522251, 8.9426064 ], [ 38.7513256, 8.943881 ], [ 38.7510248, 8.9443323 ], [ 38.7508222, 8.9450533 ], [ 38.7504342, 8.946489 ], [ 38.7504042, 8.9473121 ] ] ] } },
{ "type": "Feature", "properties": { "threshold_s": 900, "time_label": "15 minutes" }, "geometry": { "type": "Polygon", "coordinates": [ [ [ 38.751347, 8.9518325 ], [ 38.7513073, 8.9527953 ], [ 38.7519501, 8.9526228 ], [ 38.7532975, 8.9509374 ], [ 38.7537807, 8.9500531 ], [ 38.7549597, 8.9484684 ], [ 38.7558394, 8.947598 ], [ 38.7579176, 8.9477817 ], [ 38.7590964, 8.9498656 ], [ 38.7582529, 8.9516779 ], [ 38.7586418, 8.9524489 ], [ 38.7602853, 8.9522603 ], [ 38.760432, 8.9521374 ], [ 38.7598007, 8.949731 ], [ 38.7604402, 8.9487674 ], [ 38.7597544, 8.9484631 ], [ 38.7581723, 8.9465868 ], [ 38.7594397, 8.944691 ], [ 38.7585063, 8.9432019 ], [ 38.7584641, 8.9421169 ], [ 38.758741, 8.9406331 ], [ 38.7577768, 8.9393905 ], [ 38.7561433, 8.9384856 ], [ 38.7554297, 8.9382436 ], [ 38.7553427, 8.939825 ], [ 38.7541265, 8.9406319 ], [ 38.752761, 8.9406596 ], [ 38.751377, 8.9395318 ], [ 38.7489856, 8.9397611 ], [ 38.748797, 8.9415459 ], [ 38.7484621, 8.9436618 ], [ 38.7476319, 8.9457351 ], [ 38.7474934, 8.9470932 ], [ 38.7475122, 8.9474161 ], [ 38.7480926, 8.9491966 ], [ 38.7485976, 8.9497061 ], [ 38.7496929, 8.9507308 ], [ 38.751347, 8.9518325 ] ] ] } },
{ "type": "Feature", "properties": { "threshold_s": 300, "time_label": "5 minutes" }, "geometry": { "type": "Polygon", "coordinates": [ [ [ 38.7523629, 8.9472465 ], [ 38.7528442, 8.947854 ], [ 38.753071, 8.9476685 ], [ 38.7532063, 8.9475261 ], [ 38.7533661, 8.9473794 ], [ 38.7536539, 8.9471171 ], [ 38.753968, 8.9467924 ], [ 38.7542597, 8.9465076 ], [ 38.755486, 8.9465727 ], [ 38.7555871, 8.9468866 ], [ 38.7553975, 8.9477307 ], [ 38.7550476, 8.9479685 ], [ 38.7547409, 8.9482393 ], [ 38.7544662, 8.9485373 ], [ 38.7549597, 8.9484684 ], [ 38.7554559, 8.9477935 ], [ 38.7558394, 8.947598 ], [ 38.7561004, 8.9474479 ], [ 38.7563914, 8.9470942 ], [ 38.7566986, 8.9464707 ], [ 38.7570606, 8.946184 ], [ 38.7568662, 8.945564 ], [ 38.7570242, 8.9451522 ], [ 38.7568006, 8.9446845 ], [ 38.7559928, 8.9446019 ], [ 38.7556219, 8.9444305 ], [ 38.7550714, 8.9442285 ], [ 38.7548465, 8.9444975 ], [ 38.7547785, 8.9451267 ], [ 38.7551061, 8.9458062 ], [ 38.7546046, 8.9461878 ], [ 38.7532161, 8.946207 ], [ 38.7523831, 8.9458495 ], [ 38.7523843, 8.9457703 ], [ 38.7523354, 8.9455531 ], [ 38.7522608, 8.9452083 ], [ 38.7519951, 8.9456619 ], [ 38.751966, 8.9458203 ], [ 38.7522261, 8.9465614 ], [ 38.7520653, 8.9468158 ], [ 38.7523629, 8.9472465 ] ] ] } },
{ "type": "Feature", "properties": { "threshold_s": 600, "time_label": "10 minutes" }, "geometry": { "type": "Polygon", "coordinates": [ [ [ 38.7511932, 8.9487361 ], [ 38.7517645, 8.9508566 ], [ 38.7523361, 8.949291 ], [ 38.75407, 8.9487144 ], [ 38.7549597, 8.9484684 ], [ 38.7558394, 8.947598 ], [ 38.7579176, 8.9477817 ], [ 38.7581723, 8.9465868 ], [ 38.7581194, 8.9458735 ], [ 38.7594397, 8.944691 ], [ 38.7585063, 8.9432019 ], [ 38.7584641, 8.9421169 ], [ 38.7568581, 8.9414784 ], [ 38.7562546, 8.9415698 ], [ 38.7544911, 8.9413565 ], [ 38.7539466, 8.9409948 ], [ 38.7530429, 8.9413136 ], [ 38.7522889, 8.9418676 ], [ 38.750896, 8.9428976 ], [ 38.7500319, 8.9433953 ], [ 38.7496136, 8.9439649 ], [ 38.7495462, 8.9451586 ], [ 38.748765, 8.9466319 ], [ 38.7498443, 8.9472918 ], [ 38.7499384, 8.9484345 ], [ 38.7499551, 8.9485584 ], [ 38.7499979, 8.9488639 ], [ 38.7500122, 8.9489525 ], [ 38.7511932, 8.9487361 ] ] ] } },
{ "type": "Feature", "properties": { "threshold_s": 900, "time_label": "15 minutes" }, "geometry": { "type": "Polygon", "coordinates": [ [ [ 38.750422, 8.9537603 ], [ 38.750643, 8.9543307 ], [ 38.7506765, 8.9543636 ], [ 38.7513023, 8.9543961 ], [ 38.7518379, 8.9538302 ], [ 38.7539145, 8.952087 ], [ 38.7543269, 8.9518195 ], [ 38.7547238, 8.9515693 ], [ 38.754863, 8.9499577 ], [ 38.7558394, 8.947598 ], [ 38.7579176, 8.9477817 ], [ 38.7592615, 8.95035 ], [ 38.7592419, 8.9510191 ], [ 38.7595374, 8.9509795 ], [ 38.7598007, 8.949731 ], [ 38.7581723, 8.9465868 ], [ 38.7594397, 8.944691 ], [ 38.7585063, 8.9432019 ], [ 38.7584641, 8.9421169 ], [ 38.758741, 8.9406331 ], [ 38.7575823, 8.9394024 ], [ 38.75693050000001, 8.9390526 ], [ 38.7563136, 8.9393772 ], [ 38.7553427, 8.939825 ], [ 38.752761, 8.9406596 ], [ 38.7503697, 8.9404505 ], [ 38.7494405, 8.9400866 ], [ 38.7493833, 8.9401641 ], [ 38.7492882, 8.9403013 ], [ 38.7483123, 8.9420075 ], [ 38.7473937, 8.9431558 ], [ 38.7464106, 8.9447114 ], [ 38.7453929, 8.9469673 ], [ 38.7464571, 8.9478379 ], [ 38.7476658, 8.9492291 ], [ 38.7480074, 8.9501081 ], [ 38.7486486, 8.9511309 ], [ 38.7494933, 8.9515279 ], [ 38.750422, 8.9537603 ] ] ] } },
{ "type": "Feature", "properties": { "threshold_s": 300, "time_label": "5 minutes" }, "geometry": { "type": "Polygon", "coordinates": [ [ [ 38.7607275, 8.9794098 ], [ 38.7603578, 8.980033 ], [ 38.7611561, 8.9800615 ], [ 38.7612621, 8.980476 ], [ 38.7616292, 8.9802005 ], [ 38.7620166, 8.979507 ], [ 38.7624501, 8.9795471 ], [ 38.7620843, 8.9790361 ], [ 38.7624999, 8.9784998 ], [ 38.7630262, 8.9788559 ], [ 38.7632457, 8.9791747 ], [ 38.7638347, 8.9793818 ], [ 38.7634905, 8.9790102 ], [ 38.7634805, 8.9783721 ], [ 38.7631796, 8.9780471 ], [ 38.7628459, 8.9776635 ], [ 38.764073, 8.9772204 ], [ 38.7638058, 8.9768236 ], [ 38.7632147, 8.9764116 ], [ 38.7628969, 8.9764417 ], [ 38.762356, 8.9764219 ], [ 38.7620517, 8.9753861 ], [ 38.7618891, 8.9754979 ], [ 38.7615429, 8.9757901 ], [ 38.7620297, 8.9769472 ], [ 38.7615802, 8.9776522 ], [ 38.7616844, 8.9783501 ], [ 38.76147, 8.9788329 ], [ 38.7608841, 8.9786978 ], [ 38.760112, 8.9782971 ], [ 38.7602193, 8.9778246 ], [ 38.7597527, 8.9773518 ], [ 38.7598425, 8.9769483 ], [ 38.759932, 8.9764989 ], [ 38.759463599999989, 8.9769388 ], [ 38.7595952, 8.9772954 ], [ 38.7596943, 8.9779839 ], [ 38.7596918, 8.9783251 ], [ 38.7601663, 8.9788675 ], [ 38.7607275, 8.9794098 ] ] ] } },
{ "type": "Feature", "properties": { "threshold_s": 600, "time_label": "10 minutes" }, "geometry": { "type": "Polygon", "coordinates": [ [ [ 38.7593244, 8.9792221 ], [ 38.758982, 8.9801758 ], [ 38.7602262, 8.9811047 ], [ 38.7619338, 8.9808051 ], [ 38.7624673, 8.9818325 ], [ 38.762682, 8.9825866 ], [ 38.764124099999989, 8.9821933 ], [ 38.7651143, 8.9806995 ], [ 38.7653106, 8.9799761 ], [ 38.7650426, 8.9787808 ], [ 38.7646558, 8.9779692 ], [ 38.7643249, 8.9775938 ], [ 38.764073, 8.9772204 ], [ 38.764408, 8.9754267 ], [ 38.7645161, 8.9744849 ], [ 38.7634898, 8.9729395 ], [ 38.7628793, 8.9728562 ], [ 38.7609877, 8.9728752 ], [ 38.7609422, 8.9727954 ], [ 38.7605064, 8.9733734 ], [ 38.7596874, 8.9743478 ], [ 38.7586337, 8.9740142 ], [ 38.7574417, 8.9741084 ], [ 38.7576654, 8.9743967 ], [ 38.7589217, 8.9758264 ], [ 38.7586383, 8.9761015 ], [ 38.759463599999989, 8.9769388 ], [ 38.759488, 8.9783088 ], [ 38.7593244, 8.9792221 ] ] ] } },
{ "type": "Feature", "properties": { "threshold_s": 900, "time_label": "15 minutes" }, "geometry": { "type": "Polygon", "coordinates": [ [ [ 38.7564497, 8.9821257 ], [ 38.7556243, 8.9824778 ], [ 38.7557768, 8.9825281 ], [ 38.7560531, 8.982418 ], [ 38.7564987, 8.9822218 ], [ 38.7566253, 8.9821654 ], [ 38.760037, 8.9838182 ], [ 38.7603235, 8.9841974 ], [ 38.763793, 8.9849277 ], [ 38.7654715, 8.9847927 ], [ 38.7668205, 8.9839266 ], [ 38.7667257, 8.9830418 ], [ 38.7662418, 8.9812714 ], [ 38.7659251, 8.9808102 ], [ 38.7650426, 8.9787808 ], [ 38.7650392, 8.976104 ], [ 38.7654038, 8.974453 ], [ 38.7660779, 8.9717093 ], [ 38.7655318, 8.9710292 ], [ 38.7642476, 8.9709568 ], [ 38.7613593, 8.9707294 ], [ 38.7603757, 8.9703849 ], [ 38.7570116, 8.9719198 ], [ 38.7552445, 8.9725333 ], [ 38.7549265, 8.9730815 ], [ 38.7550945, 8.9737571 ], [ 38.755698, 8.9743462 ], [ 38.7586383, 8.9761015 ], [ 38.7593244, 8.9792221 ], [ 38.7581101, 8.9811642 ], [ 38.7573107, 8.9817491 ], [ 38.7565841, 8.9820643 ], [ 38.7564497, 8.9821257 ] ] ] } },
{ "type": "Feature", "properties": { "threshold_s": 300, "time_label": "5 minutes" }, "geometry": { "type": "Polygon", "coordinates": [ [ [ 38.7607275, 8.9794098 ], [ 38.7603578, 8.980033 ], [ 38.7611561, 8.9800615 ], [ 38.7612621, 8.980476 ], [ 38.7616292, 8.9802005 ], [ 38.7629162, 8.9804274 ], [ 38.7624501, 8.9795471 ], [ 38.7620843, 8.9790361 ], [ 38.7624999, 8.9784998 ], [ 38.7630262, 8.9788559 ], [ 38.7632457, 8.9791747 ], [ 38.7638347, 8.9793818 ], [ 38.7634905, 8.9790102 ], [ 38.7634805, 8.9783721 ], [ 38.7631796, 8.9780471 ], [ 38.7628459, 8.9776635 ], [ 38.764073, 8.9772204 ], [ 38.7638058, 8.9768236 ], [ 38.7632147, 8.9764116 ], [ 38.7628969, 8.9764417 ], [ 38.7618891, 8.9754979 ], [ 38.762356, 8.9764219 ], [ 38.7620297, 8.9769472 ], [ 38.7615802, 8.9776522 ], [ 38.7597527, 8.9773518 ], [ 38.7597419, 8.9774445 ], [ 38.7596943, 8.9779839 ], [ 38.7596918, 8.9783251 ], [ 38.7601663, 8.9788675 ], [ 38.7607275, 8.9794098 ] ] ] } },
{ "type": "Feature", "properties": { "threshold_s": 600, "time_label": "10 minutes" }, "geometry": { "type": "Polygon", "coordinates": [ [ [ 38.7593244, 8.9792221 ], [ 38.758982, 8.9801758 ], [ 38.7603578, 8.980033 ], [ 38.7614384, 8.9810966 ], [ 38.7618421, 8.9822616 ], [ 38.7618673, 8.9823113 ], [ 38.7621236, 8.9829353 ], [ 38.7621719, 8.9830398 ], [ 38.7632988, 8.9831008 ], [ 38.7641513, 8.983136 ], [ 38.764763, 8.9826604 ], [ 38.7647086, 8.982473 ], [ 38.7648575, 8.9809028 ], [ 38.7651143, 8.9806995 ], [ 38.7653106, 8.9799761 ], [ 38.7650426, 8.9787808 ], [ 38.7646558, 8.9779692 ], [ 38.7643249, 8.9775938 ], [ 38.764073, 8.9772204 ], [ 38.7638058, 8.9768236 ], [ 38.764408, 8.9754267 ], [ 38.7642303, 8.9741865 ], [ 38.7634898, 8.9729395 ], [ 38.7626071, 8.973661 ], [ 38.7608267, 8.9734241 ], [ 38.7607739, 8.9734106 ], [ 38.760593, 8.9733877 ], [ 38.7596874, 8.9743478 ], [ 38.7589217, 8.9758264 ], [ 38.7586383, 8.9761015 ], [ 38.759463599999989, 8.9769388 ], [ 38.759488, 8.9783088 ], [ 38.7593244, 8.9792221 ] ] ] } },
{ "type": "Feature", "properties": { "threshold_s": 900, "time_label": "15 minutes" }, "geometry": { "type": "Polygon", "coordinates": [ [ [ 38.7573107, 8.9817491 ], [ 38.7565841, 8.9820643 ], [ 38.760037, 8.9838182 ], [ 38.7603235, 8.9841974 ], [ 38.7612221, 8.9851544 ], [ 38.7615543, 8.9853726 ], [ 38.7639646, 8.9857223 ], [ 38.7670853, 8.9849345 ], [ 38.7676154, 8.9842259 ], [ 38.7672865, 8.9826722 ], [ 38.7662418, 8.9812714 ], [ 38.7659251, 8.9808102 ], [ 38.7650426, 8.9787808 ], [ 38.7650392, 8.976104 ], [ 38.7654038, 8.974453 ], [ 38.7660779, 8.9717093 ], [ 38.7642476, 8.9709568 ], [ 38.7613593, 8.9707294 ], [ 38.7611258, 8.9714217 ], [ 38.7584311, 8.9727864 ], [ 38.7570116, 8.9719198 ], [ 38.7555309, 8.9737591 ], [ 38.755698, 8.9743462 ], [ 38.7586383, 8.9761015 ], [ 38.7593244, 8.9792221 ], [ 38.7581101, 8.9811642 ], [ 38.7573107, 8.9817491 ] ] ] } },
{ "type": "Feature", "properties": { "threshold_s": 300, "time_label": "5 minutes" }, "geometry": { "type": "Polygon", "coordinates": [ [ [ 38.7587416, 8.9659917 ], [ 38.7585992, 8.9657815 ], [ 38.7588272, 8.9661457 ], [ 38.7602142, 8.9666508 ], [ 38.760454, 8.9659606 ], [ 38.7610439, 8.9660607 ], [ 38.7610987, 8.9666211 ], [ 38.7615506, 8.9660938 ], [ 38.7621264, 8.9658193 ], [ 38.7627361, 8.9659865 ], [ 38.7621883, 8.9665983 ], [ 38.7621352, 8.9665994 ], [ 38.7620422, 8.967196 ], [ 38.762602, 8.9674346 ], [ 38.7628083, 8.9670849 ], [ 38.762844200000011, 8.9668596 ], [ 38.7629101, 8.9664361 ], [ 38.7630334, 8.9660215 ], [ 38.763152, 8.9653957 ], [ 38.7630718, 8.9653846 ], [ 38.7630229, 8.9646366 ], [ 38.7623257, 8.9643852 ], [ 38.7617236, 8.963953 ], [ 38.7617535, 8.9646397 ], [ 38.7607753, 8.9643456 ], [ 38.7610682, 8.9632706 ], [ 38.7605166, 8.9635999 ], [ 38.7600323, 8.9639746 ], [ 38.7596895, 8.9645419 ], [ 38.7601452, 8.9643624 ], [ 38.7609328, 8.9648565 ], [ 38.7605771, 8.9654688 ], [ 38.7601889, 8.9655866 ], [ 38.7587416, 8.9659917 ] ] ] } },
{ "type": "Feature", "properties": { "threshold_s": 600, "time_label": "10 minutes" }, "geometry": { "type": "Polygon", "coordinates": [ [ [ 38.7602061, 8.9684301 ], [ 38.7613593, 8.9707294 ], [ 38.7622345, 8.969359 ], [ 38.76242, 8.9685074 ], [ 38.7638272, 8.967659 ], [ 38.7643277, 8.9676341 ], [ 38.7647743, 8.9676345 ], [ 38.7652253, 8.9676387 ], [ 38.7662108, 8.9676225 ], [ 38.7660424, 8.9663201 ], [ 38.7663539, 8.9652701 ], [ 38.7659981, 8.9647589 ], [ 38.7655146, 8.9633162 ], [ 38.7652137, 8.9632733 ], [ 38.7642527, 8.9634157 ], [ 38.7635887, 8.9618935 ], [ 38.7625699, 8.9616877 ], [ 38.7613862, 8.9611565 ], [ 38.7606904, 8.9612635 ], [ 38.7592765, 8.9610057 ], [ 38.7587145, 8.9612083 ], [ 38.7579113, 8.9626081 ], [ 38.7570267, 8.9632491 ], [ 38.7568627, 8.9636039 ], [ 38.7568172, 8.9642418 ], [ 38.7567186, 8.9656751 ], [ 38.7580889, 8.9660016 ], [ 38.7588272, 8.9661457 ], [ 38.7594668, 8.9677628 ], [ 38.7602061, 8.9684301 ] ] ] } },
{ "type": "Feature", "properties": { "threshold_s": 900, "time_label": "15 minutes" }, "geometry": { "type": "Polygon", "coordinates": [ [ [ 38.7538875, 8.9669457 ], [ 38.7548117, 8.9682005 ], [ 38.7554306, 8.9688312 ], [ 38.7567398, 8.9690371 ], [ 38.7576964, 8.9693568 ], [ 38.7590685, 8.9709141 ], [ 38.76095990000001, 8.9719949 ], [ 38.7606604, 8.9727948 ], [ 38.7605064, 8.9733734 ], [ 38.7605834, 8.9740789 ], [ 38.7608014, 8.9741393 ], [ 38.7611704, 8.9738927 ], [ 38.7618717, 8.9728547 ], [ 38.7629119, 8.9712349 ], [ 38.7622345, 8.969359 ], [ 38.76242, 8.9685074 ], [ 38.7638272, 8.967659 ], [ 38.7647248, 8.9693654 ], [ 38.7649967, 8.969361 ], [ 38.7664998, 8.9707517 ], [ 38.7666493, 8.9693626 ], [ 38.7662108, 8.9676225 ], [ 38.7669119, 8.965525 ], [ 38.7676846, 8.9649069 ], [ 38.7680505, 8.9638347 ], [ 38.7681608, 8.9632931 ], [ 38.7673577, 8.9618545 ], [ 38.7655869, 8.9605582 ], [ 38.7656554, 8.9600907 ], [ 38.7646993, 8.9590169 ], [ 38.7640562, 8.9583092 ], [ 38.7639103, 8.9585753 ], [ 38.7638975, 8.958867 ], [ 38.7637219, 8.9600537 ], [ 38.7620958, 8.9604021 ], [ 38.7607164, 8.9597051 ], [ 38.7614843, 8.9580241 ], [ 38.7603619, 8.9570516 ], [ 38.7598032, 8.9576168 ], [ 38.7591393, 8.9581785 ], [ 38.7575701, 8.9583933 ], [ 38.757038, 8.9589031 ], [ 38.7566045, 8.959288 ], [ 38.7562884, 8.9598503 ], [ 38.7547858, 8.9606474 ], [ 38.7541533, 8.9618731 ], [ 38.7541352, 8.9619733 ], [ 38.7539944, 8.9631662 ], [ 38.7538638, 8.9642348 ], [ 38.7547301, 8.9651931 ], [ 38.7538875, 8.9669457 ] ] ] } },
{ "type": "Feature", "properties": { "threshold_s": 300, "time_label": "5 minutes" }, "geometry": { "type": "Polygon", "coordinates": [ [ [ 38.7740742, 9.0190452 ], [ 38.7729636, 9.0189732 ], [ 38.7733853, 9.0194122 ], [ 38.7745247, 9.0195546 ], [ 38.775059, 9.0189164 ], [ 38.7749703, 9.0182576 ], [ 38.7750934, 9.0178666 ], [ 38.7761433, 9.0176214 ], [ 38.776591, 9.0179189 ], [ 38.776659, 9.0179653 ], [ 38.7766515, 9.0178233 ], [ 38.7763238, 9.016986 ], [ 38.7760688, 9.0168666 ], [ 38.775128, 9.0168441 ], [ 38.774385, 9.0171846 ], [ 38.7732861, 9.0163395 ], [ 38.7731381, 9.0158026 ], [ 38.7728662, 9.015182 ], [ 38.772785, 9.0151314 ], [ 38.7716458, 9.0155264 ], [ 38.7712012, 9.0155134 ], [ 38.771399, 9.0157563 ], [ 38.7720021, 9.0165267 ], [ 38.7716822, 9.0175392 ], [ 38.7724208, 9.0169459 ], [ 38.772894, 9.0171168 ], [ 38.7737666, 9.0173089 ], [ 38.7741098, 9.0174452 ], [ 38.7743481, 9.0183679 ], [ 38.7742627, 9.0186566 ], [ 38.7740742, 9.0190452 ] ] ] } },
{ "type": "Feature", "properties": { "threshold_s": 600, "time_label": "10 minutes" }, "geometry": { "type": "Polygon", "coordinates": [ [ [ 38.7701968, 9.0198391 ], [ 38.7707143, 9.0204246 ], [ 38.7713214, 9.0206571 ], [ 38.7721672, 9.0212505 ], [ 38.7723687, 9.02177 ], [ 38.7732625, 9.0224856 ], [ 38.7740723, 9.022302 ], [ 38.7747369, 9.0224498 ], [ 38.7753358, 9.0224459 ], [ 38.7757073, 9.021581 ], [ 38.7765749, 9.0211805 ], [ 38.7772479, 9.0205165 ], [ 38.778081, 9.0202005 ], [ 38.7793942, 9.0198778 ], [ 38.7796488, 9.0187175 ], [ 38.7796232, 9.0185456 ], [ 38.7796107, 9.0184813 ], [ 38.7796905, 9.0170686 ], [ 38.7798819, 9.0169092 ], [ 38.7793643, 9.0164574 ], [ 38.7781433, 9.0158842 ], [ 38.7782612, 9.0153819 ], [ 38.7781044, 9.0145299 ], [ 38.7774734, 9.014126 ], [ 38.7771511, 9.0132784 ], [ 38.7767333, 9.0130162 ], [ 38.776373, 9.0129175 ], [ 38.7753458, 9.0138945 ], [ 38.7748404, 9.0150736 ], [ 38.7737786, 9.015002 ], [ 38.7735741, 9.0141328 ], [ 38.7743465, 9.0124832 ], [ 38.7744038, 9.0122967 ], [ 38.7743198, 9.0122732 ], [ 38.7742634, 9.0124589 ], [ 38.7734911, 9.0140732 ], [ 38.7721337, 9.0143144 ], [ 38.7718846, 9.0146755 ], [ 38.771485, 9.0152003 ], [ 38.7712012, 9.0155134 ], [ 38.7700074, 9.0148215 ], [ 38.7699173, 9.01413 ], [ 38.7699102, 9.014068 ], [ 38.7698167, 9.0140801 ], [ 38.7692811, 9.0152555 ], [ 38.7687544, 9.0164593 ], [ 38.7682007, 9.0165141 ], [ 38.7692633, 9.0170799 ], [ 38.7693392, 9.0177338 ], [ 38.7698828, 9.0178749 ], [ 38.7704765, 9.0188531 ], [ 38.7701968, 9.0198391 ] ] ] } },
{ "type": "Feature", "properties": { "threshold_s": 900, "time_label": "15 minutes" }, "geometry": { "type": "Polygon", "coordinates": [ [ [ 38.7659433, 9.0209826 ], [ 38.7660096, 9.0210562 ], [ 38.7667098, 9.0206623 ], [ 38.7682664, 9.0218424 ], [ 38.769131, 9.0219733 ], [ 38.7695212, 9.0220233 ], [ 38.7698094, 9.0217632 ], [ 38.7699935, 9.0215229 ], [ 38.7721672, 9.0212505 ], [ 38.7723687, 9.02177 ], [ 38.7717222, 9.0232818 ], [ 38.7722297, 9.0251154 ], [ 38.7722649, 9.0257447 ], [ 38.7734231, 9.0249135 ], [ 38.7739166, 9.0240686 ], [ 38.7745161, 9.0236071 ], [ 38.7763746, 9.0235218 ], [ 38.7766007, 9.0235376 ], [ 38.7778352, 9.0234959 ], [ 38.7782289, 9.0233603 ], [ 38.7793656, 9.0226299 ], [ 38.7796941, 9.0220515 ], [ 38.7799554, 9.0211994 ], [ 38.7800579, 9.019619 ], [ 38.7804623, 9.0179874 ], [ 38.7798819, 9.0169092 ], [ 38.7795994, 9.0155365 ], [ 38.7793196, 9.0134699 ], [ 38.7786176, 9.0130981 ], [ 38.7780683, 9.0128204 ], [ 38.7777963, 9.0126801 ], [ 38.7768362, 9.0119613 ], [ 38.7759849, 9.0099015 ], [ 38.7754892, 9.0093199 ], [ 38.7742957, 9.0098175 ], [ 38.7725128, 9.0102701 ], [ 38.7732789, 9.0121882 ], [ 38.7734911, 9.0140732 ], [ 38.7721337, 9.0143144 ], [ 38.7699102, 9.014068 ], [ 38.7698139, 9.0132732 ], [ 38.7695735, 9.0120323 ], [ 38.769581, 9.011501 ], [ 38.7695029, 9.0107419 ], [ 38.7693993, 9.0107478 ], [ 38.768895, 9.0121279 ], [ 38.7673642, 9.0137797 ], [ 38.766796, 9.0141189 ], [ 38.766101, 9.0156017 ], [ 38.7655491, 9.0161733 ], [ 38.7650242, 9.0169385 ], [ 38.7653746, 9.01689 ], [ 38.76707, 9.0182094 ], [ 38.766175, 9.0194163 ], [ 38.7659433, 9.0209826 ] ] ] } },
{ "type": "Feature", "properties": { "threshold_s": 300, "time_label": "5 minutes" }, "geometry": { "type": "Polygon", "coordinates": [ [ [ 38.7740742, 9.0190452 ], [ 38.7729636, 9.0189732 ], [ 38.7733853, 9.0194122 ], [ 38.7745247, 9.0195546 ], [ 38.775059, 9.0189164 ], [ 38.7749703, 9.0182576 ], [ 38.7750934, 9.0178666 ], [ 38.7761433, 9.0176214 ], [ 38.776591, 9.0179189 ], [ 38.776659, 9.0179653 ], [ 38.7766515, 9.0178233 ], [ 38.7763238, 9.016986 ], [ 38.7760688, 9.0168666 ], [ 38.775128, 9.0168441 ], [ 38.774385, 9.0171846 ], [ 38.7732861, 9.0163395 ], [ 38.7731381, 9.0158026 ], [ 38.7728662, 9.015182 ], [ 38.772785, 9.0151314 ], [ 38.7716458, 9.0155264 ], [ 38.7712012, 9.0155134 ], [ 38.771399, 9.0157563 ], [ 38.7720021, 9.0165267 ], [ 38.7716822, 9.0175392 ], [ 38.7724208, 9.0169459 ], [ 38.772894, 9.0171168 ], [ 38.7737666, 9.0173089 ], [ 38.7741098, 9.0174452 ], [ 38.7743481, 9.0183679 ], [ 38.7742627, 9.0186566 ], [ 38.7740742, 9.0190452 ] ] ] } },
{ "type": "Feature", "properties": { "threshold_s": 600, "time_label": "10 minutes" }, "geometry": { "type": "Polygon", "coordinates": [ [ [ 38.7701968, 9.0198391 ], [ 38.7707143, 9.0204246 ], [ 38.7713214, 9.0206571 ], [ 38.7721672, 9.0212505 ], [ 38.7723687, 9.02177 ], [ 38.7732625, 9.0224856 ], [ 38.7740723, 9.022302 ], [ 38.7747369, 9.0224498 ], [ 38.7753358, 9.0224459 ], [ 38.7757073, 9.021581 ], [ 38.7765749, 9.0211805 ], [ 38.7772479, 9.0205165 ], [ 38.778081, 9.0202005 ], [ 38.7793942, 9.0198778 ], [ 38.7796488, 9.0187175 ], [ 38.7796232, 9.0185456 ], [ 38.7796107, 9.0184813 ], [ 38.7796905, 9.0170686 ], [ 38.7798819, 9.0169092 ], [ 38.7793643, 9.0164574 ], [ 38.7781433, 9.0158842 ], [ 38.7782612, 9.0153819 ], [ 38.7781044, 9.0145299 ], [ 38.7774734, 9.014126 ], [ 38.7771511, 9.0132784 ], [ 38.7767333, 9.0130162 ], [ 38.776373, 9.0129175 ], [ 38.7753458, 9.0138945 ], [ 38.7748404, 9.0150736 ], [ 38.7737786, 9.015002 ], [ 38.7735741, 9.0141328 ], [ 38.7743465, 9.0124832 ], [ 38.7744038, 9.0122967 ], [ 38.7743198, 9.0122732 ], [ 38.7742634, 9.0124589 ], [ 38.7734911, 9.0140732 ], [ 38.7721337, 9.0143144 ], [ 38.7718846, 9.0146755 ], [ 38.771485, 9.0152003 ], [ 38.7712012, 9.0155134 ], [ 38.7700074, 9.0148215 ], [ 38.7699173, 9.01413 ], [ 38.7699102, 9.014068 ], [ 38.7698167, 9.0140801 ], [ 38.7692811, 9.0152555 ], [ 38.7687544, 9.0164593 ], [ 38.7682007, 9.0165141 ], [ 38.7692633, 9.0170799 ], [ 38.7693392, 9.0177338 ], [ 38.7698828, 9.0178749 ], [ 38.7704765, 9.0188531 ], [ 38.7701968, 9.0198391 ] ] ] } },
{ "type": "Feature", "properties": { "threshold_s": 900, "time_label": "15 minutes" }, "geometry": { "type": "Polygon", "coordinates": [ [ [ 38.7659433, 9.0209826 ], [ 38.7660096, 9.0210562 ], [ 38.7667098, 9.0206623 ], [ 38.7682664, 9.0218424 ], [ 38.769131, 9.0219733 ], [ 38.7695212, 9.0220233 ], [ 38.7698094, 9.0217632 ], [ 38.7699935, 9.0215229 ], [ 38.7721672, 9.0212505 ], [ 38.7723687, 9.02177 ], [ 38.7717222, 9.0232818 ], [ 38.7722297, 9.0251154 ], [ 38.7722649, 9.0257447 ], [ 38.7734231, 9.0249135 ], [ 38.7739166, 9.0240686 ], [ 38.7745161, 9.0236071 ], [ 38.7763746, 9.0235218 ], [ 38.7766007, 9.0235376 ], [ 38.7778352, 9.0234959 ], [ 38.7782289, 9.0233603 ], [ 38.7793656, 9.0226299 ], [ 38.7796941, 9.0220515 ], [ 38.7799554, 9.0211994 ], [ 38.7800579, 9.019619 ], [ 38.7804623, 9.0179874 ], [ 38.7798819, 9.0169092 ], [ 38.7795994, 9.0155365 ], [ 38.7793196, 9.0134699 ], [ 38.7786176, 9.0130981 ], [ 38.7780683, 9.0128204 ], [ 38.7777963, 9.0126801 ], [ 38.7768362, 9.0119613 ], [ 38.7759849, 9.0099015 ], [ 38.7754892, 9.0093199 ], [ 38.7742957, 9.0098175 ], [ 38.7725128, 9.0102701 ], [ 38.7732789, 9.0121882 ], [ 38.7734911, 9.0140732 ], [ 38.7721337, 9.0143144 ], [ 38.7699102, 9.014068 ], [ 38.7698139, 9.0132732 ], [ 38.7695735, 9.0120323 ], [ 38.769581, 9.011501 ], [ 38.7695029, 9.0107419 ], [ 38.7693993, 9.0107478 ], [ 38.768895, 9.0121279 ], [ 38.7673642, 9.0137797 ], [ 38.766796, 9.0141189 ], [ 38.766101, 9.0156017 ], [ 38.7655491, 9.0161733 ], [ 38.7650242, 9.0169385 ], [ 38.7653746, 9.01689 ], [ 38.76707, 9.0182094 ], [ 38.766175, 9.0194163 ], [ 38.7659433, 9.0209826 ] ] ] } },
{ "type": "Feature", "properties": { "threshold_s": 300, "time_label": "5 minutes" }, "geometry": { "type": "Polygon", "coordinates": [ [ [ 38.7740742, 9.0190452 ], [ 38.7729636, 9.0189732 ], [ 38.7733853, 9.0194122 ], [ 38.7740967, 9.0193713 ], [ 38.7745247, 9.0195546 ], [ 38.775059, 9.0189164 ], [ 38.7749703, 9.0182576 ], [ 38.7750934, 9.0178666 ], [ 38.7755278, 9.0174113 ], [ 38.7760797, 9.0175791 ], [ 38.7761433, 9.0176214 ], [ 38.776591, 9.0179189 ], [ 38.776659, 9.0179653 ], [ 38.7766515, 9.0178233 ], [ 38.7760909, 9.0174322 ], [ 38.7763238, 9.016986 ], [ 38.7760688, 9.0168666 ], [ 38.775128, 9.0168441 ], [ 38.774385, 9.0171846 ], [ 38.7732861, 9.0163395 ], [ 38.7726768, 9.0164571 ], [ 38.7721899, 9.0162346 ], [ 38.7720935, 9.0161841 ], [ 38.7719268, 9.0161546 ], [ 38.7720021, 9.0165267 ], [ 38.7724208, 9.0169459 ], [ 38.772894, 9.0171168 ], [ 38.7731741, 9.0167854 ], [ 38.7737666, 9.0173089 ], [ 38.7741098, 9.0174452 ], [ 38.7741268, 9.017451 ], [ 38.7742102, 9.0174735 ], [ 38.7743357, 9.0174881 ], [ 38.7743481, 9.0183679 ], [ 38.7742627, 9.0186566 ], [ 38.7740742, 9.0190452 ] ] ] } },
{ "type": "Feature", "properties": { "threshold_s": 600, "time_label": "10 minutes" }, "geometry": { "type": "Polygon", "coordinates": [ [ [ 38.770617, 9.0196741 ], [ 38.7707143, 9.0204246 ], [ 38.7713214, 9.0206571 ], [ 38.7723687, 9.02177 ], [ 38.7732625, 9.0224856 ], [ 38.7747369, 9.0224498 ], [ 38.7753358, 9.0224459 ], [ 38.7765749, 9.0211805 ], [ 38.778081, 9.0202005 ], [ 38.7793942, 9.0198778 ], [ 38.7796488, 9.0187175 ], [ 38.7798819, 9.0169092 ], [ 38.7793643, 9.0164574 ], [ 38.7782612, 9.0153819 ], [ 38.7781044, 9.0145299 ], [ 38.7771511, 9.0132784 ], [ 38.7767333, 9.0130162 ], [ 38.776373, 9.0129175 ], [ 38.7753458, 9.0138945 ], [ 38.7734911, 9.0140732 ], [ 38.7721337, 9.0143144 ], [ 38.7718846, 9.0146755 ], [ 38.7700074, 9.0148215 ], [ 38.7699191, 9.014831 ], [ 38.7687544, 9.0164593 ], [ 38.7693392, 9.0177338 ], [ 38.7704765, 9.0188531 ], [ 38.770617, 9.0196741 ] ] ] } },
{ "type": "Feature", "properties": { "threshold_s": 900, "time_label": "15 minutes" }, "geometry": { "type": "Polygon", "coordinates": [ [ [ 38.7666247, 9.0205591 ], [ 38.7666687, 9.0206202 ], [ 38.7667098, 9.0206623 ], [ 38.7682664, 9.0218424 ], [ 38.769131, 9.0219733 ], [ 38.7698094, 9.0217632 ], [ 38.7717645, 9.0208402 ], [ 38.7721672, 9.0212505 ], [ 38.7723687, 9.02177 ], [ 38.7717222, 9.0232818 ], [ 38.7722297, 9.0251154 ], [ 38.7722649, 9.0257447 ], [ 38.7734231, 9.0249135 ], [ 38.7739166, 9.0240686 ], [ 38.7745161, 9.0236071 ], [ 38.7763746, 9.0235218 ], [ 38.7766007, 9.0235376 ], [ 38.7778352, 9.0234959 ], [ 38.7782289, 9.0233603 ], [ 38.7793656, 9.0226299 ], [ 38.7796941, 9.0220515 ], [ 38.7799554, 9.0211994 ], [ 38.7800579, 9.019619 ], [ 38.7804623, 9.0179874 ], [ 38.7798819, 9.0169092 ], [ 38.7795994, 9.0155365 ], [ 38.7793196, 9.0134699 ], [ 38.7786176, 9.0130981 ], [ 38.7780683, 9.0128204 ], [ 38.7777963, 9.0126801 ], [ 38.7770236, 9.0122745 ], [ 38.7767533, 9.0121422 ], [ 38.7757903, 9.0113439 ], [ 38.7751776, 9.0098829 ], [ 38.7740141, 9.0102055 ], [ 38.7739035, 9.0104181 ], [ 38.7738585, 9.0107737 ], [ 38.7732789, 9.0121882 ], [ 38.7734911, 9.0140732 ], [ 38.7721337, 9.0143144 ], [ 38.7699102, 9.014068 ], [ 38.7698139, 9.0132732 ], [ 38.7695735, 9.0120323 ], [ 38.769581, 9.011501 ], [ 38.7694997, 9.0115212 ], [ 38.7683696, 9.0132238 ], [ 38.7672063, 9.0143463 ], [ 38.7671231, 9.0144745 ], [ 38.7668408, 9.0167122 ], [ 38.7659352, 9.0168131 ], [ 38.7657801, 9.0168339 ], [ 38.7653746, 9.01689 ], [ 38.766175, 9.0194163 ], [ 38.7665649, 9.0204702 ], [ 38.7666247, 9.0205591 ] ] ] } },
{ "type": "Feature", "properties": { "threshold_s": 300, "time_label": "5 minutes" }, "geometry": { "type": "Polygon", "coordinates": [ [ [ 38.7740742, 9.0190452 ], [ 38.7729636, 9.0189732 ], [ 38.7733853, 9.0194122 ], [ 38.7745247, 9.0195546 ], [ 38.775059, 9.0189164 ], [ 38.7749703, 9.0182576 ], [ 38.7750934, 9.0178666 ], [ 38.7761433, 9.0176214 ], [ 38.776591, 9.0179189 ], [ 38.776659, 9.0179653 ], [ 38.7766515, 9.0178233 ], [ 38.7763238, 9.016986 ], [ 38.7760688, 9.0168666 ], [ 38.775128, 9.0168441 ], [ 38.774385, 9.0171846 ], [ 38.7732861, 9.0163395 ], [ 38.7731381, 9.0158026 ], [ 38.7728662, 9.015182 ], [ 38.772785, 9.0151314 ], [ 38.7716458, 9.0155264 ], [ 38.7712012, 9.0155134 ], [ 38.771399, 9.0157563 ], [ 38.7720021, 9.0165267 ], [ 38.7716822, 9.0175392 ], [ 38.7724208, 9.0169459 ], [ 38.772894, 9.0171168 ], [ 38.7737666, 9.0173089 ], [ 38.7741098, 9.0174452 ], [ 38.7743481, 9.0183679 ], [ 38.7742627, 9.0186566 ], [ 38.7740742, 9.0190452 ] ] ] } },
{ "type": "Feature", "properties": { "threshold_s": 600, "time_label": "10 minutes" }, "geometry": { "type": "Polygon", "coordinates": [ [ [ 38.7701968, 9.0198391 ], [ 38.7707143, 9.0204246 ], [ 38.7713214, 9.0206571 ], [ 38.7721672, 9.0212505 ], [ 38.7723687, 9.02177 ], [ 38.7732625, 9.0224856 ], [ 38.7740723, 9.022302 ], [ 38.7747369, 9.0224498 ], [ 38.7753358, 9.0224459 ], [ 38.7757073, 9.021581 ], [ 38.7765749, 9.0211805 ], [ 38.7772479, 9.0205165 ], [ 38.778081, 9.0202005 ], [ 38.7793942, 9.0198778 ], [ 38.7796488, 9.0187175 ], [ 38.7796232, 9.0185456 ], [ 38.7796107, 9.0184813 ], [ 38.7796905, 9.0170686 ], [ 38.7798819, 9.0169092 ], [ 38.7793643, 9.0164574 ], [ 38.7781433, 9.0158842 ], [ 38.7782612, 9.0153819 ], [ 38.7781044, 9.0145299 ], [ 38.7774734, 9.014126 ], [ 38.7771511, 9.0132784 ], [ 38.7767333, 9.0130162 ], [ 38.776373, 9.0129175 ], [ 38.7753458, 9.0138945 ], [ 38.7748404, 9.0150736 ], [ 38.7737786, 9.015002 ], [ 38.7735741, 9.0141328 ], [ 38.7743465, 9.0124832 ], [ 38.7744038, 9.0122967 ], [ 38.7743198, 9.0122732 ], [ 38.7742634, 9.0124589 ], [ 38.7734911, 9.0140732 ], [ 38.7721337, 9.0143144 ], [ 38.7718846, 9.0146755 ], [ 38.771485, 9.0152003 ], [ 38.7712012, 9.0155134 ], [ 38.7700074, 9.0148215 ], [ 38.7699173, 9.01413 ], [ 38.7699102, 9.014068 ], [ 38.7698167, 9.0140801 ], [ 38.7692811, 9.0152555 ], [ 38.7687544, 9.0164593 ], [ 38.7682007, 9.0165141 ], [ 38.7692633, 9.0170799 ], [ 38.7693392, 9.0177338 ], [ 38.7698828, 9.0178749 ], [ 38.7704765, 9.0188531 ], [ 38.7701968, 9.0198391 ] ] ] } },
{ "type": "Feature", "properties": { "threshold_s": 900, "time_label": "15 minutes" }, "geometry": { "type": "Polygon", "coordinates": [ [ [ 38.7659433, 9.0209826 ], [ 38.7660096, 9.0210562 ], [ 38.7667098, 9.0206623 ], [ 38.7682664, 9.0218424 ], [ 38.769131, 9.0219733 ], [ 38.7695212, 9.0220233 ], [ 38.7698094, 9.0217632 ], [ 38.7699935, 9.0215229 ], [ 38.7721672, 9.0212505 ], [ 38.7723687, 9.02177 ], [ 38.7717222, 9.0232818 ], [ 38.7722297, 9.0251154 ], [ 38.7722649, 9.0257447 ], [ 38.7734231, 9.0249135 ], [ 38.7739166, 9.0240686 ], [ 38.7745161, 9.0236071 ], [ 38.7763746, 9.0235218 ], [ 38.7766007, 9.0235376 ], [ 38.7778352, 9.0234959 ], [ 38.7782289, 9.0233603 ], [ 38.7793656, 9.0226299 ], [ 38.7796941, 9.0220515 ], [ 38.7799554, 9.0211994 ], [ 38.7800579, 9.019619 ], [ 38.7804623, 9.0179874 ], [ 38.7798819, 9.0169092 ], [ 38.7795994, 9.0155365 ], [ 38.7793196, 9.0134699 ], [ 38.7786176, 9.0130981 ], [ 38.7780683, 9.0128204 ], [ 38.7777963, 9.0126801 ], [ 38.7768362, 9.0119613 ], [ 38.7759849, 9.0099015 ], [ 38.7754892, 9.0093199 ], [ 38.7742957, 9.0098175 ], [ 38.7725128, 9.0102701 ], [ 38.7732789, 9.0121882 ], [ 38.7734911, 9.0140732 ], [ 38.7721337, 9.0143144 ], [ 38.7699102, 9.014068 ], [ 38.7698139, 9.0132732 ], [ 38.7695735, 9.0120323 ], [ 38.769581, 9.011501 ], [ 38.7695029, 9.0107419 ], [ 38.7693993, 9.0107478 ], [ 38.768895, 9.0121279 ], [ 38.7673642, 9.0137797 ], [ 38.766796, 9.0141189 ], [ 38.766101, 9.0156017 ], [ 38.7655491, 9.0161733 ], [ 38.7650242, 9.0169385 ], [ 38.7653746, 9.01689 ], [ 38.76707, 9.0182094 ], [ 38.766175, 9.0194163 ], [ 38.7659433, 9.0209826 ] ] ] } },
{ "type": "Feature", "properties": { "threshold_s": 300, "time_label": "5 minutes" }, "geometry": { "type": "Polygon", "coordinates": [ [ [ 38.7702868, 9.017711 ], [ 38.7703065, 9.0178326 ], [ 38.771192, 9.0184455 ], [ 38.7717558, 9.0183516 ], [ 38.7722032, 9.0178639 ], [ 38.772894, 9.0171168 ], [ 38.7737666, 9.0173089 ], [ 38.7741098, 9.0174452 ], [ 38.7743481, 9.0183679 ], [ 38.7742627, 9.0186566 ], [ 38.774797, 9.0185944 ], [ 38.7750934, 9.0178666 ], [ 38.7755278, 9.0174113 ], [ 38.774385, 9.0171846 ], [ 38.7732861, 9.0163395 ], [ 38.7731381, 9.0158026 ], [ 38.7737786, 9.015002 ], [ 38.7735741, 9.0141328 ], [ 38.7734911, 9.0140732 ], [ 38.773148, 9.0145762 ], [ 38.772785, 9.0151314 ], [ 38.7718846, 9.0146755 ], [ 38.771485, 9.0152003 ], [ 38.7712012, 9.0155134 ], [ 38.7700742, 9.0161859 ], [ 38.7701632, 9.0161573 ], [ 38.771399, 9.0157563 ], [ 38.7720021, 9.0165267 ], [ 38.7716822, 9.0175392 ], [ 38.7713739, 9.0181626 ], [ 38.7704103, 9.0177491 ], [ 38.7703919, 9.0176358 ], [ 38.7702626, 9.0175372 ], [ 38.7702868, 9.017711 ] ] ] } },
{ "type": "Feature", "properties": { "threshold_s": 600, "time_label": "10 minutes" }, "geometry": { "type": "Polygon", "coordinates": [ [ [ 38.7683061, 9.0191895 ], [ 38.7676275, 9.0197284 ], [ 38.7679554, 9.0200175 ], [ 38.7683945, 9.0192425 ], [ 38.7693392, 9.0177338 ], [ 38.7698828, 9.0178749 ], [ 38.7704765, 9.0188531 ], [ 38.7701968, 9.0198391 ], [ 38.7707143, 9.0204246 ], [ 38.7721672, 9.0212505 ], [ 38.7739203, 9.0217859 ], [ 38.7748887, 9.021689 ], [ 38.775142, 9.0212952 ], [ 38.7757479, 9.0204704 ], [ 38.7767495, 9.0195951 ], [ 38.7781336, 9.019429 ], [ 38.7782413, 9.0194063 ], [ 38.7780195, 9.0189515 ], [ 38.7776489, 9.0175259 ], [ 38.7781062, 9.0168899 ], [ 38.7780257, 9.0166441 ], [ 38.7775872, 9.0156198 ], [ 38.7773916, 9.0152577 ], [ 38.7771373, 9.0148378 ], [ 38.7756066, 9.0140259 ], [ 38.7756928, 9.012622 ], [ 38.7750935, 9.011388 ], [ 38.7747681, 9.0111909 ], [ 38.7745133, 9.0110996 ], [ 38.7732789, 9.0121882 ], [ 38.7737825, 9.0123304 ], [ 38.7734911, 9.0140732 ], [ 38.7721337, 9.0143144 ], [ 38.7718846, 9.0146755 ], [ 38.771485, 9.0152003 ], [ 38.7700074, 9.0148215 ], [ 38.7699173, 9.01413 ], [ 38.7699102, 9.014068 ], [ 38.7698139, 9.0132732 ], [ 38.7696976, 9.0130606 ], [ 38.7684856, 9.0141974 ], [ 38.7684944, 9.0142876 ], [ 38.7685277, 9.014545 ], [ 38.7686282, 9.015342 ], [ 38.7674265, 9.0166327 ], [ 38.7668408, 9.0167122 ], [ 38.7681297, 9.0179121 ], [ 38.7683061, 9.0191895 ] ] ] } },
{ "type": "Feature", "properties": { "threshold_s": 900, "time_label": "15 minutes" }, "geometry": { "type": "Polygon", "coordinates": [ [ [ 38.7655915, 9.0212854 ], [ 38.764931, 9.0217993 ], [ 38.7650018, 9.0218736 ], [ 38.765104, 9.0219569 ], [ 38.7657015, 9.0214483 ], [ 38.7660096, 9.0210562 ], [ 38.7667098, 9.0206623 ], [ 38.7682664, 9.0218424 ], [ 38.769131, 9.0219733 ], [ 38.7695212, 9.0220233 ], [ 38.7698094, 9.0217632 ], [ 38.7699935, 9.0215229 ], [ 38.7721672, 9.0212505 ], [ 38.7723687, 9.02177 ], [ 38.7717222, 9.0232818 ], [ 38.7723472, 9.0239117 ], [ 38.7738381, 9.0235314 ], [ 38.7745991, 9.0233237 ], [ 38.7763746, 9.0235218 ], [ 38.7766007, 9.0235376 ], [ 38.7766472, 9.0235001 ], [ 38.7776131, 9.0221239 ], [ 38.779167, 9.0218594 ], [ 38.7799554, 9.0211994 ], [ 38.7800579, 9.019619 ], [ 38.7804623, 9.0179874 ], [ 38.7798819, 9.0169092 ], [ 38.7795994, 9.0155365 ], [ 38.7781044, 9.0145299 ], [ 38.7780683, 9.0128204 ], [ 38.7770095, 9.0108942 ], [ 38.7764101, 9.0093644 ], [ 38.774444, 9.008267 ], [ 38.773689, 9.0090041 ], [ 38.7727248, 9.0097637 ], [ 38.7716724, 9.0100378 ], [ 38.7697094, 9.0103842 ], [ 38.7690658, 9.0102768 ], [ 38.768797, 9.0113452 ], [ 38.767167, 9.0123421 ], [ 38.7665677, 9.0126956 ], [ 38.7656866, 9.0141398 ], [ 38.7649382, 9.0162277 ], [ 38.7636993, 9.017064 ], [ 38.7636571, 9.0176742 ], [ 38.7644139, 9.0174322 ], [ 38.7653746, 9.01689 ], [ 38.76707, 9.0182094 ], [ 38.766175, 9.0194163 ], [ 38.7655915, 9.0212854 ] ] ] } },
{ "type": "Feature", "properties": { "threshold_s": 300, "time_label": "5 minutes" }, "geometry": { "type": "Polygon", "coordinates": [ [ [ 38.7740742, 9.0190452 ], [ 38.7729636, 9.0189732 ], [ 38.7733853, 9.0194122 ], [ 38.7744601, 9.0203401 ], [ 38.774444, 9.0200616 ], [ 38.7747315, 9.0192594 ], [ 38.7755908, 9.018896 ], [ 38.7763276, 9.0184688 ], [ 38.7772229, 9.0183928 ], [ 38.7771591, 9.017689 ], [ 38.7763238, 9.016986 ], [ 38.7765268, 9.016603 ], [ 38.7766469, 9.0163656 ], [ 38.7760688, 9.0168666 ], [ 38.775128, 9.0168441 ], [ 38.774385, 9.0171846 ], [ 38.7732861, 9.0163395 ], [ 38.7726805, 9.0154766 ], [ 38.7725467, 9.0156687 ], [ 38.771399, 9.0157563 ], [ 38.7720021, 9.0165267 ], [ 38.7724208, 9.0169459 ], [ 38.772894, 9.0171168 ], [ 38.7737666, 9.0173089 ], [ 38.7743481, 9.0183679 ], [ 38.7742627, 9.0186566 ], [ 38.7740742, 9.0190452 ] ] ] } },
{ "type": "Feature", "properties": { "threshold_s": 600, "time_label": "10 minutes" }, "geometry": { "type": "Polygon", "coordinates": [ [ [ 38.770414, 9.0196309 ], [ 38.7707143, 9.0204246 ], [ 38.7713214, 9.0206571 ], [ 38.7723687, 9.02177 ], [ 38.7732625, 9.0224856 ], [ 38.7747369, 9.0224498 ], [ 38.7754273, 9.0227795 ], [ 38.7766748, 9.0215036 ], [ 38.777595, 9.0205324 ], [ 38.7789904, 9.020294 ], [ 38.7793942, 9.0198778 ], [ 38.780123, 9.0187263 ], [ 38.7798819, 9.0169092 ], [ 38.7793643, 9.0164574 ], [ 38.7786365, 9.0159533 ], [ 38.7781044, 9.0145299 ], [ 38.777837, 9.0134105 ], [ 38.7767333, 9.0130162 ], [ 38.776373, 9.0129175 ], [ 38.7753458, 9.0138945 ], [ 38.7734911, 9.0140732 ], [ 38.7721337, 9.0143144 ], [ 38.7718846, 9.0146755 ], [ 38.7700074, 9.0148215 ], [ 38.7699191, 9.014831 ], [ 38.7687544, 9.0164593 ], [ 38.7693392, 9.0177338 ], [ 38.7704765, 9.0188531 ], [ 38.770414, 9.0196309 ] ] ] } },
{ "type": "Feature", "properties": { "threshold_s": 900, "time_label": "15 minutes" }, "geometry": { "type": "Polygon", "coordinates": [ [ [ 38.7666247, 9.0205591 ], [ 38.7666687, 9.0206202 ], [ 38.7667098, 9.0206623 ], [ 38.7682664, 9.0218424 ], [ 38.769131, 9.0219733 ], [ 38.7695212, 9.0220233 ], [ 38.7698094, 9.0217632 ], [ 38.7699935, 9.0215229 ], [ 38.7721672, 9.0212505 ], [ 38.7723687, 9.02177 ], [ 38.7717222, 9.0232818 ], [ 38.7722297, 9.0251154 ], [ 38.7719931, 9.0256488 ], [ 38.7722787, 9.0259286 ], [ 38.7725207, 9.0260996 ], [ 38.7739329, 9.0250723 ], [ 38.7739588, 9.0248857 ], [ 38.7745161, 9.0236071 ], [ 38.7763746, 9.0235218 ], [ 38.7762556, 9.0254534 ], [ 38.77651370000001, 9.0255786 ], [ 38.7765849, 9.0252853 ], [ 38.7778352, 9.0234959 ], [ 38.7782289, 9.0233603 ], [ 38.7792527, 9.0229481 ], [ 38.7796031, 9.0223489 ], [ 38.7799554, 9.0211994 ], [ 38.7800579, 9.019619 ], [ 38.7804623, 9.0179874 ], [ 38.7798819, 9.0169092 ], [ 38.7795994, 9.0155365 ], [ 38.7793196, 9.0134699 ], [ 38.7786176, 9.0130981 ], [ 38.7780683, 9.0128204 ], [ 38.7777963, 9.0126801 ], [ 38.7770236, 9.0122745 ], [ 38.7767533, 9.0121422 ], [ 38.7757903, 9.0113439 ], [ 38.7751776, 9.0098829 ], [ 38.7751447, 9.0097636 ], [ 38.7742957, 9.0098175 ], [ 38.7740141, 9.0102055 ], [ 38.7739035, 9.0104181 ], [ 38.7738585, 9.0107737 ], [ 38.7732789, 9.0121882 ], [ 38.7734911, 9.0140732 ], [ 38.7721337, 9.0143144 ], [ 38.7699102, 9.014068 ], [ 38.7698139, 9.0132732 ], [ 38.7695735, 9.0120323 ], [ 38.769581, 9.011501 ], [ 38.7694701, 9.0112646 ], [ 38.768895, 9.0121279 ], [ 38.7683696, 9.0132238 ], [ 38.7672445, 9.0141029 ], [ 38.766938, 9.0143844 ], [ 38.7661117, 9.016113 ], [ 38.7653746, 9.01689 ], [ 38.76707, 9.0182094 ], [ 38.766175, 9.0194163 ], [ 38.7665649, 9.0204702 ], [ 38.7666247, 9.0205591 ] ] ] } },
{ "type": "Feature", "properties": { "threshold_s": 300, "time_label": "5 minutes" }, "geometry": { "type": "Polygon", "coordinates": [ [ [ 38.7702868, 9.017711 ], [ 38.7703065, 9.0178326 ], [ 38.771192, 9.0184455 ], [ 38.7717558, 9.0183516 ], [ 38.7722032, 9.0178639 ], [ 38.772894, 9.0171168 ], [ 38.7737666, 9.0173089 ], [ 38.7741098, 9.0174452 ], [ 38.7743481, 9.0183679 ], [ 38.7742627, 9.0186566 ], [ 38.774797, 9.0185944 ], [ 38.7750934, 9.0178666 ], [ 38.7755278, 9.0174113 ], [ 38.774385, 9.0171846 ], [ 38.7732861, 9.0163395 ], [ 38.7731381, 9.0158026 ], [ 38.7737786, 9.015002 ], [ 38.7735741, 9.0141328 ], [ 38.7734911, 9.0140732 ], [ 38.773148, 9.0145762 ], [ 38.7721337, 9.0143144 ], [ 38.7718846, 9.0146755 ], [ 38.771485, 9.0152003 ], [ 38.7712012, 9.0155134 ], [ 38.7700742, 9.0161859 ], [ 38.7701632, 9.0161573 ], [ 38.771399, 9.0157563 ], [ 38.7720021, 9.0165267 ], [ 38.7716822, 9.0175392 ], [ 38.7713739, 9.0181626 ], [ 38.7704103, 9.0177491 ], [ 38.7703919, 9.0176358 ], [ 38.7702626, 9.0175372 ], [ 38.7702868, 9.017711 ] ] ] } },
{ "type": "Feature", "properties": { "threshold_s": 600, "time_label": "10 minutes" }, "geometry": { "type": "Polygon", "coordinates": [ [ [ 38.7683061, 9.0191895 ], [ 38.7676275, 9.0197284 ], [ 38.7679554, 9.0200175 ], [ 38.7683945, 9.0192425 ], [ 38.7693392, 9.0177338 ], [ 38.7698828, 9.0178749 ], [ 38.7704765, 9.0188531 ], [ 38.7701968, 9.0198391 ], [ 38.7707143, 9.0204246 ], [ 38.7721672, 9.0212505 ], [ 38.7730156, 9.0214001 ], [ 38.7739802, 9.0217136 ], [ 38.7748887, 9.021689 ], [ 38.775142, 9.0212952 ], [ 38.7757479, 9.0204704 ], [ 38.7767495, 9.0195951 ], [ 38.7782413, 9.0194063 ], [ 38.7780195, 9.0189515 ], [ 38.7776489, 9.0175259 ], [ 38.7781062, 9.0168899 ], [ 38.7780257, 9.0166441 ], [ 38.7775872, 9.0156198 ], [ 38.7771029, 9.014959 ], [ 38.7760706, 9.0156092 ], [ 38.7756066, 9.0140259 ], [ 38.7756928, 9.012622 ], [ 38.7750935, 9.011388 ], [ 38.774881, 9.0108722 ], [ 38.7745133, 9.0110996 ], [ 38.7732789, 9.0121882 ], [ 38.7737825, 9.0123304 ], [ 38.7742634, 9.0124589 ], [ 38.7743465, 9.0124832 ], [ 38.7753458, 9.0138945 ], [ 38.7748404, 9.0150736 ], [ 38.7735741, 9.0141328 ], [ 38.7734911, 9.0140732 ], [ 38.7721337, 9.0143144 ], [ 38.7718846, 9.0146755 ], [ 38.771485, 9.0152003 ], [ 38.7700074, 9.0148215 ], [ 38.7699173, 9.01413 ], [ 38.7699102, 9.014068 ], [ 38.7698139, 9.0132732 ], [ 38.7696976, 9.0130606 ], [ 38.7684856, 9.0141974 ], [ 38.7684944, 9.0142876 ], [ 38.7685277, 9.014545 ], [ 38.7686282, 9.015342 ], [ 38.7686489, 9.0154598 ], [ 38.7682007, 9.0165141 ], [ 38.7674265, 9.0166327 ], [ 38.7668408, 9.0167122 ], [ 38.7681297, 9.0179121 ], [ 38.7683061, 9.0191895 ] ] ] } },
{ "type": "Feature", "properties": { "threshold_s": 900, "time_label": "15 minutes" }, "geometry": { "type": "Polygon", "coordinates": [ [ [ 38.7655915, 9.0212854 ], [ 38.764931, 9.0217993 ], [ 38.7650018, 9.0218736 ], [ 38.765104, 9.0219569 ], [ 38.7657015, 9.0214483 ], [ 38.7660096, 9.0210562 ], [ 38.7667098, 9.0206623 ], [ 38.7682664, 9.0218424 ], [ 38.769131, 9.0219733 ], [ 38.7695212, 9.0220233 ], [ 38.7698094, 9.0217632 ], [ 38.7699935, 9.0215229 ], [ 38.7721672, 9.0212505 ], [ 38.7723687, 9.02177 ], [ 38.7717222, 9.0232818 ], [ 38.7723472, 9.0239117 ], [ 38.7738381, 9.0235314 ], [ 38.7745991, 9.0233237 ], [ 38.7763746, 9.0235218 ], [ 38.7766007, 9.0235376 ], [ 38.7766472, 9.0235001 ], [ 38.7776131, 9.0221239 ], [ 38.7791203, 9.021325 ], [ 38.7799554, 9.0211994 ], [ 38.7800579, 9.019619 ], [ 38.7804623, 9.0179874 ], [ 38.7798819, 9.0169092 ], [ 38.7795994, 9.0155365 ], [ 38.7781044, 9.0145299 ], [ 38.7780683, 9.0128204 ], [ 38.7770095, 9.0108942 ], [ 38.7762773, 9.0087776 ], [ 38.77456, 9.0081061 ], [ 38.773689, 9.0090041 ], [ 38.7716724, 9.0100378 ], [ 38.7697679, 9.0102067 ], [ 38.7690658, 9.0102768 ], [ 38.768797, 9.0113452 ], [ 38.767167, 9.0123421 ], [ 38.7665677, 9.0126956 ], [ 38.7656866, 9.0141398 ], [ 38.7649382, 9.0162277 ], [ 38.7636993, 9.017064 ], [ 38.7636571, 9.0176742 ], [ 38.7644139, 9.0174322 ], [ 38.7653746, 9.01689 ], [ 38.76707, 9.0182094 ], [ 38.766175, 9.0194163 ], [ 38.7655915, 9.0212854 ] ] ] } },
{ "type": "Feature", "properties": { "threshold_s": 300, "time_label": "5 minutes" }, "geometry": { "type": "Polygon", "coordinates": [ [ [ 38.7713739, 9.0181626 ], [ 38.7713192, 9.0182653 ], [ 38.7722032, 9.0178639 ], [ 38.772894, 9.0171168 ], [ 38.7737666, 9.0173089 ], [ 38.7743481, 9.0183679 ], [ 38.7742627, 9.0186566 ], [ 38.7740742, 9.0190452 ], [ 38.7740967, 9.0193713 ], [ 38.7747315, 9.0192594 ], [ 38.7749703, 9.0182576 ], [ 38.7750934, 9.0178666 ], [ 38.7761433, 9.0176214 ], [ 38.7760909, 9.0174322 ], [ 38.7755278, 9.0174113 ], [ 38.774385, 9.0171846 ], [ 38.7732861, 9.0163395 ], [ 38.7731381, 9.0158026 ], [ 38.7732235, 9.0146348 ], [ 38.773148, 9.0145762 ], [ 38.772785, 9.0151314 ], [ 38.7716458, 9.0155264 ], [ 38.771485, 9.0152003 ], [ 38.7712012, 9.0155134 ], [ 38.771399, 9.0157563 ], [ 38.7720021, 9.0165267 ], [ 38.7716822, 9.0175392 ], [ 38.7713739, 9.0181626 ] ] ] } },
{ "type": "Feature", "properties": { "threshold_s": 600, "time_label": "10 minutes" }, "geometry": { "type": "Polygon", "coordinates": [ [ [ 38.7693392, 9.0177338 ], [ 38.7683061, 9.0191895 ], [ 38.7683945, 9.0192425 ], [ 38.7698828, 9.0178749 ], [ 38.7704765, 9.0188531 ], [ 38.7701968, 9.0198391 ], [ 38.7707143, 9.0204246 ], [ 38.7713214, 9.0206571 ], [ 38.7717645, 9.0208402 ], [ 38.7730777, 9.0217135 ], [ 38.7732778, 9.0219463 ], [ 38.7735536, 9.0221639 ], [ 38.7742661, 9.0221374 ], [ 38.7753074, 9.0220768 ], [ 38.7753383, 9.021921 ], [ 38.7757479, 9.0204704 ], [ 38.7766492, 9.0201374 ], [ 38.7782413, 9.0194063 ], [ 38.7780195, 9.0189515 ], [ 38.7776489, 9.0175259 ], [ 38.7781062, 9.0168899 ], [ 38.7781433, 9.0158842 ], [ 38.7771373, 9.0148378 ], [ 38.7756066, 9.0140259 ], [ 38.7753458, 9.0138945 ], [ 38.7743465, 9.0124832 ], [ 38.7744038, 9.0122967 ], [ 38.7746465, 9.0115406 ], [ 38.7732789, 9.0121882 ], [ 38.7737825, 9.0123304 ], [ 38.7734911, 9.0140732 ], [ 38.7721337, 9.0143144 ], [ 38.7718846, 9.0146755 ], [ 38.771485, 9.0152003 ], [ 38.7700074, 9.0148215 ], [ 38.7699173, 9.01413 ], [ 38.7699102, 9.014068 ], [ 38.7698139, 9.0132732 ], [ 38.769726, 9.0132853 ], [ 38.769157, 9.0141303 ], [ 38.7686282, 9.015342 ], [ 38.7674265, 9.0166327 ], [ 38.7682007, 9.0165141 ], [ 38.7693392, 9.0177338 ] ] ] } },
{ "type": "Feature", "properties": { "threshold_s": 900, "time_label": "15 minutes" }, "geometry": { "type": "Polygon", "coordinates": [ [ [ 38.7655915, 9.0212854 ], [ 38.7654172, 9.0215259 ], [ 38.7657015, 9.0214483 ], [ 38.7660096, 9.0210562 ], [ 38.7667098, 9.0206623 ], [ 38.7682664, 9.0218424 ], [ 38.769131, 9.0219733 ], [ 38.7695212, 9.0220233 ], [ 38.7698094, 9.0217632 ], [ 38.7699935, 9.0215229 ], [ 38.7721672, 9.0212505 ], [ 38.7723687, 9.02177 ], [ 38.7717222, 9.0232818 ], [ 38.7723472, 9.0239117 ], [ 38.7735011, 9.024124 ], [ 38.7739166, 9.0240686 ], [ 38.7745161, 9.0236071 ], [ 38.7763746, 9.0235218 ], [ 38.7766007, 9.0235376 ], [ 38.7768839, 9.023439 ], [ 38.7780406, 9.0222014 ], [ 38.7794747, 9.0219111 ], [ 38.7796967, 9.0215989 ], [ 38.7799554, 9.0211994 ], [ 38.7800579, 9.019619 ], [ 38.7804623, 9.0179874 ], [ 38.7798819, 9.0169092 ], [ 38.7795994, 9.0155365 ], [ 38.7781044, 9.0145299 ], [ 38.7786176, 9.0130981 ], [ 38.7780683, 9.0128204 ], [ 38.7777963, 9.0126801 ], [ 38.7768362, 9.0119613 ], [ 38.7767145, 9.0118338 ], [ 38.7759849, 9.0099015 ], [ 38.7764101, 9.0093644 ], [ 38.7754892, 9.0093199 ], [ 38.774324, 9.0086107 ], [ 38.7742737, 9.0086372 ], [ 38.7740014, 9.0088061 ], [ 38.7727248, 9.0097637 ], [ 38.7721689, 9.010043 ], [ 38.7725128, 9.0102701 ], [ 38.7732789, 9.0121882 ], [ 38.7734911, 9.0140732 ], [ 38.7721337, 9.0143144 ], [ 38.7718846, 9.0146755 ], [ 38.7699102, 9.014068 ], [ 38.7698139, 9.0132732 ], [ 38.7695735, 9.0120323 ], [ 38.769581, 9.011501 ], [ 38.7697094, 9.0103842 ], [ 38.7690658, 9.0102768 ], [ 38.768797, 9.0113452 ], [ 38.768895, 9.0121279 ], [ 38.7671296, 9.0128799 ], [ 38.7665394, 9.0135282 ], [ 38.7654814, 9.0154268 ], [ 38.7641041, 9.0170057 ], [ 38.7640158, 9.0171291 ], [ 38.7644139, 9.0174322 ], [ 38.7653746, 9.01689 ], [ 38.76707, 9.0182094 ], [ 38.766175, 9.0194163 ], [ 38.7655915, 9.0212854 ] ] ] } },
{ "type": "Feature", "properties": { "threshold_s": 300, "time_label": "5 minutes" }, "geometry": { "type": "Polygon", "coordinates": [ [ [ 38.7741098, 9.0174452 ], [ 38.7743481, 9.0183679 ], [ 38.775059, 9.0189164 ], [ 38.7760465, 9.0188958 ], [ 38.7763276, 9.0184688 ], [ 38.7772229, 9.0183928 ], [ 38.777311, 9.0184464 ], [ 38.7776519, 9.0186828 ], [ 38.7776489, 9.0175259 ], [ 38.7771591, 9.017689 ], [ 38.7766515, 9.0178233 ], [ 38.7763238, 9.016986 ], [ 38.7765268, 9.016603 ], [ 38.7766469, 9.0163656 ], [ 38.7767685, 9.0159505 ], [ 38.7759064, 9.0164735 ], [ 38.775128, 9.0168441 ], [ 38.774385, 9.0171846 ], [ 38.7737666, 9.0173089 ], [ 38.7741098, 9.0174452 ] ] ] } },
{ "type": "Feature", "properties": { "threshold_s": 600, "time_label": "10 minutes" }, "geometry": { "type": "Polygon", "coordinates": [ [ [ 38.7729915, 9.021206 ], [ 38.7730491, 9.0213304 ], [ 38.7738497, 9.0218584 ], [ 38.7739464, 9.0219172 ], [ 38.7748887, 9.021689 ], [ 38.7765304, 9.0219176 ], [ 38.7774228, 9.021372 ], [ 38.7788943, 9.020732 ], [ 38.7792195, 9.0204774 ], [ 38.7792447, 9.0203661 ], [ 38.7793942, 9.0198778 ], [ 38.780123, 9.0187263 ], [ 38.7796107, 9.0184813 ], [ 38.7796905, 9.0170686 ], [ 38.7798819, 9.0169092 ], [ 38.7793643, 9.0164574 ], [ 38.7786365, 9.0159533 ], [ 38.7781044, 9.0145299 ], [ 38.777837, 9.0134105 ], [ 38.7767333, 9.0130162 ], [ 38.7756066, 9.0140259 ], [ 38.7760706, 9.0156092 ], [ 38.775128, 9.0168441 ], [ 38.774385, 9.0171846 ], [ 38.7732861, 9.0163395 ], [ 38.7731381, 9.0158026 ], [ 38.7732235, 9.0146348 ], [ 38.773148, 9.0145762 ], [ 38.772785, 9.0151314 ], [ 38.771485, 9.0152003 ], [ 38.7712012, 9.0155134 ], [ 38.771399, 9.0157563 ], [ 38.7720021, 9.0165267 ], [ 38.7716822, 9.0175392 ], [ 38.7713739, 9.0181626 ], [ 38.7722032, 9.0178639 ], [ 38.7729636, 9.0189732 ], [ 38.7728602, 9.0202455 ], [ 38.772948, 9.0210846 ], [ 38.7729915, 9.021206 ] ] ] } },
{ "type": "Feature", "properties": { "threshold_s": 900, "time_label": "15 minutes" }, "geometry": { "type": "Polygon", "coordinates": [ [ [ 38.7723687, 9.02177 ], [ 38.7717222, 9.0232818 ], [ 38.7723472, 9.0239117 ], [ 38.7735011, 9.024124 ], [ 38.7745161, 9.0236071 ], [ 38.7760156, 9.0231854 ], [ 38.7763746, 9.0235218 ], [ 38.7765006, 9.0252813 ], [ 38.7765849, 9.0252853 ], [ 38.7765878, 9.0251981 ], [ 38.7766007, 9.0235376 ], [ 38.7768839, 9.023439 ], [ 38.7778352, 9.0234959 ], [ 38.7782289, 9.0233603 ], [ 38.7792527, 9.0229481 ], [ 38.7796031, 9.0223489 ], [ 38.7799554, 9.0211994 ], [ 38.7800579, 9.019619 ], [ 38.7804623, 9.0179874 ], [ 38.7798819, 9.0169092 ], [ 38.7795994, 9.0155365 ], [ 38.7802996, 9.0139608 ], [ 38.7793196, 9.0134699 ], [ 38.7786176, 9.0130981 ], [ 38.7780683, 9.0128204 ], [ 38.7777963, 9.0126801 ], [ 38.7770236, 9.0122745 ], [ 38.7767533, 9.0121422 ], [ 38.7766959, 9.0121141 ], [ 38.7761009, 9.0118694 ], [ 38.7752593, 9.0110646 ], [ 38.7747322, 9.0111996 ], [ 38.7738854, 9.0119414 ], [ 38.7732789, 9.0121882 ], [ 38.7737825, 9.0123304 ], [ 38.7742634, 9.0124589 ], [ 38.7743465, 9.0124832 ], [ 38.7753458, 9.0138945 ], [ 38.7748404, 9.0150736 ], [ 38.7735741, 9.0141328 ], [ 38.7734911, 9.0140732 ], [ 38.7721337, 9.0143144 ], [ 38.7718846, 9.0146755 ], [ 38.771485, 9.0152003 ], [ 38.7700074, 9.0148215 ], [ 38.7699173, 9.01413 ], [ 38.7699102, 9.014068 ], [ 38.7698139, 9.0132732 ], [ 38.769726, 9.0132853 ], [ 38.769157, 9.0141303 ], [ 38.7686282, 9.015342 ], [ 38.7686489, 9.0154598 ], [ 38.7674265, 9.0166327 ], [ 38.7682007, 9.0165141 ], [ 38.7693392, 9.0177338 ], [ 38.7683061, 9.0191895 ], [ 38.7683945, 9.0192425 ], [ 38.7698828, 9.0178749 ], [ 38.7704765, 9.0188531 ], [ 38.7701968, 9.0198391 ], [ 38.7707143, 9.0204246 ], [ 38.7713214, 9.0206571 ], [ 38.7723687, 9.02177 ] ] ] } },
{ "type": "Feature", "properties": { "threshold_s": 300, "time_label": "5 minutes" }, "geometry": { "type": "Polygon", "coordinates": [ [ [ 38.7740742, 9.0190452 ], [ 38.7729636, 9.0189732 ], [ 38.7733853, 9.0194122 ], [ 38.7744601, 9.0203401 ], [ 38.774444, 9.0200616 ], [ 38.7747315, 9.0192594 ], [ 38.7755908, 9.018896 ], [ 38.7763276, 9.0184688 ], [ 38.777311, 9.0184464 ], [ 38.7771591, 9.017689 ], [ 38.7763238, 9.016986 ], [ 38.7765268, 9.016603 ], [ 38.7766469, 9.0163656 ], [ 38.7760688, 9.0168666 ], [ 38.775128, 9.0168441 ], [ 38.774385, 9.0171846 ], [ 38.7732861, 9.0163395 ], [ 38.7725467, 9.0156687 ], [ 38.7719268, 9.0161546 ], [ 38.7720021, 9.0165267 ], [ 38.7724208, 9.0169459 ], [ 38.772894, 9.0171168 ], [ 38.7737666, 9.0173089 ], [ 38.7743481, 9.0183679 ], [ 38.7742627, 9.0186566 ], [ 38.7740742, 9.0190452 ] ] ] } },
{ "type": "Feature", "properties": { "threshold_s": 600, "time_label": "10 minutes" }, "geometry": { "type": "Polygon", "coordinates": [ [ [ 38.7704978, 9.0196884 ], [ 38.7707143, 9.0204246 ], [ 38.7713214, 9.0206571 ], [ 38.7723687, 9.02177 ], [ 38.7732625, 9.0224856 ], [ 38.7747369, 9.0224498 ], [ 38.7754067, 9.0226716 ], [ 38.7766748, 9.0215036 ], [ 38.777595, 9.0205324 ], [ 38.7792447, 9.0203661 ], [ 38.780123, 9.0187263 ], [ 38.7798819, 9.0169092 ], [ 38.7793643, 9.0164574 ], [ 38.7786365, 9.0159533 ], [ 38.7781044, 9.0145299 ], [ 38.777837, 9.0134105 ], [ 38.7767333, 9.0130162 ], [ 38.776373, 9.0129175 ], [ 38.7753458, 9.0138945 ], [ 38.7734911, 9.0140732 ], [ 38.7721337, 9.0143144 ], [ 38.7718846, 9.0146755 ], [ 38.7700074, 9.0148215 ], [ 38.7699191, 9.014831 ], [ 38.7687544, 9.0164593 ], [ 38.7693392, 9.0177338 ], [ 38.7704765, 9.0188531 ], [ 38.7704978, 9.0196884 ] ] ] } },
{ "type": "Feature", "properties": { "threshold_s": 900, "time_label": "15 minutes" }, "geometry": { "type": "Polygon", "coordinates": [ [ [ 38.7666247, 9.0205591 ], [ 38.7666687, 9.0206202 ], [ 38.7667098, 9.0206623 ], [ 38.7682664, 9.0218424 ], [ 38.769131, 9.0219733 ], [ 38.7695212, 9.0220233 ], [ 38.7698094, 9.0217632 ], [ 38.7699935, 9.0215229 ], [ 38.7721672, 9.0212505 ], [ 38.7723687, 9.02177 ], [ 38.7717222, 9.0232818 ], [ 38.7722297, 9.0251154 ], [ 38.7719931, 9.0256488 ], [ 38.7722787, 9.0259286 ], [ 38.7725207, 9.0260996 ], [ 38.7739329, 9.0250723 ], [ 38.7739588, 9.0248857 ], [ 38.7745161, 9.0236071 ], [ 38.7763746, 9.0235218 ], [ 38.7765006, 9.0252813 ], [ 38.7764797, 9.0254299 ], [ 38.7765849, 9.0252853 ], [ 38.7778352, 9.0234959 ], [ 38.7782289, 9.0233603 ], [ 38.7792527, 9.0229481 ], [ 38.7796031, 9.0223489 ], [ 38.7799554, 9.0211994 ], [ 38.7800579, 9.019619 ], [ 38.7804623, 9.0179874 ], [ 38.7798819, 9.0169092 ], [ 38.7795994, 9.0155365 ], [ 38.7793196, 9.0134699 ], [ 38.7786176, 9.0130981 ], [ 38.7780683, 9.0128204 ], [ 38.7777963, 9.0126801 ], [ 38.7770236, 9.0122745 ], [ 38.7767533, 9.0121422 ], [ 38.7757903, 9.0113439 ], [ 38.7751776, 9.0098829 ], [ 38.7751447, 9.0097636 ], [ 38.7740141, 9.0102055 ], [ 38.7739035, 9.0104181 ], [ 38.7738585, 9.0107737 ], [ 38.7732789, 9.0121882 ], [ 38.7734911, 9.0140732 ], [ 38.7721337, 9.0143144 ], [ 38.7699102, 9.014068 ], [ 38.7698139, 9.0132732 ], [ 38.7695735, 9.0120323 ], [ 38.769581, 9.011501 ], [ 38.7694997, 9.0115212 ], [ 38.768895, 9.0121279 ], [ 38.7683696, 9.0132238 ], [ 38.7671388, 9.0143601 ], [ 38.7669486, 9.0144824 ], [ 38.7661117, 9.016113 ], [ 38.7653746, 9.01689 ], [ 38.76707, 9.0182094 ], [ 38.766175, 9.0194163 ], [ 38.7665649, 9.0204702 ], [ 38.7666247, 9.0205591 ] ] ] } },
{ "type": "Feature", "properties": { "threshold_s": 300, "time_label": "5 minutes" }, "geometry": { "type": "Polygon", "coordinates": [ [ [ 38.7740742, 9.0190452 ], [ 38.7729636, 9.0189732 ], [ 38.7733853, 9.0194122 ], [ 38.7745247, 9.0195546 ], [ 38.775059, 9.0189164 ], [ 38.7749703, 9.0182576 ], [ 38.7750934, 9.0178666 ], [ 38.7761433, 9.0176214 ], [ 38.776591, 9.0179189 ], [ 38.776659, 9.0179653 ], [ 38.7766515, 9.0178233 ], [ 38.7763238, 9.016986 ], [ 38.7760688, 9.0168666 ], [ 38.775128, 9.0168441 ], [ 38.774385, 9.0171846 ], [ 38.7732861, 9.0163395 ], [ 38.7731381, 9.0158026 ], [ 38.7728662, 9.015182 ], [ 38.772785, 9.0151314 ], [ 38.7716458, 9.0155264 ], [ 38.7712012, 9.0155134 ], [ 38.771399, 9.0157563 ], [ 38.7720021, 9.0165267 ], [ 38.7716822, 9.0175392 ], [ 38.7724208, 9.0169459 ], [ 38.772894, 9.0171168 ], [ 38.7737666, 9.0173089 ], [ 38.7741098, 9.0174452 ], [ 38.7743481, 9.0183679 ], [ 38.7742627, 9.0186566 ], [ 38.7740742, 9.0190452 ] ] ] } },
{ "type": "Feature", "properties": { "threshold_s": 600, "time_label": "10 minutes" }, "geometry": { "type": "Polygon", "coordinates": [ [ [ 38.7701968, 9.0198391 ], [ 38.7707143, 9.0204246 ], [ 38.7713214, 9.0206571 ], [ 38.7721672, 9.0212505 ], [ 38.7723687, 9.02177 ], [ 38.7732625, 9.0224856 ], [ 38.7740723, 9.022302 ], [ 38.7747369, 9.0224498 ], [ 38.7753358, 9.0224459 ], [ 38.7757073, 9.021581 ], [ 38.7765749, 9.0211805 ], [ 38.7772479, 9.0205165 ], [ 38.778081, 9.0202005 ], [ 38.7793942, 9.0198778 ], [ 38.7796488, 9.0187175 ], [ 38.7796232, 9.0185456 ], [ 38.7796107, 9.0184813 ], [ 38.7796905, 9.0170686 ], [ 38.7798819, 9.0169092 ], [ 38.7793643, 9.0164574 ], [ 38.7781433, 9.0158842 ], [ 38.7782612, 9.0153819 ], [ 38.7781044, 9.0145299 ], [ 38.7774734, 9.014126 ], [ 38.7771511, 9.0132784 ], [ 38.7767333, 9.0130162 ], [ 38.776373, 9.0129175 ], [ 38.7753458, 9.0138945 ], [ 38.7748404, 9.0150736 ], [ 38.7737786, 9.015002 ], [ 38.7735741, 9.0141328 ], [ 38.7743465, 9.0124832 ], [ 38.7744038, 9.0122967 ], [ 38.7743198, 9.0122732 ], [ 38.7742634, 9.0124589 ], [ 38.7734911, 9.0140732 ], [ 38.7721337, 9.0143144 ], [ 38.7718846, 9.0146755 ], [ 38.771485, 9.0152003 ], [ 38.7712012, 9.0155134 ], [ 38.7700074, 9.0148215 ], [ 38.7699173, 9.01413 ], [ 38.7699102, 9.014068 ], [ 38.7698167, 9.0140801 ], [ 38.7692811, 9.0152555 ], [ 38.7687544, 9.0164593 ], [ 38.7682007, 9.0165141 ], [ 38.7692633, 9.0170799 ], [ 38.7693392, 9.0177338 ], [ 38.7698828, 9.0178749 ], [ 38.7704765, 9.0188531 ], [ 38.7701968, 9.0198391 ] ] ] } },
{ "type": "Feature", "properties": { "threshold_s": 900, "time_label": "15 minutes" }, "geometry": { "type": "Polygon", "coordinates": [ [ [ 38.7659433, 9.0209826 ], [ 38.7660096, 9.0210562 ], [ 38.7667098, 9.0206623 ], [ 38.7682664, 9.0218424 ], [ 38.769131, 9.0219733 ], [ 38.7695212, 9.0220233 ], [ 38.7698094, 9.0217632 ], [ 38.7699935, 9.0215229 ], [ 38.7721672, 9.0212505 ], [ 38.7723687, 9.02177 ], [ 38.7717222, 9.0232818 ], [ 38.7722297, 9.0251154 ], [ 38.7722649, 9.0257447 ], [ 38.7734231, 9.0249135 ], [ 38.7739166, 9.0240686 ], [ 38.7745161, 9.0236071 ], [ 38.7763746, 9.0235218 ], [ 38.7766007, 9.0235376 ], [ 38.7778352, 9.0234959 ], [ 38.7782289, 9.0233603 ], [ 38.7793656, 9.0226299 ], [ 38.7796941, 9.0220515 ], [ 38.7799554, 9.0211994 ], [ 38.7800579, 9.019619 ], [ 38.7804623, 9.0179874 ], [ 38.7798819, 9.0169092 ], [ 38.7795994, 9.0155365 ], [ 38.7793196, 9.0134699 ], [ 38.7786176, 9.0130981 ], [ 38.7780683, 9.0128204 ], [ 38.7777963, 9.0126801 ], [ 38.7768362, 9.0119613 ], [ 38.7759849, 9.0099015 ], [ 38.7754892, 9.0093199 ], [ 38.7742957, 9.0098175 ], [ 38.7725128, 9.0102701 ], [ 38.7732789, 9.0121882 ], [ 38.7734911, 9.0140732 ], [ 38.7721337, 9.0143144 ], [ 38.7699102, 9.014068 ], [ 38.7698139, 9.0132732 ], [ 38.7695735, 9.0120323 ], [ 38.769581, 9.011501 ], [ 38.7695029, 9.0107419 ], [ 38.7693993, 9.0107478 ], [ 38.768895, 9.0121279 ], [ 38.7673642, 9.0137797 ], [ 38.766796, 9.0141189 ], [ 38.766101, 9.0156017 ], [ 38.7655491, 9.0161733 ], [ 38.7650242, 9.0169385 ], [ 38.7653746, 9.01689 ], [ 38.76707, 9.0182094 ], [ 38.766175, 9.0194163 ], [ 38.7659433, 9.0209826 ] ] ] } },
{ "type": "Feature", "properties": { "threshold_s": 300, "time_label": "5 minutes" }, "geometry": { "type": "Polygon", "coordinates": [ [ [ 38.7702868, 9.017711 ], [ 38.7703065, 9.0178326 ], [ 38.771192, 9.0184455 ], [ 38.7717558, 9.0183516 ], [ 38.7722032, 9.0178639 ], [ 38.772894, 9.0171168 ], [ 38.7737666, 9.0173089 ], [ 38.7741098, 9.0174452 ], [ 38.7743481, 9.0183679 ], [ 38.7742627, 9.0186566 ], [ 38.7746249, 9.0184432 ], [ 38.7750934, 9.0178666 ], [ 38.7755278, 9.0174113 ], [ 38.774385, 9.0171846 ], [ 38.7732861, 9.0163395 ], [ 38.7731381, 9.0158026 ], [ 38.7737786, 9.015002 ], [ 38.7735741, 9.0141328 ], [ 38.7734911, 9.0140732 ], [ 38.773148, 9.0145762 ], [ 38.7721337, 9.0143144 ], [ 38.7718846, 9.0146755 ], [ 38.771485, 9.0152003 ], [ 38.7712012, 9.0155134 ], [ 38.7700742, 9.0161859 ], [ 38.7701632, 9.0161573 ], [ 38.771399, 9.0157563 ], [ 38.7720021, 9.0165267 ], [ 38.7716822, 9.0175392 ], [ 38.7713739, 9.0181626 ], [ 38.7704103, 9.0177491 ], [ 38.7703919, 9.0176358 ], [ 38.7702626, 9.0175372 ], [ 38.7702868, 9.017711 ] ] ] } },
{ "type": "Feature", "properties": { "threshold_s": 600, "time_label": "10 minutes" }, "geometry": { "type": "Polygon", "coordinates": [ [ [ 38.7683061, 9.0191895 ], [ 38.7676275, 9.0197284 ], [ 38.7679554, 9.0200175 ], [ 38.7683945, 9.0192425 ], [ 38.7693392, 9.0177338 ], [ 38.7698828, 9.0178749 ], [ 38.7704765, 9.0188531 ], [ 38.7701968, 9.0198391 ], [ 38.7707143, 9.0204246 ], [ 38.7713214, 9.0206571 ], [ 38.7721672, 9.0212505 ], [ 38.7730156, 9.0214001 ], [ 38.7739802, 9.0217136 ], [ 38.7748887, 9.021689 ], [ 38.775142, 9.0212952 ], [ 38.7757479, 9.0204704 ], [ 38.7767495, 9.0195951 ], [ 38.7782413, 9.0194063 ], [ 38.7780195, 9.0189515 ], [ 38.7776489, 9.0175259 ], [ 38.7781062, 9.0168899 ], [ 38.7780257, 9.0166441 ], [ 38.7775872, 9.0156198 ], [ 38.7771029, 9.014959 ], [ 38.7760706, 9.0156092 ], [ 38.7751674, 9.01502 ], [ 38.7756066, 9.0140259 ], [ 38.7756928, 9.012622 ], [ 38.7750935, 9.011388 ], [ 38.7747681, 9.0111909 ], [ 38.7745133, 9.0110996 ], [ 38.7738854, 9.0119414 ], [ 38.7732789, 9.0121882 ], [ 38.7737825, 9.0123304 ], [ 38.7742634, 9.0124589 ], [ 38.7743465, 9.0124832 ], [ 38.7753458, 9.0138945 ], [ 38.7748404, 9.0150736 ], [ 38.7737786, 9.015002 ], [ 38.7735741, 9.0141328 ], [ 38.7734911, 9.0140732 ], [ 38.7721337, 9.0143144 ], [ 38.7718846, 9.0146755 ], [ 38.771485, 9.0152003 ], [ 38.7700074, 9.0148215 ], [ 38.7699173, 9.01413 ], [ 38.7699102, 9.014068 ], [ 38.7698139, 9.0132732 ], [ 38.7696976, 9.0130606 ], [ 38.7684628, 9.0140058 ], [ 38.7684856, 9.0141974 ], [ 38.7684944, 9.0142876 ], [ 38.7685277, 9.014545 ], [ 38.7686282, 9.015342 ], [ 38.7686489, 9.0154598 ], [ 38.7682007, 9.0165141 ], [ 38.7674265, 9.0166327 ], [ 38.7668408, 9.0167122 ], [ 38.7681297, 9.0179121 ], [ 38.7683061, 9.0191895 ] ] ] } },
{ "type": "Feature", "properties": { "threshold_s": 900, "time_label": "15 minutes" }, "geometry": { "type": "Polygon", "coordinates": [ [ [ 38.764931, 9.0217993 ], [ 38.7650922, 9.0223314 ], [ 38.7666774, 9.0223526 ], [ 38.7682664, 9.0218424 ], [ 38.769131, 9.0219733 ], [ 38.7695212, 9.0220233 ], [ 38.7698094, 9.0217632 ], [ 38.7699935, 9.0215229 ], [ 38.7721672, 9.0212505 ], [ 38.7723687, 9.02177 ], [ 38.7717222, 9.0232818 ], [ 38.7723472, 9.0239117 ], [ 38.7738381, 9.0235314 ], [ 38.7745991, 9.0233237 ], [ 38.7763746, 9.0235218 ], [ 38.7766007, 9.0235376 ], [ 38.7776131, 9.0221239 ], [ 38.7791203, 9.021325 ], [ 38.7799554, 9.0211994 ], [ 38.7800579, 9.019619 ], [ 38.7804623, 9.0179874 ], [ 38.7798819, 9.0169092 ], [ 38.7795994, 9.0155365 ], [ 38.7781044, 9.0145299 ], [ 38.7780683, 9.0128204 ], [ 38.7770095, 9.0108942 ], [ 38.7764101, 9.0093644 ], [ 38.7754892, 9.0093199 ], [ 38.774444, 9.008267 ], [ 38.773689, 9.0090041 ], [ 38.7727248, 9.0097637 ], [ 38.7716724, 9.0100378 ], [ 38.7697679, 9.0102067 ], [ 38.7690658, 9.0102768 ], [ 38.768797, 9.0113452 ], [ 38.767167, 9.0123421 ], [ 38.7665677, 9.0126956 ], [ 38.7656866, 9.0141398 ], [ 38.7654814, 9.0154268 ], [ 38.7649382, 9.0162277 ], [ 38.7636993, 9.017064 ], [ 38.7636571, 9.0176742 ], [ 38.7644139, 9.0174322 ], [ 38.7653746, 9.01689 ], [ 38.76707, 9.0182094 ], [ 38.766175, 9.0194163 ], [ 38.7655915, 9.0212854 ], [ 38.764931, 9.0217993 ] ] ] } }
]
}
