{
"type": "FeatureCollection",
"name": "isochrone_shop_coffee_multimodal",
"crs": { "type": "name", "properties": { "name": "urn:ogc:def:crs:OGC:1.3:CRS84" } },
"features": [
{ "type": "Feature", "properties": { "threshold_s": 300, "time_label": "5 minutes" }, "geometry": { "type": "Polygon", "coordinates": [ [ [ 38.7678625, 9.0043783 ], [ 38.767867, 9.0044714 ], [ 38.768307, 9.0047561 ], [ 38.7683759, 9.004727 ], [ 38.768731, 9.0043466 ], [ 38.7685232, 9.0041739 ], [ 38.76827990000001, 9.0036892 ], [ 38.768701, 9.0029118 ], [ 38.7693006, 9.0019376 ], [ 38.769688, 9.0011882 ], [ 38.7705819, 9.0007731 ], [ 38.7707613, 8.9998261 ], [ 38.770898099999989, 8.9992638 ], [ 38.7705147, 8.9994814 ], [ 38.7693671, 8.9994722 ], [ 38.7681263, 9.000064 ], [ 38.7690531, 9.0007967 ], [ 38.7682709, 9.001456 ], [ 38.7680139, 9.0016855 ], [ 38.768349, 9.0027372 ], [ 38.7675736, 9.0030528 ], [ 38.7675149, 9.0030812 ], [ 38.7679328, 9.0040963 ], [ 38.7678625, 9.0043783 ] ] ] } },
{ "type": "Feature", "properties": { "threshold_s": 600, "time_label": "10 minutes" }, "geometry": { "type": "Polygon", "coordinates": [ [ [ 38.7661929, 9.0071093 ], [ 38.7660726, 9.0072328 ], [ 38.7661556, 9.0073141 ], [ 38.7675419, 9.0070913 ], [ 38.7680577, 9.0069033 ], [ 38.7687166, 9.0066328 ], [ 38.7699708, 9.0073954 ], [ 38.7700137, 9.0073279 ], [ 38.769243, 9.006491 ], [ 38.7697441, 9.0055966 ], [ 38.7705863, 9.0055165 ], [ 38.771041, 9.0056867 ], [ 38.7717075, 9.0049966 ], [ 38.7720394, 9.0043244 ], [ 38.7718476, 9.0030184 ], [ 38.7719603, 9.0024587 ], [ 38.7726315, 9.0016759 ], [ 38.7731666, 9.0015044 ], [ 38.7734899, 9.0014308 ], [ 38.7728595, 9.0004235 ], [ 38.7735825, 8.9997115 ], [ 38.7729631, 8.9990413 ], [ 38.7725222, 8.9981068 ], [ 38.7719137, 8.9977007 ], [ 38.7725108, 8.9964014 ], [ 38.7724357, 8.9962689 ], [ 38.7710027, 8.9963483 ], [ 38.7702712, 8.9964762 ], [ 38.7698496, 8.9967179 ], [ 38.7693116, 8.9976348 ], [ 38.7685717, 8.9982426 ], [ 38.7683732, 8.9987024 ], [ 38.7673022, 8.9993576 ], [ 38.7669118, 8.9994525 ], [ 38.7658497, 8.9998495 ], [ 38.7653333, 9.0005965 ], [ 38.7654833, 9.001129 ], [ 38.7653709, 9.0022946 ], [ 38.765411, 9.0036496 ], [ 38.7653659, 9.0042173 ], [ 38.7656774, 9.005688 ], [ 38.7661929, 9.0071093 ] ] ] } },
{ "type": "Feature", "properties": { "threshold_s": 900, "time_label": "15 minutes" }, "geometry": { "type": "Polygon", "coordinates": [ [ [ 38.7637751, 9.0082848 ], [ 38.7636137, 9.009863 ], [ 38.7637196, 9.0099547 ], [ 38.7649839, 9.0099274 ], [ 38.7654693, 9.0098641 ], [ 38.7662267, 9.0095037 ], [ 38.7674965, 9.0079313 ], [ 38.7678266, 9.0080481 ], [ 38.7680934, 9.008144 ], [ 38.7687646, 9.0089092 ], [ 38.7697679, 9.0102067 ], [ 38.7706225, 9.010122 ], [ 38.7715684, 9.0086364 ], [ 38.7721322, 9.008018 ], [ 38.7734878, 9.0068822 ], [ 38.7743782, 9.0062785 ], [ 38.77382510000001, 9.0059662 ], [ 38.7731847, 9.00438 ], [ 38.7734664, 9.0036753 ], [ 38.7734655, 9.0030482 ], [ 38.773622, 9.0018561 ], [ 38.774843, 9.0010288 ], [ 38.7757839, 9.001319 ], [ 38.7762056, 9.001101 ], [ 38.7749536, 8.9996857 ], [ 38.7739914, 8.9989883 ], [ 38.7744293, 8.9971067 ], [ 38.775132, 8.9958947 ], [ 38.7748349, 8.9941601 ], [ 38.7746985, 8.993736 ], [ 38.7743139, 8.993575 ], [ 38.7728307, 8.994133 ], [ 38.7722057, 8.9941153 ], [ 38.7701209, 8.9936355 ], [ 38.7694458, 8.9942326 ], [ 38.7676285, 8.9951771 ], [ 38.7666894, 8.9957111 ], [ 38.7650591, 8.996884 ], [ 38.7643388, 8.9973094 ], [ 38.764286, 8.9977654 ], [ 38.7636747, 8.9996135 ], [ 38.7629789, 9.000368 ], [ 38.7628341, 9.0016946 ], [ 38.7627804, 9.0027459 ], [ 38.7627134, 9.0043138 ], [ 38.7624464, 9.0054975 ], [ 38.7633743, 9.0069467 ], [ 38.7637751, 9.0082848 ] ] ] } },
{ "type": "Feature", "properties": { "threshold_s": 300, "time_label": "5 minutes" }, "geometry": { "type": "Polygon", "coordinates": [ [ [ 38.7782481, 9.0051158 ], [ 38.7780823, 9.0053305 ], [ 38.7781773, 9.0053519 ], [ 38.778296, 9.0051979 ], [ 38.7794724, 9.0056821 ], [ 38.7796256, 9.0059179 ], [ 38.7805417, 9.0063265 ], [ 38.781114, 9.0070292 ], [ 38.7817273, 9.007227 ], [ 38.7822558, 9.006623 ], [ 38.7827072, 9.0061669 ], [ 38.7827901, 9.0058712 ], [ 38.7824454, 9.0050943 ], [ 38.7824663, 9.0048444 ], [ 38.7824927, 9.004531 ], [ 38.7836494, 9.0045185 ], [ 38.7838566, 9.0045185 ], [ 38.7831014, 9.0039907 ], [ 38.782213, 9.0034965 ], [ 38.7822103, 9.0030031 ], [ 38.7821554, 9.0025561 ], [ 38.7816243, 9.0021541 ], [ 38.7805632, 9.0019087 ], [ 38.7797689, 9.0015699 ], [ 38.7799164, 9.0025541 ], [ 38.7792411, 9.0026554 ], [ 38.7798272, 9.0026634 ], [ 38.7799647, 9.0034833 ], [ 38.779138, 9.0039362 ], [ 38.7791347, 9.0046913 ], [ 38.7782481, 9.0051158 ] ] ] } },
{ "type": "Feature", "properties": { "threshold_s": 600, "time_label": "10 minutes" }, "geometry": { "type": "Polygon", "coordinates": [ [ [ 38.7759588, 9.0070067 ], [ 38.7763593, 9.0077319 ], [ 38.7767099, 9.0071045 ], [ 38.7767849, 9.0069623 ], [ 38.7785178, 9.006465 ], [ 38.7790846, 9.007266 ], [ 38.7790943, 9.0080133 ], [ 38.7788281, 9.0086468 ], [ 38.7792599, 9.0090637 ], [ 38.7798812, 9.0096691 ], [ 38.7810637, 9.010816 ], [ 38.7817363, 9.009675 ], [ 38.7833831, 9.0092518 ], [ 38.7843461, 9.0078941 ], [ 38.7859386, 9.007004 ], [ 38.7857234, 9.0053434 ], [ 38.7869585, 9.0047681 ], [ 38.7862196, 9.0034032 ], [ 38.7852721, 9.0022342 ], [ 38.7848335, 9.0009182 ], [ 38.7839798, 8.9998376 ], [ 38.7827763, 8.9993254 ], [ 38.7819173, 8.9988803 ], [ 38.7800713, 8.9993625 ], [ 38.7793511, 8.9981399 ], [ 38.7787335, 8.9986333 ], [ 38.7794906, 8.9991652 ], [ 38.7795597, 9.0006527 ], [ 38.7797689, 9.0015699 ], [ 38.7792411, 9.0026554 ], [ 38.7787355, 9.0030202 ], [ 38.7768292, 9.0030111 ], [ 38.7759407, 9.0043032 ], [ 38.7758341, 9.0048954 ], [ 38.7759649, 9.0065026 ], [ 38.7759588, 9.0070067 ] ] ] } },
{ "type": "Feature", "properties": { "threshold_s": 900, "time_label": "15 minutes" }, "geometry": { "type": "Polygon", "coordinates": [ [ [ 38.773689, 9.0090041 ], [ 38.7746289, 9.010785 ], [ 38.774881, 9.0108722 ], [ 38.7770095, 9.0108942 ], [ 38.7782262, 9.0118166 ], [ 38.7792254, 9.0132141 ], [ 38.7793668, 9.0132882 ], [ 38.7817494, 9.0139229 ], [ 38.7825499, 9.0130512 ], [ 38.7836253, 9.0118787 ], [ 38.7857111, 9.0102443 ], [ 38.7876204, 9.009073 ], [ 38.7886856, 9.0082793 ], [ 38.7887931, 9.0078893 ], [ 38.7898343, 9.0055715 ], [ 38.7892042, 9.0040436 ], [ 38.7882698, 9.0017096 ], [ 38.7880442, 9.0011082 ], [ 38.78759, 8.9998962 ], [ 38.78693160000001, 8.9978532 ], [ 38.7869198, 8.9978256 ], [ 38.7868816, 8.9977798 ], [ 38.7865017, 8.9973294 ], [ 38.784963, 8.9974392 ], [ 38.783123, 8.9962669 ], [ 38.7822003, 8.9957636 ], [ 38.7812836, 8.9954543 ], [ 38.7790627, 8.9951092 ], [ 38.7785485, 8.9951933 ], [ 38.7781307, 8.9965431 ], [ 38.7776278, 8.9979624 ], [ 38.777362, 8.9984848 ], [ 38.7779966, 8.9994625 ], [ 38.7762056, 9.001101 ], [ 38.7753335, 9.0004719 ], [ 38.7752118, 9.0003829 ], [ 38.7757839, 9.001319 ], [ 38.7757771, 9.0033548 ], [ 38.7753379, 9.0044741 ], [ 38.77382510000001, 9.0059662 ], [ 38.7728032, 9.0057086 ], [ 38.7736581, 9.0079186 ], [ 38.773689, 9.0090041 ] ] ] } },
{ "type": "Feature", "properties": { "threshold_s": 300, "time_label": "5 minutes" }, "geometry": { "type": "Polygon", "coordinates": [ [ [ 38.7591436, 9.0351761 ], [ 38.7589817, 9.0353307 ], [ 38.7603589, 9.0356761 ], [ 38.7604704, 9.0342887 ], [ 38.7616817, 9.0348061 ], [ 38.7620831, 9.0353314 ], [ 38.7619077, 9.0346996 ], [ 38.7620102, 9.0334911 ], [ 38.7628375, 9.0338771 ], [ 38.7631249, 9.0342974 ], [ 38.7632315, 9.0343164 ], [ 38.7634921, 9.0340003 ], [ 38.7636558, 9.0332068 ], [ 38.7637796, 9.0328688 ], [ 38.7637573, 9.0328025 ], [ 38.763722, 9.0326976 ], [ 38.7634174, 9.031659 ], [ 38.763355, 9.0316581 ], [ 38.7626424, 9.0323766 ], [ 38.762432, 9.0326348 ], [ 38.7618809, 9.0327945 ], [ 38.7617219, 9.031628 ], [ 38.7616276, 9.0311284 ], [ 38.7615913, 9.0308121 ], [ 38.760904, 9.0319406 ], [ 38.7607885, 9.0320859 ], [ 38.7616665, 9.0328566 ], [ 38.7614782, 9.0337253 ], [ 38.7602203, 9.0332626 ], [ 38.7601733, 9.0333871 ], [ 38.760384, 9.0341082 ], [ 38.7596682, 9.034679 ], [ 38.7591436, 9.0351761 ] ] ] } },
{ "type": "Feature", "properties": { "threshold_s": 600, "time_label": "10 minutes" }, "geometry": { "type": "Polygon", "coordinates": [ [ [ 38.7584061, 9.0370047 ], [ 38.7570073, 9.0383314 ], [ 38.7587492, 9.0383793 ], [ 38.7596259, 9.0384882 ], [ 38.7616172, 9.0377121 ], [ 38.7624867, 9.0384612 ], [ 38.763485, 9.0378991 ], [ 38.7639577, 9.0366488 ], [ 38.7647646, 9.034701 ], [ 38.765935, 9.0342337 ], [ 38.767026799999989, 9.0334909 ], [ 38.7672949, 9.0333336 ], [ 38.7671093, 9.0327499 ], [ 38.7660044, 9.0310572 ], [ 38.7660037, 9.030789 ], [ 38.7660031, 9.030563 ], [ 38.764889, 9.0294746 ], [ 38.7635635, 9.028627 ], [ 38.7619278, 9.0277646 ], [ 38.7604442, 9.0283872 ], [ 38.7604158, 9.030475 ], [ 38.7598172, 9.0314772 ], [ 38.7590509, 9.0331043 ], [ 38.7579095, 9.0339593 ], [ 38.7570673, 9.0349685 ], [ 38.7573179, 9.0358262 ], [ 38.7584061, 9.0370047 ] ] ] } },
{ "type": "Feature", "properties": { "threshold_s": 900, "time_label": "15 minutes" }, "geometry": { "type": "Polygon", "coordinates": [ [ [ 38.7555773, 9.0394358 ], [ 38.7557028, 9.0397766 ], [ 38.7566857, 9.0404507 ], [ 38.75772, 9.0409807 ], [ 38.7580892, 9.041159 ], [ 38.7592181, 9.0408393 ], [ 38.7617592, 9.0416201 ], [ 38.7618465, 9.041641 ], [ 38.7620077, 9.0410376 ], [ 38.7620371, 9.0409035 ], [ 38.7622643, 9.0398575 ], [ 38.7653098, 9.039445 ], [ 38.7657285, 9.0397234 ], [ 38.7668634, 9.0382012 ], [ 38.7675585, 9.0358251 ], [ 38.7694288, 9.034481 ], [ 38.769884, 9.0342295 ], [ 38.769825, 9.0317661 ], [ 38.7697891, 9.0316768 ], [ 38.7697478, 9.0316013 ], [ 38.769689, 9.0315001 ], [ 38.7679401, 9.0287723 ], [ 38.767883, 9.0286497 ], [ 38.7658147, 9.0274701 ], [ 38.763054, 9.0260177 ], [ 38.7613311, 9.0255341 ], [ 38.7588919, 9.0260268 ], [ 38.75778, 9.0271259 ], [ 38.7565032, 9.0287242 ], [ 38.7567933, 9.0300636 ], [ 38.7568262, 9.030107 ], [ 38.7573225, 9.0296974 ], [ 38.7598172, 9.0314772 ], [ 38.7590509, 9.0331043 ], [ 38.7579095, 9.0339593 ], [ 38.7570673, 9.0349685 ], [ 38.7573179, 9.0358262 ], [ 38.7570073, 9.0383314 ], [ 38.7555773, 9.0394358 ] ] ] } },
{ "type": "Feature", "properties": { "threshold_s": 300, "time_label": "5 minutes" }, "geometry": { "type": "Polygon", "coordinates": [ [ [ 38.815685, 9.0048509 ], [ 38.8156354, 9.0051258 ], [ 38.8174928, 9.0047767 ], [ 38.8178348, 9.0041654 ], [ 38.8187689, 9.0044926 ], [ 38.8192859, 9.0043184 ], [ 38.8194141, 9.0037802 ], [ 38.8185785, 9.0029623 ], [ 38.8192595, 9.0025241 ], [ 38.8193909, 9.0018081 ], [ 38.8194569, 9.0008142 ], [ 38.818618, 9.0006984 ], [ 38.8180467, 9.0006818 ], [ 38.8178743, 9.001507 ], [ 38.8171664, 9.0016092 ], [ 38.8166836, 9.0024012 ], [ 38.8169248, 9.0034886 ], [ 38.8167646, 9.0036548 ], [ 38.8158694, 9.0038171 ], [ 38.8149152, 9.0030687 ], [ 38.8143526, 9.0036469 ], [ 38.8148917, 9.0036416 ], [ 38.8157929, 9.0043237 ], [ 38.815685, 9.0048509 ] ] ] } },
{ "type": "Feature", "properties": { "threshold_s": 600, "time_label": "10 minutes" }, "geometry": { "type": "Polygon", "coordinates": [ [ [ 38.8139811, 9.0072246 ], [ 38.8147209, 9.0081415 ], [ 38.8157744, 9.0072301 ], [ 38.8165412, 9.0074316 ], [ 38.8174935, 9.0064205 ], [ 38.8183873, 9.0065736 ], [ 38.8196138, 9.0064411 ], [ 38.8204226, 9.0055437 ], [ 38.8219019, 9.0054093 ], [ 38.821587, 9.0050755 ], [ 38.8212444, 9.0047426 ], [ 38.8202605, 9.0035513 ], [ 38.8207724, 9.0030807 ], [ 38.8209683, 9.0028963 ], [ 38.8210512, 9.0028113 ], [ 38.82133, 9.0025541 ], [ 38.82156950000001, 9.0023335 ], [ 38.8218561, 9.0020851 ], [ 38.8219966, 9.0019537 ], [ 38.8216182, 9.0018175 ], [ 38.821374, 9.000291 ], [ 38.8216341, 9.0000281 ], [ 38.8218916, 8.9997821 ], [ 38.8210688, 8.9985779 ], [ 38.8205289, 8.998547 ], [ 38.8193238, 8.9983689 ], [ 38.8185939, 8.9984419 ], [ 38.8171004, 8.9985758 ], [ 38.8168812, 8.9984658 ], [ 38.8168255, 8.9993469 ], [ 38.8161245, 9.0002003 ], [ 38.8150701, 9.0003818 ], [ 38.8137692, 9.0011938 ], [ 38.8134272, 9.0011955 ], [ 38.8130553, 9.0014912 ], [ 38.8122015, 9.0023696 ], [ 38.8115159, 9.0035862 ], [ 38.8114826, 9.0040966 ], [ 38.8121907, 9.0051675 ], [ 38.8129022, 9.0056023 ], [ 38.8135634, 9.0061768 ], [ 38.8139811, 9.0072246 ] ] ] } },
{ "type": "Feature", "properties": { "threshold_s": 900, "time_label": "15 minutes" }, "geometry": { "type": "Polygon", "coordinates": [ [ [ 38.8086087, 9.0040038 ], [ 38.80815, 9.0058616 ], [ 38.8090353, 9.0061352 ], [ 38.8099062, 9.0064172 ], [ 38.8111297, 9.0077309 ], [ 38.8117729, 9.0085945 ], [ 38.8123007, 9.0095472 ], [ 38.8132216, 9.0100243 ], [ 38.8152041, 9.0109634 ], [ 38.8156991, 9.0109638 ], [ 38.81632, 9.0090955 ], [ 38.817747, 9.0087776 ], [ 38.8185341, 9.0084452 ], [ 38.8198317, 9.0078703 ], [ 38.8205452, 9.0095604 ], [ 38.8208704, 9.0101618 ], [ 38.8219905, 9.0095486 ], [ 38.8222351, 9.0086855 ], [ 38.8221729, 9.0066351 ], [ 38.8225206, 9.0064612 ], [ 38.8237625, 9.0064994 ], [ 38.824496, 9.0051715 ], [ 38.8243566, 9.0043807 ], [ 38.8237967, 9.0028303 ], [ 38.8241194, 9.0013522 ], [ 38.8241522, 8.9994724 ], [ 38.8244597, 8.9978348 ], [ 38.8234922, 8.9962152 ], [ 38.8234822, 8.9957364 ], [ 38.8226504, 8.995875 ], [ 38.8210722, 8.9960126 ], [ 38.8203182, 8.9958983 ], [ 38.8183712, 8.9958642 ], [ 38.8179858, 8.9958567 ], [ 38.8175726, 8.9964934 ], [ 38.8157303, 8.9962057 ], [ 38.8145641, 8.9970047 ], [ 38.8137997, 8.9974607 ], [ 38.8122265, 8.9988117 ], [ 38.8110528, 9.0001919 ], [ 38.8100181, 9.0011453 ], [ 38.8097799, 9.001739 ], [ 38.8094868, 9.0024069 ], [ 38.8086087, 9.0040038 ] ] ] } },
{ "type": "Feature", "properties": { "threshold_s": 300, "time_label": "5 minutes" }, "geometry": { "type": "Polygon", "coordinates": [ [ [ 38.7696818, 9.0002831 ], [ 38.7696174, 9.0011353 ], [ 38.769688, 9.0011882 ], [ 38.7703282, 9.0011176 ], [ 38.7705819, 9.0007731 ], [ 38.7710336, 8.9993824 ], [ 38.7711435, 8.9985284 ], [ 38.7714849, 8.997922 ], [ 38.7717256, 8.9974435 ], [ 38.7724357, 8.9962689 ], [ 38.7710398, 8.9958541 ], [ 38.7707889, 8.9960261 ], [ 38.770328, 8.9971591 ], [ 38.7696973, 8.997182 ], [ 38.7703154, 8.9979578 ], [ 38.7699206, 8.9987492 ], [ 38.7695577, 8.9989247 ], [ 38.7693671, 8.9994722 ], [ 38.7696818, 9.0002831 ] ] ] } },
{ "type": "Feature", "properties": { "threshold_s": 600, "time_label": "10 minutes" }, "geometry": { "type": "Polygon", "coordinates": [ [ [ 38.7673511, 9.0023432 ], [ 38.7679328, 9.0040963 ], [ 38.7683898, 9.004238 ], [ 38.7703137, 9.003597 ], [ 38.7717739, 9.0033601 ], [ 38.772113, 9.0032542 ], [ 38.7727683, 9.0030296 ], [ 38.7734899, 9.0014308 ], [ 38.7736869, 8.9994737 ], [ 38.7730326, 8.9973437 ], [ 38.7727062, 8.9962474 ], [ 38.774133, 8.9945834 ], [ 38.7748349, 8.9941601 ], [ 38.7748685, 8.9939269 ], [ 38.7747749, 8.9936803 ], [ 38.7742053, 8.9932382 ], [ 38.7741154, 8.9932832 ], [ 38.7734496, 8.993719 ], [ 38.77161, 8.9935142 ], [ 38.7708398, 8.9931594 ], [ 38.7700465, 8.9930653 ], [ 38.769111, 8.9937333 ], [ 38.768194, 8.9957356 ], [ 38.767748, 8.9969339 ], [ 38.7677011, 8.9984807 ], [ 38.7673022, 8.9993576 ], [ 38.7666007, 9.0001548 ], [ 38.7668133, 9.0005771 ], [ 38.7673511, 9.0023432 ] ] ] } },
{ "type": "Feature", "properties": { "threshold_s": 900, "time_label": "15 minutes" }, "geometry": { "type": "Polygon", "coordinates": [ [ [ 38.7657014, 9.004682 ], [ 38.7661929, 9.0071093 ], [ 38.7687166, 9.0066328 ], [ 38.769243, 9.006491 ], [ 38.771041, 9.0056867 ], [ 38.7719838, 9.0062934 ], [ 38.772547, 9.0061212 ], [ 38.7728032, 9.0057086 ], [ 38.7731847, 9.00438 ], [ 38.7734664, 9.0036753 ], [ 38.7734655, 9.0030482 ], [ 38.773622, 9.0018561 ], [ 38.7757839, 9.001319 ], [ 38.7762056, 9.001101 ], [ 38.7749536, 8.9996857 ], [ 38.7739914, 8.9989883 ], [ 38.7744293, 8.9971067 ], [ 38.7753912, 8.9966925 ], [ 38.7758743, 8.9963788 ], [ 38.7763041, 8.9957546 ], [ 38.7765583, 8.9936071 ], [ 38.7779375, 8.992766 ], [ 38.7780153, 8.9925672 ], [ 38.7779963, 8.9924391 ], [ 38.7764195, 8.9911022 ], [ 38.7745701, 8.9912135 ], [ 38.7734872, 8.9905748 ], [ 38.7730702, 8.9902493 ], [ 38.7706285, 8.9900889 ], [ 38.7685902, 8.9904968 ], [ 38.7679324, 8.991757 ], [ 38.7668799, 8.9927481 ], [ 38.7665236, 8.99355 ], [ 38.7656003, 8.9952358 ], [ 38.7646631, 8.9960887 ], [ 38.7649383, 8.997765 ], [ 38.7641369, 8.9997092 ], [ 38.764029, 9.0002724 ], [ 38.764064, 9.0016943 ], [ 38.764577, 9.0029893 ], [ 38.7653659, 9.0042173 ], [ 38.7657014, 9.004682 ] ] ] } },
{ "type": "Feature", "properties": { "threshold_s": 300, "time_label": "5 minutes" }, "geometry": { "type": "Polygon", "coordinates": [ [ [ 38.7863671, 8.9970815 ], [ 38.7865171, 8.9978671 ], [ 38.78693160000001, 8.9978532 ], [ 38.7869198, 8.9978256 ], [ 38.7868816, 8.9977798 ], [ 38.7865017, 8.9973294 ], [ 38.7864896, 8.9969136 ], [ 38.7866273, 8.9961126 ], [ 38.787379, 8.9954801 ], [ 38.7875536, 8.9956627 ], [ 38.787635, 8.995753 ], [ 38.7876687, 8.9957904 ], [ 38.788114299999989, 8.9962622 ], [ 38.7889144, 8.9964707 ], [ 38.7892602, 8.9966647 ], [ 38.7893909, 8.9962621 ], [ 38.7893427, 8.9961746 ], [ 38.7890938, 8.9959251 ], [ 38.7890446, 8.9958483 ], [ 38.7891596, 8.9951631 ], [ 38.7896246, 8.9951685 ], [ 38.7895004, 8.9949998 ], [ 38.7886913, 8.9948075 ], [ 38.7886557, 8.9947681 ], [ 38.7880334, 8.9933872 ], [ 38.7873682, 8.9940098 ], [ 38.786585, 8.9945701 ], [ 38.7860621, 8.9936699 ], [ 38.7854666, 8.9933759 ], [ 38.7858836, 8.9938217 ], [ 38.7860637, 8.9950606 ], [ 38.78561, 8.9950403 ], [ 38.7854666, 8.9953642 ], [ 38.7859963, 8.9952907 ], [ 38.7860546, 8.996506 ], [ 38.7862862, 8.9969378 ], [ 38.7863228, 8.9970027 ], [ 38.7863671, 8.9970815 ] ] ] } },
{ "type": "Feature", "properties": { "threshold_s": 600, "time_label": "10 minutes" }, "geometry": { "type": "Polygon", "coordinates": [ [ [ 38.7845898, 8.998985 ], [ 38.7839798, 8.9998376 ], [ 38.7852584, 9.0000068 ], [ 38.7855175, 9.0003646 ], [ 38.7864798, 9.0004639 ], [ 38.7878517, 9.0006103 ], [ 38.78788440000001, 9.0005935 ], [ 38.7886674, 8.9994336 ], [ 38.7890822, 8.9981015 ], [ 38.7893068, 8.997061 ], [ 38.7907287, 8.9971431 ], [ 38.79154650000001, 8.9972637 ], [ 38.791758, 8.9959929 ], [ 38.7919417, 8.9955827 ], [ 38.7918475, 8.9944966 ], [ 38.7922046, 8.9940336 ], [ 38.79196, 8.9931645 ], [ 38.7918435, 8.9923162 ], [ 38.7917543, 8.9922639 ], [ 38.7907049, 8.9923927 ], [ 38.790229, 8.9920772 ], [ 38.7897353, 8.991741 ], [ 38.7886027, 8.9912301 ], [ 38.7879873, 8.9904466 ], [ 38.7873739, 8.9912929 ], [ 38.7862157, 8.9911515 ], [ 38.7860818, 8.9902517 ], [ 38.7848361, 8.9904195 ], [ 38.7843227, 8.9908991 ], [ 38.784217, 8.9910333 ], [ 38.7836456, 8.991864 ], [ 38.783090799999989, 8.9925567 ], [ 38.7831055, 8.9938415 ], [ 38.7831066, 8.9941188 ], [ 38.7831292, 8.9955145 ], [ 38.7831297, 8.9956881 ], [ 38.7845103, 8.9958517 ], [ 38.7849529, 8.9969014 ], [ 38.7842703, 8.9974637 ], [ 38.7837379, 8.9980147 ], [ 38.7845898, 8.998985 ] ] ] } },
{ "type": "Feature", "properties": { "threshold_s": 900, "time_label": "15 minutes" }, "geometry": { "type": "Polygon", "coordinates": [ [ [ 38.7815257, 9.001519 ], [ 38.7815539, 9.0023892 ], [ 38.783091, 9.0025189 ], [ 38.7832102, 9.0025374 ], [ 38.7842169, 9.0026576 ], [ 38.7855785, 9.0032038 ], [ 38.7856484, 9.0032226 ], [ 38.7875265, 9.0031276 ], [ 38.7892042, 9.0040436 ], [ 38.7889548, 9.0034296 ], [ 38.7882698, 9.0017096 ], [ 38.7889105, 9.0000486 ], [ 38.7897293, 8.9996859 ], [ 38.7906855, 8.9993148 ], [ 38.7913789, 8.9990156 ], [ 38.7920983, 8.9987684 ], [ 38.792624, 8.9985777 ], [ 38.7931544, 8.9983837 ], [ 38.7936291, 8.9982041 ], [ 38.794385, 8.9970616 ], [ 38.795228, 8.9952271 ], [ 38.7954028, 8.9946432 ], [ 38.7944663, 8.9929127 ], [ 38.7943277, 8.992704 ], [ 38.7939993, 8.9922093 ], [ 38.7938959, 8.9902432 ], [ 38.7938117, 8.9895998 ], [ 38.7937429, 8.9895272 ], [ 38.7917854, 8.9886853 ], [ 38.7902951, 8.9885638 ], [ 38.7890151, 8.9881152 ], [ 38.7871414, 8.9880545 ], [ 38.7858793, 8.9879902 ], [ 38.7835729, 8.9882331 ], [ 38.7822512, 8.9894542 ], [ 38.7817577, 8.9913003 ], [ 38.7808029, 8.9921666 ], [ 38.7807766, 8.9922331 ], [ 38.7805353, 8.9943244 ], [ 38.7806037, 8.9964146 ], [ 38.7802986, 8.996918 ], [ 38.7817443, 8.9986419 ], [ 38.7816457, 8.9992002 ], [ 38.7815676, 8.9997947 ], [ 38.7815257, 9.001519 ] ] ] } },
{ "type": "Feature", "properties": { "threshold_s": 300, "time_label": "5 minutes" }, "geometry": { "type": "Polygon", "coordinates": [ [ [ 38.8318777, 9.0154561 ], [ 38.8318937, 9.0157671 ], [ 38.8326802, 9.0165786 ], [ 38.8334409, 9.0172706 ], [ 38.8338495, 9.0175948 ], [ 38.8343446, 9.0168931 ], [ 38.8350175, 9.0165161 ], [ 38.8356915, 9.0159299 ], [ 38.835626499999989, 9.0156771 ], [ 38.8346937, 9.0148785 ], [ 38.8341153, 9.0143829 ], [ 38.8337427, 9.013529 ], [ 38.8343128, 9.0126685 ], [ 38.8346589, 9.0117963 ], [ 38.8340115, 9.01206 ], [ 38.8336706, 9.0122636 ], [ 38.8334363, 9.0124295 ], [ 38.8329414, 9.0128681 ], [ 38.8321742, 9.0133914 ], [ 38.8312239, 9.0136269 ], [ 38.8313292, 9.0144428 ], [ 38.8318777, 9.0154561 ] ] ] } },
{ "type": "Feature", "properties": { "threshold_s": 600, "time_label": "10 minutes" }, "geometry": { "type": "Polygon", "coordinates": [ [ [ 38.8296521, 9.0160313 ], [ 38.8288702, 9.0160176 ], [ 38.8298545, 9.0163027 ], [ 38.8309154, 9.016991 ], [ 38.8315878, 9.0182518 ], [ 38.831964, 9.0187294 ], [ 38.8324554, 9.0194489 ], [ 38.8329646, 9.0202574 ], [ 38.8339249, 9.0209136 ], [ 38.8353261, 9.0194295 ], [ 38.8357969, 9.0190114 ], [ 38.8362934, 9.0185932 ], [ 38.8363013, 9.0179027 ], [ 38.8362912, 9.0175371 ], [ 38.8362554, 9.0171932 ], [ 38.8356915, 9.0159299 ], [ 38.8358129, 9.0146212 ], [ 38.8365582, 9.0134913 ], [ 38.8374455, 9.0119223 ], [ 38.8377765, 9.0110598 ], [ 38.8377689, 9.0109804 ], [ 38.8361127, 9.009518 ], [ 38.8360134, 9.0095261 ], [ 38.8352043, 9.0103788 ], [ 38.8335238, 9.0110157 ], [ 38.8334571, 9.0110468 ], [ 38.8313069, 9.0109771 ], [ 38.831097, 9.0101996 ], [ 38.8299318, 9.0111112 ], [ 38.8296454, 9.0115517 ], [ 38.8293784, 9.0130399 ], [ 38.8293649, 9.0133168 ], [ 38.8304182, 9.013749 ], [ 38.8303554, 9.0157136 ], [ 38.8296521, 9.0160313 ] ] ] } },
{ "type": "Feature", "properties": { "threshold_s": 900, "time_label": "15 minutes" }, "geometry": { "type": "Polygon", "coordinates": [ [ [ 38.8252142, 9.0173218 ], [ 38.8251244, 9.0174136 ], [ 38.8252565, 9.017405 ], [ 38.8253495, 9.0173691 ], [ 38.827891, 9.0176995 ], [ 38.8285938, 9.0186405 ], [ 38.8295125, 9.0191713 ], [ 38.8315603, 9.0210402 ], [ 38.83203240000001, 9.021741 ], [ 38.8348874, 9.0216123 ], [ 38.8368236, 9.0215274 ], [ 38.8386742, 9.0199701 ], [ 38.8386883, 9.0191369 ], [ 38.8387464, 9.0183235 ], [ 38.8388144, 9.0172851 ], [ 38.8393339, 9.0144568 ], [ 38.8400838, 9.0134248 ], [ 38.8413445, 9.010851 ], [ 38.8412859, 9.0107606 ], [ 38.8392303, 9.008963 ], [ 38.8382619, 9.0082229 ], [ 38.8363426, 9.0071357 ], [ 38.8354683, 9.0068186 ], [ 38.8329471, 9.0073198 ], [ 38.8305056, 9.0072592 ], [ 38.8288761, 9.0093054 ], [ 38.8285318, 9.0098196 ], [ 38.828155, 9.0107397 ], [ 38.8272128, 9.013053 ], [ 38.8272559, 9.0132902 ], [ 38.8274257, 9.0148666 ], [ 38.8259322, 9.0165565 ], [ 38.8252142, 9.0173218 ] ] ] } }
]
}
