{
"type": "FeatureCollection",
"name": "isochrone_shop_health_food_multimodal",
"crs": { "type": "name", "properties": { "name": "urn:ogc:def:crs:OGC:1.3:CRS84" } },
"features": [
{ "type": "Feature", "properties": { "threshold_s": 300, "time_label": "5 minutes" }, "geometry": { "type": "Polygon", "coordinates": [ [ [ 38.7743956, 9.0343769 ], [ 38.7744829, 9.0351596 ], [ 38.7749371, 9.0353666 ], [ 38.7753562, 9.0349248 ], [ 38.7759151, 9.0345467 ], [ 38.7767698, 9.0349343 ], [ 38.777345, 9.035025 ], [ 38.7774782, 9.0349523 ], [ 38.7775225, 9.0348571 ], [ 38.7774864, 9.0341572 ], [ 38.7769121, 9.0342308 ], [ 38.7768231, 9.0332029 ], [ 38.7766302, 9.0325063 ], [ 38.7767635, 9.0316395 ], [ 38.777578, 9.0313503 ], [ 38.7776249, 9.0312667 ], [ 38.777492, 9.0307413 ], [ 38.7773348, 9.0306872 ], [ 38.7770047, 9.0312073 ], [ 38.7760168, 9.0311517 ], [ 38.7763759, 9.0322084 ], [ 38.7762109, 9.0324478 ], [ 38.775375, 9.0328458 ], [ 38.77477, 9.0326884 ], [ 38.7740528, 9.0325519 ], [ 38.7736071, 9.0317865 ], [ 38.7741151, 9.0313039 ], [ 38.7735951, 9.0314084 ], [ 38.7724758, 9.0319876 ], [ 38.7724072, 9.0321943 ], [ 38.7724387, 9.0322865 ], [ 38.7731029, 9.0328984 ], [ 38.7735455, 9.0333945 ], [ 38.7738104, 9.0335666 ], [ 38.7743956, 9.0343769 ] ] ] } },
{ "type": "Feature", "properties": { "threshold_s": 600, "time_label": "10 minutes" }, "geometry": { "type": "Polygon", "coordinates": [ [ [ 38.7735787, 9.0382225 ], [ 38.7735888, 9.0383887 ], [ 38.7747213, 9.0379721 ], [ 38.7750435, 9.0379247 ], [ 38.7752885, 9.0378956 ], [ 38.7755022, 9.0375613 ], [ 38.7755479, 9.0375011 ], [ 38.7756236, 9.0373826 ], [ 38.775866, 9.0369995 ], [ 38.7766871, 9.0366384 ], [ 38.7775783, 9.0371342 ], [ 38.7784962, 9.0381963 ], [ 38.7785826, 9.0382486 ], [ 38.7786645, 9.0370821 ], [ 38.7779067, 9.0359559 ], [ 38.7783693, 9.0349826 ], [ 38.7798841, 9.0348649 ], [ 38.7799385, 9.034799 ], [ 38.7804737, 9.033912 ], [ 38.7793005, 9.0332941 ], [ 38.7793904, 9.0319509 ], [ 38.7794925, 9.0310097 ], [ 38.7799938, 9.0303326 ], [ 38.7795637, 9.0295252 ], [ 38.7791344, 9.0289262 ], [ 38.7785546, 9.0285409 ], [ 38.7777275, 9.0282723 ], [ 38.777429, 9.0299351 ], [ 38.7769143, 9.029707 ], [ 38.7756426, 9.0296429 ], [ 38.7753592, 9.0293784 ], [ 38.774781, 9.0284029 ], [ 38.7742804, 9.0292455 ], [ 38.7728095, 9.0289395 ], [ 38.7719196, 9.0286892 ], [ 38.7713206, 9.0297792 ], [ 38.7708632, 9.0299515 ], [ 38.7701755, 9.0299115 ], [ 38.769689, 9.0315001 ], [ 38.7696348, 9.0316607 ], [ 38.7696665, 9.0317334 ], [ 38.769825, 9.0317661 ], [ 38.7697891, 9.0316768 ], [ 38.7697478, 9.0316013 ], [ 38.7716368, 9.0314225 ], [ 38.7716018, 9.0315453 ], [ 38.7715755, 9.0316326 ], [ 38.7714916, 9.032111 ], [ 38.7713409, 9.0329295 ], [ 38.7710895, 9.0340944 ], [ 38.7710899, 9.0341543 ], [ 38.7715475, 9.0346249 ], [ 38.7717547, 9.0348206 ], [ 38.7719675, 9.0350362 ], [ 38.7722643, 9.0352881 ], [ 38.7725503, 9.0352767 ], [ 38.7736848, 9.0351991 ], [ 38.7735963, 9.0366353 ], [ 38.7740442, 9.0370837 ], [ 38.7736243, 9.0381735 ], [ 38.7735787, 9.0382225 ] ] ] } },
{ "type": "Feature", "properties": { "threshold_s": 900, "time_label": "15 minutes" }, "geometry": { "type": "Polygon", "coordinates": [ [ [ 38.7706203, 9.0394059 ], [ 38.7706733, 9.0395278 ], [ 38.7721869, 9.0388821 ], [ 38.7728901, 9.0400549 ], [ 38.7733433, 9.041089 ], [ 38.7743349, 9.0416088 ], [ 38.7743931, 9.0409883 ], [ 38.7734143, 9.0388789 ], [ 38.7747213, 9.0379721 ], [ 38.7758589, 9.0393326 ], [ 38.7768235, 9.0401254 ], [ 38.7777758, 9.0401384 ], [ 38.779543, 9.0399562 ], [ 38.7798521, 9.0399705 ], [ 38.7801888, 9.0380316 ], [ 38.7817703, 9.0374467 ], [ 38.7816122, 9.0366029 ], [ 38.7797197, 9.0361348 ], [ 38.7798841, 9.0348649 ], [ 38.7799385, 9.034799 ], [ 38.7804737, 9.033912 ], [ 38.7820062, 9.0333249 ], [ 38.7831518, 9.0326428 ], [ 38.7834835, 9.0321406 ], [ 38.7834075, 9.0320275 ], [ 38.7826556, 9.031201 ], [ 38.7818975, 9.0312968 ], [ 38.7806093, 9.031088 ], [ 38.7802271, 9.0305908 ], [ 38.7812108, 9.028916 ], [ 38.7813866, 9.0287571 ], [ 38.7821028, 9.0284041 ], [ 38.7822077, 9.0283803 ], [ 38.7821949, 9.0283188 ], [ 38.7820868, 9.0283447 ], [ 38.7815417, 9.0284423 ], [ 38.7798979, 9.0279771 ], [ 38.7795984, 9.0278705 ], [ 38.7778075, 9.0275426 ], [ 38.77690290000001, 9.0259574 ], [ 38.7765878, 9.0251981 ], [ 38.7749916, 9.0257399 ], [ 38.7746655, 9.0258189 ], [ 38.7740896, 9.027344 ], [ 38.7728055, 9.027154 ], [ 38.7722787, 9.0259286 ], [ 38.7722649, 9.0257447 ], [ 38.7719931, 9.0256488 ], [ 38.7713737, 9.0275635 ], [ 38.7706975, 9.0282685 ], [ 38.768901, 9.0282554 ], [ 38.767883, 9.0286497 ], [ 38.7680789, 9.0302684 ], [ 38.7679496, 9.0309245 ], [ 38.7671093, 9.0327499 ], [ 38.7668827, 9.0330841 ], [ 38.7667998, 9.0339848 ], [ 38.7681332, 9.0340919 ], [ 38.7690897, 9.034443 ], [ 38.7694747, 9.0363181 ], [ 38.7688952, 9.0367952 ], [ 38.7694764, 9.0373855 ], [ 38.7707849, 9.0374901 ], [ 38.7706203, 9.0394059 ] ] ] } }
]
}
