{
"type": "FeatureCollection",
"name": "isochrone_shop_confectionery_multimodal",
"crs": { "type": "name", "properties": { "name": "urn:ogc:def:crs:OGC:1.3:CRS84" } },
"features": [
{ "type": "Feature", "properties": { "threshold_s": 300, "time_label": "5 minutes" }, "geometry": { "type": "Polygon", "coordinates": [ [ [ 38.7278068, 8.9946508 ], [ 38.7280187, 8.995746 ], [ 38.7290869, 8.9955912 ], [ 38.7294785, 8.9958821 ], [ 38.7298218, 8.9964402 ], [ 38.7297547, 8.997279 ], [ 38.7307139, 8.9976947 ], [ 38.7307628, 8.9975364 ], [ 38.7305913, 8.9966921 ], [ 38.7309358, 8.9955272 ], [ 38.7309843, 8.9938826 ], [ 38.7312322, 8.9930786 ], [ 38.7310003, 8.9932659 ], [ 38.7306756, 8.9935185 ], [ 38.7291461, 8.9928174 ], [ 38.7300958, 8.9939767 ], [ 38.7290917, 8.9947703 ], [ 38.7281075, 8.9943971 ], [ 38.7278794, 8.993942 ], [ 38.7278253, 8.9938773 ], [ 38.7271369, 8.9932141 ], [ 38.7266778, 8.9925634 ], [ 38.7266077, 8.9926198 ], [ 38.7264442, 8.9937928 ], [ 38.7277908, 8.9940111 ], [ 38.7278068, 8.9946508 ] ] ] } },
{ "type": "Feature", "properties": { "threshold_s": 600, "time_label": "10 minutes" }, "geometry": { "type": "Polygon", "coordinates": [ [ [ 38.7253797, 8.9978604 ], [ 38.7256919, 8.9982672 ], [ 38.7258428, 8.9978506 ], [ 38.7259, 8.9976253 ], [ 38.725977, 8.9973217 ], [ 38.7258931, 8.995587 ], [ 38.7280187, 8.995746 ], [ 38.7286546, 8.9974645 ], [ 38.728349, 8.997969 ], [ 38.7289264, 8.9982376 ], [ 38.7302594, 8.9977804 ], [ 38.7313583, 8.9986976 ], [ 38.7316653, 9.000071 ], [ 38.7325519, 8.9999595 ], [ 38.7323917, 8.9996261 ], [ 38.7314417, 8.9986263 ], [ 38.7316547, 8.9970266 ], [ 38.7324621, 8.9965338 ], [ 38.7331104, 8.9960335 ], [ 38.7335164, 8.9958438 ], [ 38.7338434, 8.9935832 ], [ 38.733715, 8.9918419 ], [ 38.7338755, 8.9910757 ], [ 38.7324572, 8.9906072 ], [ 38.7321556, 8.9905187 ], [ 38.7299655, 8.9905415 ], [ 38.7294155, 8.9905291 ], [ 38.7287786, 8.9907209 ], [ 38.726614, 8.990508 ], [ 38.7245401, 8.9900158 ], [ 38.724335, 8.9912776 ], [ 38.7241982, 8.992522 ], [ 38.7245502, 8.9929448 ], [ 38.7250394, 8.9949559 ], [ 38.7242852, 8.9953717 ], [ 38.7255468, 8.9955578 ], [ 38.7257383, 8.9973039 ], [ 38.7253797, 8.9978604 ] ] ] } },
{ "type": "Feature", "properties": { "threshold_s": 900, "time_label": "15 minutes" }, "geometry": { "type": "Polygon", "coordinates": [ [ [ 38.7233747, 8.9976743 ], [ 38.7224929, 8.9990797 ], [ 38.7236724, 8.9987142 ], [ 38.7268985, 8.9991841 ], [ 38.7274674, 8.99912 ], [ 38.7289264, 8.9982376 ], [ 38.7316653, 9.000071 ], [ 38.732501, 9.001813 ], [ 38.7326358, 9.0031899 ], [ 38.7335544, 9.0035157 ], [ 38.7342283, 9.00065 ], [ 38.7346893, 8.9983293 ], [ 38.7363821, 8.9968527 ], [ 38.7363319, 8.9957165 ], [ 38.7356848, 8.9929262 ], [ 38.7357491, 8.9923739 ], [ 38.7358524, 8.9916612 ], [ 38.7361859, 8.9903311 ], [ 38.7360695, 8.9899967 ], [ 38.7339165, 8.988594 ], [ 38.7323615, 8.9877775 ], [ 38.7309077, 8.9878554 ], [ 38.729035, 8.9879624 ], [ 38.7265725, 8.9881645 ], [ 38.7245642, 8.9875423 ], [ 38.7220165, 8.9877903 ], [ 38.7222388, 8.9887033 ], [ 38.7220232, 8.9913613 ], [ 38.7207351, 8.9932781 ], [ 38.7208168, 8.9933947 ], [ 38.7210667, 8.9937515 ], [ 38.7211037, 8.9937953 ], [ 38.721388, 8.994096 ], [ 38.7218671, 8.9944618 ], [ 38.7230574, 8.9945486 ], [ 38.7233747, 8.9976743 ] ] ] } },
{ "type": "Feature", "properties": { "threshold_s": 300, "time_label": "5 minutes" }, "geometry": { "type": "Polygon", "coordinates": [ [ [ 38.788413, 8.9959625 ], [ 38.7882794, 8.9962369 ], [ 38.7889144, 8.9964707 ], [ 38.7893081, 8.9963076 ], [ 38.790424, 8.9965468 ], [ 38.7907287, 8.9971431 ], [ 38.7917227, 8.9977053 ], [ 38.7916964, 8.997649 ], [ 38.7919628, 8.9965426 ], [ 38.7926327, 8.9956682 ], [ 38.7924577, 8.9953847 ], [ 38.7925811, 8.9942786 ], [ 38.7924798, 8.9935091 ], [ 38.7919032, 8.9931163 ], [ 38.7914777, 8.992812 ], [ 38.7913479, 8.9928249 ], [ 38.7913922, 8.9939124 ], [ 38.7910791, 8.9942343 ], [ 38.7899619, 8.994329 ], [ 38.7895004, 8.9949998 ], [ 38.7886913, 8.9948075 ], [ 38.7886557, 8.9947681 ], [ 38.7887993, 8.9927548 ], [ 38.7885437, 8.9923131 ], [ 38.7881817, 8.9950421 ], [ 38.788413, 8.9959625 ] ] ] } },
{ "type": "Feature", "properties": { "threshold_s": 600, "time_label": "10 minutes" }, "geometry": { "type": "Polygon", "coordinates": [ [ [ 38.7862862, 8.9969378 ], [ 38.7860298, 8.998377 ], [ 38.7872413, 8.9989824 ], [ 38.7873295, 8.9978484 ], [ 38.7887658, 8.9972848 ], [ 38.7890822, 8.9981015 ], [ 38.7894879, 8.9990878 ], [ 38.7906855, 8.9993148 ], [ 38.7920983, 8.9987684 ], [ 38.792624, 8.9985777 ], [ 38.7931544, 8.9983837 ], [ 38.7936291, 8.9982041 ], [ 38.7941482, 8.9979968 ], [ 38.7949274, 8.9968629 ], [ 38.7954886, 8.9954404 ], [ 38.7956395, 8.9945489 ], [ 38.7955188, 8.9942217 ], [ 38.7949535, 8.9927309 ], [ 38.7948242, 8.9923398 ], [ 38.7936797, 8.9917278 ], [ 38.7937435, 8.9900171 ], [ 38.7935972, 8.9898297 ], [ 38.7935246, 8.9897445 ], [ 38.7924159, 8.9898914 ], [ 38.7909201, 8.9900792 ], [ 38.7892605, 8.9895906 ], [ 38.787751299999989, 8.9893192 ], [ 38.7875402, 8.9894 ], [ 38.7871316, 8.9907792 ], [ 38.7864352, 8.991668 ], [ 38.7860104, 8.9923858 ], [ 38.7858836, 8.9938217 ], [ 38.7856102, 8.9952923 ], [ 38.7860546, 8.996506 ], [ 38.7862862, 8.9969378 ] ] ] } },
{ "type": "Feature", "properties": { "threshold_s": 900, "time_label": "15 minutes" }, "geometry": { "type": "Polygon", "coordinates": [ [ [ 38.783416, 8.9991267 ], [ 38.7834549, 9.0004129 ], [ 38.7848335, 9.0009182 ], [ 38.7869787, 9.0015165 ], [ 38.7882698, 9.0017096 ], [ 38.7897293, 8.9996859 ], [ 38.7906855, 8.9993148 ], [ 38.7913789, 8.9990156 ], [ 38.7920983, 8.9987684 ], [ 38.792624, 8.9985777 ], [ 38.7931544, 8.9983837 ], [ 38.7936291, 8.9982041 ], [ 38.7946719, 8.9978068 ], [ 38.7965052, 8.9969379 ], [ 38.7966688, 8.9966862 ], [ 38.7956395, 8.9945489 ], [ 38.7955188, 8.9942217 ], [ 38.7952264, 8.9934812 ], [ 38.795499, 8.9912753 ], [ 38.7963452, 8.9891736 ], [ 38.7950009, 8.9878822 ], [ 38.7947336, 8.9876264 ], [ 38.7920286, 8.9871575 ], [ 38.7898082, 8.9872798 ], [ 38.7884371, 8.9870932 ], [ 38.7863919, 8.9875443 ], [ 38.7858793, 8.9879902 ], [ 38.78467, 8.9891226 ], [ 38.7838371, 8.9909241 ], [ 38.783081, 8.9918757 ], [ 38.7830847, 8.9921255 ], [ 38.7831059, 8.9933946 ], [ 38.7831277, 8.9950529 ], [ 38.7837318, 8.9974862 ], [ 38.783416, 8.9991267 ] ] ] } },
{ "type": "Feature", "properties": { "threshold_s": 300, "time_label": "5 minutes" }, "geometry": { "type": "Polygon", "coordinates": [ [ [ 38.73815, 8.9949962 ], [ 38.7384233, 8.9954457 ], [ 38.7387787, 8.9953251 ], [ 38.7387317, 8.9950244 ], [ 38.738917, 8.9944997 ], [ 38.7393096, 8.9941036 ], [ 38.7397378, 8.9943393 ], [ 38.7397899, 8.9949741 ], [ 38.7401499, 8.995209 ], [ 38.7403138, 8.9953538 ], [ 38.7402641, 8.9945665 ], [ 38.7409005, 8.9943516 ], [ 38.7414043, 8.9942008 ], [ 38.7411296, 8.9936811 ], [ 38.7409119, 8.9932721 ], [ 38.7412965, 8.9928056 ], [ 38.7419007, 8.9927539 ], [ 38.741397, 8.9923979 ], [ 38.741192, 8.9921603 ], [ 38.7419719, 8.9915285 ], [ 38.7409959, 8.9915568 ], [ 38.7408172, 8.9913007 ], [ 38.7407297, 8.9911753 ], [ 38.74071, 8.9911471 ], [ 38.741361, 8.9904695 ], [ 38.7405569, 8.9909596 ], [ 38.7405069, 8.9909098 ], [ 38.7401914, 8.9904123 ], [ 38.7397497, 8.9903826 ], [ 38.7396808, 8.9905137 ], [ 38.7394726, 8.9909847 ], [ 38.7397446, 8.9917148 ], [ 38.7390187, 8.9918219 ], [ 38.7395202, 8.9921384 ], [ 38.7392676, 8.9926514 ], [ 38.7383214, 8.9925488 ], [ 38.7384474, 8.9928997 ], [ 38.7381533, 8.9935934 ], [ 38.738095199999989, 8.9942698 ], [ 38.7379878, 8.9946592 ], [ 38.73815, 8.9949962 ] ] ] } },
{ "type": "Feature", "properties": { "threshold_s": 600, "time_label": "10 minutes" }, "geometry": { "type": "Polygon", "coordinates": [ [ [ 38.7363319, 8.9957165 ], [ 38.7351872, 8.9964457 ], [ 38.7372738, 8.9969263 ], [ 38.7376171, 8.9969094 ], [ 38.7393881, 8.99834 ], [ 38.7401272, 8.9982717 ], [ 38.7409592, 8.9979415 ], [ 38.7412902, 8.9975805 ], [ 38.7413994, 8.9963553 ], [ 38.7424426, 8.9950761 ], [ 38.7434026, 8.9939302 ], [ 38.7435959, 8.9936548 ], [ 38.7445799, 8.9920487 ], [ 38.7445228, 8.9897713 ], [ 38.7442572, 8.989045 ], [ 38.7439976, 8.9887137 ], [ 38.7424041, 8.9872639 ], [ 38.7410196, 8.9870354 ], [ 38.7388766, 8.9880609 ], [ 38.7375006, 8.9887629 ], [ 38.7371454, 8.9903463 ], [ 38.7370993, 8.9921017 ], [ 38.7369668, 8.9932614 ], [ 38.7375891, 8.9942972 ], [ 38.7363319, 8.9957165 ] ] ] } },
{ "type": "Feature", "properties": { "threshold_s": 900, "time_label": "15 minutes" }, "geometry": { "type": "Polygon", "coordinates": [ [ [ 38.7322609, 8.9956067 ], [ 38.7316547, 8.9970266 ], [ 38.7337268, 8.9973737 ], [ 38.7346893, 8.9983293 ], [ 38.7347479, 8.9980126 ], [ 38.7363821, 8.9968527 ], [ 38.7374857, 8.9988067 ], [ 38.7375811, 8.9992208 ], [ 38.7377315, 9.0001406 ], [ 38.7377659, 9.0011554 ], [ 38.7378135, 9.0012163 ], [ 38.7378631, 9.0012798 ], [ 38.737886, 9.0013092 ], [ 38.7386285, 9.0012726 ], [ 38.7405517, 9.0016754 ], [ 38.7406738, 9.0016086 ], [ 38.7404379, 8.9997461 ], [ 38.7416821, 8.9987747 ], [ 38.7418776, 8.9986943 ], [ 38.7417226, 8.9984967 ], [ 38.7413994, 8.9963553 ], [ 38.7424426, 8.9950761 ], [ 38.7434026, 8.9939302 ], [ 38.744418, 8.9932773 ], [ 38.7458342, 8.9949273 ], [ 38.7463083, 8.995148 ], [ 38.7467784, 8.9939409 ], [ 38.747121, 8.9917451 ], [ 38.7467489, 8.9907856 ], [ 38.7466502, 8.9887152 ], [ 38.7466872, 8.9882466 ], [ 38.7462675, 8.9865609 ], [ 38.7441847, 8.9862839 ], [ 38.7425393, 8.9852723 ], [ 38.7415929, 8.9840381 ], [ 38.7392856, 8.9844684 ], [ 38.7375167, 8.9854513 ], [ 38.737164, 8.9860752 ], [ 38.7371663, 8.9867057 ], [ 38.7369129, 8.9877493 ], [ 38.7350048, 8.9882145 ], [ 38.7345985, 8.9883599 ], [ 38.7341961, 8.9893524 ], [ 38.7338755, 8.9910757 ], [ 38.733715, 8.9918419 ], [ 38.7341396, 8.9939366 ], [ 38.7330833, 8.9950507 ], [ 38.7326592, 8.9953344 ], [ 38.7322609, 8.9956067 ] ] ] } },
{ "type": "Feature", "properties": { "threshold_s": 300, "time_label": "5 minutes" }, "geometry": { "type": "Polygon", "coordinates": [ [ [ 38.7090676, 8.9579017 ], [ 38.7082998, 8.9591877 ], [ 38.7097281, 8.9588112 ], [ 38.7097852, 8.9596157 ], [ 38.7103525, 8.9597938 ], [ 38.7114287, 8.960119 ], [ 38.7116251, 8.9603827 ], [ 38.7117078, 8.9604128 ], [ 38.7120137, 8.960298 ], [ 38.7119113, 8.9593962 ], [ 38.7118691, 8.9589753 ], [ 38.7121692, 8.9580597 ], [ 38.7123415, 8.9572028 ], [ 38.7126868, 8.9569961 ], [ 38.7116066, 8.9567775 ], [ 38.7109062, 8.9566426 ], [ 38.7104142, 8.9569805 ], [ 38.7092999, 8.9567875 ], [ 38.7097295, 8.9574638 ], [ 38.7090676, 8.9579017 ] ] ] } },
{ "type": "Feature", "properties": { "threshold_s": 600, "time_label": "10 minutes" }, "geometry": { "type": "Polygon", "coordinates": [ [ [ 38.7051364, 8.9582794 ], [ 38.7064034, 8.959663 ], [ 38.7066017, 8.9597277 ], [ 38.7082998, 8.9591877 ], [ 38.7089925, 8.9603678 ], [ 38.7088192, 8.9610706 ], [ 38.7087755, 8.9613393 ], [ 38.7105954, 8.9614016 ], [ 38.7114597, 8.962623 ], [ 38.7114208, 8.963849 ], [ 38.7113571, 8.9645981 ], [ 38.7129534, 8.9636095 ], [ 38.7143151, 8.9626967 ], [ 38.7149043, 8.9619481 ], [ 38.7150158, 8.9614105 ], [ 38.715255, 8.9602221 ], [ 38.7145335, 8.9583044 ], [ 38.7150154, 8.9570799 ], [ 38.7152314, 8.9554302 ], [ 38.714075, 8.9548655 ], [ 38.7139443, 8.9548284 ], [ 38.7127281, 8.9547367 ], [ 38.7112694, 8.9546488 ], [ 38.7093868, 8.9554634 ], [ 38.7079386, 8.9550552 ], [ 38.7074345, 8.9567802 ], [ 38.7067599, 8.9572374 ], [ 38.7057729, 8.9579063 ], [ 38.7051364, 8.9582794 ] ] ] } },
{ "type": "Feature", "properties": { "threshold_s": 900, "time_label": "15 minutes" }, "geometry": { "type": "Polygon", "coordinates": [ [ [ 38.7049812, 8.9630409 ], [ 38.7050701, 8.9632029 ], [ 38.7059028, 8.9616931 ], [ 38.707016, 8.9614837 ], [ 38.7080768, 8.9619725 ], [ 38.7087815, 8.9621467 ], [ 38.7094085, 8.9621977 ], [ 38.709906, 8.9623832 ], [ 38.7114208, 8.963849 ], [ 38.7106141, 8.9653122 ], [ 38.7097062, 8.9659719 ], [ 38.7095952, 8.9664675 ], [ 38.712379, 8.9671588 ], [ 38.7126809, 8.9675692 ], [ 38.712457, 8.9671328 ], [ 38.7114295, 8.9649916 ], [ 38.7129534, 8.9636095 ], [ 38.7136356, 8.9631317 ], [ 38.7143151, 8.9626967 ], [ 38.7161542, 8.9625726 ], [ 38.7174451, 8.9623531 ], [ 38.7185303, 8.963298 ], [ 38.7184513, 8.961832 ], [ 38.71793790000001, 8.9604041 ], [ 38.717893, 8.9590309 ], [ 38.7172867, 8.9584685 ], [ 38.7172587, 8.956501 ], [ 38.7181476, 8.9559264 ], [ 38.7180653, 8.9552998 ], [ 38.7166151, 8.9555162 ], [ 38.7155025, 8.9548746 ], [ 38.7151109, 8.9538214 ], [ 38.7167485, 8.9526048 ], [ 38.7165219, 8.9523081 ], [ 38.7160235, 8.9517102 ], [ 38.7144603, 8.9515343 ], [ 38.7142994, 8.9526966 ], [ 38.7139443, 8.9548284 ], [ 38.7127281, 8.9547367 ], [ 38.7120212, 8.9546961 ], [ 38.7112694, 8.9546488 ], [ 38.7098309, 8.9542638 ], [ 38.7090022, 8.9531007 ], [ 38.7088591, 8.9526057 ], [ 38.7067262, 8.9540287 ], [ 38.7059559, 8.9543909 ], [ 38.7055904, 8.9549461 ], [ 38.7055696, 8.9554826 ], [ 38.7061676, 8.9576388 ], [ 38.7057729, 8.9579063 ], [ 38.7038314, 8.9579089 ], [ 38.7029762, 8.9578823 ], [ 38.7030939, 8.9579139 ], [ 38.7037773, 8.9580994 ], [ 38.7046056, 8.959167 ], [ 38.7041751, 8.9603363 ], [ 38.7041494, 8.960417 ], [ 38.7039602, 8.9610498 ], [ 38.7038962, 8.9612071 ], [ 38.7049812, 8.9630409 ] ] ] } },
{ "type": "Feature", "properties": { "threshold_s": 300, "time_label": "5 minutes" }, "geometry": { "type": "Polygon", "coordinates": [ [ [ 38.8852541, 8.9786174 ], [ 38.8857237, 8.9796592 ], [ 38.8863347, 8.9796582 ], [ 38.8870538, 8.9796569 ], [ 38.8877727, 8.9790072 ], [ 38.8887697, 8.9781414 ], [ 38.8884701, 8.9778014 ], [ 38.8888979, 8.9761231 ], [ 38.8887209, 8.9751494 ], [ 38.8882821, 8.9752221 ], [ 38.8882194, 8.9752933 ], [ 38.8884378, 8.9754798 ], [ 38.8879055, 8.9771298 ], [ 38.887601, 8.9771722 ], [ 38.886606, 8.9771047 ], [ 38.8862345, 8.9781816 ], [ 38.8852288, 8.9775841 ], [ 38.8848934, 8.9774451 ], [ 38.8845302, 8.9778742 ], [ 38.8845518, 8.9782527 ], [ 38.8852541, 8.9786174 ] ] ] } },
{ "type": "Feature", "properties": { "threshold_s": 600, "time_label": "10 minutes" }, "geometry": { "type": "Polygon", "coordinates": [ [ [ 38.8846948, 8.9804587 ], [ 38.8847016, 8.9805858 ], [ 38.8849984, 8.9805778 ], [ 38.8857865, 8.9816311 ], [ 38.8864893, 8.9819331 ], [ 38.8875249, 8.98258 ], [ 38.8884395, 8.9815056 ], [ 38.8872488, 8.9820855 ], [ 38.8870713, 8.9804958 ], [ 38.8870749, 8.9803926 ], [ 38.8870538, 8.9796569 ], [ 38.8883489, 8.9796985 ], [ 38.8884234, 8.9797902 ], [ 38.8887859, 8.9793055 ], [ 38.8894236, 8.978889 ], [ 38.8899648, 8.97837 ], [ 38.8908883, 8.9783605 ], [ 38.89088850000001, 8.9782597 ], [ 38.8908935, 8.9773007 ], [ 38.8908894, 8.9768688 ], [ 38.8908848, 8.9763827 ], [ 38.89088, 8.975874 ], [ 38.8908798, 8.9758422 ], [ 38.890876, 8.9752792 ], [ 38.8906145, 8.9741546 ], [ 38.8914527, 8.9737492 ], [ 38.8910629, 8.9724628 ], [ 38.8910655, 8.9723737 ], [ 38.890638, 8.972363 ], [ 38.8897119, 8.9724245 ], [ 38.8885157, 8.9724841 ], [ 38.8881154, 8.9728239 ], [ 38.8876775, 8.9737187 ], [ 38.8867133, 8.97371 ], [ 38.8859821, 8.9737035 ], [ 38.885517, 8.9736993 ], [ 38.8847953, 8.9736928 ], [ 38.8845031, 8.9736856 ], [ 38.8845259, 8.9749348 ], [ 38.8848592, 8.9761974 ], [ 38.8848934, 8.9774451 ], [ 38.8845302, 8.9778742 ], [ 38.8845518, 8.9782527 ], [ 38.8852541, 8.9786174 ], [ 38.8857237, 8.9796592 ], [ 38.8846948, 8.9804587 ] ] ] } },
{ "type": "Feature", "properties": { "threshold_s": 900, "time_label": "15 minutes" }, "geometry": { "type": "Polygon", "coordinates": [ [ [ 38.8848376, 8.9848396 ], [ 38.8848692, 8.9852765 ], [ 38.8851508, 8.9852494 ], [ 38.886732, 8.9841869 ], [ 38.8885184, 8.9833769 ], [ 38.8905039, 8.982247 ], [ 38.8913735, 8.9818006 ], [ 38.8917585, 8.9815979 ], [ 38.8918811, 8.9813766 ], [ 38.8917196, 8.9801766 ], [ 38.8927965, 8.9780253 ], [ 38.8944407, 8.9762515 ], [ 38.8937353, 8.974899 ], [ 38.8942999, 8.9723278 ], [ 38.8924418, 8.9712768 ], [ 38.8893713, 8.9705454 ], [ 38.8893438, 8.9705139 ], [ 38.8888536, 8.9701129 ], [ 38.8876109, 8.9698002 ], [ 38.8856216, 8.9697394 ], [ 38.8838646, 8.9718707 ], [ 38.8845031, 8.9736856 ], [ 38.8830882, 8.9750527 ], [ 38.8848592, 8.9761974 ], [ 38.8845302, 8.9778742 ], [ 38.8845518, 8.9782527 ], [ 38.8846948, 8.9804587 ], [ 38.8847016, 8.9805858 ], [ 38.8857865, 8.9816311 ], [ 38.8850946, 8.9838114 ], [ 38.8848376, 8.9848396 ] ] ] } },
{ "type": "Feature", "properties": { "threshold_s": 300, "time_label": "5 minutes" }, "geometry": { "type": "Polygon", "coordinates": [ [ [ 38.7110449, 9.061498 ], [ 38.7119472, 9.0586088 ], [ 38.7110005, 9.0607548 ], [ 38.7110449, 9.061498 ] ] ] } },
{ "type": "Feature", "properties": { "threshold_s": 600, "time_label": "10 minutes" }, "geometry": { "type": "Polygon", "coordinates": [ [ [ 38.7073037, 9.062245 ], [ 38.7071273, 9.0631653 ], [ 38.707658, 9.0628554 ], [ 38.7078967, 9.0623726 ], [ 38.7079938, 9.0620327 ], [ 38.7110449, 9.061498 ], [ 38.713122, 9.0590505 ], [ 38.7129772, 9.0578141 ], [ 38.7135961, 9.057536 ], [ 38.7135317, 9.0563533 ], [ 38.7134988, 9.0563123 ], [ 38.7125766, 9.0558019 ], [ 38.7116187, 9.0561276 ], [ 38.7104747, 9.0568269 ], [ 38.7093937, 9.0572533 ], [ 38.7089089, 9.0577486 ], [ 38.710331, 9.0582414 ], [ 38.710472, 9.0593379 ], [ 38.7106494, 9.0583536 ], [ 38.7118144, 9.058767 ], [ 38.7110005, 9.0607548 ], [ 38.7080747, 9.0616768 ], [ 38.7073879, 9.0618956 ], [ 38.7073037, 9.062245 ] ] ] } },
{ "type": "Feature", "properties": { "threshold_s": 900, "time_label": "15 minutes" }, "geometry": { "type": "Polygon", "coordinates": [ [ [ 38.7032877, 9.0636685 ], [ 38.7041434, 9.0646995 ], [ 38.7045219, 9.0650864 ], [ 38.7049179, 9.0654244 ], [ 38.7064393, 9.0656273 ], [ 38.7063595, 9.0652375 ], [ 38.707658, 9.0628554 ], [ 38.7078967, 9.0623726 ], [ 38.7079938, 9.0620327 ], [ 38.7080747, 9.0616768 ], [ 38.7082397, 9.0607552 ], [ 38.7110005, 9.0607548 ], [ 38.7110449, 9.061498 ], [ 38.7144677, 9.0620141 ], [ 38.7143868, 9.0611467 ], [ 38.7143269, 9.0585015 ], [ 38.7135377, 9.0568903 ], [ 38.7135317, 9.0563533 ], [ 38.7157332, 9.0546701 ], [ 38.7157554, 9.0546448 ], [ 38.7157822, 9.0546119 ], [ 38.7156779, 9.0545105 ], [ 38.7144135, 9.0544863 ], [ 38.7122067, 9.0534927 ], [ 38.7119117, 9.0526075 ], [ 38.7107147, 9.0534271 ], [ 38.7089931, 9.0542446 ], [ 38.7084952, 9.0547369 ], [ 38.707444, 9.0563301 ], [ 38.7064661, 9.0584386 ], [ 38.7058868, 9.0598722 ], [ 38.7038952, 9.0615198 ], [ 38.7032201, 9.0624851 ], [ 38.7032877, 9.0636685 ] ] ] } }
]
}
