{
"type": "FeatureCollection",
"name": "isochrone_amenity_vending_machine_multimodal",
"crs": { "type": "name", "properties": { "name": "urn:ogc:def:crs:OGC:1.3:CRS84" } },
"features": [
{ "type": "Feature", "properties": { "threshold_s": 300, "time_label": "5 minutes" }, "geometry": { "type": "Polygon", "coordinates": [ [ [ 38.7609512, 8.9378139 ], [ 38.7615674, 8.9389625 ], [ 38.7636744, 8.9406789 ], [ 38.7633346, 8.9403366 ], [ 38.7621984, 8.9382697 ], [ 38.7629749, 8.9379093 ], [ 38.7629762, 8.9367753 ], [ 38.7642556, 8.9360344 ], [ 38.7644638, 8.9356733 ], [ 38.764029, 8.9355074 ], [ 38.7621273, 8.9351643 ], [ 38.7620991, 8.9353776 ], [ 38.7620469, 8.9360386 ], [ 38.7620616, 8.9368587 ], [ 38.7608888, 8.9374985 ], [ 38.7605229, 8.9377905 ], [ 38.7609512, 8.9378139 ] ] ] } },
{ "type": "Feature", "properties": { "threshold_s": 600, "time_label": "10 minutes" }, "geometry": { "type": "Polygon", "coordinates": [ [ [ 38.7604079, 8.9406934 ], [ 38.7610517, 8.9424468 ], [ 38.7619463, 8.942101 ], [ 38.7635261, 8.9426283 ], [ 38.7649015, 8.9419151 ], [ 38.7636744, 8.9406789 ], [ 38.7633346, 8.9403366 ], [ 38.76259, 8.9399429 ], [ 38.7621984, 8.9382697 ], [ 38.7629749, 8.9379093 ], [ 38.7640333, 8.9369592 ], [ 38.7654425, 8.9363871 ], [ 38.7671976, 8.9355964 ], [ 38.7659465, 8.9342398 ], [ 38.7665449, 8.9330305 ], [ 38.7656971, 8.9328455 ], [ 38.7645631, 8.932676 ], [ 38.7626158, 8.9330447 ], [ 38.762185, 8.9334499 ], [ 38.7618765, 8.9345191 ], [ 38.7601733, 8.934217 ], [ 38.7594874, 8.9355634 ], [ 38.7583576, 8.9371829 ], [ 38.7579974, 8.9373742 ], [ 38.7573999, 8.9376337 ], [ 38.7588027, 8.9385055 ], [ 38.7593807, 8.9399124 ], [ 38.7598421, 8.9405589 ], [ 38.7604079, 8.9406934 ] ] ] } },
{ "type": "Feature", "properties": { "threshold_s": 900, "time_label": "15 minutes" }, "geometry": { "type": "Polygon", "coordinates": [ [ [ 38.7593029, 8.9433821 ], [ 38.7595323, 8.9436815 ], [ 38.7614381, 8.9447283 ], [ 38.7626817, 8.9456225 ], [ 38.7634872, 8.945462 ], [ 38.7657954, 8.9457131 ], [ 38.7664135, 8.943651 ], [ 38.7649015, 8.9419151 ], [ 38.765502, 8.9393955 ], [ 38.7661707, 8.9389824 ], [ 38.766329, 8.9388658 ], [ 38.7686585, 8.9374363 ], [ 38.7700492, 8.9374053 ], [ 38.7695324, 8.936462 ], [ 38.7693047, 8.9345295 ], [ 38.769069, 8.933221 ], [ 38.7686808, 8.932152 ], [ 38.7679884, 8.9301183 ], [ 38.7677755, 8.9301123 ], [ 38.7667829, 8.9303858 ], [ 38.7644273, 8.9306227 ], [ 38.7636803, 8.9320271 ], [ 38.7618135, 8.9321158 ], [ 38.7604603, 8.9313766 ], [ 38.7602712, 8.9317422 ], [ 38.7600432, 8.9335745 ], [ 38.7575599, 8.933409 ], [ 38.7568614, 8.9340678 ], [ 38.7576368, 8.9340032 ], [ 38.7594874, 8.9355634 ], [ 38.7583576, 8.9371829 ], [ 38.7579974, 8.9373742 ], [ 38.7573999, 8.9376337 ], [ 38.7588751, 8.9397005 ], [ 38.7588067, 8.9401575 ], [ 38.7588604, 8.9404185 ], [ 38.7593754, 8.9429105 ], [ 38.7593029, 8.9433821 ] ] ] } }
]
}
