{
"type": "FeatureCollection",
"name": "isochrone_amenity_pub_multimodal",
"crs": { "type": "name", "properties": { "name": "urn:ogc:def:crs:OGC:1.3:CRS84" } },
"features": [
{ "type": "Feature", "properties": { "threshold_s": 300, "time_label": "5 minutes" }, "geometry": { "type": "Polygon", "coordinates": [ [ [ 38.7533592, 9.010613 ], [ 38.753724, 9.0110519 ], [ 38.7536413, 9.0107418 ], [ 38.7543717, 9.010126 ], [ 38.7552017, 9.0100104 ], [ 38.7567884, 9.0092968 ], [ 38.7563343, 9.0092824 ], [ 38.7551354, 9.0094268 ], [ 38.7548035, 9.0091962 ], [ 38.7543659, 9.0086832 ], [ 38.7544449, 9.007789 ], [ 38.7541692, 9.0085827 ], [ 38.754155, 9.0087808 ], [ 38.7535663, 9.009591 ], [ 38.7533592, 9.010613 ] ] ] } },
{ "type": "Feature", "properties": { "threshold_s": 600, "time_label": "10 minutes" }, "geometry": { "type": "Polygon", "coordinates": [ [ [ 38.7517289, 9.0123008 ], [ 38.7518519, 9.0129481 ], [ 38.7528281, 9.0137539 ], [ 38.7530702, 9.0137445 ], [ 38.7529074, 9.012924 ], [ 38.7533724, 9.0120179 ], [ 38.7542984, 9.0119961 ], [ 38.7553236, 9.0121104 ], [ 38.7553863, 9.0121585 ], [ 38.7553958, 9.0119593 ], [ 38.7554034, 9.0118611 ], [ 38.755338, 9.0119598 ], [ 38.7543154, 9.0118417 ], [ 38.753724, 9.0110519 ], [ 38.7536413, 9.0107418 ], [ 38.7543717, 9.010126 ], [ 38.7552017, 9.0100104 ], [ 38.7551354, 9.0094268 ], [ 38.7548035, 9.0091962 ], [ 38.7543659, 9.0086832 ], [ 38.7549917, 9.0080034 ], [ 38.7553898, 9.007956 ], [ 38.7563425, 9.0078847 ], [ 38.7563343, 9.0092824 ], [ 38.7567884, 9.0092968 ], [ 38.7568491, 9.0079022 ], [ 38.7567295, 9.0078257 ], [ 38.7562605, 9.007178 ], [ 38.7564508, 9.0067884 ], [ 38.7559555, 9.0064093 ], [ 38.7554513, 9.006053 ], [ 38.7548747, 9.0058645 ], [ 38.7547566, 9.0057969 ], [ 38.7545946, 9.0057032 ], [ 38.7546592, 9.0046769 ], [ 38.7544369, 9.0047535 ], [ 38.7544001, 9.0055835 ], [ 38.7534437, 9.0051707 ], [ 38.7528471, 9.0056701 ], [ 38.7528737, 9.0057964 ], [ 38.7528858, 9.0064596 ], [ 38.7530239, 9.0074473 ], [ 38.7526578, 9.0074973 ], [ 38.752014, 9.0072861 ], [ 38.7520489, 9.0075772 ], [ 38.7513155, 9.0081678 ], [ 38.751375, 9.0089511 ], [ 38.7526401, 9.0079989 ], [ 38.7530286, 9.0088809 ], [ 38.7530973, 9.0097665 ], [ 38.7533592, 9.010613 ], [ 38.7532632, 9.0111366 ], [ 38.7524177, 9.0112068 ], [ 38.751436, 9.0112148 ], [ 38.7506037, 9.0114718 ], [ 38.7508966, 9.0117963 ], [ 38.751103, 9.0119318 ], [ 38.7517289, 9.0123008 ] ] ] } },
{ "type": "Feature", "properties": { "threshold_s": 900, "time_label": "15 minutes" }, "geometry": { "type": "Polygon", "coordinates": [ [ [ 38.7517797, 9.0167226 ], [ 38.752169, 9.0172379 ], [ 38.7525041, 9.0173645 ], [ 38.7526238, 9.0173706 ], [ 38.7527814, 9.0173246 ], [ 38.7538364, 9.0167883 ], [ 38.7538793, 9.0164352 ], [ 38.753970099999989, 9.0155799 ], [ 38.754042, 9.0147556 ], [ 38.7557262, 9.0146666 ], [ 38.7566767, 9.0148583 ], [ 38.7577434, 9.0137529 ], [ 38.7586624, 9.0127297 ], [ 38.759196, 9.0116 ], [ 38.7591938, 9.0114719 ], [ 38.7591779, 9.0112723 ], [ 38.7581724, 9.0104797 ], [ 38.7575695, 9.0092258 ], [ 38.7588742, 9.0086394 ], [ 38.7591364, 9.0073247 ], [ 38.7602373, 9.0063444 ], [ 38.7606931, 9.0060406 ], [ 38.7609067, 9.0058947 ], [ 38.7598033, 9.0052429 ], [ 38.7587508, 9.0052114 ], [ 38.7574893, 9.0040118 ], [ 38.756726, 9.003154 ], [ 38.755623, 9.0021177 ], [ 38.7551563, 9.00195 ], [ 38.7546804, 9.0018889 ], [ 38.7533004, 9.0021771 ], [ 38.7519359, 9.0026255 ], [ 38.7510204, 9.0034457 ], [ 38.7500717, 9.0048308 ], [ 38.7505442, 9.0057544 ], [ 38.750598, 9.0068708 ], [ 38.749073, 9.0073246 ], [ 38.7485929, 9.0075762 ], [ 38.748271, 9.0080491 ], [ 38.749301, 9.0083074 ], [ 38.7502626, 9.0077974 ], [ 38.751375, 9.0089511 ], [ 38.7523171, 9.0105115 ], [ 38.751436, 9.0112148 ], [ 38.7506716, 9.0110956 ], [ 38.7497489, 9.0105213 ], [ 38.7492433, 9.010403 ], [ 38.7482141, 9.0106896 ], [ 38.7476673, 9.0105487 ], [ 38.7476653, 9.0108037 ], [ 38.7478785, 9.0108532 ], [ 38.7483546, 9.0110644 ], [ 38.748904, 9.0119247 ], [ 38.7484279, 9.0131606 ], [ 38.7484963, 9.0132162 ], [ 38.7485647, 9.0131598 ], [ 38.7504561, 9.013546 ], [ 38.7502899, 9.0145861 ], [ 38.7509495, 9.0150619 ], [ 38.7517797, 9.0167226 ] ] ] } },
{ "type": "Feature", "properties": { "threshold_s": 300, "time_label": "5 minutes" }, "geometry": { "type": "Polygon", "coordinates": [ [ [ 38.7721056, 8.9911933 ], [ 38.7725463, 8.9916731 ], [ 38.7734549, 8.9917314 ], [ 38.7740155, 8.9912685 ], [ 38.7737768, 8.9912791 ], [ 38.7730702, 8.9902493 ], [ 38.7726688, 8.9892939 ], [ 38.7720365, 8.9891226 ], [ 38.7718676, 8.9877508 ], [ 38.7708995, 8.987194 ], [ 38.7705363, 8.9868789 ], [ 38.7701045, 8.9873449 ], [ 38.7701893, 8.987568 ], [ 38.7708127, 8.9881152 ], [ 38.7700416, 8.9888374 ], [ 38.7709749, 8.9883159 ], [ 38.7713654, 8.9885962 ], [ 38.7716921, 8.9892484 ], [ 38.7725604, 8.990016 ], [ 38.7722754, 8.990528 ], [ 38.7721056, 8.9911933 ] ] ] } },
{ "type": "Feature", "properties": { "threshold_s": 600, "time_label": "10 minutes" }, "geometry": { "type": "Polygon", "coordinates": [ [ [ 38.7698437, 8.9919916 ], [ 38.7701209, 8.9936355 ], [ 38.7708546, 8.9939276 ], [ 38.7728655, 8.9947562 ], [ 38.774133, 8.9945834 ], [ 38.7748349, 8.9941601 ], [ 38.7748685, 8.9939269 ], [ 38.7753801, 8.9924898 ], [ 38.7765276, 8.9919231 ], [ 38.7760802, 8.9916884 ], [ 38.7745701, 8.9912135 ], [ 38.7730466, 8.9897253 ], [ 38.7726688, 8.9892939 ], [ 38.7718676, 8.9877508 ], [ 38.771562, 8.9867111 ], [ 38.7699018, 8.9860061 ], [ 38.7693325, 8.985905 ], [ 38.767618, 8.9854072 ], [ 38.7670853, 8.9849345 ], [ 38.7673754, 8.985989 ], [ 38.7680376, 8.9860209 ], [ 38.7688553, 8.9878417 ], [ 38.7700416, 8.9888374 ], [ 38.7700921, 8.9906088 ], [ 38.7685902, 8.9904968 ], [ 38.7694276, 8.9913349 ], [ 38.7698437, 8.9919916 ] ] ] } },
{ "type": "Feature", "properties": { "threshold_s": 900, "time_label": "15 minutes" }, "geometry": { "type": "Polygon", "coordinates": [ [ [ 38.7673616, 8.9941091 ], [ 38.76916880000001, 8.9967465 ], [ 38.7717256, 8.9974435 ], [ 38.7753912, 8.9966925 ], [ 38.7758743, 8.9963788 ], [ 38.7763041, 8.9957546 ], [ 38.7785116, 8.9931117 ], [ 38.7790306, 8.991548 ], [ 38.7764195, 8.9911022 ], [ 38.7750877, 8.9907234 ], [ 38.7726688, 8.9892939 ], [ 38.7718676, 8.9877508 ], [ 38.771562, 8.9867111 ], [ 38.7699018, 8.9860061 ], [ 38.7686161, 8.9837054 ], [ 38.7667257, 8.9830418 ], [ 38.7646504, 8.9825629 ], [ 38.7647438, 8.9833531 ], [ 38.765272, 8.9860874 ], [ 38.7655252, 8.9871483 ], [ 38.7662867, 8.9897064 ], [ 38.7660614, 8.9911266 ], [ 38.7660945, 8.991706 ], [ 38.766284, 8.9921399 ], [ 38.7673616, 8.9941091 ] ] ] } },
{ "type": "Feature", "properties": { "threshold_s": 300, "time_label": "5 minutes" }, "geometry": { "type": "Polygon", "coordinates": [ [ [ 38.7919032, 8.9931163 ], [ 38.7916283, 8.993625 ], [ 38.7925811, 8.9942786 ], [ 38.7933804, 8.9941166 ], [ 38.792913, 8.9938197 ], [ 38.7924798, 8.9935091 ], [ 38.79196, 8.9931645 ], [ 38.7918435, 8.9923162 ], [ 38.793028, 8.9918786 ], [ 38.7940097, 8.9930214 ], [ 38.7947483, 8.9936625 ], [ 38.7952264, 8.9934812 ], [ 38.7950923, 8.9927666 ], [ 38.7948242, 8.9923398 ], [ 38.7939993, 8.9922093 ], [ 38.7936797, 8.9917278 ], [ 38.7932241, 8.9911744 ], [ 38.7941063, 8.9906088 ], [ 38.7938117, 8.9895998 ], [ 38.7937429, 8.9895272 ], [ 38.7931372, 8.9893507 ], [ 38.792569, 8.9896677 ], [ 38.7924159, 8.9898914 ], [ 38.7928077, 8.9908644 ], [ 38.7928279, 8.9917407 ], [ 38.7917543, 8.9922639 ], [ 38.7919032, 8.9931163 ] ] ] } },
{ "type": "Feature", "properties": { "threshold_s": 600, "time_label": "10 minutes" }, "geometry": { "type": "Polygon", "coordinates": [ [ [ 38.7895004, 8.9949998 ], [ 38.7896246, 8.9951685 ], [ 38.7911253, 8.9962245 ], [ 38.7929622, 8.9972811 ], [ 38.7949274, 8.9968629 ], [ 38.7964214, 8.9969617 ], [ 38.7965052, 8.9969379 ], [ 38.7966688, 8.9966862 ], [ 38.7954886, 8.9954404 ], [ 38.7956395, 8.9945489 ], [ 38.7955188, 8.9942217 ], [ 38.7952264, 8.9934812 ], [ 38.7962878, 8.9915158 ], [ 38.7964194, 8.9911884 ], [ 38.7967419, 8.9891166 ], [ 38.7962286, 8.9869708 ], [ 38.7947336, 8.9876264 ], [ 38.7942992, 8.9887271 ], [ 38.7933953, 8.9891541 ], [ 38.7921402, 8.9878098 ], [ 38.7920728, 8.9872025 ], [ 38.7920286, 8.9871575 ], [ 38.7917992, 8.9869826 ], [ 38.7917644, 8.9869561 ], [ 38.7908932, 8.9872382 ], [ 38.7894252, 8.9886527 ], [ 38.7894425, 8.9886955 ], [ 38.7895025, 8.9888436 ], [ 38.789515, 8.9888743 ], [ 38.7905229, 8.9906157 ], [ 38.7897353, 8.991741 ], [ 38.790229, 8.9920772 ], [ 38.7899619, 8.994329 ], [ 38.7895004, 8.9949998 ] ] ] } },
{ "type": "Feature", "properties": { "threshold_s": 900, "time_label": "15 minutes" }, "geometry": { "type": "Polygon", "coordinates": [ [ [ 38.787379, 8.9954801 ], [ 38.7890822, 8.9981015 ], [ 38.79043, 8.9986976 ], [ 38.7913789, 8.9990156 ], [ 38.7920983, 8.9987684 ], [ 38.792624, 8.9985777 ], [ 38.7931544, 8.9983837 ], [ 38.7936291, 8.9982041 ], [ 38.7941482, 8.9979968 ], [ 38.7946719, 8.9978068 ], [ 38.7951352, 8.9973643 ], [ 38.7964214, 8.9969617 ], [ 38.7981365, 8.9992974 ], [ 38.798382, 8.9996783 ], [ 38.7984775, 8.9990207 ], [ 38.7966688, 8.9966862 ], [ 38.7966723, 8.9943839 ], [ 38.797957, 8.9920335 ], [ 38.7976136, 8.9913002 ], [ 38.7980917, 8.9885152 ], [ 38.7992705, 8.9883311 ], [ 38.7985792, 8.9856667 ], [ 38.7980515, 8.9842843 ], [ 38.7966164, 8.9841698 ], [ 38.7934877, 8.9843281 ], [ 38.7919637, 8.9840926 ], [ 38.7912949, 8.9845058 ], [ 38.7898734, 8.9852407 ], [ 38.7879749, 8.9856538 ], [ 38.7873733, 8.9867546 ], [ 38.7871414, 8.9880545 ], [ 38.786303, 8.9900919 ], [ 38.7867218, 8.9921765 ], [ 38.7873682, 8.9940098 ], [ 38.787379, 8.9954801 ] ] ] } },
{ "type": "Feature", "properties": { "threshold_s": 300, "time_label": "5 minutes" }, "geometry": { "type": "Polygon", "coordinates": [ [ [ 38.765652, 8.9596918 ], [ 38.7656554, 8.9600907 ], [ 38.7668627, 8.9595852 ], [ 38.7671781, 8.9595838 ], [ 38.7669093, 8.959157 ], [ 38.7671976, 8.9584786 ], [ 38.7682133, 8.9587071 ], [ 38.7682027, 8.9585897 ], [ 38.7685282, 8.9579152 ], [ 38.7689047, 8.9579083 ], [ 38.7691133, 8.957487 ], [ 38.7692517, 8.9571825 ], [ 38.7691437, 8.9567911 ], [ 38.7688687, 8.9567519 ], [ 38.76858, 8.9571505 ], [ 38.7680935, 8.9575759 ], [ 38.7677815, 8.9572228 ], [ 38.7676319, 8.9571302 ], [ 38.7673415, 8.9565798 ], [ 38.7673704, 8.9560994 ], [ 38.7675841, 8.9551141 ], [ 38.7659157, 8.9555533 ], [ 38.7654243, 8.9553907 ], [ 38.7651229, 8.9552686 ], [ 38.7650534, 8.9556676 ], [ 38.76446, 8.9561574 ], [ 38.7653741, 8.955905 ], [ 38.7654828, 8.9559807 ], [ 38.7661804, 8.956871 ], [ 38.7657507, 8.9573351 ], [ 38.7654131, 8.9568902 ], [ 38.7650679, 8.956913 ], [ 38.7646291, 8.9569209 ], [ 38.7639361, 8.9568693 ], [ 38.7637294, 8.9567795 ], [ 38.7638096, 8.9575442 ], [ 38.7638272, 8.9577078 ], [ 38.7640562, 8.9583092 ], [ 38.7646737, 8.9585251 ], [ 38.7646993, 8.9590169 ], [ 38.765645, 8.9589078 ], [ 38.765662, 8.9593418 ], [ 38.765652, 8.9596918 ] ] ] } },
{ "type": "Feature", "properties": { "threshold_s": 600, "time_label": "10 minutes" }, "geometry": { "type": "Polygon", "coordinates": [ [ [ 38.760801, 8.9573863 ], [ 38.7597268, 8.9583829 ], [ 38.7606216, 8.9589706 ], [ 38.7614843, 8.9580241 ], [ 38.7624557, 8.9578249 ], [ 38.7638272, 8.9577078 ], [ 38.7639103, 8.9585753 ], [ 38.7638975, 8.958867 ], [ 38.7637219, 8.9600537 ], [ 38.7620958, 8.9604021 ], [ 38.7636005, 8.9608771 ], [ 38.7635887, 8.9618935 ], [ 38.7644303, 8.961891 ], [ 38.7651444, 8.9619819 ], [ 38.7664633, 8.9628219 ], [ 38.7670012, 8.9625263 ], [ 38.767714, 8.9619438 ], [ 38.7689771, 8.9614422 ], [ 38.7701771, 8.9605403 ], [ 38.7713431, 8.9598191 ], [ 38.7714929, 8.9586625 ], [ 38.7723338, 8.957994 ], [ 38.7720742, 8.9572236 ], [ 38.7719092, 8.9570776 ], [ 38.7714729, 8.9556709 ], [ 38.7707547, 8.9548187 ], [ 38.7703304, 8.9543326 ], [ 38.7701481, 8.954184 ], [ 38.7688748, 8.9544058 ], [ 38.7679546, 8.9535973 ], [ 38.766852, 8.953155 ], [ 38.766087, 8.9530328 ], [ 38.7659699, 8.9533813 ], [ 38.7658503, 8.9537372 ], [ 38.7657115, 8.9541348 ], [ 38.7643652, 8.9544344 ], [ 38.7636337, 8.9537958 ], [ 38.7635522, 8.9530723 ], [ 38.7628206, 8.9541914 ], [ 38.7624222, 8.9543767 ], [ 38.7617116, 8.9552389 ], [ 38.7625444, 8.9562046 ], [ 38.7622856, 8.957071 ], [ 38.760801, 8.9573863 ] ] ] } },
{ "type": "Feature", "properties": { "threshold_s": 900, "time_label": "15 minutes" }, "geometry": { "type": "Polygon", "coordinates": [ [ [ 38.7567028, 8.9579149 ], [ 38.757036, 8.959847 ], [ 38.7585471, 8.9608727 ], [ 38.7592765, 8.9610057 ], [ 38.7608874, 8.9624099 ], [ 38.7615236, 8.963106 ], [ 38.7630229, 8.9646366 ], [ 38.7642007, 8.9642484 ], [ 38.7654878, 8.9646567 ], [ 38.7663711, 8.9659721 ], [ 38.7669119, 8.965525 ], [ 38.7676846, 8.9649069 ], [ 38.7696234, 8.9636751 ], [ 38.7705221, 8.9624911 ], [ 38.7718099, 8.962378 ], [ 38.7726464, 8.9617668 ], [ 38.7737249, 8.9605879 ], [ 38.7748343, 8.95907 ], [ 38.774614, 8.9571148 ], [ 38.7746285, 8.9565232 ], [ 38.774085, 8.9546643 ], [ 38.7734234, 8.9538161 ], [ 38.7724795, 8.9529493 ], [ 38.7714862, 8.9515885 ], [ 38.771169, 8.9514759 ], [ 38.7696692, 8.9506191 ], [ 38.7688027, 8.948857 ], [ 38.7674784, 8.9498868 ], [ 38.7663148, 8.9509444 ], [ 38.7653218, 8.9529788 ], [ 38.7634726, 8.9521439 ], [ 38.7638319, 8.9503783 ], [ 38.7641003, 8.9498037 ], [ 38.7635355, 8.9506366 ], [ 38.7617457, 8.9519426 ], [ 38.760432, 8.9521374 ], [ 38.7603599, 8.9521885 ], [ 38.7602853, 8.9522603 ], [ 38.7592927, 8.9539705 ], [ 38.7583783, 8.9557775 ], [ 38.757349, 8.9569226 ], [ 38.7567028, 8.9579149 ] ] ] } },
{ "type": "Feature", "properties": { "threshold_s": 300, "time_label": "5 minutes" }, "geometry": { "type": "Polygon", "coordinates": [ [ [ 38.7861708, 9.0118995 ], [ 38.7867309, 9.0126232 ], [ 38.7875972, 9.0129061 ], [ 38.7876278, 9.0129098 ], [ 38.7877233, 9.0124807 ], [ 38.7878286, 9.0118477 ], [ 38.7887416, 9.011563 ], [ 38.7891837, 9.0116524 ], [ 38.7896806, 9.0113171 ], [ 38.7897447, 9.0109138 ], [ 38.7904845, 9.0105537 ], [ 38.7902464, 9.0096937 ], [ 38.7902255, 9.0090147 ], [ 38.7895234, 9.0088889 ], [ 38.7891895, 9.0082186 ], [ 38.7887931, 9.0078893 ], [ 38.7887402, 9.0078729 ], [ 38.7886856, 9.0082793 ], [ 38.7877303, 9.0086557 ], [ 38.7869079, 9.0088869 ], [ 38.7861091, 9.0087839 ], [ 38.7869513, 9.009086 ], [ 38.7874114, 9.0096416 ], [ 38.7866333, 9.0102849 ], [ 38.7857111, 9.0102443 ], [ 38.7851768, 9.0101595 ], [ 38.7844364, 9.0100156 ], [ 38.7855563, 9.0108907 ], [ 38.7862958, 9.0114741 ], [ 38.7861708, 9.0118995 ] ] ] } },
{ "type": "Feature", "properties": { "threshold_s": 600, "time_label": "10 minutes" }, "geometry": { "type": "Polygon", "coordinates": [ [ [ 38.7819703, 9.0111927 ], [ 38.781424, 9.0121573 ], [ 38.7821314, 9.0121521 ], [ 38.7832051, 9.0118482 ], [ 38.7835266, 9.0132155 ], [ 38.7831329, 9.0133339 ], [ 38.7835138, 9.0134781 ], [ 38.7845973, 9.014103 ], [ 38.7846189, 9.0145445 ], [ 38.7857985, 9.0153244 ], [ 38.7865155, 9.0155037 ], [ 38.7871516, 9.0159539 ], [ 38.7872844, 9.0160666 ], [ 38.7875552, 9.0160411 ], [ 38.787648, 9.0157163 ], [ 38.7879302, 9.0149497 ], [ 38.7873429, 9.0143333 ], [ 38.7882279, 9.0132665 ], [ 38.789299, 9.0139947 ], [ 38.7895445, 9.0139163 ], [ 38.7901675, 9.0136932 ], [ 38.7904584, 9.0126092 ], [ 38.7914692, 9.0118748 ], [ 38.7919485, 9.0120027 ], [ 38.79217340000001, 9.0115364 ], [ 38.7916999, 9.0107534 ], [ 38.7919494, 9.0097737 ], [ 38.7920814, 9.0086222 ], [ 38.7932745, 9.0089167 ], [ 38.7925181, 9.0080703 ], [ 38.7918073, 9.0069775 ], [ 38.7912769, 9.0068298 ], [ 38.7901946, 9.0062781 ], [ 38.7898343, 9.0055715 ], [ 38.7894162, 9.0045775 ], [ 38.7885672, 9.004992 ], [ 38.7884995, 9.005243 ], [ 38.7873383, 9.0058114 ], [ 38.7870035, 9.0057066 ], [ 38.7868459, 9.0062106 ], [ 38.7868151, 9.0063172 ], [ 38.7859386, 9.007004 ], [ 38.7853284, 9.00681 ], [ 38.7856355, 9.0081908 ], [ 38.7843461, 9.0078941 ], [ 38.7837833, 9.0077407 ], [ 38.782948, 9.008045 ], [ 38.7820243, 9.0086886 ], [ 38.7816109, 9.009167 ], [ 38.7815672, 9.0104227 ], [ 38.7819703, 9.0111927 ] ] ] } },
{ "type": "Feature", "properties": { "threshold_s": 900, "time_label": "15 minutes" }, "geometry": { "type": "Polygon", "coordinates": [ [ [ 38.7814968, 9.0132973 ], [ 38.7812692, 9.0141888 ], [ 38.782059, 9.014438 ], [ 38.7832979, 9.0148016 ], [ 38.7838533, 9.0151 ], [ 38.7843813, 9.0155425 ], [ 38.7851743, 9.0176441 ], [ 38.785699, 9.0179732 ], [ 38.7868626, 9.0185753 ], [ 38.7871463, 9.0184091 ], [ 38.7893058, 9.018637 ], [ 38.7895982, 9.0173518 ], [ 38.7907635, 9.0166364 ], [ 38.7915556, 9.0156549 ], [ 38.7927188, 9.0152235 ], [ 38.7930271, 9.0146946 ], [ 38.7945598, 9.0137423 ], [ 38.7950341, 9.0117579 ], [ 38.7956005, 9.0103345 ], [ 38.7959258, 9.0094485 ], [ 38.7964341, 9.0078609 ], [ 38.7950326, 9.0075934 ], [ 38.7942706, 9.0060773 ], [ 38.7937877, 9.0050546 ], [ 38.7936953, 9.0050935 ], [ 38.7917389, 9.0056483 ], [ 38.7905674, 9.0042118 ], [ 38.7895508, 9.0022211 ], [ 38.7882698, 9.0017096 ], [ 38.787735, 9.001911 ], [ 38.7862196, 9.0034032 ], [ 38.7852708, 9.0043406 ], [ 38.7841033, 9.0045257 ], [ 38.7823866, 9.0056114 ], [ 38.7811388, 9.0058152 ], [ 38.7810221, 9.0058338 ], [ 38.7793355, 9.0069961 ], [ 38.7786698, 9.0089458 ], [ 38.7795543, 9.0109593 ], [ 38.7801527, 9.0119568 ], [ 38.7814968, 9.0132973 ] ] ] } },
{ "type": "Feature", "properties": { "threshold_s": 300, "time_label": "5 minutes" }, "geometry": { "type": "Polygon", "coordinates": [ [ [ 38.7646304, 8.9983497 ], [ 38.7649101, 8.9987426 ], [ 38.7649919, 8.9985717 ], [ 38.765179, 8.9981909 ], [ 38.7650467, 8.9975944 ], [ 38.7651727, 8.9973575 ], [ 38.7661868, 8.9974783 ], [ 38.7662316, 8.9977834 ], [ 38.7662877, 8.9981769 ], [ 38.7667879, 8.9984362 ], [ 38.7668867, 8.9984323 ], [ 38.7668694, 8.9982204 ], [ 38.7682505, 8.9968962 ], [ 38.7678702, 8.996914 ], [ 38.767748, 8.9969339 ], [ 38.766772, 8.9969781 ], [ 38.7667359, 8.9963641 ], [ 38.7666894, 8.9957111 ], [ 38.7665231, 8.9948114 ], [ 38.7666051, 8.9944842 ], [ 38.7665945, 8.9943362 ], [ 38.7665689, 8.9939808 ], [ 38.7664693, 8.9939821 ], [ 38.7658569, 8.9944178 ], [ 38.7653392, 8.9935721 ], [ 38.7652789, 8.99306 ], [ 38.7652382, 8.9929139 ], [ 38.7647423, 8.9933753 ], [ 38.7648233, 8.9943716 ], [ 38.7641071, 8.9943305 ], [ 38.7640968, 8.9948155 ], [ 38.763602, 8.9952706 ], [ 38.7641843, 8.9960081 ], [ 38.7640184, 8.9969784 ], [ 38.764286, 8.9977654 ], [ 38.7646304, 8.9983497 ] ] ] } },
{ "type": "Feature", "properties": { "threshold_s": 600, "time_label": "10 minutes" }, "geometry": { "type": "Polygon", "coordinates": [ [ [ 38.761861, 8.9989751 ], [ 38.7623298, 9.0000698 ], [ 38.7629789, 9.000368 ], [ 38.7643906, 9.0014444 ], [ 38.7657918, 9.0013837 ], [ 38.7672202, 9.0015599 ], [ 38.7672926, 9.0015638 ], [ 38.7675743, 8.9996401 ], [ 38.7681495, 8.9979743 ], [ 38.7696973, 8.997182 ], [ 38.7707889, 8.9960261 ], [ 38.7699627, 8.9952079 ], [ 38.7701209, 8.9936355 ], [ 38.7686677, 8.9925913 ], [ 38.7679324, 8.991757 ], [ 38.7665965, 8.9911067 ], [ 38.7658954, 8.990874 ], [ 38.765309, 8.9910932 ], [ 38.7636602, 8.9905313 ], [ 38.7634859, 8.9904466 ], [ 38.7634444, 8.991077 ], [ 38.7623647, 8.9921115 ], [ 38.7621962, 8.9921501 ], [ 38.7618073, 8.992986 ], [ 38.7609419, 8.9943649 ], [ 38.7612355, 8.9957291 ], [ 38.7616834, 8.9974021 ], [ 38.761552, 8.9977717 ], [ 38.761861, 8.9989751 ] ] ] } },
{ "type": "Feature", "properties": { "threshold_s": 900, "time_label": "15 minutes" }, "geometry": { "type": "Polygon", "coordinates": [ [ [ 38.7586856, 8.9999436 ], [ 38.7587616, 9.0011842 ], [ 38.7603571, 9.0018766 ], [ 38.7620759, 9.0032468 ], [ 38.7626141, 9.0034806 ], [ 38.7657014, 9.004682 ], [ 38.7663022, 9.0048052 ], [ 38.7682458, 9.0046098 ], [ 38.7683377, 9.0045688 ], [ 38.768731, 9.0043466 ], [ 38.769688, 9.0011882 ], [ 38.7704085, 9.0001463 ], [ 38.7714849, 8.997922 ], [ 38.7724357, 8.9962689 ], [ 38.7734482, 8.9942959 ], [ 38.7717135, 8.9915076 ], [ 38.7706876, 8.9906817 ], [ 38.7704844, 8.9906366 ], [ 38.76804, 8.9900825 ], [ 38.7659893, 8.9894164 ], [ 38.7651287, 8.9879443 ], [ 38.7650777, 8.9877284 ], [ 38.7650281, 8.9876688 ], [ 38.7646041, 8.9874446 ], [ 38.7621897, 8.9874769 ], [ 38.7609888, 8.9899086 ], [ 38.7591509, 8.9921947 ], [ 38.7594068, 8.9930156 ], [ 38.7597039, 8.9959808 ], [ 38.759554, 8.9967245 ], [ 38.759032, 8.998066 ], [ 38.7589954, 8.9981469 ], [ 38.7586856, 8.9999436 ] ] ] } },
{ "type": "Feature", "properties": { "threshold_s": 300, "time_label": "5 minutes" }, "geometry": { "type": "Polygon", "coordinates": [ [ [ 38.8593936, 8.9962152 ], [ 38.859155, 8.996546 ], [ 38.8597004, 8.9967622 ], [ 38.8602367, 8.9970181 ], [ 38.8609986, 8.9959914 ], [ 38.8621357, 8.9962419 ], [ 38.8620936, 8.9963338 ], [ 38.8622044, 8.9963269 ], [ 38.8626001, 8.9961263 ], [ 38.8625642, 8.9960631 ], [ 38.8622376, 8.9962273 ], [ 38.8615346, 8.9953829 ], [ 38.8610331, 8.9945874 ], [ 38.8608822, 8.9931282 ], [ 38.8629837, 8.9934799 ], [ 38.8608551, 8.9930806 ], [ 38.8605139, 8.9926173 ], [ 38.8592559, 8.9923584 ], [ 38.8591397, 8.992353 ], [ 38.859802, 8.9930417 ], [ 38.8599718, 8.9934286 ], [ 38.8590765, 8.9937681 ], [ 38.8591227, 8.9938164 ], [ 38.8600068, 8.9934731 ], [ 38.8601023, 8.9934302 ], [ 38.860943399999989, 8.9946623 ], [ 38.860397, 8.9953586 ], [ 38.8603565, 8.9953164 ], [ 38.8603007, 8.9955107 ], [ 38.8593936, 8.9962152 ] ] ] } },
{ "type": "Feature", "properties": { "threshold_s": 600, "time_label": "10 minutes" }, "geometry": { "type": "Polygon", "coordinates": [ [ [ 38.8565029, 8.9972534 ], [ 38.8566548, 8.9988859 ], [ 38.8586364, 8.9982815 ], [ 38.8589202, 8.9996453 ], [ 38.8592332, 9.0002077 ], [ 38.8593099, 9.0002272 ], [ 38.8607645, 8.9994858 ], [ 38.8621925, 8.9992314 ], [ 38.8620264, 8.9982205 ], [ 38.8610291, 8.9973159 ], [ 38.8620936, 8.9963338 ], [ 38.8622044, 8.9963269 ], [ 38.863330499999989, 8.9968197 ], [ 38.8641715, 8.9962063 ], [ 38.865325, 8.9966277 ], [ 38.8658631, 8.9953807 ], [ 38.8647621, 8.9947766 ], [ 38.8638527, 8.9950823 ], [ 38.8625642, 8.9960631 ], [ 38.8615346, 8.9953829 ], [ 38.8610331, 8.9945874 ], [ 38.8608822, 8.9931282 ], [ 38.8618657, 8.9924504 ], [ 38.8629837, 8.9934799 ], [ 38.8638084, 8.9931033 ], [ 38.8628106, 8.991887 ], [ 38.8638173, 8.9912566 ], [ 38.8635627, 8.9905334 ], [ 38.8627698, 8.9918304 ], [ 38.8615039, 8.9920033 ], [ 38.8605139, 8.9926173 ], [ 38.8592559, 8.9923584 ], [ 38.8588725, 8.9917772 ], [ 38.8593632, 8.9902947 ], [ 38.8581745, 8.9892107 ], [ 38.8580731, 8.9892509 ], [ 38.8573229, 8.9907128 ], [ 38.8568845, 8.9908585 ], [ 38.856082, 8.992128 ], [ 38.8562381, 8.9934576 ], [ 38.8561511, 8.9940166 ], [ 38.8560798, 8.9945076 ], [ 38.8560811, 8.9945648 ], [ 38.8570309, 8.9933285 ], [ 38.8577313, 8.9930298 ], [ 38.8590765, 8.9937681 ], [ 38.8591227, 8.9938164 ], [ 38.8600068, 8.9934731 ], [ 38.860943399999989, 8.9946623 ], [ 38.8603565, 8.9953164 ], [ 38.8593936, 8.9962152 ], [ 38.8580862, 8.9971206 ], [ 38.8565035, 8.9972101 ], [ 38.8556806, 8.9973701 ], [ 38.8565029, 8.9972534 ] ] ] } },
{ "type": "Feature", "properties": { "threshold_s": 900, "time_label": "15 minutes" }, "geometry": { "type": "Polygon", "coordinates": [ [ [ 38.8550176, 8.9994196 ], [ 38.856015, 9.0011077 ], [ 38.8583918, 9.0019574 ], [ 38.8584843, 9.0020071 ], [ 38.859124, 9.0023653 ], [ 38.8592902, 9.0024571 ], [ 38.8599998, 9.0021747 ], [ 38.8616534, 9.0013971 ], [ 38.8621925, 8.9992314 ], [ 38.8620264, 8.9982205 ], [ 38.863330499999989, 8.9968197 ], [ 38.865325, 8.9966277 ], [ 38.8673329, 8.996602 ], [ 38.8685319, 8.9965702 ], [ 38.8683298, 8.9954969 ], [ 38.8658631, 8.9953807 ], [ 38.8647621, 8.9947766 ], [ 38.8638084, 8.9931033 ], [ 38.8638173, 8.9912566 ], [ 38.8659556, 8.990281 ], [ 38.864589, 8.990171 ], [ 38.8637757, 8.988145 ], [ 38.8637348, 8.9880715 ], [ 38.8616259, 8.9880652 ], [ 38.8606796, 8.987755 ], [ 38.8591289, 8.9872016 ], [ 38.8574609, 8.9859022 ], [ 38.8573478, 8.9859282 ], [ 38.8561206, 8.9875778 ], [ 38.8558432, 8.9890012 ], [ 38.8557287, 8.989534 ], [ 38.8555653, 8.9902654 ], [ 38.8534374, 8.9914955 ], [ 38.8521201, 8.9936541 ], [ 38.8524842, 8.9937952 ], [ 38.8525218, 8.9938084 ], [ 38.8527591, 8.9939025 ], [ 38.8537455, 8.9941806 ], [ 38.8549742, 8.9957103 ], [ 38.854874, 8.9974818 ], [ 38.854691699999989, 8.9988022 ], [ 38.8550176, 8.9994196 ] ] ] } },
{ "type": "Feature", "properties": { "threshold_s": 300, "time_label": "5 minutes" }, "geometry": { "type": "Polygon", "coordinates": [ [ [ 38.7746378, 8.9805428 ], [ 38.7746877, 8.9808863 ], [ 38.7747737, 8.9809287 ], [ 38.775347, 8.9808268 ], [ 38.7762988, 8.9807822 ], [ 38.7766517, 8.9813993 ], [ 38.777491, 8.9812854 ], [ 38.7782876, 8.982047 ], [ 38.7782627, 8.9821212 ], [ 38.7782412, 8.9822022 ], [ 38.7784405, 8.9816191 ], [ 38.7786772, 8.9809764 ], [ 38.7788214, 8.9799918 ], [ 38.7787516, 8.9794447 ], [ 38.778026, 8.9791981 ], [ 38.7774544, 8.9782849 ], [ 38.7774737, 8.9778372 ], [ 38.7768687, 8.978144 ], [ 38.776774, 8.9784514 ], [ 38.7767091, 8.9786698 ], [ 38.7765684, 8.9791387 ], [ 38.7762044, 8.9800181 ], [ 38.7755314, 8.980469 ], [ 38.7751313, 8.9805236 ], [ 38.7746378, 8.9805428 ] ] ] } },
{ "type": "Feature", "properties": { "threshold_s": 600, "time_label": "10 minutes" }, "geometry": { "type": "Polygon", "coordinates": [ [ [ 38.77288, 8.9830728 ], [ 38.7729973, 8.9838158 ], [ 38.7738788, 8.983699 ], [ 38.7757844, 8.9831065 ], [ 38.7768057, 8.9827646 ], [ 38.7784583, 8.9835026 ], [ 38.7788284, 8.9840911 ], [ 38.7796141, 8.9839407 ], [ 38.781234, 8.9834683 ], [ 38.7813239, 8.9832365 ], [ 38.7813118, 8.9827543 ], [ 38.779409, 8.9827553 ], [ 38.7790937, 8.9824536 ], [ 38.7786772, 8.9809764 ], [ 38.7794376, 8.9801401 ], [ 38.778911, 8.9781326 ], [ 38.7787623, 8.9776192 ], [ 38.7778075, 8.9762661 ], [ 38.7773623, 8.9752898 ], [ 38.7773636, 8.975878 ], [ 38.7771428, 8.9770548 ], [ 38.7755219, 8.9781492 ], [ 38.7742818, 8.9782654 ], [ 38.7733966, 8.9781525 ], [ 38.7730839, 8.9782915 ], [ 38.7714209, 8.9793042 ], [ 38.7723396, 8.9812299 ], [ 38.77288, 8.9830728 ] ] ] } },
{ "type": "Feature", "properties": { "threshold_s": 900, "time_label": "15 minutes" }, "geometry": { "type": "Polygon", "coordinates": [ [ [ 38.7708698, 8.983908 ], [ 38.7719625, 8.9851391 ], [ 38.7732891, 8.986205 ], [ 38.7748084, 8.9863444 ], [ 38.7760235, 8.9862013 ], [ 38.7786151, 8.9867668 ], [ 38.7794215, 8.9868452 ], [ 38.7809604, 8.9863534 ], [ 38.7833409, 8.9852553 ], [ 38.7842988, 8.9845215 ], [ 38.7833636, 8.9842113 ], [ 38.7829895, 8.9840922 ], [ 38.7824454, 8.9839019 ], [ 38.7818468, 8.9816317 ], [ 38.7822859, 8.9802179 ], [ 38.7819716, 8.98046 ], [ 38.7794376, 8.9801401 ], [ 38.7792869, 8.9793161 ], [ 38.778911, 8.9781326 ], [ 38.7787623, 8.9776192 ], [ 38.7788214, 8.9757571 ], [ 38.7778625, 8.9739678 ], [ 38.7759295, 8.9724099 ], [ 38.7755072, 8.9716351 ], [ 38.7752672, 8.9716781 ], [ 38.774991, 8.9719637 ], [ 38.7747993, 8.9729854 ], [ 38.7743937, 8.9751561 ], [ 38.7736234, 8.9756236 ], [ 38.7724017, 8.9758839 ], [ 38.7721035, 8.97589 ], [ 38.771116, 8.9759723 ], [ 38.7699983, 8.9769814 ], [ 38.7688311, 8.9777971 ], [ 38.7688078, 8.9778368 ], [ 38.7687171, 8.9780856 ], [ 38.7690595, 8.9795189 ], [ 38.7695651, 8.9811775 ], [ 38.7711213, 8.982576 ], [ 38.7708698, 8.983908 ] ] ] } },
{ "type": "Feature", "properties": { "threshold_s": 300, "time_label": "5 minutes" }, "geometry": { "type": "Polygon", "coordinates": [ [ [ 38.8724168, 9.0232273 ], [ 38.8731154, 9.0240571 ], [ 38.8737514, 9.0244871 ], [ 38.873755, 9.0240773 ], [ 38.8737431, 9.0236835 ], [ 38.8737554, 9.0232372 ], [ 38.8750607, 9.0232452 ], [ 38.8750565, 9.0233114 ], [ 38.8750685, 9.0237032 ], [ 38.8750646, 9.0237706 ], [ 38.8750615, 9.0240843 ], [ 38.8750561, 9.0243297 ], [ 38.8750613, 9.0245133 ], [ 38.8747875, 9.0250639 ], [ 38.8750516, 9.0255337 ], [ 38.875055, 9.0250647 ], [ 38.8758645, 9.0250714 ], [ 38.8758518, 9.0249142 ], [ 38.876711, 9.0243432 ], [ 38.8764304, 9.023792 ], [ 38.8760856, 9.0233127 ], [ 38.8750686, 9.0228119 ], [ 38.8752333, 9.0224214 ], [ 38.8757849, 9.0219119 ], [ 38.8762187, 9.0216982 ], [ 38.8771721, 9.0222144 ], [ 38.8765632, 9.0215303 ], [ 38.8764947, 9.0212238 ], [ 38.8762623, 9.0211136 ], [ 38.8757868, 9.0208335 ], [ 38.8753005, 9.0211214 ], [ 38.8752516, 9.0212513 ], [ 38.8737938, 9.0211951 ], [ 38.8737506, 9.0213907 ], [ 38.8753549, 9.0217066 ], [ 38.8750795, 9.0224152 ], [ 38.8737938, 9.022379 ], [ 38.8737775, 9.0227899 ], [ 38.8725568, 9.02237 ], [ 38.872551799999989, 9.0219836 ], [ 38.872017, 9.0227837 ], [ 38.8724168, 9.0232273 ] ] ] } },
{ "type": "Feature", "properties": { "threshold_s": 600, "time_label": "10 minutes" }, "geometry": { "type": "Polygon", "coordinates": [ [ [ 38.8713118, 9.0249797 ], [ 38.871514, 9.0255043 ], [ 38.8729307, 9.0263647 ], [ 38.8740854, 9.0274601 ], [ 38.8739654, 9.0276971 ], [ 38.8746625, 9.0284588 ], [ 38.8758325, 9.0282602 ], [ 38.876997, 9.0278429 ], [ 38.876996, 9.0278016 ], [ 38.8770094, 9.0273534 ], [ 38.8785366, 9.0267672 ], [ 38.8795883, 9.0256577 ], [ 38.879586, 9.0250697 ], [ 38.879592, 9.0249598 ], [ 38.8795993, 9.0244664 ], [ 38.8796021, 9.0233586 ], [ 38.8795678, 9.0228099 ], [ 38.8808164, 9.0217134 ], [ 38.8795812, 9.0216418 ], [ 38.8793194, 9.0206127 ], [ 38.8792459, 9.0199607 ], [ 38.877921, 9.0194162 ], [ 38.8779264, 9.0188608 ], [ 38.8764855, 9.0197393 ], [ 38.8757868, 9.0208335 ], [ 38.8753005, 9.0211214 ], [ 38.8737938, 9.0211951 ], [ 38.8734232, 9.0204522 ], [ 38.8734134, 9.0200097 ], [ 38.8741028, 9.0189236 ], [ 38.8742409, 9.0181792 ], [ 38.8733066, 9.0177453 ], [ 38.8722213, 9.0189084 ], [ 38.8714394, 9.0200441 ], [ 38.8703433, 9.0212843 ], [ 38.8692501, 9.021545 ], [ 38.8696316, 9.0219902 ], [ 38.8702927, 9.0231006 ], [ 38.8704741, 9.0233383 ], [ 38.8707725, 9.0237753 ], [ 38.8713118, 9.0249797 ] ] ] } },
{ "type": "Feature", "properties": { "threshold_s": 900, "time_label": "15 minutes" }, "geometry": { "type": "Polygon", "coordinates": [ [ [ 38.8694559, 9.0259726 ], [ 38.8684342, 9.0269428 ], [ 38.8698443, 9.0273614 ], [ 38.8705179, 9.0270392 ], [ 38.8724045, 9.02739 ], [ 38.8728559, 9.0284044 ], [ 38.8725337, 9.0295832 ], [ 38.8729201, 9.0294594 ], [ 38.8745982, 9.0307306 ], [ 38.874594, 9.0312755 ], [ 38.8745846, 9.0317379 ], [ 38.8758097, 9.0317569 ], [ 38.8769763, 9.0313121 ], [ 38.8785021, 9.0300891 ], [ 38.8795444, 9.0290407 ], [ 38.8806533, 9.0279297 ], [ 38.8806597, 9.0276787 ], [ 38.8806677, 9.0273677 ], [ 38.8822694, 9.0258295 ], [ 38.8827061, 9.0258554 ], [ 38.8833591, 9.0253637 ], [ 38.8825482, 9.023578 ], [ 38.8831974, 9.022929 ], [ 38.88377, 9.0215706 ], [ 38.8823553, 9.020549 ], [ 38.8812768, 9.0198674 ], [ 38.8806715, 9.0183216 ], [ 38.879258, 9.0166177 ], [ 38.8779536, 9.016062 ], [ 38.8762324, 9.017194 ], [ 38.8749828, 9.0168238 ], [ 38.8744942, 9.0163752 ], [ 38.8726388, 9.0152897 ], [ 38.87104, 9.014919 ], [ 38.8704715, 9.0153958 ], [ 38.8704761, 9.015898 ], [ 38.8704749, 9.0163464 ], [ 38.869444, 9.0182316 ], [ 38.8681429, 9.019456 ], [ 38.8670985, 9.0210156 ], [ 38.8671019, 9.0214556 ], [ 38.8676783, 9.022608 ], [ 38.8679368, 9.0239246 ], [ 38.8687333, 9.0245983 ], [ 38.8694559, 9.0259726 ] ] ] } },
{ "type": "Feature", "properties": { "threshold_s": 300, "time_label": "5 minutes" }, "geometry": { "type": "Polygon", "coordinates": [ [ [ 38.7763592, 9.0232278 ], [ 38.7762974, 9.0233738 ], [ 38.7766447, 9.0232281 ], [ 38.776509, 9.0228451 ], [ 38.7773639, 9.0222822 ], [ 38.7780406, 9.0222014 ], [ 38.7783365, 9.021744 ], [ 38.7783492, 9.0214258 ], [ 38.7783287, 9.0207185 ], [ 38.7792195, 9.0204774 ], [ 38.7792447, 9.0203661 ], [ 38.7789904, 9.020294 ], [ 38.778081, 9.0202005 ], [ 38.7782413, 9.0194063 ], [ 38.7780195, 9.0189515 ], [ 38.7776519, 9.0186828 ], [ 38.777311, 9.0184464 ], [ 38.776659, 9.0179653 ], [ 38.776591, 9.0179189 ], [ 38.7763276, 9.0184688 ], [ 38.7755908, 9.018896 ], [ 38.7757621, 9.0195208 ], [ 38.7757485, 9.0199219 ], [ 38.7753617, 9.0206288 ], [ 38.7745564, 9.0207931 ], [ 38.7746809, 9.0209542 ], [ 38.7759971, 9.0211523 ], [ 38.7765304, 9.0219176 ], [ 38.7764838, 9.0227621 ], [ 38.7763592, 9.0232278 ] ] ] } },
{ "type": "Feature", "properties": { "threshold_s": 600, "time_label": "10 minutes" }, "geometry": { "type": "Polygon", "coordinates": [ [ [ 38.7732625, 9.0224856 ], [ 38.7726157, 9.0232898 ], [ 38.7738381, 9.0235314 ], [ 38.7745161, 9.0236071 ], [ 38.7752849, 9.0229793 ], [ 38.7760156, 9.0231854 ], [ 38.7763746, 9.0235218 ], [ 38.7766007, 9.0235376 ], [ 38.777128, 9.0248365 ], [ 38.7762122, 9.025038 ], [ 38.7759009, 9.0255727 ], [ 38.7767279, 9.0261779 ], [ 38.77690290000001, 9.0259574 ], [ 38.7770203, 9.025766 ], [ 38.777594, 9.0246542 ], [ 38.7782289, 9.0233603 ], [ 38.7787771, 9.0234759 ], [ 38.7792248, 9.023721 ], [ 38.7798318, 9.0233872 ], [ 38.7798161, 9.0233066 ], [ 38.7796941, 9.0220515 ], [ 38.7799554, 9.0211994 ], [ 38.7792447, 9.0203661 ], [ 38.7800579, 9.019619 ], [ 38.780123, 9.0187263 ], [ 38.7796107, 9.0184813 ], [ 38.7796905, 9.0170686 ], [ 38.7798819, 9.0169092 ], [ 38.7793643, 9.0164574 ], [ 38.7786365, 9.0159533 ], [ 38.7778179, 9.0156539 ], [ 38.7770343, 9.0151753 ], [ 38.7760706, 9.0156092 ], [ 38.7759064, 9.0164735 ], [ 38.775128, 9.0168441 ], [ 38.774385, 9.0171846 ], [ 38.7737666, 9.0173089 ], [ 38.7743481, 9.0183679 ], [ 38.7729636, 9.0189732 ], [ 38.7728602, 9.0202455 ], [ 38.7717645, 9.0208402 ], [ 38.7723687, 9.02177 ], [ 38.7732625, 9.0224856 ] ] ] } },
{ "type": "Feature", "properties": { "threshold_s": 900, "time_label": "15 minutes" }, "geometry": { "type": "Polygon", "coordinates": [ [ [ 38.7719931, 9.0256488 ], [ 38.7726906, 9.0277322 ], [ 38.7743299, 9.0293061 ], [ 38.774781, 9.0284029 ], [ 38.7765881, 9.0279405 ], [ 38.7770141, 9.0280646 ], [ 38.7780345, 9.027686 ], [ 38.7792906, 9.0265435 ], [ 38.7806417, 9.0258586 ], [ 38.7813799, 9.0254233 ], [ 38.7822597, 9.0237189 ], [ 38.783124, 9.0230322 ], [ 38.7820801, 9.0224288 ], [ 38.7810531, 9.0207143 ], [ 38.780123, 9.0187263 ], [ 38.7804623, 9.0179874 ], [ 38.7798819, 9.0169092 ], [ 38.7795994, 9.0155365 ], [ 38.7781044, 9.0145299 ], [ 38.7780683, 9.0128204 ], [ 38.7777963, 9.0126801 ], [ 38.776373, 9.0129175 ], [ 38.7761538, 9.0139141 ], [ 38.7760706, 9.0156092 ], [ 38.775128, 9.0168441 ], [ 38.7731381, 9.0158026 ], [ 38.7728662, 9.015182 ], [ 38.772785, 9.0151314 ], [ 38.771485, 9.0152003 ], [ 38.7712012, 9.0155134 ], [ 38.771399, 9.0157563 ], [ 38.7716822, 9.0175392 ], [ 38.7704765, 9.0188531 ], [ 38.7701968, 9.0198391 ], [ 38.7686595, 9.0207369 ], [ 38.7685089, 9.0208444 ], [ 38.7717222, 9.0232818 ], [ 38.7719931, 9.0256488 ] ] ] } },
{ "type": "Feature", "properties": { "threshold_s": 300, "time_label": "5 minutes" }, "geometry": { "type": "Polygon", "coordinates": [ [ [ 38.7866551, 9.0300591 ], [ 38.7866802, 9.0302414 ], [ 38.7867588, 9.0301967 ], [ 38.7874505, 9.0295787 ], [ 38.7883327, 9.0293321 ], [ 38.7886497, 9.0290358 ], [ 38.7895501, 9.0295027 ], [ 38.7905778, 9.0297413 ], [ 38.7908639, 9.0294185 ], [ 38.7916626, 9.0285942 ], [ 38.7916646, 9.028526 ], [ 38.7909753, 9.0285905 ], [ 38.7905872, 9.0285696 ], [ 38.7914382, 9.0273642 ], [ 38.7915674, 9.0270575 ], [ 38.7906702, 9.0267488 ], [ 38.790334799999989, 9.0270686 ], [ 38.7895024, 9.026371 ], [ 38.7883867, 9.0262741 ], [ 38.7883256, 9.0265319 ], [ 38.788274, 9.0276402 ], [ 38.7875691, 9.0278204 ], [ 38.7871475, 9.0271371 ], [ 38.7872952, 9.0282729 ], [ 38.7864765, 9.028295 ], [ 38.7869751, 9.0286978 ], [ 38.7868009, 9.0299594 ], [ 38.7866551, 9.0300591 ] ] ] } },
{ "type": "Feature", "properties": { "threshold_s": 600, "time_label": "10 minutes" }, "geometry": { "type": "Polygon", "coordinates": [ [ [ 38.7839698, 9.0314066 ], [ 38.7834075, 9.0320275 ], [ 38.7840456, 9.0319194 ], [ 38.7857415, 9.0317249 ], [ 38.7862229, 9.0319805 ], [ 38.7872717, 9.0328467 ], [ 38.7882844, 9.0322426 ], [ 38.7913411, 9.0328014 ], [ 38.7914952, 9.032615 ], [ 38.792207, 9.0313618 ], [ 38.7925162, 9.0311958 ], [ 38.7935214, 9.0301317 ], [ 38.7941431, 9.0292904 ], [ 38.7950368, 9.0283534 ], [ 38.7939784, 9.0269826 ], [ 38.794118, 9.0266031 ], [ 38.7942069, 9.0257138 ], [ 38.7941556, 9.0256189 ], [ 38.7939776, 9.0253189 ], [ 38.79338820000001, 9.0245801 ], [ 38.7924474, 9.0247009 ], [ 38.7912566, 9.0239314 ], [ 38.7909313, 9.0241736 ], [ 38.7896225, 9.023238 ], [ 38.7893408, 9.0235086 ], [ 38.7892631, 9.0243172 ], [ 38.7875795, 9.0243872 ], [ 38.7862759, 9.0237897 ], [ 38.7860295, 9.0246382 ], [ 38.7856655, 9.0255148 ], [ 38.7855101, 9.0259326 ], [ 38.7849554, 9.0271178 ], [ 38.7839222, 9.0271689 ], [ 38.7838865, 9.0271984 ], [ 38.7838369, 9.0272392 ], [ 38.7835137, 9.0278768 ], [ 38.7833691, 9.0281788 ], [ 38.7833603, 9.0282965 ], [ 38.7833569, 9.0283535 ], [ 38.7843668, 9.0294328 ], [ 38.7851879, 9.0309389 ], [ 38.7845581, 9.0313118 ], [ 38.7839698, 9.0314066 ] ] ] } },
{ "type": "Feature", "properties": { "threshold_s": 900, "time_label": "15 minutes" }, "geometry": { "type": "Polygon", "coordinates": [ [ [ 38.7808223, 9.0319061 ], [ 38.7815934, 9.0338997 ], [ 38.7834012, 9.0337818 ], [ 38.7853003, 9.0340705 ], [ 38.7858289, 9.0336612 ], [ 38.7882319, 9.0348824 ], [ 38.7894697, 9.0358202 ], [ 38.7898711, 9.0353037 ], [ 38.789474, 9.0332759 ], [ 38.7913411, 9.0328014 ], [ 38.7933345, 9.0314512 ], [ 38.7947311, 9.0312946 ], [ 38.7971356, 9.0300338 ], [ 38.7984447, 9.0287664 ], [ 38.797314, 9.0271214 ], [ 38.7963524, 9.0252368 ], [ 38.7970364, 9.0240514 ], [ 38.7974667, 9.0235442 ], [ 38.79567, 9.0229049 ], [ 38.7947102, 9.0226269 ], [ 38.7942946, 9.0225869 ], [ 38.791815, 9.0221849 ], [ 38.7914155, 9.021388 ], [ 38.7899138, 9.0214734 ], [ 38.7896034, 9.0214946 ], [ 38.7894992, 9.0215146 ], [ 38.7890268, 9.0216181 ], [ 38.7863688, 9.0207494 ], [ 38.7845997, 9.0226513 ], [ 38.7840916, 9.0227794 ], [ 38.7824329, 9.0248921 ], [ 38.7822071, 9.0249734 ], [ 38.7812609, 9.0251757 ], [ 38.7812063, 9.0252209 ], [ 38.7808481, 9.0273608 ], [ 38.7798979, 9.0279771 ], [ 38.7798634, 9.0280461 ], [ 38.7799342, 9.0280776 ], [ 38.7801866, 9.0281985 ], [ 38.7808912, 9.0286663 ], [ 38.7806093, 9.031088 ], [ 38.7808223, 9.0319061 ] ] ] } },
{ "type": "Feature", "properties": { "threshold_s": 300, "time_label": "5 minutes" }, "geometry": { "type": "Polygon", "coordinates": [ [ [ 38.8677011, 9.0066223 ], [ 38.8674782, 9.0071756 ], [ 38.8675529, 9.0072271 ], [ 38.8677742, 9.0073669 ], [ 38.8679954, 9.0068278 ], [ 38.868695099999989, 9.0072305 ], [ 38.8691112, 9.0070636 ], [ 38.869358, 9.006706 ], [ 38.8699588, 9.0066464 ], [ 38.8703638, 9.0069868 ], [ 38.8700286, 9.0064199 ], [ 38.8701653, 9.0056079 ], [ 38.8703437, 9.0053271 ], [ 38.8702878, 9.0045169 ], [ 38.8707467, 9.0044099 ], [ 38.870685, 9.0042787 ], [ 38.8702873, 9.0038185 ], [ 38.8700205, 9.0033906 ], [ 38.8697498, 9.0035429 ], [ 38.8690317, 9.0037268 ], [ 38.8689476, 9.0044516 ], [ 38.8682853, 9.0044867 ], [ 38.8680825, 9.0043469 ], [ 38.8675916, 9.00467 ], [ 38.8672897, 9.0051148 ], [ 38.8675358, 9.0052596 ], [ 38.8677808, 9.0053887 ], [ 38.8679317, 9.0055634 ], [ 38.8675435, 9.0062583 ], [ 38.8677011, 9.0066223 ] ] ] } },
{ "type": "Feature", "properties": { "threshold_s": 600, "time_label": "10 minutes" }, "geometry": { "type": "Polygon", "coordinates": [ [ [ 38.8658516, 9.0101836 ], [ 38.8658839, 9.0102257 ], [ 38.866233, 9.0100936 ], [ 38.8676548, 9.0097339 ], [ 38.8696938, 9.0094141 ], [ 38.8709486, 9.0099194 ], [ 38.8718863, 9.0093379 ], [ 38.872241099999989, 9.0086933 ], [ 38.872445, 9.0080507 ], [ 38.8721978, 9.0078142 ], [ 38.8714058, 9.0068331 ], [ 38.8703437, 9.0053271 ], [ 38.8707467, 9.0044099 ], [ 38.87043, 9.0027015 ], [ 38.8704193, 9.0008246 ], [ 38.869752, 9.0019501 ], [ 38.868548, 9.0025283 ], [ 38.8674459, 9.0022211 ], [ 38.8672295, 9.002088 ], [ 38.866975, 9.0019314 ], [ 38.8662555, 9.0020932 ], [ 38.864196, 9.003091 ], [ 38.8646921, 9.0048559 ], [ 38.8647982, 9.0065788 ], [ 38.8648752, 9.0069373 ], [ 38.8652554, 9.0083795 ], [ 38.8658516, 9.0101836 ] ] ] } },
{ "type": "Feature", "properties": { "threshold_s": 900, "time_label": "15 minutes" }, "geometry": { "type": "Polygon", "coordinates": [ [ [ 38.8641425, 9.0116121 ], [ 38.8651119, 9.013136 ], [ 38.8655774, 9.013136 ], [ 38.8656485, 9.013136 ], [ 38.867695, 9.0115976 ], [ 38.8682366, 9.0116838 ], [ 38.870399, 9.0116178 ], [ 38.8712248, 9.0129433 ], [ 38.8726298, 9.0108859 ], [ 38.8739634, 9.0108256 ], [ 38.873789, 9.0101446 ], [ 38.8736321, 9.0096147 ], [ 38.8734525, 9.0090916 ], [ 38.8733718, 9.0088617 ], [ 38.8732891, 9.0086325 ], [ 38.8729334, 9.0079034 ], [ 38.8714058, 9.0068331 ], [ 38.8707467, 9.0044099 ], [ 38.870685, 9.0042787 ], [ 38.87043, 9.0027015 ], [ 38.8716996, 9.0003215 ], [ 38.8763129, 9.0004606 ], [ 38.8763197, 9.0008487 ], [ 38.8764132, 9.002169 ], [ 38.8764657, 9.0023479 ], [ 38.8765478, 9.0023991 ], [ 38.8767339, 9.0023692 ], [ 38.8768108, 9.0022491 ], [ 38.8767718, 9.0020768 ], [ 38.8762902, 9.0000208 ], [ 38.8716419, 8.9987671 ], [ 38.8717995, 8.9982579 ], [ 38.8714179, 8.9981386 ], [ 38.8703089, 8.9981708 ], [ 38.8684809, 8.9988539 ], [ 38.8679123, 8.9994367 ], [ 38.8670432, 9.0001653 ], [ 38.8653506, 9.000656 ], [ 38.8650755, 9.0008421 ], [ 38.8636212, 9.0018483 ], [ 38.8619573, 9.004022 ], [ 38.8629958, 9.0045807 ], [ 38.8635111, 9.0066908 ], [ 38.8644617, 9.0082 ], [ 38.8634596, 9.0107209 ], [ 38.8641425, 9.0116121 ] ] ] } },
{ "type": "Feature", "properties": { "threshold_s": 300, "time_label": "5 minutes" }, "geometry": { "type": "Polygon", "coordinates": [ [ [ 38.7487176, 9.0350745 ], [ 38.7487552, 9.0368698 ], [ 38.7490281, 9.0365532 ], [ 38.7494822, 9.0357729 ], [ 38.7500075, 9.0356574 ], [ 38.750911, 9.0358773 ], [ 38.7519916, 9.035529 ], [ 38.7521577, 9.0353733 ], [ 38.7520862, 9.035407 ], [ 38.7504061, 9.0351447 ], [ 38.7504245, 9.034177 ], [ 38.7513763, 9.033904 ], [ 38.7514298, 9.033863 ], [ 38.7514989, 9.0338101 ], [ 38.7515809, 9.0337472 ], [ 38.7516808, 9.0332202 ], [ 38.752775, 9.0329494 ], [ 38.7518043, 9.0325728 ], [ 38.7513681, 9.0314923 ], [ 38.7510342, 9.0314715 ], [ 38.7510787, 9.0321608 ], [ 38.7504699, 9.0328679 ], [ 38.7498634, 9.0331639 ], [ 38.7492119, 9.0335496 ], [ 38.7491289, 9.0345586 ], [ 38.7488438, 9.0349332 ], [ 38.7478197, 9.0341526 ], [ 38.7487176, 9.0350745 ] ] ] } },
{ "type": "Feature", "properties": { "threshold_s": 600, "time_label": "10 minutes" }, "geometry": { "type": "Polygon", "coordinates": [ [ [ 38.7455352, 9.0373843 ], [ 38.7463573, 9.0387571 ], [ 38.7474383, 9.0393107 ], [ 38.7487256, 9.039186 ], [ 38.7491143, 9.0390989 ], [ 38.7493675, 9.0387156 ], [ 38.7493769, 9.0385907 ], [ 38.7498743, 9.0371227 ], [ 38.7509278, 9.037822 ], [ 38.7518915, 9.0381572 ], [ 38.7525465, 9.0380504 ], [ 38.752778, 9.0378629 ], [ 38.7535757, 9.0366681 ], [ 38.753972, 9.0355871 ], [ 38.7550015, 9.0351155 ], [ 38.7550527, 9.0350946 ], [ 38.7549, 9.0340673 ], [ 38.7548012, 9.0334679 ], [ 38.7553975, 9.0323865 ], [ 38.7552732, 9.0313196 ], [ 38.7549655, 9.03052 ], [ 38.7544414, 9.0307571 ], [ 38.7531912, 9.0297342 ], [ 38.75226, 9.0286078 ], [ 38.7520736, 9.0284741 ], [ 38.7514842, 9.0286248 ], [ 38.7513421, 9.0286667 ], [ 38.7506515, 9.0298759 ], [ 38.7499949, 9.029861 ], [ 38.748969099999989, 9.0302438 ], [ 38.7485238, 9.0304428 ], [ 38.7484038, 9.0311236 ], [ 38.7469058, 9.0313368 ], [ 38.7466777, 9.031133 ], [ 38.7465924, 9.0310276 ], [ 38.7462996, 9.0306653 ], [ 38.7459818, 9.0310786 ], [ 38.7450782, 9.0323696 ], [ 38.745682, 9.0328467 ], [ 38.745832, 9.0344079 ], [ 38.7455097, 9.0345712 ], [ 38.7451851, 9.035801 ], [ 38.7447888, 9.0365216 ], [ 38.7455352, 9.0373843 ] ] ] } },
{ "type": "Feature", "properties": { "threshold_s": 900, "time_label": "15 minutes" }, "geometry": { "type": "Polygon", "coordinates": [ [ [ 38.7447332, 9.040759 ], [ 38.7459589, 9.0425788 ], [ 38.7478687, 9.04249 ], [ 38.7505567, 9.0409903 ], [ 38.7537199, 9.0414287 ], [ 38.7537947, 9.0414362 ], [ 38.7559159, 9.0397791 ], [ 38.7555497, 9.0379841 ], [ 38.7550527, 9.0350946 ], [ 38.7558521, 9.0318884 ], [ 38.7573225, 9.0296974 ], [ 38.7575971, 9.0292881 ], [ 38.7579104, 9.0287566 ], [ 38.7578226, 9.0286039 ], [ 38.7576451, 9.0285006 ], [ 38.7575057, 9.0285129 ], [ 38.7549855, 9.028112 ], [ 38.7541936, 9.026673 ], [ 38.7541621, 9.0265885 ], [ 38.7523074, 9.025126 ], [ 38.7518876, 9.0249278 ], [ 38.75011, 9.0262182 ], [ 38.7480859, 9.027872 ], [ 38.7456176, 9.0283852 ], [ 38.7435203, 9.0282082 ], [ 38.7430758, 9.0287356 ], [ 38.7430837, 9.0287572 ], [ 38.7433317, 9.0288728 ], [ 38.7448118, 9.0317249 ], [ 38.7441603, 9.0327651 ], [ 38.7417078, 9.0339163 ], [ 38.7413348, 9.0338705 ], [ 38.7415025, 9.0344947 ], [ 38.7424476, 9.0374529 ], [ 38.7424634, 9.0384922 ], [ 38.7425106, 9.0386629 ], [ 38.7426049, 9.0387677 ], [ 38.7428831, 9.0389869 ], [ 38.7447332, 9.040759 ] ] ] } },
{ "type": "Feature", "properties": { "threshold_s": 300, "time_label": "5 minutes" }, "geometry": { "type": "Polygon", "coordinates": [ [ [ 38.7894879, 8.9990878 ], [ 38.7897293, 8.9996859 ], [ 38.7906855, 8.9993148 ], [ 38.7913789, 8.9990156 ], [ 38.7920983, 8.9987684 ], [ 38.792624, 8.9985777 ], [ 38.7931544, 8.9983837 ], [ 38.7936291, 8.9982041 ], [ 38.7946719, 8.9978068 ], [ 38.794295, 8.996814 ], [ 38.793611, 8.99652 ], [ 38.7929224, 8.9962109 ], [ 38.791758, 8.9959929 ], [ 38.7915133, 8.995741 ], [ 38.7909826, 8.9959325 ], [ 38.7902302, 8.9961391 ], [ 38.790424, 8.9965468 ], [ 38.7907287, 8.9971431 ], [ 38.7916964, 8.997649 ], [ 38.7911622, 8.9984227 ], [ 38.79043, 8.9986976 ], [ 38.7894879, 8.9990878 ] ] ] } },
{ "type": "Feature", "properties": { "threshold_s": 600, "time_label": "10 minutes" }, "geometry": { "type": "Polygon", "coordinates": [ [ [ 38.7862625, 8.9999559 ], [ 38.7863731, 9.000907 ], [ 38.7882698, 9.0017096 ], [ 38.7897293, 8.9996859 ], [ 38.7906855, 8.9993148 ], [ 38.7913789, 8.9990156 ], [ 38.7920983, 8.9987684 ], [ 38.792624, 8.9985777 ], [ 38.7931544, 8.9983837 ], [ 38.7936291, 8.9982041 ], [ 38.7946719, 8.9978068 ], [ 38.7965052, 8.9969379 ], [ 38.7966688, 8.9966862 ], [ 38.7954028, 8.9946432 ], [ 38.7943037, 8.9941335 ], [ 38.7919032, 8.9931163 ], [ 38.7914777, 8.992812 ], [ 38.7887993, 8.9927548 ], [ 38.7886557, 8.9947681 ], [ 38.788114299999989, 8.9962622 ], [ 38.7868816, 8.9977798 ], [ 38.7862625, 8.9999559 ] ] ] } },
{ "type": "Feature", "properties": { "threshold_s": 900, "time_label": "15 minutes" }, "geometry": { "type": "Polygon", "coordinates": [ [ [ 38.7855785, 9.0032038 ], [ 38.7860801, 9.0039297 ], [ 38.7874661, 9.0044297 ], [ 38.7894034, 9.0046542 ], [ 38.7897527, 9.0045708 ], [ 38.7895508, 9.0022211 ], [ 38.7897293, 8.9996859 ], [ 38.7906855, 8.9993148 ], [ 38.7913789, 8.9990156 ], [ 38.7920983, 8.9987684 ], [ 38.792624, 8.9985777 ], [ 38.7931544, 8.9983837 ], [ 38.7936291, 8.9982041 ], [ 38.7941482, 8.9979968 ], [ 38.7946719, 8.9978068 ], [ 38.7951352, 8.9973643 ], [ 38.7964214, 8.9969617 ], [ 38.7981365, 8.9992974 ], [ 38.798382, 8.9996783 ], [ 38.7987395, 8.9994411 ], [ 38.7985651, 8.9989652 ], [ 38.7966688, 8.9966862 ], [ 38.7977628, 8.995147 ], [ 38.7966723, 8.9943839 ], [ 38.7952184, 8.9928401 ], [ 38.7944312, 8.9913036 ], [ 38.7933442, 8.9901068 ], [ 38.7913071, 8.9904803 ], [ 38.7885388, 8.9899385 ], [ 38.7877684, 8.9893527 ], [ 38.7875402, 8.9894 ], [ 38.7871316, 8.9907792 ], [ 38.7860104, 8.9923858 ], [ 38.7858836, 8.9938217 ], [ 38.7854666, 8.9953642 ], [ 38.7842703, 8.9974637 ], [ 38.7837379, 8.9980147 ], [ 38.7834549, 9.0004129 ], [ 38.7842683, 9.0014401 ], [ 38.7855785, 9.0032038 ] ] ] } },
{ "type": "Feature", "properties": { "threshold_s": 300, "time_label": "5 minutes" }, "geometry": { "type": "Polygon", "coordinates": [ [ [ 38.7370929, 8.9481831 ], [ 38.7371352, 8.94888 ], [ 38.7374603, 8.9488987 ], [ 38.7379279, 8.948797 ], [ 38.738148, 8.9484758 ], [ 38.738352, 8.9481659 ], [ 38.739037, 8.9480532 ], [ 38.7396384, 8.9480272 ], [ 38.7401539, 8.9481267 ], [ 38.7405713, 8.9486104 ], [ 38.7411029, 8.9483573 ], [ 38.7414512, 8.9480615 ], [ 38.7422423, 8.9475207 ], [ 38.7423209, 8.9475403 ], [ 38.7420388, 8.9468026 ], [ 38.7416131, 8.9460508 ], [ 38.7414079, 8.9459995 ], [ 38.7409552, 8.9451707 ], [ 38.7405677, 8.9451134 ], [ 38.7404184, 8.9442814 ], [ 38.7398111, 8.9449447 ], [ 38.7393936, 8.9440101 ], [ 38.7393621, 8.9448473 ], [ 38.7390257, 8.9449707 ], [ 38.7384032, 8.9449268 ], [ 38.7382074, 8.9452196 ], [ 38.7379644, 8.9455563 ], [ 38.7377259, 8.9458926 ], [ 38.7372874, 8.9463404 ], [ 38.7370084, 8.9466384 ], [ 38.7369655, 8.947526 ], [ 38.7370929, 8.9481831 ] ] ] } },
{ "type": "Feature", "properties": { "threshold_s": 600, "time_label": "10 minutes" }, "geometry": { "type": "Polygon", "coordinates": [ [ [ 38.7339279, 8.9477857 ], [ 38.7338206, 8.9482014 ], [ 38.7343275, 8.9483029 ], [ 38.7351161, 8.9486375 ], [ 38.7359396, 8.9495212 ], [ 38.7367536, 8.9506355 ], [ 38.7375865, 8.9514503 ], [ 38.7383851, 8.9518382 ], [ 38.7388454, 8.9512473 ], [ 38.7397756, 8.9506931 ], [ 38.7408688, 8.9509573 ], [ 38.7410059, 8.9509841 ], [ 38.7412559, 8.9510411 ], [ 38.7421582, 8.950556 ], [ 38.7434152, 8.9498551 ], [ 38.7444586, 8.9489638 ], [ 38.7444366, 8.9486379 ], [ 38.7444169, 8.9483847 ], [ 38.7453929, 8.9469673 ], [ 38.7442622, 8.9462701 ], [ 38.7435338, 8.9449501 ], [ 38.743403, 8.9442921 ], [ 38.7427886, 8.9437629 ], [ 38.7416468, 8.9423778 ], [ 38.7417368, 8.9420137 ], [ 38.7417611, 8.9419263 ], [ 38.7408176, 8.9412895 ], [ 38.7403338, 8.9416406 ], [ 38.7390824, 8.9420529 ], [ 38.7381773, 8.9434351 ], [ 38.7376107, 8.9442764 ], [ 38.736277, 8.9435292 ], [ 38.7350102, 8.9443899 ], [ 38.7359986, 8.9446844 ], [ 38.737102299999989, 8.9450315 ], [ 38.7370084, 8.9466384 ], [ 38.7363732, 8.9470809 ], [ 38.7352636, 8.9471405 ], [ 38.7342766, 8.9468504 ], [ 38.7339279, 8.9477857 ] ] ] } },
{ "type": "Feature", "properties": { "threshold_s": 900, "time_label": "15 minutes" }, "geometry": { "type": "Polygon", "coordinates": [ [ [ 38.732122, 8.9505032 ], [ 38.7328947, 8.951437 ], [ 38.733085, 8.9514956 ], [ 38.7345153, 8.9509479 ], [ 38.7372737, 8.9516334 ], [ 38.7381752, 8.9526622 ], [ 38.7388181, 8.9533071 ], [ 38.739611, 8.9535942 ], [ 38.7413925, 8.9537733 ], [ 38.7437265, 8.9532302 ], [ 38.744763399999989, 8.9522735 ], [ 38.7463817, 8.9504309 ], [ 38.7478913, 8.9486632 ], [ 38.748765, 8.9466319 ], [ 38.7472656, 8.9453655 ], [ 38.7456454, 8.9433985 ], [ 38.7454195, 8.9427267 ], [ 38.7439622, 8.9413121 ], [ 38.7427114, 8.9389829 ], [ 38.7417063, 8.93874 ], [ 38.7392742, 8.938634 ], [ 38.7371763, 8.9400686 ], [ 38.7359955, 8.9389086 ], [ 38.7351336, 8.9406358 ], [ 38.7353253, 8.9424163 ], [ 38.7352891, 8.9429131 ], [ 38.7350102, 8.9443899 ], [ 38.7342766, 8.9468504 ], [ 38.7321201, 8.9466292 ], [ 38.7311947, 8.9489065 ], [ 38.732122, 8.9505032 ] ] ] } },
{ "type": "Feature", "properties": { "threshold_s": 300, "time_label": "5 minutes" }, "geometry": { "type": "Polygon", "coordinates": [ [ [ 38.7321314, 8.9555689 ], [ 38.7311827, 8.9558456 ], [ 38.7325026, 8.9563457 ], [ 38.7325703, 8.9563411 ], [ 38.7327658, 8.9569266 ], [ 38.733176899999989, 8.9569398 ], [ 38.7339325, 8.9567242 ], [ 38.7335671, 8.9563225 ], [ 38.7331147, 8.9560144 ], [ 38.733087, 8.9556029 ], [ 38.7336302, 8.955215 ], [ 38.7335953, 8.9548136 ], [ 38.733535, 8.9550547 ], [ 38.7330636, 8.9552707 ], [ 38.7327834, 8.9552497 ], [ 38.7326854, 8.9552548 ], [ 38.7325533, 8.954595 ], [ 38.732454, 8.9546242 ], [ 38.7323969, 8.9551918 ], [ 38.7321314, 8.9555689 ] ] ] } },
{ "type": "Feature", "properties": { "threshold_s": 600, "time_label": "10 minutes" }, "geometry": { "type": "Polygon", "coordinates": [ [ [ 38.7285372, 8.9566972 ], [ 38.7288851, 8.9580275 ], [ 38.7298553, 8.958139 ], [ 38.7314048, 8.9591639 ], [ 38.732747, 8.9604117 ], [ 38.732969, 8.9602134 ], [ 38.7334522, 8.9596679 ], [ 38.7334362, 8.9591808 ], [ 38.7346347, 8.9577797 ], [ 38.7364709, 8.9560006 ], [ 38.7342069, 8.9572962 ], [ 38.7339325, 8.9567242 ], [ 38.7336302, 8.955215 ], [ 38.7335953, 8.9548136 ], [ 38.7325533, 8.954595 ], [ 38.7325399, 8.9524582 ], [ 38.7337321, 8.9525244 ], [ 38.7336659, 8.9507715 ], [ 38.7335853, 8.9502986 ], [ 38.7332238, 8.9503326 ], [ 38.7331454, 8.9506148 ], [ 38.7318567, 8.9516713 ], [ 38.7313974, 8.9515806 ], [ 38.731351, 8.9515779 ], [ 38.7324205, 8.9523999 ], [ 38.732454, 8.9546242 ], [ 38.7311816, 8.9554112 ], [ 38.7304913, 8.9542943 ], [ 38.7304996, 8.954063 ], [ 38.7299825, 8.9543731 ], [ 38.728762, 8.9552402 ], [ 38.728526, 8.9559064 ], [ 38.7285372, 8.9566972 ] ] ] } },
{ "type": "Feature", "properties": { "threshold_s": 900, "time_label": "15 minutes" }, "geometry": { "type": "Polygon", "coordinates": [ [ [ 38.7258974, 8.9583719 ], [ 38.7260865, 8.959898 ], [ 38.7270949, 8.9603611 ], [ 38.7294334, 8.9609553 ], [ 38.7299066, 8.9609893 ], [ 38.7314356, 8.9625253 ], [ 38.7329797, 8.9640835 ], [ 38.7346948, 8.9625629 ], [ 38.7352973, 8.9619756 ], [ 38.7352396, 8.9611247 ], [ 38.7352127, 8.9596384 ], [ 38.7350217, 8.9588386 ], [ 38.7349217, 8.9586315 ], [ 38.7346347, 8.9577797 ], [ 38.7364709, 8.9560006 ], [ 38.7342069, 8.9572962 ], [ 38.7339325, 8.9567242 ], [ 38.7336302, 8.955215 ], [ 38.7335953, 8.9548136 ], [ 38.7337321, 8.9525244 ], [ 38.7343168, 8.9509678 ], [ 38.7344402, 8.9505558 ], [ 38.7351161, 8.9486375 ], [ 38.7351549, 8.9482016 ], [ 38.7342766, 8.9468504 ], [ 38.73392590000001, 8.947373 ], [ 38.7318733, 8.9484838 ], [ 38.7299893, 8.9494243 ], [ 38.7289786, 8.9507157 ], [ 38.7285055, 8.9524321 ], [ 38.7288683, 8.9523958 ], [ 38.7299825, 8.9543731 ], [ 38.728762, 8.9552402 ], [ 38.7272777, 8.9556214 ], [ 38.7269009, 8.9559764 ], [ 38.7266015, 8.9562245 ], [ 38.7258974, 8.9583719 ] ] ] } }
]
}
