{
"type": "FeatureCollection",
"name": "isochrone_shop_beverages_multimodal",
"crs": { "type": "name", "properties": { "name": "urn:ogc:def:crs:OGC:1.3:CRS84" } },
"features": [
{ "type": "Feature", "properties": { "threshold_s": 300, "time_label": "5 minutes" }, "geometry": { "type": "Polygon", "coordinates": [ [ [ 38.8320072, 9.020749 ], [ 38.8315603, 9.0210402 ], [ 38.832013, 9.0210329 ], [ 38.8323849, 9.0210095 ], [ 38.8331306, 9.0209675 ], [ 38.8335088, 9.021666 ], [ 38.8339238, 9.0216463 ], [ 38.8339249, 9.0209136 ], [ 38.8344745, 9.0208932 ], [ 38.8348678, 9.0209395 ], [ 38.8348874, 9.0216123 ], [ 38.8352508, 9.020929 ], [ 38.8359818, 9.0209015 ], [ 38.8368236, 9.0215274 ], [ 38.8375525, 9.0214989 ], [ 38.8367977, 9.0208988 ], [ 38.8363892, 9.0208954 ], [ 38.8367853, 9.019728 ], [ 38.8363666, 9.0197399 ], [ 38.8358307, 9.0194057 ], [ 38.8357969, 9.0190114 ], [ 38.83591, 9.0185958 ], [ 38.8357944, 9.0185945 ], [ 38.8350719, 9.0182638 ], [ 38.8347203, 9.0179159 ], [ 38.8341604, 9.0184441 ], [ 38.8338649, 9.0186685 ], [ 38.8341614, 9.0186573 ], [ 38.8343875, 9.0186488 ], [ 38.8344329, 9.0186475 ], [ 38.8347316, 9.0186392 ], [ 38.8347998, 9.0186366 ], [ 38.8353449, 9.0190101 ], [ 38.8353261, 9.0194295 ], [ 38.8348406, 9.0197761 ], [ 38.8344424, 9.0197942 ], [ 38.833899, 9.0198191 ], [ 38.8334755, 9.0198207 ], [ 38.8329719, 9.0194067 ], [ 38.8331042, 9.0198414 ], [ 38.8324712, 9.0202587 ], [ 38.8320072, 9.020749 ] ] ] } },
{ "type": "Feature", "properties": { "threshold_s": 600, "time_label": "10 minutes" }, "geometry": { "type": "Polygon", "coordinates": [ [ [ 38.8315603, 9.0210402 ], [ 38.83203240000001, 9.021741 ], [ 38.8335088, 9.021666 ], [ 38.8348874, 9.0216123 ], [ 38.8368236, 9.0215274 ], [ 38.8375525, 9.0214989 ], [ 38.8392593, 9.0214433 ], [ 38.8408486, 9.021363 ], [ 38.8398413, 9.020336 ], [ 38.8392953, 9.0198684 ], [ 38.8387464, 9.0183235 ], [ 38.8378906, 9.0176939 ], [ 38.8362554, 9.0171932 ], [ 38.8357387, 9.0162104 ], [ 38.8356915, 9.0159299 ], [ 38.835626499999989, 9.0156771 ], [ 38.8341111, 9.0149236 ], [ 38.8334563, 9.0157356 ], [ 38.8326802, 9.0165786 ], [ 38.8319253, 9.0173013 ], [ 38.831572199999989, 9.0179345 ], [ 38.8312386, 9.0193236 ], [ 38.8312764, 9.019895 ], [ 38.8313149, 9.0204614 ], [ 38.8315603, 9.0210402 ] ] ] } },
{ "type": "Feature", "properties": { "threshold_s": 900, "time_label": "15 minutes" }, "geometry": { "type": "Polygon", "coordinates": [ [ [ 38.8264239, 9.0194004 ], [ 38.8258968, 9.0197154 ], [ 38.8268798, 9.0201386 ], [ 38.8287024, 9.0208684 ], [ 38.8313149, 9.0204614 ], [ 38.8315603, 9.0210402 ], [ 38.83203240000001, 9.021741 ], [ 38.8335088, 9.021666 ], [ 38.8339238, 9.0216463 ], [ 38.8348874, 9.0216123 ], [ 38.8368236, 9.0215274 ], [ 38.8375525, 9.0214989 ], [ 38.8387001, 9.0214504 ], [ 38.839912, 9.0219177 ], [ 38.8409603, 9.0232034 ], [ 38.841013, 9.0231916 ], [ 38.8414063, 9.0230654 ], [ 38.8432938, 9.0223513 ], [ 38.8439448, 9.0214513 ], [ 38.843856, 9.0212365 ], [ 38.8426917, 9.0199141 ], [ 38.842265, 9.0194214 ], [ 38.8413424, 9.0170999 ], [ 38.8410934, 9.0166876 ], [ 38.839373, 9.0155332 ], [ 38.8382001, 9.014944 ], [ 38.835626499999989, 9.0156771 ], [ 38.8346937, 9.0148785 ], [ 38.8337434, 9.0134685 ], [ 38.8340115, 9.01206 ], [ 38.8336706, 9.0122636 ], [ 38.8334363, 9.0124295 ], [ 38.8319667, 9.0137359 ], [ 38.8314384, 9.0144364 ], [ 38.8296521, 9.0160313 ], [ 38.8309154, 9.016991 ], [ 38.8315878, 9.0182518 ], [ 38.8312386, 9.0193236 ], [ 38.8285938, 9.0186405 ], [ 38.8280849, 9.0189715 ], [ 38.8270432, 9.0192963 ], [ 38.8264239, 9.0194004 ] ] ] } },
{ "type": "Feature", "properties": { "threshold_s": 300, "time_label": "5 minutes" }, "geometry": { "type": "Polygon", "coordinates": [ [ [ 38.7725072, 9.0345694 ], [ 38.7725176, 9.0347448 ], [ 38.7743346, 9.0340395 ], [ 38.7744711, 9.0335425 ], [ 38.775312, 9.0329041 ], [ 38.775375, 9.0328458 ], [ 38.77477, 9.0326884 ], [ 38.7748316, 9.0316931 ], [ 38.7741151, 9.0313039 ], [ 38.7738375, 9.030361 ], [ 38.7738646, 9.0301277 ], [ 38.7730888, 9.0299123 ], [ 38.7726027, 9.029819 ], [ 38.7720568, 9.0301421 ], [ 38.7713206, 9.0297792 ], [ 38.7708632, 9.0299515 ], [ 38.7711865, 9.0300653 ], [ 38.7719169, 9.0307387 ], [ 38.7716368, 9.0314225 ], [ 38.7716018, 9.0315453 ], [ 38.7715755, 9.0316326 ], [ 38.7697891, 9.0316768 ], [ 38.7697478, 9.0316013 ], [ 38.769689, 9.0315001 ], [ 38.7696348, 9.0316607 ], [ 38.7696665, 9.0317334 ], [ 38.769825, 9.0317661 ], [ 38.7714916, 9.032111 ], [ 38.7713409, 9.0329295 ], [ 38.7723844, 9.0333248 ], [ 38.7725072, 9.0345694 ] ] ] } },
{ "type": "Feature", "properties": { "threshold_s": 600, "time_label": "10 minutes" }, "geometry": { "type": "Polygon", "coordinates": [ [ [ 38.7668827, 9.0330841 ], [ 38.7671431, 9.03357 ], [ 38.7672346, 9.0336588 ], [ 38.7681332, 9.0340919 ], [ 38.7690897, 9.034443 ], [ 38.7694288, 9.034481 ], [ 38.7703516, 9.0350562 ], [ 38.7700652, 9.0363539 ], [ 38.7707349, 9.0364693 ], [ 38.7705053, 9.0353543 ], [ 38.771258, 9.0349868 ], [ 38.7722643, 9.0352881 ], [ 38.7725503, 9.0352767 ], [ 38.7736848, 9.0351991 ], [ 38.7735963, 9.0366353 ], [ 38.7740442, 9.0370837 ], [ 38.774157, 9.0371976 ], [ 38.7751304, 9.0363919 ], [ 38.7755904, 9.035647 ], [ 38.7768027, 9.0350494 ], [ 38.7776228, 9.0351912 ], [ 38.7778229, 9.0347648 ], [ 38.7774864, 9.0341572 ], [ 38.7768231, 9.0332029 ], [ 38.7774388, 9.031858 ], [ 38.7778365, 9.0308877 ], [ 38.7768095, 9.030012 ], [ 38.7756426, 9.0296429 ], [ 38.7758849, 9.0286076 ], [ 38.7754884, 9.0272635 ], [ 38.7752482, 9.0271537 ], [ 38.7752165, 9.0276289 ], [ 38.774781, 9.0284029 ], [ 38.773523, 9.0284492 ], [ 38.7732102, 9.0275909 ], [ 38.7718031, 9.0272166 ], [ 38.7713737, 9.0275635 ], [ 38.7706975, 9.0282685 ], [ 38.7705804, 9.0283662 ], [ 38.7704497, 9.0287457 ], [ 38.7702638, 9.0292044 ], [ 38.7691699, 9.02951 ], [ 38.7686882, 9.0283996 ], [ 38.769002, 9.0296097 ], [ 38.7680789, 9.0302684 ], [ 38.7679496, 9.0309245 ], [ 38.7678927, 9.0312137 ], [ 38.768614, 9.0322962 ], [ 38.7683848, 9.0328415 ], [ 38.7668827, 9.0330841 ] ] ] } },
{ "type": "Feature", "properties": { "threshold_s": 900, "time_label": "15 minutes" }, "geometry": { "type": "Polygon", "coordinates": [ [ [ 38.7668753, 9.0362687 ], [ 38.767127, 9.0371605 ], [ 38.7688952, 9.0367952 ], [ 38.7694764, 9.0373855 ], [ 38.7707849, 9.0374901 ], [ 38.7719861, 9.0388152 ], [ 38.7728901, 9.0400549 ], [ 38.7734143, 9.0388789 ], [ 38.7747213, 9.0379721 ], [ 38.7758589, 9.0393326 ], [ 38.7772388, 9.038123 ], [ 38.7780224, 9.0381513 ], [ 38.7785826, 9.0382486 ], [ 38.7789494, 9.0383492 ], [ 38.7786645, 9.0370821 ], [ 38.7779067, 9.0359559 ], [ 38.7783693, 9.0349826 ], [ 38.7798841, 9.0348649 ], [ 38.7799385, 9.034799 ], [ 38.7804737, 9.033912 ], [ 38.7805093, 9.0334724 ], [ 38.7793904, 9.0319509 ], [ 38.7802271, 9.0305908 ], [ 38.7795637, 9.0295252 ], [ 38.7791344, 9.0289262 ], [ 38.7780345, 9.027686 ], [ 38.7781887, 9.0261563 ], [ 38.777128, 9.0248365 ], [ 38.7762122, 9.025038 ], [ 38.7750999, 9.025719 ], [ 38.7739588, 9.0248857 ], [ 38.7735011, 9.024124 ], [ 38.772721, 9.023269 ], [ 38.7717222, 9.0232818 ], [ 38.7722297, 9.0251154 ], [ 38.7719931, 9.0256488 ], [ 38.7718031, 9.0272166 ], [ 38.7713737, 9.0275635 ], [ 38.7706975, 9.0282685 ], [ 38.7705804, 9.0283662 ], [ 38.768901, 9.0282554 ], [ 38.7687999, 9.0273241 ], [ 38.7696171, 9.026581 ], [ 38.7677958, 9.0273333 ], [ 38.7666053, 9.0273706 ], [ 38.7664952, 9.0274613 ], [ 38.7660695, 9.0292297 ], [ 38.7657206, 9.0293019 ], [ 38.7661201, 9.0294042 ], [ 38.7673563, 9.028805 ], [ 38.7680789, 9.0302684 ], [ 38.7679496, 9.0309245 ], [ 38.7664014, 9.0314507 ], [ 38.7649893, 9.0322779 ], [ 38.7646004, 9.0322919 ], [ 38.7653442, 9.0326579 ], [ 38.7661891, 9.0333479 ], [ 38.7666668, 9.0338927 ], [ 38.7667998, 9.0339848 ], [ 38.7681332, 9.0340919 ], [ 38.7675585, 9.0358251 ], [ 38.7668753, 9.0362687 ] ] ] } },
{ "type": "Feature", "properties": { "threshold_s": 300, "time_label": "5 minutes" }, "geometry": { "type": "Polygon", "coordinates": [ [ [ 38.8182659, 9.0114084 ], [ 38.8172197, 9.0119786 ], [ 38.8172691, 9.0119811 ], [ 38.817654, 9.0119948 ], [ 38.8183136, 9.0119977 ], [ 38.8198282, 9.0115553 ], [ 38.8201494, 9.0114735 ], [ 38.8212563, 9.0111273 ], [ 38.8215799, 9.01153 ], [ 38.821742, 9.0118079 ], [ 38.8219222, 9.0121876 ], [ 38.8208147, 9.013098 ], [ 38.8221802, 9.0130811 ], [ 38.8220379, 9.012678 ], [ 38.8222637, 9.0115462 ], [ 38.8226267, 9.0109253 ], [ 38.8222073, 9.0100058 ], [ 38.8224531, 9.0105581 ], [ 38.8213333, 9.0110947 ], [ 38.8208704, 9.0101618 ], [ 38.8206102, 9.0095273 ], [ 38.8205452, 9.0095604 ], [ 38.8193872, 9.0104136 ], [ 38.8182659, 9.0114084 ] ] ] } },
{ "type": "Feature", "properties": { "threshold_s": 600, "time_label": "10 minutes" }, "geometry": { "type": "Polygon", "coordinates": [ [ [ 38.815215, 9.0114295 ], [ 38.8152355, 9.0119172 ], [ 38.8161268, 9.0119246 ], [ 38.8172197, 9.0119786 ], [ 38.8172691, 9.0119811 ], [ 38.817654, 9.0119948 ], [ 38.8186794, 9.0137801 ], [ 38.8183136, 9.0119977 ], [ 38.8198282, 9.0115553 ], [ 38.8208147, 9.013098 ], [ 38.8210587, 9.0144765 ], [ 38.8226905, 9.0141508 ], [ 38.8232273, 9.0147013 ], [ 38.8235384, 9.015215 ], [ 38.8239156, 9.0156857 ], [ 38.8243082, 9.0139798 ], [ 38.8245314, 9.0118524 ], [ 38.8249502, 9.0115923 ], [ 38.8254375, 9.0106564 ], [ 38.8263226, 9.0090379 ], [ 38.8257493, 9.0084895 ], [ 38.8247448, 9.0081683 ], [ 38.8231836, 9.0082056 ], [ 38.8213968, 9.0070747 ], [ 38.819599, 9.0063404 ], [ 38.8194488, 9.0060318 ], [ 38.8195279, 9.0063603 ], [ 38.8186656, 9.0079074 ], [ 38.8172615, 9.0068139 ], [ 38.8161725, 9.0084425 ], [ 38.8163723, 9.0101154 ], [ 38.8152104, 9.010508 ], [ 38.8152041, 9.0109634 ], [ 38.815215, 9.0114295 ] ] ] } },
{ "type": "Feature", "properties": { "threshold_s": 900, "time_label": "15 minutes" }, "geometry": { "type": "Polygon", "coordinates": [ [ [ 38.8117229, 9.0129526 ], [ 38.8118664, 9.0132148 ], [ 38.8128841, 9.0134943 ], [ 38.8152355, 9.0119172 ], [ 38.8161268, 9.0119246 ], [ 38.8186794, 9.0137801 ], [ 38.8203736, 9.0163276 ], [ 38.820438, 9.0170708 ], [ 38.8214279, 9.0184339 ], [ 38.8243115, 9.0177309 ], [ 38.8257765, 9.0184475 ], [ 38.8266049, 9.0154023 ], [ 38.8268833, 9.0126441 ], [ 38.8270598, 9.0118905 ], [ 38.8283048, 9.0092346 ], [ 38.8282122, 9.0071332 ], [ 38.8270904, 9.005843 ], [ 38.8255376, 9.0052554 ], [ 38.8230237, 9.0043179 ], [ 38.8199373, 9.0031989 ], [ 38.8179022, 9.0036979 ], [ 38.8155613, 9.0055535 ], [ 38.8147415, 9.0063073 ], [ 38.8139811, 9.0072246 ], [ 38.8122981, 9.0097803 ], [ 38.8111648, 9.0108121 ], [ 38.8108202, 9.0112452 ], [ 38.8117229, 9.0129526 ] ] ] } },
{ "type": "Feature", "properties": { "threshold_s": 300, "time_label": "5 minutes" }, "geometry": { "type": "Polygon", "coordinates": [ [ [ 38.7504699, 9.0328679 ], [ 38.7506356, 9.033264 ], [ 38.7510057, 9.0335837 ], [ 38.7511778, 9.0335783 ], [ 38.7515026, 9.0333471 ], [ 38.7516808, 9.0332202 ], [ 38.752775, 9.0329494 ], [ 38.7537317, 9.0330835 ], [ 38.7547735, 9.0334995 ], [ 38.7548012, 9.0334679 ], [ 38.7547744, 9.0332696 ], [ 38.7544733, 9.0322082 ], [ 38.7547358, 9.0318906 ], [ 38.7558521, 9.0318884 ], [ 38.7559834, 9.0307648 ], [ 38.7558917, 9.0307419 ], [ 38.7549655, 9.03052 ], [ 38.7540557, 9.0299897 ], [ 38.7533422, 9.0288862 ], [ 38.7524673, 9.0299527 ], [ 38.7523678, 9.0299925 ], [ 38.7523252, 9.0300084 ], [ 38.7522973, 9.030109 ], [ 38.7523914, 9.0301702 ], [ 38.7531912, 9.0297342 ], [ 38.7538504, 9.0311151 ], [ 38.7533217, 9.0320304 ], [ 38.7527272, 9.0324999 ], [ 38.7518043, 9.0325728 ], [ 38.7513096, 9.032196 ], [ 38.7513681, 9.0314923 ], [ 38.7513293, 9.0314934 ], [ 38.7510787, 9.0321608 ], [ 38.7504699, 9.0328679 ] ] ] } },
{ "type": "Feature", "properties": { "threshold_s": 600, "time_label": "10 minutes" }, "geometry": { "type": "Polygon", "coordinates": [ [ [ 38.7475825, 9.0323943 ], [ 38.7478197, 9.0341526 ], [ 38.7487176, 9.0350745 ], [ 38.7493506, 9.0357495 ], [ 38.7494822, 9.0357729 ], [ 38.750911, 9.0358773 ], [ 38.7522779, 9.0362655 ], [ 38.7535757, 9.0366681 ], [ 38.7550527, 9.0350946 ], [ 38.7549, 9.0340673 ], [ 38.7553975, 9.0323865 ], [ 38.7558521, 9.0318884 ], [ 38.7568262, 9.030107 ], [ 38.7573225, 9.0296974 ], [ 38.7586122, 9.0287572 ], [ 38.7576451, 9.0285006 ], [ 38.7575057, 9.0285129 ], [ 38.7573454, 9.0285605 ], [ 38.7565032, 9.0287242 ], [ 38.7549855, 9.028112 ], [ 38.7547552, 9.0283671 ], [ 38.7526328, 9.0285574 ], [ 38.7521239, 9.0269641 ], [ 38.7521154, 9.0268598 ], [ 38.7514662, 9.0275978 ], [ 38.7513421, 9.0286667 ], [ 38.7499949, 9.029861 ], [ 38.7485238, 9.0304428 ], [ 38.7476809, 9.032044 ], [ 38.7475825, 9.0323943 ] ] ] } },
{ "type": "Feature", "properties": { "threshold_s": 900, "time_label": "15 minutes" }, "geometry": { "type": "Polygon", "coordinates": [ [ [ 38.7459972, 9.0372572 ], [ 38.7468527, 9.0386384 ], [ 38.7477104, 9.0391796 ], [ 38.7511782, 9.0394709 ], [ 38.7512999, 9.0395266 ], [ 38.752203, 9.0399223 ], [ 38.753211, 9.0400986 ], [ 38.7559159, 9.0397791 ], [ 38.7555497, 9.0379841 ], [ 38.7550527, 9.0350946 ], [ 38.7558521, 9.0318884 ], [ 38.7573225, 9.0296974 ], [ 38.7607526, 9.0291155 ], [ 38.7611244, 9.0293966 ], [ 38.7611664, 9.0293214 ], [ 38.761187, 9.0292807 ], [ 38.7591368, 9.0267496 ], [ 38.7572491, 9.0250712 ], [ 38.7547844, 9.0252812 ], [ 38.7522691, 9.0233545 ], [ 38.7522216, 9.0233535 ], [ 38.7508048, 9.0245939 ], [ 38.75011, 9.0262182 ], [ 38.7480175, 9.0280594 ], [ 38.745241, 9.0302293 ], [ 38.7450782, 9.0323696 ], [ 38.7439692, 9.0342222 ], [ 38.7456563, 9.0363902 ], [ 38.7459972, 9.0372572 ] ] ] } },
{ "type": "Feature", "properties": { "threshold_s": 300, "time_label": "5 minutes" }, "geometry": { "type": "Polygon", "coordinates": [ [ [ 38.8182659, 9.0114084 ], [ 38.8172197, 9.0119786 ], [ 38.8172691, 9.0119811 ], [ 38.817654, 9.0119948 ], [ 38.8183136, 9.0119977 ], [ 38.8198282, 9.0115553 ], [ 38.8201494, 9.0114735 ], [ 38.8212563, 9.0111273 ], [ 38.8215799, 9.01153 ], [ 38.821742, 9.0118079 ], [ 38.8219222, 9.0121876 ], [ 38.8208147, 9.013098 ], [ 38.8220379, 9.012678 ], [ 38.8222637, 9.0115462 ], [ 38.8226267, 9.0109253 ], [ 38.8224531, 9.0105581 ], [ 38.8213333, 9.0110947 ], [ 38.8208704, 9.0101618 ], [ 38.8206102, 9.0095273 ], [ 38.8205452, 9.0095604 ], [ 38.8193872, 9.0104136 ], [ 38.8182659, 9.0114084 ] ] ] } },
{ "type": "Feature", "properties": { "threshold_s": 600, "time_label": "10 minutes" }, "geometry": { "type": "Polygon", "coordinates": [ [ [ 38.815215, 9.0114295 ], [ 38.8152355, 9.0119172 ], [ 38.8161268, 9.0119246 ], [ 38.8172197, 9.0119786 ], [ 38.8172691, 9.0119811 ], [ 38.817654, 9.0119948 ], [ 38.8186794, 9.0137801 ], [ 38.8183136, 9.0119977 ], [ 38.8198282, 9.0115553 ], [ 38.8208147, 9.013098 ], [ 38.8210587, 9.0144765 ], [ 38.8235384, 9.015215 ], [ 38.8238827, 9.0149469 ], [ 38.8232273, 9.0147013 ], [ 38.8226905, 9.0141508 ], [ 38.8222845, 9.0130474 ], [ 38.8229602, 9.0115936 ], [ 38.82398, 9.012162 ], [ 38.8245314, 9.0118524 ], [ 38.8246822, 9.0117334 ], [ 38.8244458, 9.0108585 ], [ 38.8255699, 9.0094602 ], [ 38.8257714, 9.009022 ], [ 38.8250479, 9.008875 ], [ 38.8241042, 9.0078386 ], [ 38.8240603, 9.0078583 ], [ 38.8231836, 9.0082056 ], [ 38.8226889, 9.0084566 ], [ 38.8213968, 9.0070747 ], [ 38.8213309, 9.0064829 ], [ 38.819599, 9.0063404 ], [ 38.8194488, 9.0060318 ], [ 38.8180626, 9.0069652 ], [ 38.8172615, 9.0068139 ], [ 38.8165412, 9.0074316 ], [ 38.8161725, 9.0084425 ], [ 38.8152062, 9.0100285 ], [ 38.8152041, 9.0109634 ], [ 38.815215, 9.0114295 ] ] ] } },
{ "type": "Feature", "properties": { "threshold_s": 900, "time_label": "15 minutes" }, "geometry": { "type": "Polygon", "coordinates": [ [ [ 38.8105828, 9.0115618 ], [ 38.8106196, 9.0133539 ], [ 38.8107057, 9.0133779 ], [ 38.8107811, 9.013385 ], [ 38.8130108, 9.0136837 ], [ 38.8152355, 9.0119172 ], [ 38.8161268, 9.0119246 ], [ 38.8186794, 9.0137801 ], [ 38.820817, 9.0159572 ], [ 38.820438, 9.0170708 ], [ 38.8213584, 9.0176708 ], [ 38.8222674, 9.0177774 ], [ 38.8256503, 9.0183214 ], [ 38.8260162, 9.0169832 ], [ 38.826288, 9.0152804 ], [ 38.8262592, 9.0149345 ], [ 38.8270598, 9.0118905 ], [ 38.8283048, 9.0092346 ], [ 38.8281197, 9.0087531 ], [ 38.8268986, 9.0061219 ], [ 38.8242714, 9.0046198 ], [ 38.8230237, 9.0043179 ], [ 38.8207724, 9.0030807 ], [ 38.8199373, 9.0031989 ], [ 38.8179022, 9.0036979 ], [ 38.8155613, 9.0055535 ], [ 38.8144465, 9.0063669 ], [ 38.813567, 9.0072371 ], [ 38.8123007, 9.0095472 ], [ 38.8111648, 9.0108121 ], [ 38.8108202, 9.0112452 ], [ 38.8105828, 9.0115618 ] ] ] } },
{ "type": "Feature", "properties": { "threshold_s": 300, "time_label": "5 minutes" }, "geometry": { "type": "Polygon", "coordinates": [ [ [ 38.783194, 8.9988784 ], [ 38.7827763, 8.9993254 ], [ 38.783416, 8.9991267 ], [ 38.7839798, 8.9998376 ], [ 38.7847196, 8.9994549 ], [ 38.7852584, 9.0000068 ], [ 38.7855175, 9.0003646 ], [ 38.7856932, 9.0002523 ], [ 38.786583, 9.0006904 ], [ 38.7864798, 9.0004639 ], [ 38.7862933, 9.0000274 ], [ 38.7862625, 8.9999559 ], [ 38.7852672, 8.999087 ], [ 38.785657, 8.9988254 ], [ 38.785766, 8.9987532 ], [ 38.7862813, 8.9984227 ], [ 38.7868335, 8.9981402 ], [ 38.7873295, 8.9978484 ], [ 38.7868816, 8.9977798 ], [ 38.7865017, 8.9973294 ], [ 38.7863671, 8.9970815 ], [ 38.7863228, 8.9970027 ], [ 38.7862862, 8.9969378 ], [ 38.7855356, 8.9969067 ], [ 38.7849529, 8.9969014 ], [ 38.7842488, 8.9969213 ], [ 38.7839551, 8.9959212 ], [ 38.783123, 8.9962669 ], [ 38.7837104, 8.996249 ], [ 38.7837318, 8.9974862 ], [ 38.7831216, 8.9974816 ], [ 38.7831283, 8.9981565 ], [ 38.783194, 8.9988784 ] ] ] } },
{ "type": "Feature", "properties": { "threshold_s": 600, "time_label": "10 minutes" }, "geometry": { "type": "Polygon", "coordinates": [ [ [ 38.7802762, 9.0010689 ], [ 38.7805632, 9.0019087 ], [ 38.7815539, 9.0023892 ], [ 38.7816243, 9.0021541 ], [ 38.783091, 9.0025189 ], [ 38.7832102, 9.0025374 ], [ 38.7842169, 9.0026576 ], [ 38.7855785, 9.0032038 ], [ 38.7856484, 9.0032226 ], [ 38.7868164, 9.0023031 ], [ 38.7872227, 9.002121 ], [ 38.787735, 9.001911 ], [ 38.7882698, 9.0017096 ], [ 38.7883566, 9.0003414 ], [ 38.7889105, 9.0000486 ], [ 38.7894879, 8.9990878 ], [ 38.7890822, 8.9981015 ], [ 38.7893068, 8.997061 ], [ 38.790424, 8.9965468 ], [ 38.790482, 8.9965207 ], [ 38.7902302, 8.9961391 ], [ 38.7895004, 8.9949998 ], [ 38.7886557, 8.9947681 ], [ 38.7881817, 8.9950421 ], [ 38.787379, 8.9954801 ], [ 38.786585, 8.9945701 ], [ 38.7853277, 8.9938919 ], [ 38.7848356, 8.9932143 ], [ 38.7836621, 8.9932839 ], [ 38.7831059, 8.9933946 ], [ 38.7821735, 8.9939806 ], [ 38.7816229, 8.9949502 ], [ 38.7812836, 8.9954543 ], [ 38.7809383, 8.9959589 ], [ 38.7799647, 8.9973783 ], [ 38.7806393, 8.9975317 ], [ 38.7817216, 8.9977381 ], [ 38.7817443, 8.9986419 ], [ 38.7816457, 8.9992002 ], [ 38.7803416, 8.9995823 ], [ 38.7800713, 8.9993625 ], [ 38.7801477, 9.0005493 ], [ 38.7802762, 9.0010689 ] ] ] } },
{ "type": "Feature", "properties": { "threshold_s": 900, "time_label": "15 minutes" }, "geometry": { "type": "Polygon", "coordinates": [ [ [ 38.7788495, 9.0036191 ], [ 38.7791347, 9.0046913 ], [ 38.7807284, 9.0052172 ], [ 38.7808424, 9.0051589 ], [ 38.7824927, 9.004531 ], [ 38.7836494, 9.0045185 ], [ 38.7849616, 9.0055543 ], [ 38.7855855, 9.0058604 ], [ 38.7870035, 9.0057066 ], [ 38.7879007, 9.0054099 ], [ 38.7894476, 9.0053535 ], [ 38.7900075, 9.0045602 ], [ 38.7892042, 9.0040436 ], [ 38.7895508, 9.0022211 ], [ 38.7882698, 9.0017096 ], [ 38.7889105, 9.0000486 ], [ 38.7897293, 8.9996859 ], [ 38.7906855, 8.9993148 ], [ 38.7913789, 8.9990156 ], [ 38.7920983, 8.9987684 ], [ 38.792624, 8.9985777 ], [ 38.7929452, 8.9978425 ], [ 38.7934395, 8.9960184 ], [ 38.7935455, 8.9953446 ], [ 38.7921633, 8.9948774 ], [ 38.7919032, 8.9931163 ], [ 38.7917543, 8.9922639 ], [ 38.7913479, 8.9928249 ], [ 38.7899619, 8.994329 ], [ 38.7887993, 8.9927548 ], [ 38.7885437, 8.9923131 ], [ 38.7872901, 8.9919606 ], [ 38.7862157, 8.9911515 ], [ 38.7851715, 8.9902947 ], [ 38.7840535, 8.99066 ], [ 38.7835336, 8.9908757 ], [ 38.7817577, 8.9913003 ], [ 38.7807766, 8.9922331 ], [ 38.7807734, 8.9938303 ], [ 38.7792063, 8.995031 ], [ 38.7790627, 8.9951092 ], [ 38.7781307, 8.9965431 ], [ 38.7776278, 8.9979624 ], [ 38.777362, 8.9984848 ], [ 38.7779966, 8.9994625 ], [ 38.7795597, 9.0006527 ], [ 38.7792411, 9.0026554 ], [ 38.7787355, 9.0030202 ], [ 38.7788495, 9.0036191 ] ] ] } },
{ "type": "Feature", "properties": { "threshold_s": 300, "time_label": "5 minutes" }, "geometry": { "type": "Polygon", "coordinates": [ [ [ 38.8334634, 9.0209715 ], [ 38.8339238, 9.0216463 ], [ 38.8339249, 9.0209136 ], [ 38.8344745, 9.0208932 ], [ 38.8348874, 9.0216123 ], [ 38.8352508, 9.020929 ], [ 38.8359818, 9.0209015 ], [ 38.8368236, 9.0215274 ], [ 38.8375525, 9.0214989 ], [ 38.8367977, 9.0208988 ], [ 38.8363892, 9.0208954 ], [ 38.8358339, 9.0204812 ], [ 38.8358365, 9.0201224 ], [ 38.8363666, 9.0197399 ], [ 38.8367853, 9.019728 ], [ 38.8372936, 9.0187794 ], [ 38.8372615, 9.0185124 ], [ 38.8367993, 9.0185804 ], [ 38.8363013, 9.0179027 ], [ 38.8362912, 9.0175371 ], [ 38.8357312, 9.0171991 ], [ 38.8353954, 9.0175467 ], [ 38.8347203, 9.0179159 ], [ 38.8341604, 9.0184441 ], [ 38.8341614, 9.0186573 ], [ 38.8343875, 9.0186488 ], [ 38.8344329, 9.0186475 ], [ 38.8347316, 9.0186392 ], [ 38.8347998, 9.0186366 ], [ 38.8353449, 9.0190101 ], [ 38.8353261, 9.0194295 ], [ 38.8348406, 9.0197761 ], [ 38.8344424, 9.0197942 ], [ 38.833899, 9.0198191 ], [ 38.8334755, 9.0198207 ], [ 38.8331042, 9.0198414 ], [ 38.8334634, 9.0209715 ] ] ] } },
{ "type": "Feature", "properties": { "threshold_s": 600, "time_label": "10 minutes" }, "geometry": { "type": "Polygon", "coordinates": [ [ [ 38.8315603, 9.0210402 ], [ 38.83203240000001, 9.021741 ], [ 38.8335088, 9.021666 ], [ 38.8348874, 9.0216123 ], [ 38.8368236, 9.0215274 ], [ 38.8375525, 9.0214989 ], [ 38.8392593, 9.0214433 ], [ 38.8408486, 9.021363 ], [ 38.8401458, 9.0203414 ], [ 38.8392953, 9.0198684 ], [ 38.8388351, 9.0182876 ], [ 38.8392892, 9.0175557 ], [ 38.8393047, 9.0170738 ], [ 38.8388254, 9.0168786 ], [ 38.8370537, 9.0176757 ], [ 38.8362554, 9.0171932 ], [ 38.8357387, 9.0162104 ], [ 38.8356915, 9.0159299 ], [ 38.835626499999989, 9.0156771 ], [ 38.8346937, 9.0148785 ], [ 38.8338009, 9.0154774 ], [ 38.8334563, 9.0157356 ], [ 38.8326802, 9.0165786 ], [ 38.8319253, 9.0173013 ], [ 38.831572199999989, 9.0179345 ], [ 38.8312386, 9.0193236 ], [ 38.8312764, 9.019895 ], [ 38.8313149, 9.0204614 ], [ 38.8315603, 9.0210402 ] ] ] } },
{ "type": "Feature", "properties": { "threshold_s": 900, "time_label": "15 minutes" }, "geometry": { "type": "Polygon", "coordinates": [ [ [ 38.8278766, 9.02024 ], [ 38.82778, 9.0204984 ], [ 38.8287024, 9.0208684 ], [ 38.8313149, 9.0204614 ], [ 38.8315603, 9.0210402 ], [ 38.83203240000001, 9.021741 ], [ 38.8335088, 9.021666 ], [ 38.8339238, 9.0216463 ], [ 38.8348874, 9.0216123 ], [ 38.8368236, 9.0215274 ], [ 38.8375525, 9.0214989 ], [ 38.8387001, 9.0214504 ], [ 38.8395446, 9.0231051 ], [ 38.8396122, 9.0232634 ], [ 38.8409603, 9.0232034 ], [ 38.841013, 9.0231916 ], [ 38.8429428, 9.0226962 ], [ 38.8432938, 9.0223513 ], [ 38.8439448, 9.0214513 ], [ 38.843856, 9.0212365 ], [ 38.8431261, 9.019918 ], [ 38.8422806, 9.0180524 ], [ 38.842734, 9.0171399 ], [ 38.8427442, 9.0165877 ], [ 38.8418341, 9.0158899 ], [ 38.8409864, 9.0154157 ], [ 38.8393197, 9.0141493 ], [ 38.8389158, 9.0139477 ], [ 38.8376445, 9.013587 ], [ 38.8375163, 9.0135939 ], [ 38.837314, 9.0136039 ], [ 38.8372292, 9.0136215 ], [ 38.8380106, 9.0146708 ], [ 38.8382001, 9.014944 ], [ 38.8387312, 9.0159937 ], [ 38.8378906, 9.0176939 ], [ 38.8370537, 9.0176757 ], [ 38.8362554, 9.0171932 ], [ 38.8357387, 9.0162104 ], [ 38.8356915, 9.0159299 ], [ 38.835626499999989, 9.0156771 ], [ 38.8346937, 9.0148785 ], [ 38.8341153, 9.0143829 ], [ 38.8337434, 9.0134685 ], [ 38.8337181, 9.012633 ], [ 38.8336706, 9.0122636 ], [ 38.8334363, 9.0124295 ], [ 38.8319667, 9.0137359 ], [ 38.8314384, 9.0144364 ], [ 38.830646, 9.0155476 ], [ 38.8296521, 9.0160313 ], [ 38.8309154, 9.016991 ], [ 38.8315878, 9.0182518 ], [ 38.8312386, 9.0193236 ], [ 38.8312764, 9.019895 ], [ 38.828601, 9.0198933 ], [ 38.8278766, 9.02024 ] ] ] } },
{ "type": "Feature", "properties": { "threshold_s": 300, "time_label": "5 minutes" }, "geometry": { "type": "Polygon", "coordinates": [ [ [ 38.7757485, 9.0199219 ], [ 38.7753617, 9.0206288 ], [ 38.7757479, 9.0204704 ], [ 38.7763321, 9.0204338 ], [ 38.7766172, 9.0204548 ], [ 38.7769974, 9.0201753 ], [ 38.7771359, 9.0200222 ], [ 38.7776237, 9.019461 ], [ 38.7781336, 9.019429 ], [ 38.778081, 9.0202005 ], [ 38.7782413, 9.0194063 ], [ 38.7780195, 9.0189515 ], [ 38.7796232, 9.0185456 ], [ 38.7791933, 9.017458 ], [ 38.7790445, 9.0165877 ], [ 38.7781062, 9.0168899 ], [ 38.7780257, 9.0166441 ], [ 38.7781049, 9.0161217 ], [ 38.7775774, 9.0165999 ], [ 38.7770284, 9.0169578 ], [ 38.7766469, 9.0163656 ], [ 38.7767685, 9.0159505 ], [ 38.7768915, 9.0155769 ], [ 38.7770343, 9.0151753 ], [ 38.7760706, 9.0156092 ], [ 38.7759064, 9.0164735 ], [ 38.775128, 9.0168441 ], [ 38.774385, 9.0171846 ], [ 38.7737666, 9.0173089 ], [ 38.7741098, 9.0174452 ], [ 38.7741268, 9.017451 ], [ 38.7742102, 9.0174735 ], [ 38.7743357, 9.0174881 ], [ 38.7750934, 9.0178666 ], [ 38.7754708, 9.0184895 ], [ 38.775059, 9.0189164 ], [ 38.7747315, 9.0192594 ], [ 38.7745247, 9.0195546 ], [ 38.7757485, 9.0199219 ] ] ] } },
{ "type": "Feature", "properties": { "threshold_s": 600, "time_label": "10 minutes" }, "geometry": { "type": "Polygon", "coordinates": [ [ [ 38.7730777, 9.0217135 ], [ 38.7732625, 9.0224856 ], [ 38.7747369, 9.0224498 ], [ 38.7760156, 9.0231854 ], [ 38.7763746, 9.0235218 ], [ 38.7766007, 9.0235376 ], [ 38.7768839, 9.023439 ], [ 38.7782833, 9.0227338 ], [ 38.7791009, 9.0224574 ], [ 38.7796941, 9.0220515 ], [ 38.7799554, 9.0211994 ], [ 38.7800579, 9.019619 ], [ 38.780123, 9.0187263 ], [ 38.7804623, 9.0179874 ], [ 38.7798819, 9.0169092 ], [ 38.7795994, 9.0155365 ], [ 38.7782612, 9.0153819 ], [ 38.7781044, 9.0145299 ], [ 38.777837, 9.0134105 ], [ 38.7780683, 9.0128204 ], [ 38.7777963, 9.0126801 ], [ 38.776373, 9.0129175 ], [ 38.7761538, 9.0139141 ], [ 38.7771029, 9.014959 ], [ 38.7760706, 9.0156092 ], [ 38.775128, 9.0168441 ], [ 38.774385, 9.0171846 ], [ 38.7732861, 9.0163395 ], [ 38.7731381, 9.0158026 ], [ 38.7728662, 9.015182 ], [ 38.772785, 9.0151314 ], [ 38.771485, 9.0152003 ], [ 38.7712012, 9.0155134 ], [ 38.771399, 9.0157563 ], [ 38.7720021, 9.0165267 ], [ 38.7716822, 9.0175392 ], [ 38.772894, 9.0171168 ], [ 38.7737666, 9.0173089 ], [ 38.7743481, 9.0183679 ], [ 38.7729636, 9.0189732 ], [ 38.7728602, 9.0202455 ], [ 38.7721948, 9.0208132 ], [ 38.7730777, 9.0217135 ] ] ] } },
{ "type": "Feature", "properties": { "threshold_s": 900, "time_label": "15 minutes" }, "geometry": { "type": "Polygon", "coordinates": [ [ [ 38.7717222, 9.0232818 ], [ 38.7719931, 9.0256488 ], [ 38.7722787, 9.0259286 ], [ 38.7746655, 9.0258189 ], [ 38.7752508, 9.0269569 ], [ 38.7756414, 9.0271272 ], [ 38.7767279, 9.0261779 ], [ 38.778014, 9.025166 ], [ 38.7797893, 9.0235655 ], [ 38.7807673, 9.0234956 ], [ 38.7808095, 9.0233582 ], [ 38.7807439, 9.0231116 ], [ 38.7799554, 9.0211994 ], [ 38.7800579, 9.019619 ], [ 38.7804623, 9.0179874 ], [ 38.7798819, 9.0169092 ], [ 38.780472, 9.0145522 ], [ 38.7807076, 9.0141556 ], [ 38.7802996, 9.0139608 ], [ 38.7793196, 9.0134699 ], [ 38.7786176, 9.0130981 ], [ 38.7780683, 9.0128204 ], [ 38.7757903, 9.0113439 ], [ 38.7748415, 9.0108268 ], [ 38.7746584, 9.0107774 ], [ 38.7746289, 9.010785 ], [ 38.7732789, 9.0121882 ], [ 38.7721337, 9.0143144 ], [ 38.7699102, 9.014068 ], [ 38.7698167, 9.0140801 ], [ 38.7686282, 9.015342 ], [ 38.7682007, 9.0165141 ], [ 38.7683061, 9.0191895 ], [ 38.7683945, 9.0192425 ], [ 38.7707143, 9.0204246 ], [ 38.7713214, 9.0206571 ], [ 38.7717222, 9.0232818 ] ] ] } },
{ "type": "Feature", "properties": { "threshold_s": 300, "time_label": "5 minutes" }, "geometry": { "type": "Polygon", "coordinates": [ [ [ 38.7218581, 8.9783907 ], [ 38.7219483, 8.9785817 ], [ 38.7219907, 8.9786054 ], [ 38.7222442, 8.9787412 ], [ 38.7230371, 8.9777789 ], [ 38.7235171, 8.9774846 ], [ 38.7239543, 8.9772382 ], [ 38.724079, 8.9771595 ], [ 38.7248596, 8.9767341 ], [ 38.7257921, 8.9763983 ], [ 38.7258704, 8.9763704 ], [ 38.7258379, 8.9762844 ], [ 38.7253784, 8.9759747 ], [ 38.7249631, 8.9756996 ], [ 38.7240533, 8.9749136 ], [ 38.7238351, 8.9744615 ], [ 38.7227389, 8.9744711 ], [ 38.7223873, 8.9747866 ], [ 38.7220514, 8.9753412 ], [ 38.7221126, 8.9764849 ], [ 38.7220585, 8.977134 ], [ 38.7219814, 8.9776133 ], [ 38.7218581, 8.9783907 ] ] ] } },
{ "type": "Feature", "properties": { "threshold_s": 600, "time_label": "10 minutes" }, "geometry": { "type": "Polygon", "coordinates": [ [ [ 38.7201373, 8.9778067 ], [ 38.7189332, 8.9793883 ], [ 38.7203396, 8.9803967 ], [ 38.7215909, 8.9811187 ], [ 38.7223984, 8.9810641 ], [ 38.7230837, 8.980366 ], [ 38.7234465, 8.9790175 ], [ 38.7235224, 8.9787959 ], [ 38.7239543, 8.9772382 ], [ 38.7254655, 8.9772808 ], [ 38.7265934, 8.9768304 ], [ 38.7282267, 8.9758101 ], [ 38.7275709, 8.9736276 ], [ 38.7266294, 8.9728033 ], [ 38.7259036, 8.9718631 ], [ 38.7246904, 8.9722934 ], [ 38.7240788, 8.9733432 ], [ 38.7221027, 8.9723219 ], [ 38.721678, 8.9719703 ], [ 38.7206729, 8.9719393 ], [ 38.7203533, 8.9723199 ], [ 38.7200396, 8.9730888 ], [ 38.7198488, 8.9735923 ], [ 38.7201381, 8.9741528 ], [ 38.7203753, 8.9744772 ], [ 38.7206829, 8.9750566 ], [ 38.7201232, 8.9771212 ], [ 38.7201373, 8.9778067 ] ] ] } },
{ "type": "Feature", "properties": { "threshold_s": 900, "time_label": "15 minutes" }, "geometry": { "type": "Polygon", "coordinates": [ [ [ 38.7152447, 8.9802564 ], [ 38.7153099, 8.9803308 ], [ 38.7178704, 8.981205 ], [ 38.7192004, 8.9837121 ], [ 38.719303, 8.9836928 ], [ 38.7223984, 8.9810641 ], [ 38.7230837, 8.980366 ], [ 38.7254655, 8.9772808 ], [ 38.7265934, 8.9768304 ], [ 38.7296868, 8.9752961 ], [ 38.7320294, 8.9738298 ], [ 38.7319924, 8.9736661 ], [ 38.7319405, 8.9736278 ], [ 38.7286668, 8.9711442 ], [ 38.7280208, 8.9705749 ], [ 38.7276923, 8.9702858 ], [ 38.7274269, 8.9700523 ], [ 38.7272136, 8.9698644 ], [ 38.7269896, 8.9696828 ], [ 38.7222635, 8.9688038 ], [ 38.7198742, 8.9689283 ], [ 38.7195961, 8.9689539 ], [ 38.7185034, 8.9700807 ], [ 38.7181224, 8.9714796 ], [ 38.7184154, 8.9718832 ], [ 38.7187499, 8.972423 ], [ 38.7186203, 8.9759091 ], [ 38.7172721, 8.9770742 ], [ 38.7160731, 8.9777578 ], [ 38.7158557, 8.9784055 ], [ 38.7152447, 8.9802564 ] ] ] } },
{ "type": "Feature", "properties": { "threshold_s": 300, "time_label": "5 minutes" }, "geometry": { "type": "Polygon", "coordinates": [ [ [ 38.7121438, 8.9627374 ], [ 38.7129534, 8.9636095 ], [ 38.7136356, 8.9631317 ], [ 38.7143151, 8.9626967 ], [ 38.7161542, 8.9625726 ], [ 38.7174451, 8.9623531 ], [ 38.716926, 8.9620024 ], [ 38.7168713, 8.9619732 ], [ 38.715604399999989, 8.9622467 ], [ 38.7150516, 8.9611706 ], [ 38.7140259, 8.9603411 ], [ 38.7140955, 8.9599859 ], [ 38.7140952, 8.9596855 ], [ 38.7136436, 8.9602259 ], [ 38.7135471, 8.9609676 ], [ 38.7126955, 8.9618891 ], [ 38.7121438, 8.9627374 ] ] ] } },
{ "type": "Feature", "properties": { "threshold_s": 600, "time_label": "10 minutes" }, "geometry": { "type": "Polygon", "coordinates": [ [ [ 38.7114208, 8.963849 ], [ 38.7106141, 8.9653122 ], [ 38.7114295, 8.9649916 ], [ 38.7129534, 8.9636095 ], [ 38.7136356, 8.9631317 ], [ 38.7143151, 8.9626967 ], [ 38.7161542, 8.9625726 ], [ 38.7174451, 8.9623531 ], [ 38.7185303, 8.963298 ], [ 38.7177271, 8.9646476 ], [ 38.719676, 8.964018 ], [ 38.7197271, 8.9634522 ], [ 38.7193582, 8.9614162 ], [ 38.7195989, 8.9608922 ], [ 38.7196263, 8.9606677 ], [ 38.7193115, 8.9603916 ], [ 38.718778, 8.960086 ], [ 38.7184945, 8.9601974 ], [ 38.7169045, 8.9588702 ], [ 38.7168521, 8.9578128 ], [ 38.7154394, 8.9576853 ], [ 38.7137614, 8.9571961 ], [ 38.7130402, 8.9573942 ], [ 38.7120802, 8.9580395 ], [ 38.7109595, 8.9591084 ], [ 38.7098852, 8.9591364 ], [ 38.7091719, 8.9597006 ], [ 38.7103324, 8.9599985 ], [ 38.7116251, 8.9603827 ], [ 38.7117541, 8.9617023 ], [ 38.7114597, 8.962623 ], [ 38.7114208, 8.963849 ] ] ] } },
{ "type": "Feature", "properties": { "threshold_s": 900, "time_label": "15 minutes" }, "geometry": { "type": "Polygon", "coordinates": [ [ [ 38.7076838, 8.9650661 ], [ 38.7077573, 8.9664967 ], [ 38.7093741, 8.9674281 ], [ 38.7111413, 8.9682161 ], [ 38.7120303, 8.9690031 ], [ 38.7134255, 8.968739 ], [ 38.7138888, 8.9678984 ], [ 38.7148608, 8.9665077 ], [ 38.7166324, 8.9668016 ], [ 38.7179943, 8.9671454 ], [ 38.7203159, 8.9677945 ], [ 38.7211067, 8.9678238 ], [ 38.7215422, 8.9670783 ], [ 38.721406, 8.9648525 ], [ 38.7222308, 8.9626084 ], [ 38.7225438, 8.9621765 ], [ 38.7219143, 8.9603954 ], [ 38.7217437, 8.9593066 ], [ 38.7216753, 8.9586665 ], [ 38.7211244, 8.9583427 ], [ 38.7195895, 8.9570294 ], [ 38.719532, 8.9559976 ], [ 38.7180696, 8.9555961 ], [ 38.7179146, 8.9555841 ], [ 38.7166151, 8.9555162 ], [ 38.714075, 8.9548655 ], [ 38.7139443, 8.9548284 ], [ 38.7127281, 8.9547367 ], [ 38.7118163, 8.9556709 ], [ 38.7098284, 8.9560766 ], [ 38.7080373, 8.9563716 ], [ 38.706734, 8.958179 ], [ 38.7064034, 8.959663 ], [ 38.7073077, 8.9611002 ], [ 38.7080768, 8.9619725 ], [ 38.7087815, 8.9621467 ], [ 38.7094085, 8.9621977 ], [ 38.709906, 8.9623832 ], [ 38.7114208, 8.963849 ], [ 38.7106141, 8.9653122 ], [ 38.7097062, 8.9659719 ], [ 38.7076838, 8.9650661 ] ] ] } },
{ "type": "Feature", "properties": { "threshold_s": 300, "time_label": "5 minutes" }, "geometry": { "type": "Polygon", "coordinates": [ [ [ 38.7813866, 9.0287571 ], [ 38.7818312, 9.0297687 ], [ 38.7823238, 9.0296015 ], [ 38.7825041, 9.0296272 ], [ 38.7829637, 9.0303831 ], [ 38.782939, 9.0305886 ], [ 38.7842055, 9.0301541 ], [ 38.7844864, 9.0303093 ], [ 38.7845669, 9.0299151 ], [ 38.7854655, 9.0299026 ], [ 38.785542, 9.0298968 ], [ 38.7850285, 9.0291129 ], [ 38.7856785, 9.0288105 ], [ 38.7864765, 9.028295 ], [ 38.7857026, 9.0282428 ], [ 38.7856874, 9.0274652 ], [ 38.7852437, 9.0267237 ], [ 38.7849554, 9.0271178 ], [ 38.7845201, 9.0274837 ], [ 38.7839222, 9.0271689 ], [ 38.7838822, 9.0265785 ], [ 38.7838478, 9.0265422 ], [ 38.7834995, 9.0261202 ], [ 38.7831799, 9.0257482 ], [ 38.7823234, 9.0254736 ], [ 38.7820078, 9.0254283 ], [ 38.7813799, 9.0254233 ], [ 38.78171050000001, 9.025784 ], [ 38.7819812, 9.0264938 ], [ 38.7816188, 9.026738 ], [ 38.7812611, 9.0274963 ], [ 38.7811207, 9.0277942 ], [ 38.7808903, 9.0284557 ], [ 38.7808912, 9.0286663 ], [ 38.7812108, 9.028916 ], [ 38.7813866, 9.0287571 ] ] ] } },
{ "type": "Feature", "properties": { "threshold_s": 600, "time_label": "10 minutes" }, "geometry": { "type": "Polygon", "coordinates": [ [ [ 38.7799938, 9.0303326 ], [ 38.7803192, 9.03193 ], [ 38.7817318, 9.0329631 ], [ 38.7820987, 9.0327323 ], [ 38.7834835, 9.0321406 ], [ 38.7840456, 9.0319194 ], [ 38.7857415, 9.0317249 ], [ 38.7862229, 9.0319805 ], [ 38.7871477, 9.0320642 ], [ 38.7878908, 9.0319756 ], [ 38.7865994, 9.0309953 ], [ 38.7867588, 9.0301967 ], [ 38.7874505, 9.0295787 ], [ 38.7883327, 9.0293321 ], [ 38.7890062, 9.0288156 ], [ 38.7892601, 9.0286765 ], [ 38.788861, 9.027759 ], [ 38.7886413, 9.0266215 ], [ 38.7874317, 9.0261847 ], [ 38.7869021, 9.0255778 ], [ 38.7863276, 9.0246843 ], [ 38.7856655, 9.0255148 ], [ 38.7855547, 9.0261301 ], [ 38.7838478, 9.0265422 ], [ 38.7834995, 9.0261202 ], [ 38.783076, 9.0248046 ], [ 38.7828882, 9.0246894 ], [ 38.7817299, 9.0233442 ], [ 38.7811702, 9.0225738 ], [ 38.780621, 9.0225737 ], [ 38.7798161, 9.0233066 ], [ 38.7797893, 9.0235655 ], [ 38.7803454, 9.0244369 ], [ 38.7806417, 9.0258586 ], [ 38.7808259, 9.0265729 ], [ 38.7795984, 9.0278705 ], [ 38.7794641, 9.0279072 ], [ 38.7780345, 9.027686 ], [ 38.7778075, 9.0275426 ], [ 38.7777821, 9.0276153 ], [ 38.7777275, 9.0282723 ], [ 38.7788257, 9.0295019 ], [ 38.7799938, 9.0303326 ] ] ] } },
{ "type": "Feature", "properties": { "threshold_s": 900, "time_label": "15 minutes" }, "geometry": { "type": "Polygon", "coordinates": [ [ [ 38.7766955, 9.0306261 ], [ 38.7767635, 9.0316395 ], [ 38.7774388, 9.031858 ], [ 38.7783115, 9.0321512 ], [ 38.7787707, 9.0321413 ], [ 38.7802809, 9.0334359 ], [ 38.7799358, 9.0345924 ], [ 38.7815934, 9.0338997 ], [ 38.7834012, 9.0337818 ], [ 38.7853003, 9.0340705 ], [ 38.7858289, 9.0336612 ], [ 38.7878757, 9.0333009 ], [ 38.7882319, 9.0348824 ], [ 38.7885775, 9.034125 ], [ 38.7888122, 9.0332358 ], [ 38.7882844, 9.0322426 ], [ 38.7897626, 9.030932 ], [ 38.7918447, 9.0297488 ], [ 38.7926615, 9.0283931 ], [ 38.7926964, 9.0264009 ], [ 38.7924283, 9.0251427 ], [ 38.7905653, 9.0246714 ], [ 38.7896088, 9.0234397 ], [ 38.7881353, 9.0228568 ], [ 38.7868398, 9.0221014 ], [ 38.7862093, 9.0222595 ], [ 38.7854865, 9.0225353 ], [ 38.7837476, 9.021184 ], [ 38.7830473, 9.0200919 ], [ 38.782688, 9.0198901 ], [ 38.7822697, 9.0199832 ], [ 38.7800908, 9.0202484 ], [ 38.7783365, 9.021744 ], [ 38.7764095, 9.0231921 ], [ 38.7763592, 9.0232278 ], [ 38.7762974, 9.0233738 ], [ 38.7763746, 9.0235218 ], [ 38.7764432, 9.0256874 ], [ 38.7749916, 9.0257399 ], [ 38.7752508, 9.0269569 ], [ 38.774781, 9.0284029 ], [ 38.7761426, 9.0292092 ], [ 38.7766955, 9.0306261 ] ] ] } },
{ "type": "Feature", "properties": { "threshold_s": 300, "time_label": "5 minutes" }, "geometry": { "type": "Polygon", "coordinates": [ [ [ 38.7110703, 9.0346536 ], [ 38.711851, 9.036037 ], [ 38.7119589, 9.0357141 ], [ 38.712082, 9.0353662 ], [ 38.7122014, 9.0350072 ], [ 38.7133377, 9.0354058 ], [ 38.7134388, 9.0350666 ], [ 38.7143648, 9.0347807 ], [ 38.7144637, 9.0348317 ], [ 38.7155962, 9.0341892 ], [ 38.7148453, 9.0337171 ], [ 38.7145862, 9.033602 ], [ 38.714675, 9.0326891 ], [ 38.7147616, 9.0323478 ], [ 38.7145661, 9.031372 ], [ 38.7138598, 9.0300175 ], [ 38.7137263, 9.0304695 ], [ 38.7136565, 9.0306848 ], [ 38.7135253, 9.0310458 ], [ 38.7132958, 9.0317339 ], [ 38.7127066, 9.0317364 ], [ 38.7121076, 9.031553 ], [ 38.7120239, 9.0317849 ], [ 38.7119115, 9.0321022 ], [ 38.7110057, 9.0316931 ], [ 38.7106745, 9.0320467 ], [ 38.7106637, 9.0324019 ], [ 38.7098786, 9.0327046 ], [ 38.7098627, 9.0328171 ], [ 38.7100433, 9.0333649 ], [ 38.7104762, 9.033994 ], [ 38.7110703, 9.0346536 ] ] ] } },
{ "type": "Feature", "properties": { "threshold_s": 600, "time_label": "10 minutes" }, "geometry": { "type": "Polygon", "coordinates": [ [ [ 38.7100338, 9.0376478 ], [ 38.7104892, 9.0386698 ], [ 38.7108962, 9.0388085 ], [ 38.7114063, 9.0385683 ], [ 38.7111534, 9.038058 ], [ 38.7122608, 9.0374797 ], [ 38.7126284, 9.0376061 ], [ 38.7130108, 9.0377347 ], [ 38.7133799, 9.037887 ], [ 38.7136608, 9.0379828 ], [ 38.7138967, 9.0380452 ], [ 38.7141695, 9.0381303 ], [ 38.7152268, 9.0376028 ], [ 38.7164375, 9.0373809 ], [ 38.7163828, 9.0367836 ], [ 38.7167493, 9.0356481 ], [ 38.7166433, 9.0354155 ], [ 38.716601, 9.0346615 ], [ 38.7172763, 9.0339223 ], [ 38.7173663, 9.0334891 ], [ 38.7173975, 9.0329228 ], [ 38.7173333, 9.0326811 ], [ 38.716929, 9.0317772 ], [ 38.7170359, 9.0313399 ], [ 38.7166645, 9.030632 ], [ 38.7165627, 9.030951 ], [ 38.7164523, 9.0313033 ], [ 38.7152774, 9.0316214 ], [ 38.7148648, 9.0307692 ], [ 38.7154136, 9.0298438 ], [ 38.7149476, 9.0290394 ], [ 38.7147665, 9.0283196 ], [ 38.7143767, 9.0276131 ], [ 38.713813, 9.0269732 ], [ 38.7136193, 9.0277912 ], [ 38.712989, 9.0281817 ], [ 38.712215, 9.0277675 ], [ 38.7119036, 9.0284796 ], [ 38.711238, 9.0288485 ], [ 38.7103027, 9.0286496 ], [ 38.7102263, 9.0286974 ], [ 38.7093544, 9.0292577 ], [ 38.7097773, 9.0296256 ], [ 38.7100688, 9.0301114 ], [ 38.7101327, 9.0306401 ], [ 38.7095507, 9.0314809 ], [ 38.7087797, 9.0319584 ], [ 38.7080116, 9.0313403 ], [ 38.7078524, 9.0318588 ], [ 38.7068282, 9.0324931 ], [ 38.7069777, 9.0333302 ], [ 38.7073925, 9.0341109 ], [ 38.7082229, 9.033299 ], [ 38.7084812, 9.0332891 ], [ 38.708984, 9.0333037 ], [ 38.7090434, 9.034483 ], [ 38.7091168, 9.0347672 ], [ 38.7089674, 9.0354666 ], [ 38.708953, 9.0363743 ], [ 38.7093184, 9.0364631 ], [ 38.7096841, 9.0375072 ], [ 38.7100338, 9.0376478 ] ] ] } },
{ "type": "Feature", "properties": { "threshold_s": 900, "time_label": "15 minutes" }, "geometry": { "type": "Polygon", "coordinates": [ [ [ 38.7090781, 9.0409838 ], [ 38.7095426, 9.0417948 ], [ 38.7100227, 9.0416232 ], [ 38.7119606, 9.0411113 ], [ 38.7126184, 9.0409696 ], [ 38.712899899999989, 9.0409027 ], [ 38.7138077, 9.0406531 ], [ 38.7155072, 9.040467 ], [ 38.7163017, 9.0397826 ], [ 38.7180874, 9.0395235 ], [ 38.7188597, 9.0380442 ], [ 38.7194219, 9.0367678 ], [ 38.7187686, 9.0360486 ], [ 38.7183827, 9.0341124 ], [ 38.7180719, 9.0321873 ], [ 38.7188229, 9.0312253 ], [ 38.7195162, 9.0292825 ], [ 38.7178695, 9.0283501 ], [ 38.7165918, 9.0271135 ], [ 38.7160868, 9.0265435 ], [ 38.7149263, 9.0253368 ], [ 38.7149726, 9.0244758 ], [ 38.7150192, 9.0236091 ], [ 38.7131913, 9.0240888 ], [ 38.7125388, 9.0241786 ], [ 38.7114282, 9.0244084 ], [ 38.7110057, 9.0257422 ], [ 38.7108492, 9.0261124 ], [ 38.7092743, 9.0276958 ], [ 38.7075345, 9.0288485 ], [ 38.7055338, 9.0292464 ], [ 38.7045389, 9.0308971 ], [ 38.7039053, 9.0320123 ], [ 38.7041058, 9.0341606 ], [ 38.7036635, 9.0346131 ], [ 38.7051626, 9.0349579 ], [ 38.7060527, 9.0364422 ], [ 38.7062234, 9.0368943 ], [ 38.7065881, 9.0380029 ], [ 38.7066405, 9.0383459 ], [ 38.7076168, 9.0393869 ], [ 38.7090781, 9.0409838 ] ] ] } }
]
}
