{
"type": "FeatureCollection",
"name": "isochrone_shop_wine_walk",
"crs": { "type": "name", "properties": { "name": "urn:ogc:def:crs:OGC:1.3:CRS84" } },
"features": [
{ "type": "Feature", "properties": { "threshold_s": 300, "time_label": "5 min walk" }, "geometry": { "type": "Polygon", "coordinates": [ [ [ 38.7731964, 8.9969276 ], [ 38.7730326, 8.9973437 ], [ 38.7733094, 8.9967573 ], [ 38.7744514, 8.9961404 ], [ 38.775132, 8.9958947 ], [ 38.7751773, 8.9954422 ], [ 38.7750102, 8.9954859 ], [ 38.7746717, 8.9942237 ], [ 38.7748349, 8.9941601 ], [ 38.7748685, 8.9939269 ], [ 38.7747749, 8.9936803 ], [ 38.7742053, 8.9932382 ], [ 38.7741154, 8.9932832 ], [ 38.7743139, 8.993575 ], [ 38.7741321, 8.9942223 ], [ 38.7734482, 8.9942959 ], [ 38.774133, 8.9945834 ], [ 38.7742583, 8.9950284 ], [ 38.7743488, 8.9956238 ], [ 38.7730436, 8.9957825 ], [ 38.7730194, 8.9957645 ], [ 38.7726755, 8.9962277 ], [ 38.7725108, 8.9964014 ], [ 38.7727062, 8.9962474 ], [ 38.7731964, 8.9969276 ] ] ] } },
{ "type": "Feature", "properties": { "threshold_s": 600, "time_label": "10 min walk" }, "geometry": { "type": "Polygon", "coordinates": [ [ [ 38.7714057, 8.9978816 ], [ 38.770898099999989, 8.9992638 ], [ 38.7710336, 8.9993824 ], [ 38.7728595, 9.0004235 ], [ 38.7747263, 9.000099 ], [ 38.7739914, 8.9989883 ], [ 38.7744293, 8.9971067 ], [ 38.7753912, 8.9966925 ], [ 38.7758743, 8.9963788 ], [ 38.7763041, 8.9957546 ], [ 38.7779403, 8.9937879 ], [ 38.7791265, 8.9925547 ], [ 38.7779845, 8.9920851 ], [ 38.7764195, 8.9911022 ], [ 38.7745701, 8.9912135 ], [ 38.7734872, 8.9905748 ], [ 38.7730702, 8.9902493 ], [ 38.7725604, 8.990016 ], [ 38.7713957, 8.9920023 ], [ 38.7708546, 8.9939276 ], [ 38.7707889, 8.9960261 ], [ 38.7710027, 8.9963483 ], [ 38.7714057, 8.9978816 ] ] ] } },
{ "type": "Feature", "properties": { "threshold_s": 900, "time_label": "15 min walk" }, "geometry": { "type": "Polygon", "coordinates": [ [ [ 38.7690531, 9.0007967 ], [ 38.7693006, 9.0019376 ], [ 38.76939, 9.0019851 ], [ 38.7718476, 9.0030184 ], [ 38.7734664, 9.0036753 ], [ 38.7740211, 9.0034718 ], [ 38.7762203, 9.001462 ], [ 38.7768014, 9.00144 ], [ 38.7766984, 8.9999864 ], [ 38.7766126, 8.999646 ], [ 38.7763283, 8.9988565 ], [ 38.7758743, 8.9963788 ], [ 38.7788194, 8.9966769 ], [ 38.7789324, 8.9966101 ], [ 38.7800656, 8.9937943 ], [ 38.7818248, 8.9926732 ], [ 38.7821482, 8.9918317 ], [ 38.7821462, 8.9917529 ], [ 38.7817577, 8.9913003 ], [ 38.7791637, 8.9898442 ], [ 38.7779312, 8.9897209 ], [ 38.7750877, 8.9907234 ], [ 38.7730466, 8.9897253 ], [ 38.7726688, 8.9892939 ], [ 38.7718676, 8.9877508 ], [ 38.771131, 8.9873792 ], [ 38.7701893, 8.987568 ], [ 38.7700416, 8.9888374 ], [ 38.7695897, 8.9915148 ], [ 38.7691349, 8.9921401 ], [ 38.7690329, 8.9931543 ], [ 38.7681658, 8.9951992 ], [ 38.767748, 8.9969339 ], [ 38.7683732, 8.9987024 ], [ 38.7690531, 9.0007967 ] ] ] } }
]
}
