{
"type": "FeatureCollection",
"name": "isochrone_amenity_food_court_walk",
"crs": { "type": "name", "properties": { "name": "urn:ogc:def:crs:OGC:1.3:CRS84" } },
"features": [
{ "type": "Feature", "properties": { "threshold_s": 300, "time_label": "5 min walk" }, "geometry": { "type": "Polygon", "coordinates": [ [ [ 38.7170127, 8.950939 ], [ 38.7174137, 8.9514514 ], [ 38.7185102, 8.951511 ], [ 38.718907, 8.9520314 ], [ 38.7192579, 8.9517784 ], [ 38.7201607, 8.9524002 ], [ 38.7203222, 8.9522834 ], [ 38.7212853, 8.9524728 ], [ 38.721195, 8.9516273 ], [ 38.7216033, 8.9508925 ], [ 38.7217604, 8.9504769 ], [ 38.7217341, 8.9500576 ], [ 38.7221929, 8.949088 ], [ 38.7215566, 8.9491322 ], [ 38.7211765, 8.9485032 ], [ 38.7202343, 8.9484637 ], [ 38.7200108, 8.9481692 ], [ 38.7198791, 8.9479981 ], [ 38.7198163, 8.9479187 ], [ 38.71965, 8.9477212 ], [ 38.7191006, 8.9476703 ], [ 38.7183451, 8.947825 ], [ 38.7176109, 8.9477688 ], [ 38.7174174, 8.9479147 ], [ 38.7171809, 8.9486068 ], [ 38.7173895, 8.9488523 ], [ 38.7177936, 8.9493549 ], [ 38.7173858, 8.9501376 ], [ 38.7170823, 8.9504101 ], [ 38.7170127, 8.950939 ] ] ] } },
{ "type": "Feature", "properties": { "threshold_s": 600, "time_label": "10 min walk" }, "geometry": { "type": "Polygon", "coordinates": [ [ [ 38.7142994, 8.9526966 ], [ 38.7147396, 8.9538901 ], [ 38.7149365, 8.9540174 ], [ 38.7161207, 8.9537604 ], [ 38.7168677, 8.9536929 ], [ 38.7173479, 8.9532857 ], [ 38.7188874, 8.953364 ], [ 38.7191717, 8.9537152 ], [ 38.7195767, 8.9541353 ], [ 38.7198537, 8.9546209 ], [ 38.7212727, 8.9543369 ], [ 38.7223555, 8.9542493 ], [ 38.7233466, 8.954489 ], [ 38.7240406, 8.9533472 ], [ 38.7245884, 8.9527456 ], [ 38.7245051, 8.9516403 ], [ 38.724926, 8.9502015 ], [ 38.7248925, 8.9498222 ], [ 38.7245224, 8.948293 ], [ 38.724488, 8.9479138 ], [ 38.7242535, 8.9475055 ], [ 38.7235287, 8.9462003 ], [ 38.7225441, 8.9457321 ], [ 38.7213054, 8.9456603 ], [ 38.720502, 8.9455649 ], [ 38.7198431, 8.9455231 ], [ 38.7186925, 8.9453722 ], [ 38.7181738, 8.9453953 ], [ 38.7169259, 8.9451545 ], [ 38.7157618, 8.9461813 ], [ 38.715178, 8.9474874 ], [ 38.715025, 8.9478665 ], [ 38.7147604, 8.948752 ], [ 38.7148225, 8.9498711 ], [ 38.7147491, 8.9504753 ], [ 38.7144603, 8.9515343 ], [ 38.7142994, 8.9526966 ] ] ] } },
{ "type": "Feature", "properties": { "threshold_s": 900, "time_label": "15 min walk" }, "geometry": { "type": "Polygon", "coordinates": [ [ [ 38.7125244, 8.9558076 ], [ 38.7126868, 8.9569961 ], [ 38.7128143, 8.9569829 ], [ 38.7139621, 8.9561262 ], [ 38.7159333, 8.9564812 ], [ 38.7181476, 8.9559264 ], [ 38.7186374, 8.9566228 ], [ 38.719062, 8.95725 ], [ 38.7204492, 8.9572919 ], [ 38.7209098, 8.9564643 ], [ 38.7216447, 8.9555647 ], [ 38.7233466, 8.954489 ], [ 38.7249555, 8.9541127 ], [ 38.7259094, 8.9535975 ], [ 38.727503, 8.9529559 ], [ 38.7278912, 8.9524826 ], [ 38.7274473, 8.9520898 ], [ 38.7269937, 8.9514057 ], [ 38.7265196, 8.9509018 ], [ 38.7268296, 8.9487631 ], [ 38.7280274, 8.9486778 ], [ 38.7285335, 8.9487268 ], [ 38.7287682, 8.9486224 ], [ 38.7279814, 8.9479089 ], [ 38.7261636, 8.9469224 ], [ 38.7258076, 8.9457889 ], [ 38.7260615, 8.944545 ], [ 38.7259931, 8.9444006 ], [ 38.7239396, 8.9437958 ], [ 38.722712799999989, 8.9431951 ], [ 38.7202932, 8.9428596 ], [ 38.7193211, 8.9427911 ], [ 38.7178098, 8.9440724 ], [ 38.7169259, 8.9451545 ], [ 38.7157618, 8.9461813 ], [ 38.715178, 8.9474874 ], [ 38.7135835, 8.9481014 ], [ 38.7131571, 8.9483118 ], [ 38.712544, 8.9490019 ], [ 38.7120081, 8.9502646 ], [ 38.7122208, 8.9515746 ], [ 38.7122503, 8.9525536 ], [ 38.7112694, 8.9546488 ], [ 38.7125244, 8.9558076 ] ] ] } }
]
}
