{
"type": "FeatureCollection",
"name": "isochrone_amenity_drinking_water_walk",
"crs": { "type": "name", "properties": { "name": "urn:ogc:def:crs:OGC:1.3:CRS84" } },
"features": [
{ "type": "Feature", "properties": { "threshold_s": 300, "time_label": "5 min walk" }, "geometry": { "type": "Polygon", "coordinates": [ [ [ 38.7070295, 8.9685946 ], [ 38.7069825, 8.9689007 ], [ 38.707732, 8.9685963 ], [ 38.7077718, 8.9686574 ], [ 38.7079494, 8.9689538 ], [ 38.7080498, 8.9691621 ], [ 38.7081409, 8.9693799 ], [ 38.7082276, 8.9691893 ], [ 38.7085132, 8.9686422 ], [ 38.7086921, 8.9683717 ], [ 38.7094574, 8.9683464 ], [ 38.710095, 8.968557 ], [ 38.7093741, 8.9674281 ], [ 38.7087795, 8.9675072 ], [ 38.7084346, 8.9670668 ], [ 38.7083566, 8.9667566 ], [ 38.708571, 8.9661905 ], [ 38.709094, 8.9662269 ], [ 38.7084818, 8.9659732 ], [ 38.7078647, 8.9659499 ], [ 38.7077826, 8.9653489 ], [ 38.7076838, 8.9650661 ], [ 38.7068414, 8.965587 ], [ 38.7068517, 8.9656359 ], [ 38.7068908, 8.9659896 ], [ 38.7069412, 8.9665315 ], [ 38.7063034, 8.9667059 ], [ 38.7062997, 8.9672465 ], [ 38.7062371, 8.9677297 ], [ 38.706727, 8.9673098 ], [ 38.7069549, 8.9672085 ], [ 38.7075467, 8.9675465 ], [ 38.70758270000001, 8.9681555 ], [ 38.7070778, 8.9682839 ], [ 38.7070627, 8.9683726 ], [ 38.7070295, 8.9685946 ] ] ] } },
{ "type": "Feature", "properties": { "threshold_s": 600, "time_label": "10 min walk" }, "geometry": { "type": "Polygon", "coordinates": [ [ [ 38.705469, 8.9707375 ], [ 38.7054683, 8.9708256 ], [ 38.7067926, 8.971707 ], [ 38.7079065, 8.970819 ], [ 38.7096177, 8.971245 ], [ 38.7097841, 8.9715518 ], [ 38.710516, 8.9715413 ], [ 38.711683, 8.9706972 ], [ 38.712239, 8.969129 ], [ 38.7120491, 8.968656 ], [ 38.712457, 8.9671328 ], [ 38.7117621, 8.9669363 ], [ 38.7114295, 8.9649916 ], [ 38.7114121, 8.9645081 ], [ 38.7113571, 8.9645981 ], [ 38.7112982, 8.9646902 ], [ 38.7111607, 8.9649969 ], [ 38.7097062, 8.9659719 ], [ 38.7084818, 8.9659732 ], [ 38.7076838, 8.9650661 ], [ 38.7075511, 8.9638947 ], [ 38.706973, 8.9644802 ], [ 38.7052834, 8.9636222 ], [ 38.7050701, 8.9632029 ], [ 38.7046818, 8.9648936 ], [ 38.7042753, 8.965453 ], [ 38.7041472, 8.967237 ], [ 38.7040937, 8.9675541 ], [ 38.7047259, 8.9688342 ], [ 38.7052605, 8.9692446 ], [ 38.705469, 8.9707375 ] ] ] } },
{ "type": "Feature", "properties": { "threshold_s": 900, "time_label": "15 min walk" }, "geometry": { "type": "Polygon", "coordinates": [ [ [ 38.7039998, 8.9712561 ], [ 38.7045269, 8.9736909 ], [ 38.7056467, 8.9745639 ], [ 38.7077267, 8.9729875 ], [ 38.708168, 8.9732273 ], [ 38.7086148, 8.9737662 ], [ 38.7092046, 8.9740936 ], [ 38.7097858, 8.9738359 ], [ 38.7107423, 8.973403 ], [ 38.7110888, 8.9732445 ], [ 38.7120216, 8.9728206 ], [ 38.713758, 8.9722018 ], [ 38.7151018, 8.9701943 ], [ 38.7148483, 8.9678038 ], [ 38.7149107, 8.966471 ], [ 38.7145731, 8.9664342 ], [ 38.7144134, 8.9664039 ], [ 38.7139912, 8.9664064 ], [ 38.7137368, 8.9664115 ], [ 38.7134827, 8.9664139 ], [ 38.7130286, 8.966315 ], [ 38.7120306, 8.9638736 ], [ 38.7129534, 8.9636095 ], [ 38.7136356, 8.9631317 ], [ 38.7129141, 8.9622677 ], [ 38.7114597, 8.962623 ], [ 38.7114208, 8.963849 ], [ 38.7106141, 8.9653122 ], [ 38.7097062, 8.9659719 ], [ 38.7076838, 8.9650661 ], [ 38.7075511, 8.9638947 ], [ 38.7052834, 8.9636222 ], [ 38.7059028, 8.9616931 ], [ 38.7059901, 8.9615764 ], [ 38.7061007, 8.9608228 ], [ 38.7041751, 8.9603363 ], [ 38.7032522, 8.9605066 ], [ 38.7027848, 8.9627965 ], [ 38.7017026, 8.964079 ], [ 38.7019969, 8.9649499 ], [ 38.7013595, 8.9668015 ], [ 38.7026037, 8.9679609 ], [ 38.7034531, 8.9693734 ], [ 38.7038798, 8.9707111 ], [ 38.7039998, 8.9712561 ] ] ] } },
{ "type": "Feature", "properties": { "threshold_s": 300, "time_label": "5 min walk" }, "geometry": { "type": "Polygon", "coordinates": [ [ [ 38.8187528, 8.8385423 ], [ 38.8194555, 8.8384522 ], [ 38.8188037, 8.8381182 ], [ 38.8187528, 8.8385423 ] ] ] } },
{ "type": "Feature", "properties": { "threshold_s": 600, "time_label": "10 min walk" }, "geometry": { "type": "Polygon", "coordinates": [ [ [ 38.8187528, 8.8385423 ], [ 38.8194555, 8.8384522 ], [ 38.8188037, 8.8381182 ], [ 38.8187528, 8.8385423 ] ] ] } },
{ "type": "Feature", "properties": { "threshold_s": 900, "time_label": "15 min walk" }, "geometry": { "type": "Polygon", "coordinates": [ [ [ 38.8187528, 8.8385423 ], [ 38.8194555, 8.8384522 ], [ 38.8188037, 8.8381182 ], [ 38.8187528, 8.8385423 ] ] ] } },
{ "type": "Feature", "properties": { "threshold_s": 300, "time_label": "5 min walk" }, "geometry": { "type": "Polygon", "coordinates": [ [ [ 38.7289906, 8.9588266 ], [ 38.729041, 8.9596688 ], [ 38.7295306, 8.9596922 ], [ 38.7299576, 8.9602124 ], [ 38.7302853, 8.9602487 ], [ 38.7307999, 8.9610293 ], [ 38.730925, 8.9610334 ], [ 38.7309768, 8.9602939 ], [ 38.7316363, 8.9603335 ], [ 38.732747, 8.9604117 ], [ 38.7313851, 8.9597377 ], [ 38.7314048, 8.9591639 ], [ 38.7318209, 8.9587663 ], [ 38.7326381, 8.9587993 ], [ 38.7326029, 8.9580579 ], [ 38.7325627, 8.9575545 ], [ 38.7319449, 8.9575914 ], [ 38.7320946, 8.9580911 ], [ 38.7314187, 8.9587581 ], [ 38.7306174, 8.9583361 ], [ 38.7303713, 8.9579188 ], [ 38.730846, 8.957169 ], [ 38.7304343, 8.957385 ], [ 38.7300856, 8.9575519 ], [ 38.7297839, 8.9566203 ], [ 38.7294878, 8.9572678 ], [ 38.7295908, 8.9577464 ], [ 38.7298553, 8.958139 ], [ 38.7304493, 8.9590865 ], [ 38.7296042, 8.959184 ], [ 38.7289718, 8.9585153 ], [ 38.7289906, 8.9588266 ] ] ] } },
{ "type": "Feature", "properties": { "threshold_s": 600, "time_label": "10 min walk" }, "geometry": { "type": "Polygon", "coordinates": [ [ [ 38.7276671, 8.9616568 ], [ 38.7287871, 8.9630458 ], [ 38.7301772, 8.9634235 ], [ 38.7313628, 8.9639153 ], [ 38.7328751, 8.963896 ], [ 38.7329448, 8.9629303 ], [ 38.7329381, 8.9628062 ], [ 38.7328098, 8.9616034 ], [ 38.732786, 8.9611908 ], [ 38.732747, 8.9604117 ], [ 38.7328463, 8.9584812 ], [ 38.7342069, 8.9572962 ], [ 38.7339325, 8.9567242 ], [ 38.7336302, 8.955215 ], [ 38.7335953, 8.9548136 ], [ 38.7325533, 8.954595 ], [ 38.732454, 8.9546242 ], [ 38.7304913, 8.9542943 ], [ 38.728762, 8.9552402 ], [ 38.7272777, 8.9556214 ], [ 38.7268308, 8.9567901 ], [ 38.7261992, 8.958587 ], [ 38.7260865, 8.959898 ], [ 38.7267066, 8.9607585 ], [ 38.7276671, 8.9616568 ] ] ] } },
{ "type": "Feature", "properties": { "threshold_s": 900, "time_label": "15 min walk" }, "geometry": { "type": "Polygon", "coordinates": [ [ [ 38.7240238, 8.9618074 ], [ 38.7257337, 8.9638441 ], [ 38.726486, 8.9645515 ], [ 38.727375, 8.9653815 ], [ 38.727859, 8.965116 ], [ 38.7281743, 8.9649549 ], [ 38.7288639, 8.9647068 ], [ 38.7316319, 8.965397 ], [ 38.7319364, 8.9671037 ], [ 38.7319965, 8.9671521 ], [ 38.7335819, 8.9654407 ], [ 38.7338065, 8.9651427 ], [ 38.7338521, 8.9650684 ], [ 38.7338797, 8.9650101 ], [ 38.7339849, 8.9640239 ], [ 38.7342022, 8.9612698 ], [ 38.7352127, 8.9596384 ], [ 38.7346347, 8.9577797 ], [ 38.7364709, 8.9560006 ], [ 38.7339325, 8.9567242 ], [ 38.7336302, 8.955215 ], [ 38.7335953, 8.9548136 ], [ 38.7337321, 8.9525244 ], [ 38.7335833, 8.9510445 ], [ 38.7332238, 8.9503326 ], [ 38.7320356, 8.9508781 ], [ 38.7314631, 8.9511842 ], [ 38.7307759, 8.9516244 ], [ 38.7304996, 8.954063 ], [ 38.7299825, 8.9543731 ], [ 38.728762, 8.9552402 ], [ 38.7272777, 8.9556214 ], [ 38.7266015, 8.9562245 ], [ 38.7255286, 8.9576791 ], [ 38.7241237, 8.9600798 ], [ 38.7234579, 8.9612559 ], [ 38.7240238, 8.9618074 ] ] ] } },
{ "type": "Feature", "properties": { "threshold_s": 300, "time_label": "5 min walk" }, "geometry": { "type": "Polygon", "coordinates": [ [ [ 38.7963597, 8.985694 ], [ 38.79583430000001, 8.9860596 ], [ 38.796667, 8.9857895 ], [ 38.7970377, 8.9853561 ], [ 38.79769790000001, 8.9855921 ], [ 38.7979094, 8.9848105 ], [ 38.7980515, 8.9842843 ], [ 38.7972645, 8.984359 ], [ 38.7969438, 8.984042 ], [ 38.7966164, 8.9841698 ], [ 38.7965285, 8.9842 ], [ 38.7958898, 8.984212 ], [ 38.7952921, 8.9837041 ], [ 38.7952475, 8.9835606 ], [ 38.7951886, 8.9843864 ], [ 38.7952496, 8.9848685 ], [ 38.7955383, 8.9851921 ], [ 38.7959355, 8.9850583 ], [ 38.7963597, 8.985694 ] ] ] } },
{ "type": "Feature", "properties": { "threshold_s": 600, "time_label": "10 min walk" }, "geometry": { "type": "Polygon", "coordinates": [ [ [ 38.7947336, 8.9876264 ], [ 38.7948121, 8.988467 ], [ 38.7950009, 8.9878822 ], [ 38.7962286, 8.9869708 ], [ 38.7969504, 8.9865892 ], [ 38.7984795, 8.9861927 ], [ 38.799967, 8.9868141 ], [ 38.8006157, 8.986113 ], [ 38.8021236, 8.9853287 ], [ 38.8009586, 8.9855935 ], [ 38.8002052, 8.9847969 ], [ 38.7998472, 8.9840663 ], [ 38.7996849, 8.9846301 ], [ 38.7995644, 8.9850932 ], [ 38.7985792, 8.9856667 ], [ 38.7979094, 8.9848105 ], [ 38.7980515, 8.9842843 ], [ 38.7969438, 8.984042 ], [ 38.7966164, 8.9841698 ], [ 38.7952475, 8.9835606 ], [ 38.7936495, 8.9838739 ], [ 38.7920851, 8.9841317 ], [ 38.7919637, 8.9840926 ], [ 38.7923087, 8.9852878 ], [ 38.7929046, 8.9852543 ], [ 38.7930244, 8.9851688 ], [ 38.7939513, 8.9846698 ], [ 38.7945386, 8.984784 ], [ 38.7951953, 8.9859305 ], [ 38.7946243, 8.9864296 ], [ 38.7946746, 8.9866859 ], [ 38.7947336, 8.9876264 ] ] ] } },
{ "type": "Feature", "properties": { "threshold_s": 900, "time_label": "15 min walk" }, "geometry": { "type": "Polygon", "coordinates": [ [ [ 38.7911745, 8.9882146 ], [ 38.7928077, 8.9908644 ], [ 38.7944312, 8.9913036 ], [ 38.7953449, 8.9913077 ], [ 38.79654, 8.9900417 ], [ 38.7967419, 8.9891166 ], [ 38.7965669, 8.9878238 ], [ 38.799967, 8.9868141 ], [ 38.8021714, 8.9855567 ], [ 38.8035396, 8.9855276 ], [ 38.8052424, 8.9853811 ], [ 38.8038424, 8.9842644 ], [ 38.8020679, 8.9845643 ], [ 38.7998472, 8.9840663 ], [ 38.7969438, 8.984042 ], [ 38.7952475, 8.9835606 ], [ 38.7933715, 8.9829499 ], [ 38.7921001, 8.982635 ], [ 38.790152, 8.9832005 ], [ 38.7891682, 8.9843015 ], [ 38.7908932, 8.9872382 ], [ 38.7908943, 8.9878711 ], [ 38.7911745, 8.9882146 ] ] ] } },
{ "type": "Feature", "properties": { "threshold_s": 300, "time_label": "5 min walk" }, "geometry": { "type": "Polygon", "coordinates": [ [ [ 38.7965285, 8.9842 ], [ 38.7952475, 8.9835606 ], [ 38.7964753, 8.9843808 ], [ 38.79655, 8.9844038 ], [ 38.7966149, 8.9844226 ], [ 38.7969499, 8.9845199 ], [ 38.7971187, 8.984569 ], [ 38.7974351, 8.984636 ], [ 38.7977784, 8.9847761 ], [ 38.7979094, 8.9848105 ], [ 38.7974665, 8.9844578 ], [ 38.7972645, 8.984359 ], [ 38.7969438, 8.984042 ], [ 38.7966164, 8.9841698 ], [ 38.7965285, 8.9842 ] ] ] } },
{ "type": "Feature", "properties": { "threshold_s": 600, "time_label": "10 min walk" }, "geometry": { "type": "Polygon", "coordinates": [ [ [ 38.7951953, 8.9859305 ], [ 38.7947485, 8.9864667 ], [ 38.7948856, 8.9865074 ], [ 38.7958169, 8.986118 ], [ 38.7962286, 8.9869708 ], [ 38.7969504, 8.9865892 ], [ 38.79769790000001, 8.9855921 ], [ 38.7979094, 8.9848105 ], [ 38.7995644, 8.9850932 ], [ 38.7994755, 8.9854093 ], [ 38.7996398, 8.9856334 ], [ 38.7997874, 8.9861208 ], [ 38.79984180000001, 8.9851175 ], [ 38.7998032, 8.9846647 ], [ 38.7996849, 8.9846301 ], [ 38.7980515, 8.9842843 ], [ 38.7969438, 8.984042 ], [ 38.7966164, 8.9841698 ], [ 38.7965285, 8.9842 ], [ 38.7958898, 8.984212 ], [ 38.7952475, 8.9835606 ], [ 38.7941085, 8.984136 ], [ 38.7936495, 8.9838739 ], [ 38.7935615, 8.9841905 ], [ 38.7939513, 8.9846698 ], [ 38.7952496, 8.9848685 ], [ 38.7951953, 8.9859305 ] ] ] } },
{ "type": "Feature", "properties": { "threshold_s": 900, "time_label": "15 min walk" }, "geometry": { "type": "Polygon", "coordinates": [ [ [ 38.7920286, 8.9871575 ], [ 38.7935246, 8.9897445 ], [ 38.7945593, 8.9897957 ], [ 38.7952325, 8.9888119 ], [ 38.7969504, 8.9865892 ], [ 38.799967, 8.9868141 ], [ 38.8021714, 8.9855567 ], [ 38.8035562, 8.9852867 ], [ 38.8026121, 8.9847191 ], [ 38.8020679, 8.9845643 ], [ 38.7998472, 8.9840663 ], [ 38.7969438, 8.984042 ], [ 38.7952475, 8.9835606 ], [ 38.7933715, 8.9829499 ], [ 38.7924296, 8.9827868 ], [ 38.7912949, 8.9845058 ], [ 38.7912704, 8.9845819 ], [ 38.7920286, 8.9871575 ] ] ] } }
]
}
