{
"type": "FeatureCollection",
"name": "isochrone_shop_seafood_walk",
"crs": { "type": "name", "properties": { "name": "urn:ogc:def:crs:OGC:1.3:CRS84" } },
"features": [
{ "type": "Feature", "properties": { "threshold_s": 300, "time_label": "5 min walk" }, "geometry": { "type": "Polygon", "coordinates": [ [ [ 38.765693, 8.9464065 ], [ 38.7655546, 8.9467026 ], [ 38.7660554, 8.9469127 ], [ 38.7665878, 8.9461363 ], [ 38.7677867, 8.9460398 ], [ 38.7685364, 8.9458972 ], [ 38.769277, 8.9450079 ], [ 38.7692861, 8.9449012 ], [ 38.769171299999989, 8.9448794 ], [ 38.7682521, 8.9442094 ], [ 38.7681974, 8.9428695 ], [ 38.768933, 8.9424465 ], [ 38.7678042, 8.9420215 ], [ 38.7667984, 8.9416214 ], [ 38.7662638, 8.9423593 ], [ 38.7671109, 8.9429131 ], [ 38.7668976, 8.9436047 ], [ 38.7666417, 8.9438247 ], [ 38.7665323, 8.9445711 ], [ 38.76614, 8.9454291 ], [ 38.7657718, 8.9462341 ], [ 38.765693, 8.9464065 ] ] ] } },
{ "type": "Feature", "properties": { "threshold_s": 600, "time_label": "10 min walk" }, "geometry": { "type": "Polygon", "coordinates": [ [ [ 38.763646, 8.9490271 ], [ 38.7639137, 8.9498097 ], [ 38.7641003, 8.9498037 ], [ 38.7648051, 8.949765 ], [ 38.7659682, 8.9489171 ], [ 38.7676983, 8.9477804 ], [ 38.7688543, 8.9481925 ], [ 38.7690866, 8.9482177 ], [ 38.7709176, 8.9468934 ], [ 38.7707309, 8.9445414 ], [ 38.7713803, 8.943855 ], [ 38.7714078, 8.9431754 ], [ 38.7704475, 8.9409736 ], [ 38.770076, 8.9402264 ], [ 38.7698051, 8.9401416 ], [ 38.7675802, 8.9402184 ], [ 38.7658234, 8.9398979 ], [ 38.7643126, 8.9385509 ], [ 38.7641547, 8.9385877 ], [ 38.7644106, 8.9400816 ], [ 38.7650496, 8.9408491 ], [ 38.7662638, 8.9423593 ], [ 38.7666417, 8.9438247 ], [ 38.7652125, 8.9458745 ], [ 38.7634604, 8.9466729 ], [ 38.7633286, 8.9472115 ], [ 38.763646, 8.9490271 ] ] ] } },
{ "type": "Feature", "properties": { "threshold_s": 900, "time_label": "15 min walk" }, "geometry": { "type": "Polygon", "coordinates": [ [ [ 38.7634726, 8.9521439 ], [ 38.7633968, 8.9532148 ], [ 38.7635522, 8.9530723 ], [ 38.7656665, 8.9516289 ], [ 38.7667395, 8.9515655 ], [ 38.7686352, 8.9514666 ], [ 38.7692264, 8.9514427 ], [ 38.7696299, 8.9510977 ], [ 38.7714238, 8.9497874 ], [ 38.7714547, 8.9494682 ], [ 38.7714533, 8.9491198 ], [ 38.7714319, 8.9487243 ], [ 38.771338, 8.9480016 ], [ 38.7713005, 8.9475638 ], [ 38.7709176, 8.9468934 ], [ 38.7707309, 8.9445414 ], [ 38.7721293, 8.9438537 ], [ 38.7731861, 8.9433383 ], [ 38.7732589, 8.9417349 ], [ 38.773277899999989, 8.940861 ], [ 38.7723837, 8.9394358 ], [ 38.7711035, 8.938612 ], [ 38.7710331, 8.9386429 ], [ 38.7709925, 8.9387176 ], [ 38.7698051, 8.9401416 ], [ 38.7675802, 8.9402184 ], [ 38.7670626, 8.9377927 ], [ 38.7648521, 8.9371955 ], [ 38.7650719, 8.9356923 ], [ 38.7649044, 8.9355627 ], [ 38.7644369, 8.936242 ], [ 38.7640333, 8.9369592 ], [ 38.7636173, 8.939002 ], [ 38.7644106, 8.9400816 ], [ 38.7650496, 8.9408491 ], [ 38.7662638, 8.9423593 ], [ 38.7660152, 8.9436894 ], [ 38.7655901, 8.9449962 ], [ 38.76331960000001, 8.9442048 ], [ 38.7622169, 8.9448458 ], [ 38.7619528, 8.9455268 ], [ 38.7623253, 8.9463102 ], [ 38.7624921, 8.9481619 ], [ 38.7616472, 8.9489528 ], [ 38.7624022, 8.9501226 ], [ 38.7634726, 8.9521439 ] ] ] } },
{ "type": "Feature", "properties": { "threshold_s": 300, "time_label": "5 min walk" }, "geometry": { "type": "Polygon", "coordinates": [ [ [ 38.7299744, 9.0205699 ], [ 38.7301341, 9.0212069 ], [ 38.7302154, 9.0211062 ], [ 38.7302496, 9.0210369 ], [ 38.7307501, 9.0205858 ], [ 38.7314442, 9.0210243 ], [ 38.7315086, 9.0213183 ], [ 38.7325466, 9.0212773 ], [ 38.7333554, 9.0214673 ], [ 38.7338542, 9.0218874 ], [ 38.7335879, 9.0225953 ], [ 38.7331339, 9.0231501 ], [ 38.7335133, 9.0231482 ], [ 38.7336241, 9.0231117 ], [ 38.7349658, 9.0222472 ], [ 38.7352817, 9.0225768 ], [ 38.7353234, 9.0225052 ], [ 38.7353951, 9.0222044 ], [ 38.7350764, 9.0222529 ], [ 38.7349056, 9.0212124 ], [ 38.7343705, 9.0215249 ], [ 38.733733, 9.0209675 ], [ 38.7336694, 9.0207008 ], [ 38.7339138, 9.019717 ], [ 38.7342263, 9.0195501 ], [ 38.7350858, 9.0192578 ], [ 38.7351415, 9.0192518 ], [ 38.7352012, 9.0192473 ], [ 38.7352341, 9.0192439 ], [ 38.7351561, 9.0186216 ], [ 38.7350467, 9.0183193 ], [ 38.7348828, 9.0181846 ], [ 38.7347157, 9.0185029 ], [ 38.7338581, 9.0177069 ], [ 38.7337844, 9.0177171 ], [ 38.7337924, 9.0190342 ], [ 38.7333242, 9.0191225 ], [ 38.7329435, 9.0192455 ], [ 38.7326105, 9.0193875 ], [ 38.7315595, 9.0191872 ], [ 38.7315421, 9.0187223 ], [ 38.7317332, 9.0179276 ], [ 38.7316634, 9.0179607 ], [ 38.7309641, 9.0187642 ], [ 38.7309895, 9.0190137 ], [ 38.7305752, 9.020013 ], [ 38.7299744, 9.0205699 ] ] ] } },
{ "type": "Feature", "properties": { "threshold_s": 600, "time_label": "10 min walk" }, "geometry": { "type": "Polygon", "coordinates": [ [ [ 38.7280311, 9.0226667 ], [ 38.7285916, 9.0235727 ], [ 38.7287486, 9.0235938 ], [ 38.7297566, 9.024443 ], [ 38.7300828, 9.0244942 ], [ 38.730913, 9.025325 ], [ 38.7318512, 9.0254465 ], [ 38.7326794, 9.0264004 ], [ 38.7336038, 9.0265246 ], [ 38.7343523, 9.0258096 ], [ 38.7350913, 9.0251539 ], [ 38.7357245, 9.0251981 ], [ 38.7364422, 9.0248814 ], [ 38.7376528, 9.0246336 ], [ 38.7376964, 9.024566 ], [ 38.7375107, 9.023568 ], [ 38.736505, 9.0227763 ], [ 38.7366142, 9.0220687 ], [ 38.7373725, 9.0217084 ], [ 38.7375268, 9.0216362 ], [ 38.7382368, 9.0213181 ], [ 38.7370634, 9.0215011 ], [ 38.7362284, 9.0207347 ], [ 38.7368403, 9.0201477 ], [ 38.7374539, 9.0193167 ], [ 38.7379616, 9.0187866 ], [ 38.7370291, 9.0178221 ], [ 38.7367388, 9.0177357 ], [ 38.7362461, 9.0176154 ], [ 38.7362614, 9.0164223 ], [ 38.7357653, 9.0164162 ], [ 38.7348857, 9.016125 ], [ 38.734748, 9.01525 ], [ 38.7347386, 9.0151805 ], [ 38.7340651, 9.01539 ], [ 38.7337296, 9.0158558 ], [ 38.7327082, 9.0161469 ], [ 38.7321147, 9.0160174 ], [ 38.7323451, 9.0164854 ], [ 38.7322897, 9.0170229 ], [ 38.7311444, 9.017462 ], [ 38.730614, 9.0164454 ], [ 38.7303847, 9.0156057 ], [ 38.729859, 9.0157951 ], [ 38.729665, 9.0163145 ], [ 38.7289878, 9.0171724 ], [ 38.7294848, 9.0178719 ], [ 38.7284774, 9.0185988 ], [ 38.7276612, 9.0186502 ], [ 38.7276309, 9.0186752 ], [ 38.7274374, 9.0188895 ], [ 38.7275369, 9.0198349 ], [ 38.7270636, 9.0207927 ], [ 38.7270418, 9.020819 ], [ 38.7276301, 9.0216799 ], [ 38.7280311, 9.0226667 ] ] ] } },
{ "type": "Feature", "properties": { "threshold_s": 900, "time_label": "15 min walk" }, "geometry": { "type": "Polygon", "coordinates": [ [ [ 38.727897, 9.025717 ], [ 38.7274925, 9.0263393 ], [ 38.7285072, 9.0272322 ], [ 38.7289309, 9.0272892 ], [ 38.729344, 9.0273422 ], [ 38.7296645, 9.0273925 ], [ 38.7314012, 9.028828 ], [ 38.7326887, 9.0300746 ], [ 38.7338878, 9.0292468 ], [ 38.7352941, 9.0281731 ], [ 38.7371384, 9.0278527 ], [ 38.7388882, 9.0272425 ], [ 38.7395605, 9.0269898 ], [ 38.7400721, 9.0262786 ], [ 38.7401153, 9.0262136 ], [ 38.7401624, 9.0247706 ], [ 38.7398328, 9.0227395 ], [ 38.7402526, 9.0209866 ], [ 38.7409479, 9.0205726 ], [ 38.7410156, 9.0203514 ], [ 38.7409572, 9.0194029 ], [ 38.7403048, 9.0186944 ], [ 38.739987, 9.0173209 ], [ 38.7398939, 9.016366 ], [ 38.7395689, 9.0162778 ], [ 38.7383936, 9.014612 ], [ 38.7367613, 9.0137791 ], [ 38.7360975, 9.0129601 ], [ 38.7343774, 9.0117304 ], [ 38.7339737, 9.011497 ], [ 38.7340052, 9.0117332 ], [ 38.7341732, 9.0119881 ], [ 38.734448, 9.0130864 ], [ 38.7330361, 9.0140917 ], [ 38.7314063, 9.0144722 ], [ 38.7308068, 9.0146302 ], [ 38.7289514, 9.0141945 ], [ 38.7286815, 9.0130056 ], [ 38.7286933, 9.0122012 ], [ 38.7285514, 9.0122122 ], [ 38.7282282, 9.0131857 ], [ 38.7269328, 9.0147644 ], [ 38.7267289, 9.0152361 ], [ 38.7266323, 9.0168388 ], [ 38.7259972, 9.0187935 ], [ 38.7248057, 9.0196475 ], [ 38.7248017, 9.020913 ], [ 38.7248138, 9.0226097 ], [ 38.7264175, 9.0239088 ], [ 38.7272261, 9.024072 ], [ 38.727897, 9.025717 ] ] ] } }
]
}
