{
"type": "FeatureCollection",
"name": "isochrone_amenity_vending_machine_drive",
"crs": { "type": "name", "properties": { "name": "urn:ogc:def:crs:OGC:1.3:CRS84" } },
"features": [
{ "type": "Feature", "properties": { "threshold_s": 300, "time_label": "5 min drive" }, "geometry": { "type": "Polygon", "coordinates": [ [ [ 38.7568648, 8.953775 ], [ 38.7575533, 8.9552783 ], [ 38.7583783, 8.9557775 ], [ 38.7625686, 8.9544556 ], [ 38.7633968, 8.9532148 ], [ 38.7650031, 8.9478818 ], [ 38.7700067, 8.9466207 ], [ 38.7752353, 8.9448798 ], [ 38.7753128, 8.9447178 ], [ 38.7756208, 8.9404072 ], [ 38.7792063, 8.9382432 ], [ 38.7783037, 8.9326126 ], [ 38.7762034, 8.9294299 ], [ 38.7743514, 8.9265391 ], [ 38.7734222, 8.922559 ], [ 38.768427, 8.9210203 ], [ 38.7633703, 8.9187415 ], [ 38.7589368, 8.9225986 ], [ 38.7589558, 8.9240405 ], [ 38.7589171, 8.9271134 ], [ 38.7550425, 8.9308073 ], [ 38.753863, 8.9311467 ], [ 38.7525392, 8.9318241 ], [ 38.7503852, 8.9328834 ], [ 38.7499658, 8.9330847 ], [ 38.748243, 8.9339575 ], [ 38.7472702, 8.9344655 ], [ 38.7460205, 8.9352317 ], [ 38.7457651, 8.9364811 ], [ 38.7471375, 8.9381912 ], [ 38.7482171, 8.9392368 ], [ 38.7493833, 8.9401641 ], [ 38.7495044, 8.9402512 ], [ 38.7502438, 8.9406284 ], [ 38.7511073, 8.9410961 ], [ 38.7514888, 8.941306 ], [ 38.7524182, 8.9418394 ], [ 38.7548051, 8.9422793 ], [ 38.7551555, 8.9424456 ], [ 38.7555659, 8.9425462 ], [ 38.7562734, 8.9428018 ], [ 38.7599544, 8.9471517 ], [ 38.7565441, 8.950121 ], [ 38.7562682, 8.9524804 ], [ 38.7565377, 8.9530673 ], [ 38.7568648, 8.953775 ] ] ] } },
{ "type": "Feature", "properties": { "threshold_s": 600, "time_label": "10 min drive" }, "geometry": { "type": "Polygon", "coordinates": [ [ [ 38.7415858, 8.9646898 ], [ 38.7428784, 8.9669177 ], [ 38.7478244, 8.9708268 ], [ 38.7513396, 8.9729125 ], [ 38.755698, 8.9743462 ], [ 38.7576654, 8.9743967 ], [ 38.7609811, 8.972653 ], [ 38.7668531, 8.9689063 ], [ 38.768958499999989, 8.9650687 ], [ 38.7718099, 8.962378 ], [ 38.7805062, 8.9613459 ], [ 38.781147, 8.9615179 ], [ 38.7828497, 8.9618599 ], [ 38.7843645, 8.9622353 ], [ 38.7848107, 8.9622522 ], [ 38.7911107, 8.9555044 ], [ 38.7961566, 8.9508785 ], [ 38.797912, 8.9482878 ], [ 38.7980971, 8.946804 ], [ 38.798516, 8.9415449 ], [ 38.7949871, 8.9386075 ], [ 38.7962834, 8.9296774 ], [ 38.7965722, 8.9284864 ], [ 38.7970081, 8.9256055 ], [ 38.7970939, 8.9247639 ], [ 38.7917979, 8.9235082 ], [ 38.7891434, 8.9175704 ], [ 38.789882, 8.9100642 ], [ 38.7880267, 8.90952 ], [ 38.780236, 8.912336 ], [ 38.7759864, 8.9067897 ], [ 38.7757426, 8.9049629 ], [ 38.7720864, 8.9013241 ], [ 38.7693296, 8.898554 ], [ 38.7692171, 8.8984296 ], [ 38.7662472, 8.8981334 ], [ 38.7642181, 8.8986793 ], [ 38.760588, 8.900223 ], [ 38.7541857, 8.9036917 ], [ 38.7499122, 8.9073969 ], [ 38.7483513, 8.9089845 ], [ 38.7487391, 8.9105984 ], [ 38.7412913, 8.9164254 ], [ 38.7406764, 8.9165982 ], [ 38.7377036, 8.9176375 ], [ 38.7367911, 8.9179437 ], [ 38.7340388, 8.9186463 ], [ 38.7315776, 8.9244485 ], [ 38.731455, 8.9248447 ], [ 38.7312119, 8.9308116 ], [ 38.7280331, 8.9344362 ], [ 38.7271837, 8.9353146 ], [ 38.7257952, 8.9370567 ], [ 38.725255, 8.9382074 ], [ 38.724478499999989, 8.9399352 ], [ 38.7246563, 8.9403108 ], [ 38.7274166, 8.9427525 ], [ 38.731908, 8.9493092 ], [ 38.7322864, 8.9497901 ], [ 38.7381752, 8.9526622 ], [ 38.7403759, 8.9568763 ], [ 38.7404933, 8.9609058 ], [ 38.7414488, 8.9644008 ], [ 38.7415858, 8.9646898 ] ] ] } },
{ "type": "Feature", "properties": { "threshold_s": 900, "time_label": "15 min drive" }, "geometry": { "type": "Polygon", "coordinates": [ [ [ 38.7318328, 8.9802179 ], [ 38.7342611, 8.9829166 ], [ 38.7435663, 8.9896464 ], [ 38.7479952, 8.9924244 ], [ 38.7481062, 8.9924875 ], [ 38.7561431, 8.9956094 ], [ 38.7597039, 8.9959808 ], [ 38.7606917, 8.9957366 ], [ 38.7668799, 8.9927481 ], [ 38.7730707, 8.9907022 ], [ 38.7791983, 8.9832948 ], [ 38.7792129, 8.982598 ], [ 38.7787651, 8.9799759 ], [ 38.7787516, 8.9794447 ], [ 38.7828796, 8.9680649 ], [ 38.7919347, 8.9698281 ], [ 38.8031926, 8.9653287 ], [ 38.805922, 8.9637815 ], [ 38.8060082, 8.9605034 ], [ 38.8081755, 8.9500842 ], [ 38.8106579, 8.9427237 ], [ 38.8129992, 8.9368379 ], [ 38.8197251, 8.931782 ], [ 38.8187134, 8.9297197 ], [ 38.8102117, 8.9227072 ], [ 38.8103741, 8.9178407 ], [ 38.8103355, 8.9178129 ], [ 38.8085222, 8.9165215 ], [ 38.8056314, 8.916905 ], [ 38.802403, 8.9050619 ], [ 38.8040568, 8.904122 ], [ 38.8051287, 8.9028034 ], [ 38.8024522, 8.8989146 ], [ 38.8023756, 8.8988984 ], [ 38.8000228, 8.9001321 ], [ 38.7902164, 8.8932525 ], [ 38.7865004, 8.8858379 ], [ 38.785784, 8.8830454 ], [ 38.7851219, 8.8823713 ], [ 38.7786224, 8.878823 ], [ 38.7768848, 8.8792721 ], [ 38.7732901, 8.8803285 ], [ 38.7727121, 8.8806094 ], [ 38.7600581, 8.8813788 ], [ 38.7541277, 8.8850964 ], [ 38.7534543, 8.8857183 ], [ 38.7532318, 8.8859409 ], [ 38.7524524, 8.8870235 ], [ 38.7433773, 8.8943519 ], [ 38.7362117, 8.9011704 ], [ 38.7350826, 8.9022633 ], [ 38.7337589, 8.9040162 ], [ 38.7313695, 8.9071775 ], [ 38.727289399999989, 8.9135477 ], [ 38.7199563, 8.9207989 ], [ 38.7135529, 8.9224308 ], [ 38.7126206, 8.9234769 ], [ 38.7118909, 8.9244636 ], [ 38.7082048, 8.9329563 ], [ 38.706592, 8.9420225 ], [ 38.7054191, 8.94852 ], [ 38.7053463, 8.9498908 ], [ 38.7054627, 8.9500962 ], [ 38.7079018, 8.9528322 ], [ 38.7128143, 8.9569829 ], [ 38.7188681, 8.9640159 ], [ 38.7238605, 8.9678774 ], [ 38.7294311, 8.9723348 ], [ 38.7312524, 8.9791888 ], [ 38.7318328, 8.9802179 ] ] ] } }
]
}
