{
"type": "FeatureCollection",
"name": "isochrone_amenity_ice_cream_drive",
"crs": { "type": "name", "properties": { "name": "urn:ogc:def:crs:OGC:1.3:CRS84" } },
"features": [
{ "type": "Feature", "properties": { "threshold_s": 300, "time_label": "5 min drive" }, "geometry": { "type": "Polygon", "coordinates": [ [ [ 38.7677011, 8.9984807 ], [ 38.76939, 9.0019851 ], [ 38.7740211, 9.0034718 ], [ 38.7768298, 9.0066669 ], [ 38.776921, 9.0067186 ], [ 38.7810148, 9.0078206 ], [ 38.7822264, 9.0073517 ], [ 38.7892042, 9.0040436 ], [ 38.7946719, 8.9978068 ], [ 38.7965052, 8.9969379 ], [ 38.797957, 8.9920335 ], [ 38.7997874, 8.9861208 ], [ 38.7996331, 8.9854045 ], [ 38.7965669, 8.9878238 ], [ 38.791375, 8.9871117 ], [ 38.7899075, 8.9859732 ], [ 38.7880106, 8.9854871 ], [ 38.7855757, 8.9849273 ], [ 38.7842988, 8.9845215 ], [ 38.7787516, 8.9794447 ], [ 38.7777914, 8.9763594 ], [ 38.7755072, 8.9716351 ], [ 38.7752672, 8.9716781 ], [ 38.774991, 8.9719637 ], [ 38.7710859, 8.9752898 ], [ 38.766807300000011, 8.9766861 ], [ 38.7665647, 8.9780956 ], [ 38.7660167, 8.9836272 ], [ 38.76804, 8.9900825 ], [ 38.767995, 8.992182 ], [ 38.7677946, 8.9951778 ], [ 38.767748, 8.9969339 ], [ 38.7677011, 8.9984807 ] ] ] } },
{ "type": "Feature", "properties": { "threshold_s": 600, "time_label": "10 min drive" }, "geometry": { "type": "Polygon", "coordinates": [ [ [ 38.7519181, 9.0117755 ], [ 38.75421, 9.0174146 ], [ 38.7543747, 9.0174346 ], [ 38.7603636, 9.0186068 ], [ 38.7650922, 9.0223314 ], [ 38.7722297, 9.0251154 ], [ 38.7778281, 9.0263133 ], [ 38.7841265, 9.0281899 ], [ 38.7878562, 9.0238515 ], [ 38.7949194, 9.0209783 ], [ 38.7994298, 9.0188571 ], [ 38.8027118, 9.0169641 ], [ 38.8075053, 9.013942 ], [ 38.8091263, 9.0116086 ], [ 38.8094223, 9.0111091 ], [ 38.8098948, 9.0097693 ], [ 38.8108174, 9.0069524 ], [ 38.8130553, 9.0014912 ], [ 38.817709, 8.9947404 ], [ 38.8192158, 8.991556 ], [ 38.819903, 8.9889698 ], [ 38.8202319, 8.9873362 ], [ 38.8201058, 8.985035 ], [ 38.8097735, 8.9869675 ], [ 38.8079529, 8.9863615 ], [ 38.8066972, 8.9860036 ], [ 38.8035562, 8.9852867 ], [ 38.8021619, 8.9853275 ], [ 38.7996331, 8.9854045 ], [ 38.7971379, 8.9861223 ], [ 38.7899075, 8.9859732 ], [ 38.7880106, 8.9854871 ], [ 38.7855757, 8.9849273 ], [ 38.7842988, 8.9845215 ], [ 38.7787516, 8.9794447 ], [ 38.7777914, 8.9763594 ], [ 38.7828796, 8.9680649 ], [ 38.7909604, 8.9677523 ], [ 38.791118, 8.9670277 ], [ 38.7918006, 8.9634721 ], [ 38.7912011, 8.9611803 ], [ 38.7884846, 8.9599091 ], [ 38.7849793, 8.9587603 ], [ 38.7825027, 8.9609419 ], [ 38.7728159, 8.9599105 ], [ 38.7714929, 8.9586625 ], [ 38.7698044, 8.9575412 ], [ 38.7692517, 8.9571825 ], [ 38.7673704, 8.9560994 ], [ 38.7650679, 8.956913 ], [ 38.7640562, 8.9583092 ], [ 38.7639042, 8.9599587 ], [ 38.7637591, 8.9608204 ], [ 38.7635887, 8.9618935 ], [ 38.7634032, 8.9632481 ], [ 38.7633086, 8.9638436 ], [ 38.7570116, 8.9719198 ], [ 38.7549873, 8.972556 ], [ 38.7514057, 8.9760475 ], [ 38.7497169, 8.9780273 ], [ 38.7478409, 8.9829408 ], [ 38.7478159, 8.9834376 ], [ 38.747417, 8.9945813 ], [ 38.7480953, 8.9961093 ], [ 38.748491, 8.9968656 ], [ 38.7495281, 8.9980622 ], [ 38.7526401, 9.0079989 ], [ 38.7519181, 9.0117755 ] ] ] } },
{ "type": "Feature", "properties": { "threshold_s": 900, "time_label": "15 min drive" }, "geometry": { "type": "Polygon", "coordinates": [ [ [ 38.7354575, 9.0226442 ], [ 38.7394966, 9.0315341 ], [ 38.7438169, 9.0339358 ], [ 38.7461888, 9.0344437 ], [ 38.7535757, 9.0366681 ], [ 38.7599283, 9.0398541 ], [ 38.7620077, 9.0410376 ], [ 38.7678988, 9.0418997 ], [ 38.773845, 9.0443406 ], [ 38.7837454, 9.0436066 ], [ 38.7848159, 9.0430688 ], [ 38.788646, 9.0371199 ], [ 38.788999, 9.0366321 ], [ 38.7898711, 9.0353037 ], [ 38.7997189, 9.0335465 ], [ 38.8103267, 9.0327174 ], [ 38.8116564, 9.0325841 ], [ 38.8191392, 9.0273882 ], [ 38.8219882, 9.0245452 ], [ 38.8260465, 9.0197698 ], [ 38.8272261, 9.0165398 ], [ 38.8310436, 9.0083342 ], [ 38.833964, 9.0005222 ], [ 38.8352029, 8.9923179 ], [ 38.8362522, 8.9897445 ], [ 38.837623, 8.9862396 ], [ 38.8371688, 8.9852844 ], [ 38.8304619, 8.9779273 ], [ 38.8303922, 8.9744672 ], [ 38.8300543, 8.9713237 ], [ 38.8289182, 8.9663006 ], [ 38.8282921, 8.9652772 ], [ 38.8249257, 8.9633665 ], [ 38.8203894, 8.9657676 ], [ 38.812587, 8.9643801 ], [ 38.8092054, 8.9565742 ], [ 38.8091867, 8.956149 ], [ 38.8024449, 8.9558072 ], [ 38.7980971, 8.946804 ], [ 38.7979241, 8.9466321 ], [ 38.7978771, 8.9465934 ], [ 38.7959191, 8.9457137 ], [ 38.7904421, 8.9442075 ], [ 38.7855926, 8.941632 ], [ 38.7829064, 8.9401681 ], [ 38.7739408, 8.9357277 ], [ 38.7731928, 8.9355856 ], [ 38.7684385, 8.9360281 ], [ 38.7598421, 8.9405589 ], [ 38.7525377, 8.9420308 ], [ 38.7504082, 8.9479861 ], [ 38.7476609, 8.9574208 ], [ 38.7464974, 8.9584282 ], [ 38.746077, 8.9588322 ], [ 38.7424721, 8.9617445 ], [ 38.7333485, 8.9648141 ], [ 38.7340753, 8.9706794 ], [ 38.730666, 8.9793425 ], [ 38.7291629, 8.9813164 ], [ 38.7286379, 8.9825447 ], [ 38.7299655, 8.9905415 ], [ 38.7298218, 8.9964402 ], [ 38.7297547, 8.997279 ], [ 38.7292146, 9.0052443 ], [ 38.7316869, 9.0097061 ], [ 38.7321147, 9.0160174 ], [ 38.7322897, 9.0170229 ], [ 38.7354575, 9.0226442 ] ] ] } },
{ "type": "Feature", "properties": { "threshold_s": 300, "time_label": "5 min drive" }, "geometry": { "type": "Polygon", "coordinates": [ [ [ 38.7306458, 8.9975836 ], [ 38.7307139, 8.9976947 ], [ 38.7308209, 8.9976433 ], [ 38.7344089, 8.9966973 ], [ 38.7371778, 8.998569 ], [ 38.7368938, 9.0019137 ], [ 38.7375899, 9.0023508 ], [ 38.7414856, 9.0033531 ], [ 38.7453515, 9.0035301 ], [ 38.7469735, 9.0027395 ], [ 38.750249599999989, 9.0023687 ], [ 38.7508607, 9.0022828 ], [ 38.7530485, 9.0017179 ], [ 38.756643, 8.9997752 ], [ 38.7568953, 8.999106 ], [ 38.7580262, 8.9952112 ], [ 38.7586913, 8.9945654 ], [ 38.7591808, 8.9929533 ], [ 38.7593683, 8.989876 ], [ 38.7622024, 8.9876198 ], [ 38.7634392, 8.9867237 ], [ 38.764763, 8.9826604 ], [ 38.7643836, 8.9807645 ], [ 38.7640365, 8.9799769 ], [ 38.7623526, 8.9769294 ], [ 38.7620297, 8.9769472 ], [ 38.7598425, 8.9769483 ], [ 38.7596897, 8.9769291 ], [ 38.759463599999989, 8.9769388 ], [ 38.7553018, 8.9781789 ], [ 38.755698, 8.9743462 ], [ 38.7556491, 8.9741679 ], [ 38.7555309, 8.9737591 ], [ 38.7519374, 8.9714592 ], [ 38.7493646, 8.9693139 ], [ 38.7463116, 8.9676211 ], [ 38.7433183, 8.9689843 ], [ 38.739233, 8.9709154 ], [ 38.7383361, 8.971329 ], [ 38.7346587, 8.9739573 ], [ 38.7339346, 8.9746786 ], [ 38.7341784, 8.9766996 ], [ 38.7328719, 8.9802039 ], [ 38.7311625, 8.9804746 ], [ 38.73054470000001, 8.9810628 ], [ 38.7294422, 8.9825095 ], [ 38.7292729, 8.9868235 ], [ 38.7292344, 8.9903232 ], [ 38.7291461, 8.9928174 ], [ 38.7300958, 8.9939767 ], [ 38.7306458, 8.9975836 ] ] ] } },
{ "type": "Feature", "properties": { "threshold_s": 600, "time_label": "10 min drive" }, "geometry": { "type": "Polygon", "coordinates": [ [ [ 38.7190919, 9.0068716 ], [ 38.7197143, 9.0079515 ], [ 38.7254822, 9.0134398 ], [ 38.7272909, 9.0152947 ], [ 38.7291375, 9.0170706 ], [ 38.7334491, 9.021133 ], [ 38.7355141, 9.0216851 ], [ 38.743319, 9.0248296 ], [ 38.7466154, 9.0246799 ], [ 38.7503238, 9.0244243 ], [ 38.7563918, 9.0197045 ], [ 38.7587022, 9.0179263 ], [ 38.7627294, 9.0115076 ], [ 38.7654607, 9.0104574 ], [ 38.7702843, 9.0101555 ], [ 38.7706225, 9.010122 ], [ 38.7743817, 9.0065093 ], [ 38.7747095, 9.005959 ], [ 38.7734899, 9.0014308 ], [ 38.7758743, 8.9963788 ], [ 38.7763041, 8.9957546 ], [ 38.7797226, 8.9922354 ], [ 38.7822305, 8.9904055 ], [ 38.784115, 8.9851798 ], [ 38.7829895, 8.9840922 ], [ 38.7777914, 8.9763594 ], [ 38.7756114, 8.9726492 ], [ 38.7750388, 8.9724298 ], [ 38.768958499999989, 8.9650687 ], [ 38.7696234, 8.9636751 ], [ 38.7711628, 8.9620696 ], [ 38.7688508, 8.9571224 ], [ 38.7657115, 8.9541348 ], [ 38.7633968, 8.9532148 ], [ 38.762744, 8.9530703 ], [ 38.7534318, 8.9504725 ], [ 38.7523361, 8.949291 ], [ 38.7499979, 8.9488639 ], [ 38.7498127, 8.9490273 ], [ 38.7490114, 8.9497056 ], [ 38.7484764, 8.9501698 ], [ 38.7426484, 8.9541408 ], [ 38.7410898, 8.9550802 ], [ 38.732519, 8.9518222 ], [ 38.7318567, 8.9516713 ], [ 38.7272777, 8.9556214 ], [ 38.7269009, 8.9559764 ], [ 38.7231038, 8.9613597 ], [ 38.7192792, 8.9683418 ], [ 38.718602, 8.9702637 ], [ 38.7169396, 8.9793102 ], [ 38.7164206, 8.9811936 ], [ 38.7112759, 8.9887158 ], [ 38.7110505, 8.9891544 ], [ 38.7147386, 8.9944715 ], [ 38.7189773, 9.0029713 ], [ 38.7188894, 9.0059185 ], [ 38.7190919, 9.0068716 ] ] ] } },
{ "type": "Feature", "properties": { "threshold_s": 900, "time_label": "15 min drive" }, "geometry": { "type": "Polygon", "coordinates": [ [ [ 38.7074751, 9.020983 ], [ 38.7154136, 9.0298438 ], [ 38.7199624, 9.0331668 ], [ 38.7278453, 9.0406862 ], [ 38.7287637, 9.041445 ], [ 38.7321918, 9.0428033 ], [ 38.742112, 9.0437179 ], [ 38.754203, 9.0428713 ], [ 38.7542711, 9.0428536 ], [ 38.7619077, 9.0346996 ], [ 38.7705804, 9.0283662 ], [ 38.7765878, 9.0251981 ], [ 38.7878468, 9.0195093 ], [ 38.7890406, 9.0193886 ], [ 38.7896598, 9.0192439 ], [ 38.791997, 9.0167392 ], [ 38.79156780000001, 9.0152893 ], [ 38.7917389, 9.0056483 ], [ 38.798382, 8.9996783 ], [ 38.7987395, 8.9994411 ], [ 38.797957, 8.9920335 ], [ 38.8035396, 8.9855276 ], [ 38.8035562, 8.9852867 ], [ 38.8021619, 8.9853275 ], [ 38.7996331, 8.9854045 ], [ 38.7971379, 8.9861223 ], [ 38.7899075, 8.9859732 ], [ 38.7880106, 8.9854871 ], [ 38.7855757, 8.9849273 ], [ 38.7842988, 8.9845215 ], [ 38.7787516, 8.9794447 ], [ 38.7828796, 8.9680649 ], [ 38.7902771, 8.9669999 ], [ 38.7908766, 8.9625051 ], [ 38.7901255, 8.9616448 ], [ 38.7894738, 8.9613216 ], [ 38.787473, 8.9603453 ], [ 38.783214, 8.9499147 ], [ 38.7824474, 8.9475713 ], [ 38.778994, 8.9448653 ], [ 38.774686, 8.9372514 ], [ 38.774552, 8.9368806 ], [ 38.7735811, 8.935665 ], [ 38.7654587, 8.9338366 ], [ 38.7650008, 8.9338608 ], [ 38.7525392, 8.9318241 ], [ 38.7453861, 8.9303471 ], [ 38.7331876, 8.9299358 ], [ 38.732253, 8.9311495 ], [ 38.7312662, 8.9327812 ], [ 38.7202856, 8.9368431 ], [ 38.7184998, 8.9402052 ], [ 38.7157618, 8.9461813 ], [ 38.7088591, 8.9526057 ], [ 38.6999631, 8.9567879 ], [ 38.7013595, 8.9668015 ], [ 38.6982185, 8.9783918 ], [ 38.6963748, 8.9790204 ], [ 38.6949388, 8.9796788 ], [ 38.6929341, 8.9804051 ], [ 38.6922684, 8.9813715 ], [ 38.6918145, 8.9826696 ], [ 38.6930928, 8.9865362 ], [ 38.6965048, 8.9979825 ], [ 38.6965564, 8.9995234 ], [ 38.6975545, 9.0033402 ], [ 38.6982274, 9.0041267 ], [ 38.7034661, 9.0151062 ], [ 38.7033727, 9.0162723 ], [ 38.7074751, 9.020983 ] ] ] } },
{ "type": "Feature", "properties": { "threshold_s": 300, "time_label": "5 min drive" }, "geometry": { "type": "Polygon", "coordinates": [ [ [ 38.75772, 9.0409807 ], [ 38.7600057, 9.0440359 ], [ 38.7612864, 9.0448542 ], [ 38.763052, 9.0454363 ], [ 38.7657775, 9.0471413 ], [ 38.767836, 9.0485087 ], [ 38.7703055, 9.0488674 ], [ 38.7711241, 9.0483539 ], [ 38.772725, 9.0469788 ], [ 38.7770637, 9.0488362 ], [ 38.7801772, 9.0488867 ], [ 38.781437, 9.0475166 ], [ 38.7863618, 9.0469064 ], [ 38.7878533, 9.0457387 ], [ 38.7877241, 9.0438592 ], [ 38.7869235, 9.0434758 ], [ 38.7853727, 9.0402983 ], [ 38.7878993, 9.0373684 ], [ 38.7884075, 9.037232 ], [ 38.788646, 9.0371199 ], [ 38.788999, 9.0366321 ], [ 38.7887482, 9.0361844 ], [ 38.7880696, 9.0351791 ], [ 38.7869981, 9.033897 ], [ 38.7863892, 9.0328944 ], [ 38.7895501, 9.0295027 ], [ 38.7905778, 9.0297413 ], [ 38.7918447, 9.0297488 ], [ 38.7915674, 9.0270575 ], [ 38.790843099999989, 9.0265755 ], [ 38.7906046, 9.026414 ], [ 38.7897938, 9.0259138 ], [ 38.7876736, 9.021887 ], [ 38.7875611, 9.0213976 ], [ 38.7855651, 9.0185913 ], [ 38.7846333, 9.0173506 ], [ 38.7828065, 9.0165446 ], [ 38.7818197, 9.0163062 ], [ 38.777837, 9.0134105 ], [ 38.7767513, 9.0132784 ], [ 38.773148, 9.0145762 ], [ 38.7700074, 9.0148215 ], [ 38.7699191, 9.014831 ], [ 38.7687544, 9.0164593 ], [ 38.766175, 9.0194163 ], [ 38.7664473, 9.0226405 ], [ 38.7616201, 9.0233396 ], [ 38.7605536, 9.0224021 ], [ 38.7600956, 9.0220791 ], [ 38.7573693, 9.0258112 ], [ 38.7549855, 9.028112 ], [ 38.7542995, 9.0292944 ], [ 38.7552732, 9.0313196 ], [ 38.7570673, 9.0349685 ], [ 38.7565413, 9.0397014 ], [ 38.75772, 9.0409807 ] ] ] } },
{ "type": "Feature", "properties": { "threshold_s": 600, "time_label": "10 min drive" }, "geometry": { "type": "Polygon", "coordinates": [ [ [ 38.7425228, 9.0539333 ], [ 38.7461959, 9.0582549 ], [ 38.7518716, 9.0615547 ], [ 38.7544176, 9.0643645 ], [ 38.7609098, 9.066708 ], [ 38.7680536, 9.0680498 ], [ 38.7718682, 9.0686389 ], [ 38.7743647, 9.0688746 ], [ 38.7764986, 9.0674535 ], [ 38.7820199, 9.0676257 ], [ 38.7868269, 9.0641732 ], [ 38.7892317, 9.0647288 ], [ 38.7921292, 9.0640844 ], [ 38.7928802, 9.063107 ], [ 38.7939517, 9.061192 ], [ 38.7938711, 9.0600459 ], [ 38.7931769, 9.0568746 ], [ 38.7916383, 9.0559051 ], [ 38.792129, 9.0494167 ], [ 38.7906995, 9.0454025 ], [ 38.7967241, 9.0428703 ], [ 38.7975584, 9.0393973 ], [ 38.8005483, 9.0376132 ], [ 38.8041703, 9.044401 ], [ 38.8069644, 9.0447637 ], [ 38.8042312, 9.0365115 ], [ 38.8097002, 9.0338592 ], [ 38.8116564, 9.0325841 ], [ 38.810141, 9.0310664 ], [ 38.8102636, 9.0243078 ], [ 38.8106941, 9.0237117 ], [ 38.8113499, 9.0229316 ], [ 38.8119681, 9.0221034 ], [ 38.8120899, 9.0212209 ], [ 38.8120747, 9.0206652 ], [ 38.8092932, 9.0158973 ], [ 38.8061032, 9.0115015 ], [ 38.8017743, 9.0076652 ], [ 38.799906900000011, 9.0060768 ], [ 38.7961247, 9.0032722 ], [ 38.7946308, 9.0046325 ], [ 38.7897293, 8.9996859 ], [ 38.7894879, 8.9990878 ], [ 38.7865017, 8.9973294 ], [ 38.7812836, 8.9954543 ], [ 38.7792063, 8.995031 ], [ 38.7750102, 8.9954859 ], [ 38.7733094, 8.9967573 ], [ 38.7683732, 8.9987024 ], [ 38.7656343, 8.9994049 ], [ 38.7628341, 9.0016946 ], [ 38.7587141, 9.0041929 ], [ 38.7545946, 9.0057032 ], [ 38.7537307, 9.0078846 ], [ 38.7482888, 9.0109348 ], [ 38.7462365, 9.010408 ], [ 38.7461556, 9.0104021 ], [ 38.7441169, 9.0104975 ], [ 38.7410116, 9.0161342 ], [ 38.7410143, 9.0162401 ], [ 38.7409572, 9.0194029 ], [ 38.7360555, 9.0233601 ], [ 38.7359445, 9.0234488 ], [ 38.7354078, 9.0251686 ], [ 38.7352931, 9.0259432 ], [ 38.7348213, 9.0293563 ], [ 38.7341841, 9.0341678 ], [ 38.7341834, 9.0342732 ], [ 38.7366714, 9.0373866 ], [ 38.736987, 9.0409822 ], [ 38.7368394, 9.0418941 ], [ 38.739417, 9.0465899 ], [ 38.7401003, 9.0493725 ], [ 38.7425228, 9.0539333 ] ] ] } },
{ "type": "Feature", "properties": { "threshold_s": 900, "time_label": "15 min drive" }, "geometry": { "type": "Polygon", "coordinates": [ [ [ 38.7261632, 9.0669602 ], [ 38.7270923, 9.0682667 ], [ 38.7276019, 9.0687116 ], [ 38.7305483, 9.0709061 ], [ 38.732525099999989, 9.0719682 ], [ 38.7373831, 9.0726401 ], [ 38.7445479, 9.0766414 ], [ 38.7510584, 9.0755627 ], [ 38.753382, 9.0790122 ], [ 38.7613576, 9.0810134 ], [ 38.7684722, 9.0768381 ], [ 38.7700425, 9.0798452 ], [ 38.773237, 9.081739 ], [ 38.7736219, 9.0787401 ], [ 38.7742804, 9.0774085 ], [ 38.775241, 9.0762624 ], [ 38.7769619, 9.0750951 ], [ 38.7836453, 9.0772787 ], [ 38.7845762, 9.0804395 ], [ 38.7856852, 9.0805299 ], [ 38.7896159, 9.0783315 ], [ 38.7946067, 9.076095 ], [ 38.7992678, 9.0741871 ], [ 38.7963618, 9.0678503 ], [ 38.8028473, 9.0628395 ], [ 38.808213, 9.0647413 ], [ 38.8147441, 9.0635101 ], [ 38.8149651, 9.0605226 ], [ 38.8211697, 9.0564948 ], [ 38.819489, 9.0528113 ], [ 38.8248239, 9.0468382 ], [ 38.827148, 9.0459125 ], [ 38.8306918, 9.0428053 ], [ 38.8319382, 9.0415328 ], [ 38.8313351, 9.0376149 ], [ 38.8313283, 9.0375141 ], [ 38.8294184, 9.0340067 ], [ 38.83358, 9.0284675 ], [ 38.8337666, 9.0238721 ], [ 38.832013, 9.0210329 ], [ 38.8317545, 9.0139463 ], [ 38.8300599, 9.0120927 ], [ 38.8268986, 9.0061219 ], [ 38.8237283, 9.0036515 ], [ 38.8212338, 8.9991704 ], [ 38.8195865, 8.9974694 ], [ 38.8154153, 8.9934574 ], [ 38.8127801, 8.9910247 ], [ 38.8121692, 8.9905254 ], [ 38.8116546, 8.9901173 ], [ 38.8099867, 8.9889176 ], [ 38.8035562, 8.9852867 ], [ 38.8021619, 8.9853275 ], [ 38.7996331, 8.9854045 ], [ 38.7971379, 8.9861223 ], [ 38.788826, 8.985809 ], [ 38.7879749, 8.9856538 ], [ 38.7855757, 8.9849273 ], [ 38.7842988, 8.9845215 ], [ 38.7787516, 8.9794447 ], [ 38.7777914, 8.9763594 ], [ 38.7774548, 8.9759568 ], [ 38.7736999, 8.976825 ], [ 38.7687171, 8.9780856 ], [ 38.7624501, 8.9795471 ], [ 38.758982, 8.9801758 ], [ 38.7534167, 8.9846957 ], [ 38.7498189, 8.9837713 ], [ 38.7480312, 8.9858545 ], [ 38.7440312, 8.9887843 ], [ 38.7381953, 8.9896915 ], [ 38.7358524, 8.9916612 ], [ 38.7335164, 8.9958438 ], [ 38.732501, 9.001813 ], [ 38.7292146, 9.0052443 ], [ 38.7285474, 9.0064755 ], [ 38.7284978, 9.0065722 ], [ 38.726517, 9.0109459 ], [ 38.721633, 9.0119422 ], [ 38.7211645, 9.011808 ], [ 38.7189605, 9.0164709 ], [ 38.7160489, 9.0210002 ], [ 38.7152166, 9.0245608 ], [ 38.715158, 9.0253611 ], [ 38.714946, 9.0291351 ], [ 38.7141698, 9.037233 ], [ 38.7168037, 9.0443099 ], [ 38.7188249, 9.0478735 ], [ 38.719617, 9.0531285 ], [ 38.7199992, 9.0542787 ], [ 38.7214167, 9.0583046 ], [ 38.7217203, 9.0591332 ], [ 38.7231835, 9.0622209 ], [ 38.7261632, 9.0669602 ] ] ] } },
{ "type": "Feature", "properties": { "threshold_s": 300, "time_label": "5 min drive" }, "geometry": { "type": "Polygon", "coordinates": [ [ [ 38.7527724, 9.0143482 ], [ 38.753888, 9.0173878 ], [ 38.7543747, 9.0174346 ], [ 38.7554835, 9.0175438 ], [ 38.7603636, 9.0186068 ], [ 38.7645123, 9.0221623 ], [ 38.7666902, 9.0194705 ], [ 38.7714391, 9.0195628 ], [ 38.7740742, 9.0190452 ], [ 38.774797, 9.0185944 ], [ 38.7760797, 9.0175791 ], [ 38.782059, 9.014438 ], [ 38.7832979, 9.0148016 ], [ 38.7834846, 9.01484 ], [ 38.7834729, 9.0142678 ], [ 38.7817363, 9.009675 ], [ 38.7824927, 9.004531 ], [ 38.7819455, 9.0018084 ], [ 38.7811529, 9.0017307 ], [ 38.7763283, 8.9988565 ], [ 38.7763041, 8.9957546 ], [ 38.7797226, 8.9922354 ], [ 38.7816045, 8.9919559 ], [ 38.7816924, 8.991925 ], [ 38.7816987, 8.9917573 ], [ 38.7811683, 8.9898306 ], [ 38.7779312, 8.9897209 ], [ 38.7718676, 8.9877508 ], [ 38.7708995, 8.987194 ], [ 38.7652114, 8.9860036 ], [ 38.7634392, 8.9867237 ], [ 38.7621897, 8.9874769 ], [ 38.7592571, 8.9906178 ], [ 38.7556065, 8.9931137 ], [ 38.7534142, 8.9955503 ], [ 38.7533887, 8.9956298 ], [ 38.7555253, 8.9985161 ], [ 38.7576883, 9.0047943 ], [ 38.7545018, 9.0072532 ], [ 38.7519181, 9.0117755 ], [ 38.7527724, 9.0143482 ] ] ] } },
{ "type": "Feature", "properties": { "threshold_s": 600, "time_label": "10 min drive" }, "geometry": { "type": "Polygon", "coordinates": [ [ [ 38.7373517, 9.0262427 ], [ 38.7394966, 9.0315341 ], [ 38.7439692, 9.0342222 ], [ 38.7461888, 9.0344437 ], [ 38.7523463, 9.0373285 ], [ 38.7535757, 9.0366681 ], [ 38.7589817, 9.0353307 ], [ 38.7625, 9.0377761 ], [ 38.763485, 9.0378991 ], [ 38.7673319, 9.0365137 ], [ 38.772468, 9.0377247 ], [ 38.7744577, 9.0375841 ], [ 38.7779067, 9.0359559 ], [ 38.7828374, 9.0322795 ], [ 38.7845581, 9.0313118 ], [ 38.7918447, 9.0297488 ], [ 38.7980379, 9.0288077 ], [ 38.7981611, 9.0287943 ], [ 38.7988977, 9.0268528 ], [ 38.8014876, 9.0217608 ], [ 38.8045576, 9.0198433 ], [ 38.805639, 9.019272 ], [ 38.8054565, 9.0178424 ], [ 38.8030907, 9.0146854 ], [ 38.802184, 9.0074508 ], [ 38.8034099, 9.0004249 ], [ 38.8007767, 9.0000299 ], [ 38.7994259, 8.9995528 ], [ 38.797957, 8.9920335 ], [ 38.7997874, 8.9861208 ], [ 38.7996331, 8.9854045 ], [ 38.7965669, 8.9878238 ], [ 38.791375, 8.9871117 ], [ 38.7899075, 8.9859732 ], [ 38.7880106, 8.9854871 ], [ 38.7855757, 8.9849273 ], [ 38.7842988, 8.9845215 ], [ 38.7787516, 8.9794447 ], [ 38.7777914, 8.9763594 ], [ 38.7755072, 8.9716351 ], [ 38.7752672, 8.9716781 ], [ 38.774991, 8.9719637 ], [ 38.7727569, 8.9732909 ], [ 38.7664998, 8.9707517 ], [ 38.7627127, 8.9666965 ], [ 38.7565704, 8.9669942 ], [ 38.7548543, 8.9688259 ], [ 38.7487573, 8.9736769 ], [ 38.7433915, 8.9775073 ], [ 38.7410338, 8.9804994 ], [ 38.7393057, 8.9838339 ], [ 38.7362266, 8.9892398 ], [ 38.7376045, 8.9950873 ], [ 38.7371778, 8.998569 ], [ 38.7336948, 9.0037736 ], [ 38.7315925, 9.0085694 ], [ 38.7315546, 9.0092875 ], [ 38.7321147, 9.0160174 ], [ 38.7322897, 9.0170229 ], [ 38.7354575, 9.0226442 ], [ 38.7373517, 9.0262427 ] ] ] } },
{ "type": "Feature", "properties": { "threshold_s": 900, "time_label": "15 min drive" }, "geometry": { "type": "Polygon", "coordinates": [ [ [ 38.7246984, 9.0412729 ], [ 38.7316745, 9.0497234 ], [ 38.7336133, 9.0510537 ], [ 38.7410798, 9.0559945 ], [ 38.7439175, 9.0563916 ], [ 38.7488493, 9.0568369 ], [ 38.7592101, 9.059055 ], [ 38.762187, 9.059408 ], [ 38.7658428, 9.0577181 ], [ 38.7744469, 9.0560133 ], [ 38.7798468, 9.0561549 ], [ 38.7807989, 9.0560283 ], [ 38.7812833, 9.0559427 ], [ 38.7817276, 9.055766 ], [ 38.7844165, 9.054084 ], [ 38.7892183, 9.0480524 ], [ 38.7906995, 9.0454025 ], [ 38.7918929, 9.0415089 ], [ 38.7997189, 9.0335465 ], [ 38.8031475, 9.0364072 ], [ 38.8042312, 9.0365115 ], [ 38.8143721, 9.0367481 ], [ 38.8157038, 9.0363797 ], [ 38.8170256, 9.0357398 ], [ 38.8240423, 9.0268232 ], [ 38.8246535, 9.0260138 ], [ 38.826303, 9.0218102 ], [ 38.8279971, 9.0161429 ], [ 38.8231718, 9.0097123 ], [ 38.8225749, 9.0020587 ], [ 38.8221686, 8.9921195 ], [ 38.8201058, 8.985035 ], [ 38.8097735, 8.9869675 ], [ 38.8079529, 8.9863615 ], [ 38.8066972, 8.9860036 ], [ 38.8035562, 8.9852867 ], [ 38.8021619, 8.9853275 ], [ 38.7996331, 8.9854045 ], [ 38.7971379, 8.9861223 ], [ 38.7899075, 8.9859732 ], [ 38.7880106, 8.9854871 ], [ 38.7855757, 8.9849273 ], [ 38.7842988, 8.9845215 ], [ 38.7787516, 8.9794447 ], [ 38.7777914, 8.9763594 ], [ 38.7828796, 8.9680649 ], [ 38.7909604, 8.9677523 ], [ 38.791118, 8.9670277 ], [ 38.7918006, 8.9634721 ], [ 38.7904327, 8.9615138 ], [ 38.7900803, 8.9610493 ], [ 38.7889099, 8.9602153 ], [ 38.7871447, 8.9596534 ], [ 38.7851057, 8.9591527 ], [ 38.7743879, 8.9540411 ], [ 38.7742697, 8.9534014 ], [ 38.7714136, 8.950486 ], [ 38.7688543, 8.9481925 ], [ 38.7657954, 8.9457131 ], [ 38.7610491, 8.9474346 ], [ 38.7541316, 8.9497782 ], [ 38.7508367, 8.9509828 ], [ 38.7494933, 8.9515279 ], [ 38.7428878, 8.9557906 ], [ 38.732747, 8.9604117 ], [ 38.7319789, 8.9611188 ], [ 38.731481, 8.9616099 ], [ 38.7301676, 8.9629974 ], [ 38.729296, 8.9648433 ], [ 38.7282655, 8.9715133 ], [ 38.7281115, 8.9746553 ], [ 38.7270547, 8.9798003 ], [ 38.7196875, 8.984451 ], [ 38.716908, 8.9901293 ], [ 38.71692, 8.9926857 ], [ 38.716118, 9.000587 ], [ 38.7104304, 9.0072398 ], [ 38.7084576, 9.0136135 ], [ 38.7097721, 9.0172191 ], [ 38.7150762, 9.0272182 ], [ 38.7199624, 9.0331668 ], [ 38.7216069, 9.0374307 ], [ 38.7246984, 9.0412729 ] ] ] } },
{ "type": "Feature", "properties": { "threshold_s": 300, "time_label": "5 min drive" }, "geometry": { "type": "Polygon", "coordinates": [ [ [ 38.8714937, 9.0387469 ], [ 38.8730906, 9.0419826 ], [ 38.8764706, 9.0435772 ], [ 38.8778334, 9.0429907 ], [ 38.8777715, 9.0398857 ], [ 38.8821253, 9.0386812 ], [ 38.8830292, 9.0398019 ], [ 38.8844918, 9.0386993 ], [ 38.8858561, 9.0369962 ], [ 38.8898581, 9.033852 ], [ 38.8906735, 9.0305845 ], [ 38.8919623, 9.0286336 ], [ 38.8920039, 9.0280826 ], [ 38.8919114, 9.0271872 ], [ 38.8955471, 9.0237263 ], [ 38.8925918, 9.0201278 ], [ 38.8907245, 9.020097 ], [ 38.8906498, 9.0200987 ], [ 38.8862294, 9.0192266 ], [ 38.8855438, 9.0154758 ], [ 38.8850949, 9.0125743 ], [ 38.8846294, 9.0117755 ], [ 38.8833021, 9.0107194 ], [ 38.8799232, 9.0097578 ], [ 38.8773858, 9.0068994 ], [ 38.876848, 9.0069762 ], [ 38.8763089, 9.0072795 ], [ 38.8732047, 9.0109346 ], [ 38.8696938, 9.0094141 ], [ 38.8693115, 9.0088141 ], [ 38.8690925, 9.0057589 ], [ 38.8689972, 9.0056675 ], [ 38.8679317, 9.0055634 ], [ 38.8650387, 9.0062298 ], [ 38.863127, 9.0107071 ], [ 38.8627257, 9.0145074 ], [ 38.8605341, 9.0170752 ], [ 38.8574142, 9.0207619 ], [ 38.8564735, 9.0208085 ], [ 38.8573797, 9.022475 ], [ 38.859069, 9.0265796 ], [ 38.8613248, 9.0292706 ], [ 38.8615823, 9.0294216 ], [ 38.8627145, 9.030028 ], [ 38.8636881, 9.0301716 ], [ 38.8648603, 9.0291935 ], [ 38.8684198, 9.0290747 ], [ 38.8699011, 9.0331262 ], [ 38.8719335, 9.0373811 ], [ 38.8714937, 9.0387469 ] ] ] } },
{ "type": "Feature", "properties": { "threshold_s": 600, "time_label": "10 min drive" }, "geometry": { "type": "Polygon", "coordinates": [ [ [ 38.8446763, 9.0387697 ], [ 38.8481581, 9.0430969 ], [ 38.848564, 9.0434735 ], [ 38.8499786, 9.0441545 ], [ 38.8515897, 9.0446953 ], [ 38.8567619, 9.046229 ], [ 38.8615139, 9.0491519 ], [ 38.8659955, 9.0479541 ], [ 38.8691112, 9.0559104 ], [ 38.8686177, 9.0568398 ], [ 38.8688933, 9.0572155 ], [ 38.869969, 9.0581251 ], [ 38.8724887, 9.0600928 ], [ 38.880064, 9.0632726 ], [ 38.8827927, 9.0641001 ], [ 38.8851718, 9.0638571 ], [ 38.8852997, 9.0623257 ], [ 38.8852031, 9.0612796 ], [ 38.8850039, 9.0590096 ], [ 38.8843806, 9.0567035 ], [ 38.8853084, 9.0482034 ], [ 38.8879287, 9.0436653 ], [ 38.8891501, 9.0421339 ], [ 38.8924666, 9.0374161 ], [ 38.8990593, 9.0337165 ], [ 38.8953325, 9.027668 ], [ 38.9002302, 9.0222733 ], [ 38.9008565, 9.0197236 ], [ 38.9004207, 9.0112823 ], [ 38.9028293, 9.006449 ], [ 38.9025959, 9.0057496 ], [ 38.9010751, 9.0044171 ], [ 38.8947448, 8.9979451 ], [ 38.8893385, 8.9950165 ], [ 38.8853466, 8.9905724 ], [ 38.8840887, 8.9899922 ], [ 38.8768521, 8.9925938 ], [ 38.8710961, 8.9968484 ], [ 38.8625642, 8.9960631 ], [ 38.8610331, 8.9945874 ], [ 38.856082, 8.992128 ], [ 38.8553241, 8.9915981 ], [ 38.854533, 8.9916061 ], [ 38.8532924, 8.9920027 ], [ 38.8498207, 8.995407 ], [ 38.8478914, 8.9975665 ], [ 38.8448124, 9.0022157 ], [ 38.8407053, 9.0109138 ], [ 38.8388264, 9.0170628 ], [ 38.8337107, 9.0218852 ], [ 38.8385591, 9.0292689 ], [ 38.8428443, 9.0349091 ], [ 38.8446763, 9.0387697 ] ] ] } },
{ "type": "Feature", "properties": { "threshold_s": 900, "time_label": "15 min drive" }, "geometry": { "type": "Polygon", "coordinates": [ [ [ 38.825229, 9.0447535 ], [ 38.8340896, 9.0540959 ], [ 38.8436423, 9.0606204 ], [ 38.8568872, 9.067229 ], [ 38.8567999, 9.06935 ], [ 38.8635913, 9.0739587 ], [ 38.8757282, 9.0826077 ], [ 38.8763425, 9.0835082 ], [ 38.8775606, 9.0824556 ], [ 38.882759, 9.0736045 ], [ 38.8837609, 9.0705344 ], [ 38.8847653, 9.0665697 ], [ 38.8851718, 9.0638571 ], [ 38.8852997, 9.0623257 ], [ 38.885408, 9.0601564 ], [ 38.885576, 9.0574365 ], [ 38.8855746, 9.0542708 ], [ 38.8858157, 9.0510063 ], [ 38.8891501, 9.0421339 ], [ 38.8990593, 9.0337165 ], [ 38.9008565, 9.0197236 ], [ 38.9028293, 9.006449 ], [ 38.9025959, 9.0057496 ], [ 38.9043886, 8.9908277 ], [ 38.905657, 8.9885185 ], [ 38.8968989, 8.9759151 ], [ 38.8929237, 8.9719095 ], [ 38.8876109, 8.9698002 ], [ 38.8837276, 8.96836 ], [ 38.8776728, 8.9723689 ], [ 38.8726893, 8.9753044 ], [ 38.8611719, 8.9752872 ], [ 38.8542589, 8.9723237 ], [ 38.8539979, 8.9723627 ], [ 38.8431447, 8.9802188 ], [ 38.8361053, 8.9854182 ], [ 38.8284344, 8.9887398 ], [ 38.8282371, 8.9889643 ], [ 38.8265017, 8.9924918 ], [ 38.8250396, 8.9995291 ], [ 38.8197802, 9.0076902 ], [ 38.813209, 9.0199514 ], [ 38.8130429, 9.0212578 ], [ 38.8141146, 9.0226814 ], [ 38.821612, 9.0319514 ], [ 38.8226616, 9.0363421 ], [ 38.8237207, 9.0400382 ], [ 38.8243248, 9.0429175 ], [ 38.825229, 9.0447535 ] ] ] } },
{ "type": "Feature", "properties": { "threshold_s": 300, "time_label": "5 min drive" }, "geometry": { "type": "Polygon", "coordinates": [ [ [ 38.7215664, 8.9977019 ], [ 38.7205095, 8.9996903 ], [ 38.7209133, 8.9995602 ], [ 38.7220337, 8.9992215 ], [ 38.7224929, 8.9990797 ], [ 38.7236724, 8.9987142 ], [ 38.7268985, 8.9991841 ], [ 38.7274674, 8.99912 ], [ 38.7289264, 8.9982376 ], [ 38.7302594, 8.9977804 ], [ 38.7307139, 8.9976947 ], [ 38.7325948, 9.0017547 ], [ 38.732501, 9.001813 ], [ 38.730182, 9.0046135 ], [ 38.7292146, 9.0052443 ], [ 38.730935700000011, 9.0078495 ], [ 38.7313527, 9.0086805 ], [ 38.731964499999989, 9.0093869 ], [ 38.7341748, 9.0107132 ], [ 38.7359776, 9.0102827 ], [ 38.7387193, 9.0103826 ], [ 38.7424871, 9.0102645 ], [ 38.7445775, 9.0129089 ], [ 38.7446699, 9.0129369 ], [ 38.7449046, 9.0130052 ], [ 38.7476673, 9.0105487 ], [ 38.7489751, 9.0069735 ], [ 38.7517324, 9.0049461 ], [ 38.7519015, 9.0048619 ], [ 38.7530085, 9.0043225 ], [ 38.7531698, 9.0041116 ], [ 38.7536939, 9.0025951 ], [ 38.7561745, 8.9996726 ], [ 38.7568953, 8.999106 ], [ 38.758028, 8.9950297 ], [ 38.7580315, 8.994674 ], [ 38.757013, 8.9912123 ], [ 38.7566308, 8.9868222 ], [ 38.7566121, 8.9854758 ], [ 38.7573107, 8.9817491 ], [ 38.7545104, 8.9790531 ], [ 38.75253, 8.978179 ], [ 38.7487619, 8.9763426 ], [ 38.7466576, 8.9749068 ], [ 38.7461902, 8.9749715 ], [ 38.7459779, 8.9750163 ], [ 38.7450813, 8.9751633 ], [ 38.7438314, 8.975388 ], [ 38.7400277, 8.9744338 ], [ 38.7377431, 8.9730167 ], [ 38.734549, 8.9753057 ], [ 38.7328836, 8.9778363 ], [ 38.7301135, 8.9791555 ], [ 38.7296599, 8.9798651 ], [ 38.7276381, 8.9829479 ], [ 38.7269208, 8.9842288 ], [ 38.7265869, 8.9850391 ], [ 38.7262524, 8.9869032 ], [ 38.7241702, 8.9895817 ], [ 38.7241057, 8.989642 ], [ 38.7223572, 8.9928201 ], [ 38.721388, 8.994096 ], [ 38.7215664, 8.9977019 ] ] ] } },
{ "type": "Feature", "properties": { "threshold_s": 600, "time_label": "10 min drive" }, "geometry": { "type": "Polygon", "coordinates": [ [ [ 38.7142962, 9.0121102 ], [ 38.7172717, 9.0182925 ], [ 38.7225781, 9.0237289 ], [ 38.7283993, 9.028026 ], [ 38.7324699, 9.0315075 ], [ 38.7370889, 9.0322481 ], [ 38.7422276, 9.0322978 ], [ 38.7450782, 9.0323696 ], [ 38.7475825, 9.0323943 ], [ 38.7531912, 9.0297342 ], [ 38.7581126, 9.0269965 ], [ 38.7616201, 9.0233396 ], [ 38.7638895, 9.0199177 ], [ 38.7659352, 9.0168131 ], [ 38.767167, 9.0123421 ], [ 38.7706225, 9.010122 ], [ 38.7743817, 9.0065093 ], [ 38.7747095, 9.005959 ], [ 38.7734899, 9.0014308 ], [ 38.7758743, 8.9963788 ], [ 38.7763041, 8.9957546 ], [ 38.7780153, 8.9925672 ], [ 38.7766992, 8.9857251 ], [ 38.777238, 8.9839864 ], [ 38.7773083, 8.9830631 ], [ 38.7770538, 8.9803839 ], [ 38.7753195, 8.9786739 ], [ 38.7697098, 8.9786677 ], [ 38.7687171, 8.9780856 ], [ 38.7664998, 8.9707517 ], [ 38.7662108, 8.9676225 ], [ 38.7660424, 8.9663201 ], [ 38.7633621, 8.962338 ], [ 38.7580243, 8.9610853 ], [ 38.7555344, 8.9593632 ], [ 38.7518528, 8.9557927 ], [ 38.7512418, 8.9555263 ], [ 38.7476609, 8.9574208 ], [ 38.7424721, 8.9617445 ], [ 38.7404933, 8.9609058 ], [ 38.7348681, 8.9596248 ], [ 38.7335671, 8.9563225 ], [ 38.732454, 8.9546242 ], [ 38.7297839, 8.9566203 ], [ 38.7270542, 8.9595824 ], [ 38.7258243, 8.9612139 ], [ 38.7199863, 8.9644708 ], [ 38.7182221, 8.9675577 ], [ 38.7175886, 8.9692367 ], [ 38.7172198, 8.9707216 ], [ 38.7135418, 8.9763191 ], [ 38.7127013, 8.9783543 ], [ 38.71161330000001, 8.9805554 ], [ 38.7053044, 8.9852953 ], [ 38.7047439, 8.9858227 ], [ 38.7044953, 8.9868868 ], [ 38.7055021, 8.9941581 ], [ 38.706346, 8.9967622 ], [ 38.7066569, 8.9975757 ], [ 38.7073546, 8.9978268 ], [ 38.7086257, 8.9983915 ], [ 38.7143733, 9.0001679 ], [ 38.7162037, 9.003294 ], [ 38.7161945, 9.0080137 ], [ 38.7142962, 9.0121102 ] ] ] } },
{ "type": "Feature", "properties": { "threshold_s": 900, "time_label": "15 min drive" }, "geometry": { "type": "Polygon", "coordinates": [ [ [ 38.7089674, 9.0354666 ], [ 38.7130563, 9.0404385 ], [ 38.7217462, 9.0482593 ], [ 38.7249667, 9.0499866 ], [ 38.7302149, 9.0516528 ], [ 38.7323945, 9.0520451 ], [ 38.7329233, 9.0519989 ], [ 38.735253899999989, 9.051613 ], [ 38.7482742, 9.0501229 ], [ 38.7568086, 9.0494772 ], [ 38.7574848, 9.0494308 ], [ 38.7576135, 9.0493058 ], [ 38.7580652, 9.0488412 ], [ 38.7613838, 9.0448472 ], [ 38.7625945, 9.0433073 ], [ 38.7725503, 9.0352767 ], [ 38.775312, 9.0329041 ], [ 38.7823913, 9.0264422 ], [ 38.7896598, 9.0192439 ], [ 38.791997, 9.0167392 ], [ 38.7915556, 9.0156549 ], [ 38.7898291, 9.0104565 ], [ 38.7936291, 8.9982041 ], [ 38.794385, 8.9970616 ], [ 38.7966211, 8.9916862 ], [ 38.7966919, 8.9912265 ], [ 38.7942992, 8.9887271 ], [ 38.7899075, 8.9859732 ], [ 38.7880106, 8.9854871 ], [ 38.7855757, 8.9849273 ], [ 38.7842988, 8.9845215 ], [ 38.7787516, 8.9794447 ], [ 38.7828796, 8.9680649 ], [ 38.7828581, 8.9679775 ], [ 38.7755169, 8.9575612 ], [ 38.7758695, 8.9518383 ], [ 38.7758509, 8.9494855 ], [ 38.7758132, 8.9483132 ], [ 38.7757718, 8.9480696 ], [ 38.7748517, 8.9466994 ], [ 38.7714078, 8.9431754 ], [ 38.7633346, 8.9403366 ], [ 38.7501063, 8.9366738 ], [ 38.7429939, 8.9369966 ], [ 38.7341009, 8.9345072 ], [ 38.7331036, 8.9345746 ], [ 38.732959, 8.9346006 ], [ 38.7213057, 8.939956 ], [ 38.712544, 8.9490019 ], [ 38.708588399999989, 8.9511281 ], [ 38.6988366, 8.9558615 ], [ 38.6987179, 8.9560198 ], [ 38.6989697, 8.956874 ], [ 38.6999497, 8.9594078 ], [ 38.7001855, 8.9600148 ], [ 38.7001897, 8.9677934 ], [ 38.6917643, 8.9736267 ], [ 38.6899579, 8.9736162 ], [ 38.6877228, 8.9752024 ], [ 38.6834253, 8.9775917 ], [ 38.6833825, 8.9776248 ], [ 38.6832113, 8.9816585 ], [ 38.6872186, 8.9920613 ], [ 38.688317, 9.0023185 ], [ 38.6891121, 9.0040405 ], [ 38.6895746, 9.0048696 ], [ 38.690984, 9.0067819 ], [ 38.695627, 9.0185451 ], [ 38.6959451, 9.0198971 ], [ 38.6961386, 9.0202666 ], [ 38.7003976, 9.02517 ], [ 38.7089674, 9.0354666 ] ] ] } },
{ "type": "Feature", "properties": { "threshold_s": 300, "time_label": "5 min drive" }, "geometry": { "type": "Polygon", "coordinates": [ [ [ 38.7768298, 9.0066669 ], [ 38.7765026, 9.0069991 ], [ 38.7767099, 9.0071045 ], [ 38.780677, 9.0087119 ], [ 38.7855563, 9.0108907 ], [ 38.7879783, 9.0113846 ], [ 38.7887927, 9.0111924 ], [ 38.7914267, 9.009869 ], [ 38.7925181, 9.0080703 ], [ 38.795201, 9.0056441 ], [ 38.8000339, 9.0054869 ], [ 38.8019364, 9.0054341 ], [ 38.8026295, 9.003978 ], [ 38.8032226, 9.0026245 ], [ 38.8036877, 9.0002622 ], [ 38.8049051, 8.9948892 ], [ 38.8062954, 8.9926287 ], [ 38.8065638, 8.9922518 ], [ 38.8076424, 8.9907366 ], [ 38.8097735, 8.9869675 ], [ 38.8035562, 8.9852867 ], [ 38.8021619, 8.9853275 ], [ 38.7996331, 8.9854045 ], [ 38.7971379, 8.9861223 ], [ 38.789819799999989, 8.986366 ], [ 38.788826, 8.985809 ], [ 38.7855757, 8.9849273 ], [ 38.7842988, 8.9845215 ], [ 38.7786772, 8.9809764 ], [ 38.7785874, 8.9809511 ], [ 38.777491, 8.9812854 ], [ 38.7767255, 8.9817067 ], [ 38.7773605, 8.9852209 ], [ 38.7784041, 8.9888346 ], [ 38.7748685, 8.9939269 ], [ 38.7745337, 8.9941602 ], [ 38.777362, 8.9984848 ], [ 38.7779966, 8.9994625 ], [ 38.7768298, 9.0066669 ] ] ] } },
{ "type": "Feature", "properties": { "threshold_s": 600, "time_label": "10 min drive" }, "geometry": { "type": "Polygon", "coordinates": [ [ [ 38.7576903, 9.0118964 ], [ 38.7603636, 9.0186068 ], [ 38.7645123, 9.0221623 ], [ 38.7725207, 9.0260996 ], [ 38.7754884, 9.0272635 ], [ 38.7859405, 9.0306672 ], [ 38.7905778, 9.0297413 ], [ 38.7978297, 9.0280291 ], [ 38.8020936, 9.0264203 ], [ 38.8133654, 9.0199396 ], [ 38.8198282, 9.0115553 ], [ 38.8244101, 9.0017102 ], [ 38.8262215, 8.9920625 ], [ 38.8289452, 8.9842814 ], [ 38.8289297, 8.9840815 ], [ 38.8277744, 8.9773 ], [ 38.8276114, 8.9765701 ], [ 38.8267913, 8.9748659 ], [ 38.8247582, 8.9743625 ], [ 38.8211327, 8.9767138 ], [ 38.8208006, 8.9803978 ], [ 38.8079529, 8.9863615 ], [ 38.8066972, 8.9860036 ], [ 38.8035562, 8.9852867 ], [ 38.8021619, 8.9853275 ], [ 38.7996331, 8.9854045 ], [ 38.7971379, 8.9861223 ], [ 38.7899075, 8.9859732 ], [ 38.7880106, 8.9854871 ], [ 38.7855757, 8.9849273 ], [ 38.7842988, 8.9845215 ], [ 38.7787516, 8.9794447 ], [ 38.7828796, 8.9680649 ], [ 38.7828581, 8.9679775 ], [ 38.7775834, 8.9635925 ], [ 38.7726275, 8.964449 ], [ 38.7660424, 8.9663201 ], [ 38.7609422, 8.9727954 ], [ 38.7579608, 8.9816198 ], [ 38.7564481, 8.9956699 ], [ 38.7588747, 9.0040341 ], [ 38.7576903, 9.0118964 ] ] ] } },
{ "type": "Feature", "properties": { "threshold_s": 900, "time_label": "15 min drive" }, "geometry": { "type": "Polygon", "coordinates": [ [ [ 38.7401426, 9.0229157 ], [ 38.7433317, 9.0288728 ], [ 38.7485994, 9.0316501 ], [ 38.7586538, 9.0400002 ], [ 38.7616326, 9.0420629 ], [ 38.7624014, 9.0425864 ], [ 38.7694638, 9.0449786 ], [ 38.7813693, 9.0468437 ], [ 38.7820198, 9.0469094 ], [ 38.7858018, 9.0466865 ], [ 38.7866463, 9.0460558 ], [ 38.7888638, 9.0443872 ], [ 38.8042312, 9.0365115 ], [ 38.8157836, 9.0387644 ], [ 38.8171, 9.0390919 ], [ 38.8263568, 9.0345103 ], [ 38.8321702, 9.0282138 ], [ 38.8359818, 9.0209015 ], [ 38.8411496, 9.0081129 ], [ 38.8426452, 9.0020958 ], [ 38.8467872, 8.9871707 ], [ 38.8420573, 8.9768726 ], [ 38.8376764, 8.9692227 ], [ 38.8309743, 8.9575601 ], [ 38.8180145, 8.9621375 ], [ 38.8114894, 8.9641966 ], [ 38.7965468, 8.9561463 ], [ 38.7934553, 8.9528733 ], [ 38.7931194, 8.9525295 ], [ 38.792159, 8.9519038 ], [ 38.785343, 8.9491504 ], [ 38.7692861, 8.9449012 ], [ 38.769171299999989, 8.9448794 ], [ 38.7688136, 8.944884 ], [ 38.7579276, 8.9512068 ], [ 38.7578175, 8.9512884 ], [ 38.7542899, 8.9574327 ], [ 38.7493173, 8.964993 ], [ 38.7428233, 8.9726877 ], [ 38.7390094, 8.9805037 ], [ 38.7371778, 8.998569 ], [ 38.7359332, 9.0101339 ], [ 38.7359091, 9.0114509 ], [ 38.7360117, 9.0122933 ], [ 38.7370836, 9.016526 ], [ 38.7401426, 9.0229157 ] ] ] } },
{ "type": "Feature", "properties": { "threshold_s": 300, "time_label": "5 min drive" }, "geometry": { "type": "Polygon", "coordinates": [ [ [ 38.7754273, 9.0227795 ], [ 38.7764432, 9.0256874 ], [ 38.77690290000001, 9.0259574 ], [ 38.7778281, 9.0263133 ], [ 38.7783603, 9.0264075 ], [ 38.7818751, 9.0269915 ], [ 38.7841265, 9.0281899 ], [ 38.7844465, 9.0283163 ], [ 38.784561, 9.0283085 ], [ 38.7866034, 9.0262502 ], [ 38.7876445, 9.0248495 ], [ 38.7884448, 9.0237016 ], [ 38.7888143, 9.0228996 ], [ 38.7923591, 9.0212951 ], [ 38.7929892, 9.0212511 ], [ 38.7933946, 9.0212397 ], [ 38.7947935, 9.0210845 ], [ 38.7949134, 9.0210762 ], [ 38.7949194, 9.0209783 ], [ 38.7972575, 9.0171011 ], [ 38.7984096, 9.0131613 ], [ 38.7993051, 9.0096285 ], [ 38.8006423, 9.0056999 ], [ 38.797986, 9.0026206 ], [ 38.7955181, 9.0020965 ], [ 38.7946719, 8.9978068 ], [ 38.7951352, 8.9973643 ], [ 38.7948523, 8.9966292 ], [ 38.7935455, 8.9953446 ], [ 38.7917543, 8.9922639 ], [ 38.7885437, 8.9923131 ], [ 38.7847861, 8.9907155 ], [ 38.7823858, 8.9901732 ], [ 38.7779312, 8.9897209 ], [ 38.7769009, 8.9885584 ], [ 38.776855, 8.9886044 ], [ 38.7768315, 8.9896015 ], [ 38.7769319, 8.990373 ], [ 38.7744098, 8.993727 ], [ 38.7741375, 8.9945623 ], [ 38.7717799, 8.9976465 ], [ 38.768846, 8.999063 ], [ 38.7672202, 9.0015599 ], [ 38.7671183, 9.0031016 ], [ 38.7663964, 9.0070441 ], [ 38.7672577, 9.0104737 ], [ 38.7672256, 9.0115334 ], [ 38.769726, 9.0132853 ], [ 38.7693626, 9.0163824 ], [ 38.7703065, 9.0178326 ], [ 38.771192, 9.0184455 ], [ 38.7742102, 9.0174735 ], [ 38.7741335, 9.0152535 ], [ 38.776373, 9.0129175 ], [ 38.7790322, 9.0148252 ], [ 38.7807383, 9.0166185 ], [ 38.7800908, 9.0202484 ], [ 38.7774773, 9.0226485 ], [ 38.7764838, 9.0227621 ], [ 38.7754273, 9.0227795 ] ] ] } },
{ "type": "Feature", "properties": { "threshold_s": 600, "time_label": "10 min drive" }, "geometry": { "type": "Polygon", "coordinates": [ [ [ 38.7575617, 9.0352112 ], [ 38.7582831, 9.0359975 ], [ 38.7656921, 9.042178 ], [ 38.7733985, 9.0448605 ], [ 38.7837469, 9.0442561 ], [ 38.7848159, 9.0430688 ], [ 38.788646, 9.0371199 ], [ 38.788999, 9.0366321 ], [ 38.7997189, 9.0335465 ], [ 38.8100499, 9.0316977 ], [ 38.8169372, 9.0230296 ], [ 38.8199606, 9.0189684 ], [ 38.8172691, 9.0119811 ], [ 38.8192986, 9.0050052 ], [ 38.819705399999989, 9.0040656 ], [ 38.8176652, 8.9945341 ], [ 38.8152255, 8.9912287 ], [ 38.8137651, 8.9900424 ], [ 38.8097735, 8.9869675 ], [ 38.8035562, 8.9852867 ], [ 38.8021619, 8.9853275 ], [ 38.7996331, 8.9854045 ], [ 38.7899075, 8.9859732 ], [ 38.7880106, 8.9854871 ], [ 38.7855757, 8.9849273 ], [ 38.7787516, 8.9794447 ], [ 38.7777914, 8.9763594 ], [ 38.7759295, 8.9724099 ], [ 38.7755072, 8.9716351 ], [ 38.7656622, 8.9723626 ], [ 38.7643596, 8.9731872 ], [ 38.7579608, 8.9816198 ], [ 38.7521468, 8.9901247 ], [ 38.7491455, 8.9930873 ], [ 38.747904, 8.994513 ], [ 38.7493724, 8.9970314 ], [ 38.7483563, 9.0064761 ], [ 38.7445255, 9.010739 ], [ 38.7458373, 9.0155904 ], [ 38.7458578, 9.0156628 ], [ 38.7494123, 9.0211759 ], [ 38.7505797, 9.0229467 ], [ 38.7552732, 9.0313196 ], [ 38.7575617, 9.0352112 ] ] ] } },
{ "type": "Feature", "properties": { "threshold_s": 900, "time_label": "15 min drive" }, "geometry": { "type": "Polygon", "coordinates": [ [ [ 38.7419115, 9.0474839 ], [ 38.7446104, 9.0506486 ], [ 38.7446992, 9.0507129 ], [ 38.7489405, 9.0536645 ], [ 38.7574072, 9.0591695 ], [ 38.7586513, 9.0597989 ], [ 38.7603664, 9.0605291 ], [ 38.7693323, 9.0625728 ], [ 38.7699458, 9.0626987 ], [ 38.7734954, 9.063426 ], [ 38.7749442, 9.0634606 ], [ 38.780483, 9.0621365 ], [ 38.7897943, 9.0594104 ], [ 38.7899904, 9.0583905 ], [ 38.792129, 9.0494167 ], [ 38.7967241, 9.0428703 ], [ 38.8041703, 9.044401 ], [ 38.8069644, 9.0447637 ], [ 38.8138581, 9.046302 ], [ 38.8163043, 9.0466448 ], [ 38.8166174, 9.046587 ], [ 38.8167786, 9.0465382 ], [ 38.8258331, 9.0438902 ], [ 38.8288784, 9.0413308 ], [ 38.8292683, 9.0408404 ], [ 38.8313827, 9.0380374 ], [ 38.8380725, 9.0302644 ], [ 38.8383592, 9.0296847 ], [ 38.8418171, 9.0213402 ], [ 38.8397905, 9.0108774 ], [ 38.8349131, 9.0008394 ], [ 38.8352029, 8.9923179 ], [ 38.8357896, 8.9896223 ], [ 38.8359111, 8.9889212 ], [ 38.8352095, 8.987341 ], [ 38.834897, 8.9868345 ], [ 38.8342745, 8.9862466 ], [ 38.8276114, 8.9765701 ], [ 38.8267913, 8.9748659 ], [ 38.8247582, 8.9743625 ], [ 38.8211327, 8.9767138 ], [ 38.8208006, 8.9803978 ], [ 38.817983, 8.985495 ], [ 38.8097735, 8.9869675 ], [ 38.8079529, 8.9863615 ], [ 38.8066972, 8.9860036 ], [ 38.8035562, 8.9852867 ], [ 38.8021619, 8.9853275 ], [ 38.7996331, 8.9854045 ], [ 38.7971379, 8.9861223 ], [ 38.7899075, 8.9859732 ], [ 38.7880106, 8.9854871 ], [ 38.7855757, 8.9849273 ], [ 38.7842988, 8.9845215 ], [ 38.7787516, 8.9794447 ], [ 38.7777914, 8.9763594 ], [ 38.7828796, 8.9680649 ], [ 38.7909604, 8.9677523 ], [ 38.7914937, 8.9674282 ], [ 38.7923209, 8.9649386 ], [ 38.7915874, 8.9620308 ], [ 38.7910549, 8.9607763 ], [ 38.7906901, 8.960103 ], [ 38.7900039, 8.9597218 ], [ 38.7846847, 8.9578451 ], [ 38.7743597, 8.9549174 ], [ 38.7708151, 8.9532883 ], [ 38.766852, 8.953155 ], [ 38.7659699, 8.9533813 ], [ 38.7628206, 8.9541914 ], [ 38.7547858, 8.9606474 ], [ 38.753106, 8.9623967 ], [ 38.7502526, 8.965364 ], [ 38.7414916, 8.9728964 ], [ 38.7400277, 8.9744338 ], [ 38.7377935, 8.9768912 ], [ 38.7360174, 8.9790305 ], [ 38.7317325, 8.9889656 ], [ 38.7302594, 8.9977804 ], [ 38.7284978, 9.0065722 ], [ 38.726517, 9.0109459 ], [ 38.7253784, 9.0132798 ], [ 38.7247722, 9.0152427 ], [ 38.724787, 9.0155262 ], [ 38.7255172, 9.019411 ], [ 38.7257914, 9.0199832 ], [ 38.7323501, 9.0289703 ], [ 38.7341834, 9.0342732 ], [ 38.736942, 9.0414868 ], [ 38.7419115, 9.0474839 ] ] ] } },
{ "type": "Feature", "properties": { "threshold_s": 300, "time_label": "5 min drive" }, "geometry": { "type": "Polygon", "coordinates": [ [ [ 38.7712012, 9.0155134 ], [ 38.7720021, 9.0165267 ], [ 38.7727337, 9.0165182 ], [ 38.7741335, 9.0152535 ], [ 38.776373, 9.0129175 ], [ 38.7792254, 9.0132141 ], [ 38.7793668, 9.0132882 ], [ 38.7819307, 9.0165447 ], [ 38.7820039, 9.0176052 ], [ 38.7821732, 9.018387 ], [ 38.782435, 9.0193034 ], [ 38.7827905, 9.0187878 ], [ 38.7865155, 9.0155037 ], [ 38.7898082, 9.0123775 ], [ 38.7916999, 9.0107534 ], [ 38.7936352, 9.0089193 ], [ 38.7947168, 9.0050565 ], [ 38.7946479, 9.0046967 ], [ 38.7946308, 9.0046325 ], [ 38.7917389, 9.0056483 ], [ 38.7892042, 9.0040436 ], [ 38.7906855, 8.9993148 ], [ 38.7913789, 8.9990156 ], [ 38.7920983, 8.9987684 ], [ 38.792624, 8.9985777 ], [ 38.7931544, 8.9983837 ], [ 38.7936291, 8.9982041 ], [ 38.7941482, 8.9979968 ], [ 38.7946719, 8.9978068 ], [ 38.7965052, 8.9969379 ], [ 38.7956395, 8.9945489 ], [ 38.7952264, 8.9934812 ], [ 38.7942992, 8.9887271 ], [ 38.791375, 8.9871117 ], [ 38.788826, 8.985809 ], [ 38.7855757, 8.9849273 ], [ 38.7842988, 8.9845215 ], [ 38.7829895, 8.9840922 ], [ 38.7824454, 8.9839019 ], [ 38.781234, 8.9834683 ], [ 38.7787516, 8.9794447 ], [ 38.7749609, 8.9795702 ], [ 38.7718879, 8.979752 ], [ 38.7708268, 8.9803929 ], [ 38.7695651, 8.9811775 ], [ 38.7691776, 8.9814885 ], [ 38.7686049, 8.9823656 ], [ 38.7673754, 8.985989 ], [ 38.7657081, 8.9898585 ], [ 38.7660945, 8.991706 ], [ 38.7654197, 8.9966008 ], [ 38.7653393, 8.9971114 ], [ 38.7665433, 9.0010165 ], [ 38.7679271, 9.0042908 ], [ 38.7680585, 9.0045594 ], [ 38.768828, 9.0061181 ], [ 38.7692515, 9.0104413 ], [ 38.7694997, 9.0115212 ], [ 38.7712012, 9.0155134 ] ] ] } },
{ "type": "Feature", "properties": { "threshold_s": 600, "time_label": "10 min drive" }, "geometry": { "type": "Polygon", "coordinates": [ [ [ 38.7472907, 9.0144237 ], [ 38.751298, 9.0213571 ], [ 38.7563832, 9.0245716 ], [ 38.76209, 9.029884 ], [ 38.76348, 9.0308291 ], [ 38.7722643, 9.0352881 ], [ 38.7725503, 9.0352767 ], [ 38.7798841, 9.0348649 ], [ 38.7873533, 9.0350137 ], [ 38.7978825, 9.0305589 ], [ 38.8000767, 9.0287239 ], [ 38.8083148, 9.0203995 ], [ 38.8108202, 9.0112452 ], [ 38.8122471, 9.0067603 ], [ 38.8137605, 9.0016289 ], [ 38.8141627, 8.9895817 ], [ 38.8097735, 8.9869675 ], [ 38.8079529, 8.9863615 ], [ 38.8066972, 8.9860036 ], [ 38.8035562, 8.9852867 ], [ 38.8021619, 8.9853275 ], [ 38.7996331, 8.9854045 ], [ 38.7971379, 8.9861223 ], [ 38.7899075, 8.9859732 ], [ 38.7880106, 8.9854871 ], [ 38.7855757, 8.9849273 ], [ 38.7842988, 8.9845215 ], [ 38.7787516, 8.9794447 ], [ 38.7828796, 8.9680649 ], [ 38.7828581, 8.9679775 ], [ 38.7775834, 8.9635925 ], [ 38.767722, 8.9619127 ], [ 38.7662534, 8.9619123 ], [ 38.7654677, 8.962202 ], [ 38.7641698, 8.9634867 ], [ 38.7549265, 8.9730815 ], [ 38.7513245, 8.9774483 ], [ 38.7478086, 8.9840864 ], [ 38.7448465, 8.9951276 ], [ 38.7453434, 8.9957544 ], [ 38.7453967, 8.9958182 ], [ 38.748930799999989, 8.9998262 ], [ 38.746218, 9.0106422 ], [ 38.7472907, 9.0144237 ] ] ] } },
{ "type": "Feature", "properties": { "threshold_s": 900, "time_label": "15 min drive" }, "geometry": { "type": "Polygon", "coordinates": [ [ [ 38.7358913, 9.0322044 ], [ 38.7369454, 9.0344738 ], [ 38.7463036, 9.041451 ], [ 38.7502101, 9.0455465 ], [ 38.7586062, 9.0517882 ], [ 38.7599392, 9.0522462 ], [ 38.772083, 9.0535098 ], [ 38.7795458, 9.0530105 ], [ 38.7803242, 9.0529142 ], [ 38.783863, 9.0511805 ], [ 38.7892183, 9.0480524 ], [ 38.7906995, 9.0454025 ], [ 38.7918929, 9.0415089 ], [ 38.8031475, 9.0364072 ], [ 38.8042312, 9.0365115 ], [ 38.8151452, 9.038081 ], [ 38.8167089, 9.0378868 ], [ 38.8183573, 9.0371968 ], [ 38.8198134, 9.0358672 ], [ 38.8272819, 9.0259255 ], [ 38.8303554, 9.0157136 ], [ 38.8306437, 9.0067716 ], [ 38.8310638, 9.0002257 ], [ 38.8318874, 8.9895575 ], [ 38.8324087, 8.9861425 ], [ 38.8324275, 8.9859891 ], [ 38.8304619, 8.9779273 ], [ 38.8300543, 8.9713237 ], [ 38.8281848, 8.9703464 ], [ 38.826133, 8.9696636 ], [ 38.8249786, 8.9694064 ], [ 38.8210313, 8.9715078 ], [ 38.8198254, 8.9720055 ], [ 38.8194468, 8.9728782 ], [ 38.8208006, 8.9803978 ], [ 38.817983, 8.985495 ], [ 38.8097735, 8.9869675 ], [ 38.8079529, 8.9863615 ], [ 38.8066972, 8.9860036 ], [ 38.8035562, 8.9852867 ], [ 38.8021619, 8.9853275 ], [ 38.7996331, 8.9854045 ], [ 38.7971379, 8.9861223 ], [ 38.7899075, 8.9859732 ], [ 38.7880106, 8.9854871 ], [ 38.7855757, 8.9849273 ], [ 38.7842988, 8.9845215 ], [ 38.7787516, 8.9794447 ], [ 38.7828796, 8.9680649 ], [ 38.7919347, 8.9698281 ], [ 38.7983287, 8.9653657 ], [ 38.8027051, 8.9639848 ], [ 38.8023725, 8.9622779 ], [ 38.7965468, 8.9561463 ], [ 38.7945214, 8.9523859 ], [ 38.7928641, 8.9512982 ], [ 38.7848669, 8.9479787 ], [ 38.7755343, 8.944993 ], [ 38.7727093, 8.9415318 ], [ 38.7718545, 8.9407492 ], [ 38.7660152, 8.9436894 ], [ 38.7579586, 8.9457919 ], [ 38.7578036, 8.9458224 ], [ 38.7537807, 8.9500531 ], [ 38.7534318, 8.9504725 ], [ 38.7503255, 8.9546422 ], [ 38.7464974, 8.9584282 ], [ 38.746077, 8.9588322 ], [ 38.742496, 8.9624729 ], [ 38.7338065, 8.9651427 ], [ 38.7340753, 8.9706794 ], [ 38.7306013, 8.9808713 ], [ 38.7294422, 8.9825095 ], [ 38.7281075, 8.9943971 ], [ 38.7268985, 8.9991841 ], [ 38.7284978, 9.0065722 ], [ 38.7253784, 9.0132798 ], [ 38.7269885, 9.0179453 ], [ 38.7276309, 9.0186752 ], [ 38.7335177, 9.02722 ], [ 38.7344799, 9.0293116 ], [ 38.7358913, 9.0322044 ] ] ] } }
]
}
