{
"type": "FeatureCollection",
"name": "isochrone_shop_coffee_drive",
"crs": { "type": "name", "properties": { "name": "urn:ogc:def:crs:OGC:1.3:CRS84" } },
"features": [
{ "type": "Feature", "properties": { "threshold_s": 300, "time_label": "5 min drive" }, "geometry": { "type": "Polygon", "coordinates": [ [ [ 38.7543659, 9.0086832 ], [ 38.7535663, 9.009591 ], [ 38.7543717, 9.010126 ], [ 38.7586435, 9.0127141 ], [ 38.7637032, 9.0172024 ], [ 38.7691702, 9.0142051 ], [ 38.7743465, 9.0124832 ], [ 38.776373, 9.0129175 ], [ 38.7778035, 9.0124771 ], [ 38.7770095, 9.0108942 ], [ 38.778296, 9.0051979 ], [ 38.7782481, 9.0051158 ], [ 38.7772268, 9.0028263 ], [ 38.7766984, 8.9999864 ], [ 38.780365, 8.9959179 ], [ 38.7822003, 8.9957636 ], [ 38.782616, 8.9950866 ], [ 38.7858171, 8.9901332 ], [ 38.7856251, 8.9896706 ], [ 38.7840738, 8.987376 ], [ 38.7813853, 8.9856571 ], [ 38.7780281, 8.986051 ], [ 38.7760235, 8.9862013 ], [ 38.7693325, 8.985905 ], [ 38.767618, 8.9854072 ], [ 38.7643047, 8.985346 ], [ 38.7619202, 8.9856735 ], [ 38.7608696, 8.9875656 ], [ 38.7593683, 8.989876 ], [ 38.7555326, 8.992433 ], [ 38.7532926, 8.9942168 ], [ 38.7521073, 8.9952324 ], [ 38.7555122, 8.999626 ], [ 38.7576883, 9.0047943 ], [ 38.7543659, 9.0086832 ] ] ] } },
{ "type": "Feature", "properties": { "threshold_s": 600, "time_label": "10 min drive" }, "geometry": { "type": "Polygon", "coordinates": [ [ [ 38.7398328, 9.0227395 ], [ 38.7427752, 9.0293362 ], [ 38.7476809, 9.032044 ], [ 38.751755, 9.032577 ], [ 38.7540847, 9.0327214 ], [ 38.7633836, 9.0331509 ], [ 38.7734771, 9.0321527 ], [ 38.7795637, 9.0295252 ], [ 38.7866334, 9.0273798 ], [ 38.7935947, 9.0244763 ], [ 38.7994298, 9.0188571 ], [ 38.7967788, 9.0112606 ], [ 38.797109, 9.008386 ], [ 38.7980686, 9.0057269 ], [ 38.7984014, 9.0043704 ], [ 38.7994259, 8.9995528 ], [ 38.8020439, 8.9901737 ], [ 38.8035396, 8.9855276 ], [ 38.8035562, 8.9852867 ], [ 38.8021619, 8.9853275 ], [ 38.7996331, 8.9854045 ], [ 38.7899075, 8.9859732 ], [ 38.7880106, 8.9854871 ], [ 38.7855757, 8.9849273 ], [ 38.7787516, 8.9794447 ], [ 38.7777914, 8.9763594 ], [ 38.7770659, 8.9681153 ], [ 38.7751652, 8.9671492 ], [ 38.7664998, 8.9707517 ], [ 38.7629064, 8.9653976 ], [ 38.7565418, 8.9662656 ], [ 38.7554131, 8.96699 ], [ 38.7533533, 8.9687004 ], [ 38.7478795, 8.9736819 ], [ 38.7443903, 8.9760145 ], [ 38.7397105, 8.9799074 ], [ 38.7381422, 8.9843072 ], [ 38.7352312, 8.9890555 ], [ 38.7343846, 8.996604 ], [ 38.7331656, 9.0029958 ], [ 38.7339737, 9.011497 ], [ 38.7340052, 9.0117332 ], [ 38.7344752, 9.0132766 ], [ 38.7369093, 9.0181657 ], [ 38.7398328, 9.0227395 ] ] ] } },
{ "type": "Feature", "properties": { "threshold_s": 900, "time_label": "15 min drive" }, "geometry": { "type": "Polygon", "coordinates": [ [ [ 38.7306422, 9.0414557 ], [ 38.7330246, 9.0449407 ], [ 38.7354401, 9.0470626 ], [ 38.7435724, 9.0523714 ], [ 38.749955, 9.0526058 ], [ 38.758995, 9.0546066 ], [ 38.7616673, 9.0553654 ], [ 38.77087, 9.051386 ], [ 38.7810889, 9.0506348 ], [ 38.7863618, 9.0469064 ], [ 38.7878533, 9.0457387 ], [ 38.7877241, 9.0438592 ], [ 38.788999, 9.0366321 ], [ 38.7997189, 9.0335465 ], [ 38.8103267, 9.0327174 ], [ 38.8116564, 9.0325841 ], [ 38.8151405, 9.0255481 ], [ 38.8192466, 9.0238812 ], [ 38.8218961, 9.0181608 ], [ 38.8172691, 9.0119811 ], [ 38.8168907, 9.0039882 ], [ 38.8213671, 8.9976768 ], [ 38.8236666, 8.9918069 ], [ 38.8243435, 8.9870493 ], [ 38.8238774, 8.9792219 ], [ 38.8208006, 8.9803978 ], [ 38.817983, 8.985495 ], [ 38.8097735, 8.9869675 ], [ 38.8079529, 8.9863615 ], [ 38.8066972, 8.9860036 ], [ 38.8035562, 8.9852867 ], [ 38.8021619, 8.9853275 ], [ 38.7996331, 8.9854045 ], [ 38.7971379, 8.9861223 ], [ 38.7899075, 8.9859732 ], [ 38.7880106, 8.9854871 ], [ 38.7855757, 8.9849273 ], [ 38.7842988, 8.9845215 ], [ 38.7787516, 8.9794447 ], [ 38.7777914, 8.9763594 ], [ 38.7828796, 8.9680649 ], [ 38.7919347, 8.9698281 ], [ 38.7953746, 8.9657887 ], [ 38.7955637, 8.9646061 ], [ 38.7927417, 8.9586337 ], [ 38.7925974, 8.9584397 ], [ 38.7923846, 8.9582785 ], [ 38.7897956, 8.9567199 ], [ 38.7867668, 8.9555742 ], [ 38.7844464, 8.9549941 ], [ 38.7838446, 8.9551348 ], [ 38.7834193, 8.9552511 ], [ 38.7742697, 8.9534014 ], [ 38.771745, 8.9499193 ], [ 38.7714547, 8.9494682 ], [ 38.7657954, 8.9457131 ], [ 38.7619288, 8.9461522 ], [ 38.7581723, 8.9465868 ], [ 38.757884, 8.9466735 ], [ 38.7492882, 8.950277 ], [ 38.7429186, 8.9547997 ], [ 38.7424639, 8.9551171 ], [ 38.741532, 8.9558019 ], [ 38.7316363, 8.9603335 ], [ 38.7307999, 8.9610293 ], [ 38.7291811, 8.9630239 ], [ 38.7274935, 8.9655921 ], [ 38.7274269, 8.9700523 ], [ 38.7274406, 8.9711493 ], [ 38.7272385, 8.9740102 ], [ 38.7273483, 8.9746823 ], [ 38.7270547, 8.9798003 ], [ 38.7192004, 8.9837121 ], [ 38.7188148, 8.9838699 ], [ 38.7163675, 8.990102 ], [ 38.7160403, 8.9927609 ], [ 38.7188513, 8.9979545 ], [ 38.7153254, 9.0062265 ], [ 38.7139414, 9.0071815 ], [ 38.7117546, 9.0140297 ], [ 38.7165528, 9.0230948 ], [ 38.7182395, 9.025502 ], [ 38.7253331, 9.0339774 ], [ 38.7306422, 9.0414557 ] ] ] } },
{ "type": "Feature", "properties": { "threshold_s": 300, "time_label": "5 min drive" }, "geometry": { "type": "Polygon", "coordinates": [ [ [ 38.7674265, 9.0166327 ], [ 38.7683061, 9.0191895 ], [ 38.7683945, 9.0192425 ], [ 38.7713573, 9.0204686 ], [ 38.774444, 9.0200616 ], [ 38.775059, 9.0189164 ], [ 38.7800908, 9.0202484 ], [ 38.7788296, 9.023438 ], [ 38.7787771, 9.0234759 ], [ 38.7812063, 9.0252209 ], [ 38.7812609, 9.0251757 ], [ 38.7828895, 9.0215465 ], [ 38.7863129, 9.0211792 ], [ 38.7866543, 9.0211264 ], [ 38.7874637, 9.0209639 ], [ 38.787837, 9.0208872 ], [ 38.7904462, 9.020033 ], [ 38.7934182, 9.0170489 ], [ 38.7949421, 9.0145161 ], [ 38.7975274, 9.0125425 ], [ 38.7990177, 9.0090624 ], [ 38.799906900000011, 9.0060768 ], [ 38.8009754, 9.0029979 ], [ 38.8012889, 9.0015944 ], [ 38.8002281, 9.0010613 ], [ 38.7993438, 9.0015425 ], [ 38.7977966, 9.0017538 ], [ 38.7965052, 8.9969379 ], [ 38.7956395, 8.9945489 ], [ 38.7952264, 8.9934812 ], [ 38.7949535, 8.9927309 ], [ 38.7935246, 8.9897445 ], [ 38.792569, 8.9896677 ], [ 38.7876549, 8.9893973 ], [ 38.7840738, 8.987376 ], [ 38.7793551, 8.9859527 ], [ 38.7780281, 8.986051 ], [ 38.7760235, 8.9862013 ], [ 38.775627, 8.9865062 ], [ 38.7729816, 8.9907565 ], [ 38.7719314, 8.9937078 ], [ 38.7698496, 8.9967179 ], [ 38.7663914, 9.0000105 ], [ 38.7653333, 9.0005965 ], [ 38.7654833, 9.001129 ], [ 38.7657918, 9.0013837 ], [ 38.7663704, 9.0019672 ], [ 38.7663964, 9.0070441 ], [ 38.7661556, 9.0073141 ], [ 38.764761, 9.0088177 ], [ 38.7658891, 9.0123181 ], [ 38.7674265, 9.0166327 ] ] ] } },
{ "type": "Feature", "properties": { "threshold_s": 600, "time_label": "10 min drive" }, "geometry": { "type": "Polygon", "coordinates": [ [ [ 38.7446581, 9.0167997 ], [ 38.748433, 9.0240763 ], [ 38.7517573, 9.0266441 ], [ 38.7601733, 9.0333871 ], [ 38.7619077, 9.0346996 ], [ 38.7679818, 9.0389659 ], [ 38.7690506, 9.0397158 ], [ 38.7728901, 9.0400549 ], [ 38.7813319, 9.0400888 ], [ 38.7821976, 9.0400112 ], [ 38.7835732, 9.0398786 ], [ 38.788646, 9.0371199 ], [ 38.7988474, 9.0307862 ], [ 38.8011234, 9.0303124 ], [ 38.8048161, 9.0292985 ], [ 38.8134627, 9.0213571 ], [ 38.8172691, 9.0119811 ], [ 38.819705399999989, 9.0040656 ], [ 38.8203452, 8.9967397 ], [ 38.8203182, 8.9958983 ], [ 38.8192158, 8.991556 ], [ 38.8188985, 8.9908752 ], [ 38.8158998, 8.9886047 ], [ 38.8079529, 8.9863615 ], [ 38.8066972, 8.9860036 ], [ 38.8035562, 8.9852867 ], [ 38.8021619, 8.9853275 ], [ 38.7996331, 8.9854045 ], [ 38.7899075, 8.9859732 ], [ 38.7880106, 8.9854871 ], [ 38.7855757, 8.9849273 ], [ 38.7777914, 8.9763594 ], [ 38.7770659, 8.9681153 ], [ 38.7751652, 8.9671492 ], [ 38.7655318, 8.9710292 ], [ 38.7609422, 8.9727954 ], [ 38.7553965, 8.9820855 ], [ 38.7482563, 8.9911526 ], [ 38.7475225, 8.9920818 ], [ 38.7460999, 8.9948206 ], [ 38.7467176, 9.0045045 ], [ 38.7447023, 9.0088719 ], [ 38.7440647, 9.0101702 ], [ 38.7445414, 9.0165448 ], [ 38.7446581, 9.0167997 ] ] ] } },
{ "type": "Feature", "properties": { "threshold_s": 900, "time_label": "15 min drive" }, "geometry": { "type": "Polygon", "coordinates": [ [ [ 38.7313107, 9.0313408 ], [ 38.7365276, 9.0382717 ], [ 38.7464971, 9.0480836 ], [ 38.7510974, 9.0515804 ], [ 38.7565047, 9.0554225 ], [ 38.7594231, 9.0566085 ], [ 38.7608191, 9.0571692 ], [ 38.7731371, 9.05917 ], [ 38.7752118, 9.0594034 ], [ 38.7802957, 9.0593364 ], [ 38.7876136, 9.0553217 ], [ 38.792129, 9.0494167 ], [ 38.8069644, 9.0447637 ], [ 38.8165711, 9.0438703 ], [ 38.8175564, 9.0435695 ], [ 38.8240961, 9.0403013 ], [ 38.8265521, 9.038531 ], [ 38.8343351, 9.0287157 ], [ 38.8368236, 9.0215274 ], [ 38.8367977, 9.0208988 ], [ 38.835943, 9.0084869 ], [ 38.8349131, 9.0008394 ], [ 38.8381241, 8.9890226 ], [ 38.8381179, 8.9886036 ], [ 38.837623, 8.9862396 ], [ 38.8371688, 8.9852844 ], [ 38.8285212, 8.9718029 ], [ 38.8252518, 8.970978 ], [ 38.8208093, 8.9733361 ], [ 38.8066972, 8.9860036 ], [ 38.8035562, 8.9852867 ], [ 38.8021619, 8.9853275 ], [ 38.7919347, 8.9698281 ], [ 38.7953746, 8.9657887 ], [ 38.7955637, 8.9646061 ], [ 38.7927417, 8.9586337 ], [ 38.7925974, 8.9584397 ], [ 38.7923846, 8.9582785 ], [ 38.7897956, 8.9567199 ], [ 38.7867668, 8.9555742 ], [ 38.7844464, 8.9549941 ], [ 38.7688543, 8.9481925 ], [ 38.7607238, 8.9522413 ], [ 38.7516577, 8.9600086 ], [ 38.7399331, 8.9709491 ], [ 38.7324125, 8.9841916 ], [ 38.7309319, 8.9868939 ], [ 38.7304649, 8.9897669 ], [ 38.7290869, 8.9955912 ], [ 38.7212262, 9.0115404 ], [ 38.7211895, 9.0115916 ], [ 38.7210359, 9.0122983 ], [ 38.7228298, 9.0203316 ], [ 38.7313107, 9.0313408 ] ] ] } },
{ "type": "Feature", "properties": { "threshold_s": 300, "time_label": "5 min drive" }, "geometry": { "type": "Polygon", "coordinates": [ [ [ 38.7452756, 9.0425768 ], [ 38.7456875, 9.0454928 ], [ 38.745965, 9.0457722 ], [ 38.7471673, 9.0469322 ], [ 38.7504449, 9.049246 ], [ 38.7518816, 9.0510309 ], [ 38.7531123, 9.0510492 ], [ 38.7551597, 9.0514617 ], [ 38.7575429, 9.0527258 ], [ 38.760117, 9.0523689 ], [ 38.7624706, 9.0535973 ], [ 38.7638493, 9.0498777 ], [ 38.7652991, 9.0499347 ], [ 38.7669492, 9.0499581 ], [ 38.7701541, 9.0481491 ], [ 38.7712129, 9.0478766 ], [ 38.7720654, 9.0464541 ], [ 38.7745828, 9.0428996 ], [ 38.775777, 9.0422005 ], [ 38.7773078, 9.0393449 ], [ 38.7791536, 9.0381632 ], [ 38.7804737, 9.033912 ], [ 38.7799938, 9.0303326 ], [ 38.7795637, 9.0295252 ], [ 38.7778281, 9.0263133 ], [ 38.7764797, 9.0254299 ], [ 38.7739329, 9.0250723 ], [ 38.7722787, 9.0259286 ], [ 38.7696171, 9.026581 ], [ 38.7673563, 9.028805 ], [ 38.7660695, 9.0292297 ], [ 38.7625209, 9.0267749 ], [ 38.7624111, 9.0266163 ], [ 38.7616201, 9.0233396 ], [ 38.7645123, 9.0221623 ], [ 38.7650922, 9.0223314 ], [ 38.7666902, 9.0194705 ], [ 38.7668012, 9.0191922 ], [ 38.7657801, 9.0168339 ], [ 38.7649382, 9.0162277 ], [ 38.7623398, 9.017288 ], [ 38.7587022, 9.0179263 ], [ 38.7576248, 9.0176281 ], [ 38.7547988, 9.0187984 ], [ 38.7547264, 9.0189117 ], [ 38.7536067, 9.0215262 ], [ 38.7517903, 9.0249097 ], [ 38.7490952, 9.028018 ], [ 38.748161, 9.0290428 ], [ 38.7471956, 9.0323047 ], [ 38.7455097, 9.0345712 ], [ 38.7443637, 9.0371691 ], [ 38.7447332, 9.040759 ], [ 38.7452756, 9.0425768 ] ] ] } },
{ "type": "Feature", "properties": { "threshold_s": 600, "time_label": "10 min drive" }, "geometry": { "type": "Polygon", "coordinates": [ [ [ 38.7294594, 9.0573036 ], [ 38.7332008, 9.0640745 ], [ 38.7420343, 9.0674589 ], [ 38.7478419, 9.0712001 ], [ 38.7518597, 9.072002 ], [ 38.7606709, 9.0746963 ], [ 38.7614399, 9.0745944 ], [ 38.7670536, 9.0730241 ], [ 38.7723158, 9.070585 ], [ 38.7746251, 9.0694215 ], [ 38.7820199, 9.0676257 ], [ 38.7863256, 9.061631 ], [ 38.7888577, 9.058503 ], [ 38.7888612, 9.057534 ], [ 38.792129, 9.0494167 ], [ 38.7918929, 9.0415089 ], [ 38.7898711, 9.0353037 ], [ 38.7947311, 9.0312946 ], [ 38.7988474, 9.0307862 ], [ 38.799007, 9.0305119 ], [ 38.8000767, 9.0287239 ], [ 38.8000908, 9.0286678 ], [ 38.799866, 9.0223488 ], [ 38.7972284, 9.0207265 ], [ 38.7912393, 9.0152125 ], [ 38.7887416, 9.011563 ], [ 38.7881269, 9.0106485 ], [ 38.7880908, 9.0106422 ], [ 38.7818469, 9.0080756 ], [ 38.7807231, 9.0031349 ], [ 38.7739914, 8.9989883 ], [ 38.7724357, 8.9962689 ], [ 38.7665945, 8.9943362 ], [ 38.7664925, 8.9943395 ], [ 38.7577567, 8.996913 ], [ 38.7538192, 8.9991228 ], [ 38.7519483, 9.0002155 ], [ 38.7503682, 9.0010764 ], [ 38.7415638, 9.0038567 ], [ 38.7374282, 9.0103843 ], [ 38.7316634, 9.0179607 ], [ 38.7309641, 9.0187642 ], [ 38.7297343, 9.0204905 ], [ 38.726631, 9.028458 ], [ 38.7233667, 9.0355076 ], [ 38.7241848, 9.0443085 ], [ 38.7243136, 9.0454214 ], [ 38.7247266, 9.0465336 ], [ 38.7282221, 9.0540808 ], [ 38.7294594, 9.0573036 ] ] ] } },
{ "type": "Feature", "properties": { "threshold_s": 900, "time_label": "15 min drive" }, "geometry": { "type": "Polygon", "coordinates": [ [ [ 38.7157707, 9.0714928 ], [ 38.7160362, 9.0719192 ], [ 38.7233493, 9.0781739 ], [ 38.7235789, 9.0781644 ], [ 38.7324589, 9.0764417 ], [ 38.7377219, 9.0759888 ], [ 38.7382369, 9.0758127 ], [ 38.7465249, 9.0792228 ], [ 38.7431292, 9.0876863 ], [ 38.7536985, 9.0820899 ], [ 38.7613576, 9.0810134 ], [ 38.773237, 9.081739 ], [ 38.7856852, 9.0805299 ], [ 38.7946067, 9.076095 ], [ 38.7949508, 9.0759041 ], [ 38.7963992, 9.0704068 ], [ 38.8050477, 9.06282 ], [ 38.8067847, 9.0595471 ], [ 38.8101988, 9.0532069 ], [ 38.8106032, 9.0488651 ], [ 38.8173207, 9.0382299 ], [ 38.8187528, 9.0373043 ], [ 38.8204633, 9.0360594 ], [ 38.8203388, 9.0240147 ], [ 38.8174788, 9.0169177 ], [ 38.8152355, 9.0119172 ], [ 38.8122395, 9.0063866 ], [ 38.8049696, 8.9990194 ], [ 38.795499, 8.9912753 ], [ 38.7942992, 8.9887271 ], [ 38.791375, 8.9871117 ], [ 38.789819799999989, 8.986366 ], [ 38.7786839, 8.9804382 ], [ 38.7718879, 8.979752 ], [ 38.7632147, 8.9764116 ], [ 38.762356, 8.9764219 ], [ 38.759463599999989, 8.9769388 ], [ 38.7490992, 8.9770794 ], [ 38.7490234, 8.9770846 ], [ 38.7447973, 8.9800177 ], [ 38.7352261, 8.9837982 ], [ 38.732616299999989, 8.9851679 ], [ 38.7271369, 8.9932141 ], [ 38.7253797, 8.9978604 ], [ 38.7186309, 9.0047421 ], [ 38.7161945, 9.0080137 ], [ 38.7142962, 9.0121102 ], [ 38.7156287, 9.0220832 ], [ 38.7119525, 9.0269373 ], [ 38.7093544, 9.0292577 ], [ 38.7065063, 9.0324123 ], [ 38.7063434, 9.0329963 ], [ 38.7062408, 9.0334666 ], [ 38.7058464, 9.0394712 ], [ 38.7073345, 9.0424437 ], [ 38.7100965, 9.054685 ], [ 38.7100254, 9.0561289 ], [ 38.710331, 9.0582414 ], [ 38.7146036, 9.0688953 ], [ 38.7157707, 9.0714928 ] ] ] } },
{ "type": "Feature", "properties": { "threshold_s": 300, "time_label": "5 min drive" }, "geometry": { "type": "Polygon", "coordinates": [ [ [ 38.8017493, 9.0093791 ], [ 38.8016497, 9.0094333 ], [ 38.8042796, 9.0101637 ], [ 38.8056166, 9.0117535 ], [ 38.8069504, 9.0129683 ], [ 38.8080729, 9.0132681 ], [ 38.8097058, 9.0137634 ], [ 38.8115097, 9.0148216 ], [ 38.8132313, 9.0149019 ], [ 38.8132233, 9.0144189 ], [ 38.8129994, 9.0138904 ], [ 38.8152355, 9.0119172 ], [ 38.8161268, 9.0119246 ], [ 38.8172691, 9.0119811 ], [ 38.8186794, 9.0137801 ], [ 38.8208147, 9.013098 ], [ 38.8232273, 9.0147013 ], [ 38.8235384, 9.015215 ], [ 38.823589, 9.0151629 ], [ 38.8244028, 9.013401 ], [ 38.8268833, 9.0126441 ], [ 38.8270598, 9.0118905 ], [ 38.8283048, 9.0092346 ], [ 38.830579899999989, 9.0094153 ], [ 38.8310436, 9.0083342 ], [ 38.83187, 9.0056226 ], [ 38.8323814, 9.0029206 ], [ 38.8334755, 9.0014574 ], [ 38.833964, 9.0005222 ], [ 38.8336715, 9.0002098 ], [ 38.8321106, 8.9977634 ], [ 38.831749, 8.9949583 ], [ 38.8323018, 8.9934581 ], [ 38.8335326, 8.9919851 ], [ 38.8335999, 8.9914841 ], [ 38.8337141, 8.9904254 ], [ 38.8336094, 8.9895774 ], [ 38.8330749, 8.9887201 ], [ 38.8327726, 8.988922 ], [ 38.8310145, 8.9893455 ], [ 38.8291491, 8.9877386 ], [ 38.8289319, 8.9866753 ], [ 38.828459, 8.9867431 ], [ 38.8280132, 8.9868716 ], [ 38.8273051, 8.9870493 ], [ 38.8243435, 8.9870493 ], [ 38.8240832, 8.986593 ], [ 38.8239984, 8.9864212 ], [ 38.8235769, 8.9858801 ], [ 38.8209425, 8.9867708 ], [ 38.8205229, 8.9864815 ], [ 38.8196728, 8.9858488 ], [ 38.8190351, 8.9862093 ], [ 38.8175372, 8.9873423 ], [ 38.8166645, 8.988021 ], [ 38.8158998, 8.9886047 ], [ 38.8151393, 8.9891745 ], [ 38.8127899, 8.9893411 ], [ 38.8103143, 8.9883096 ], [ 38.80954, 8.9893398 ], [ 38.807634299999989, 8.9913228 ], [ 38.8067452, 8.9919282 ], [ 38.8047226, 8.9935532 ], [ 38.8047277, 8.9950795 ], [ 38.8037968, 8.9973995 ], [ 38.8034868, 9.0000001 ], [ 38.8024677, 9.0009613 ], [ 38.8021955, 9.0011235 ], [ 38.8019402, 9.0036834 ], [ 38.8019364, 9.0054341 ], [ 38.8030658, 9.0047334 ], [ 38.8034796, 9.0044801 ], [ 38.805528099999989, 9.0043363 ], [ 38.8056402, 9.0071786 ], [ 38.8049791, 9.0076544 ], [ 38.8049162, 9.0076893 ], [ 38.8038324, 9.0088005 ], [ 38.8017493, 9.0093791 ] ] ] } },
{ "type": "Feature", "properties": { "threshold_s": 600, "time_label": "10 min drive" }, "geometry": { "type": "Polygon", "coordinates": [ [ [ 38.7888143, 9.0228996 ], [ 38.7928896, 9.0272559 ], [ 38.7950368, 9.0283534 ], [ 38.7955746, 9.0285027 ], [ 38.7980379, 9.0288077 ], [ 38.8048161, 9.0292985 ], [ 38.8160702, 9.0304005 ], [ 38.8219205, 9.0322375 ], [ 38.826868, 9.0339655 ], [ 38.8285721, 9.0335671 ], [ 38.830852, 9.0329734 ], [ 38.8343283, 9.0314716 ], [ 38.8363252, 9.0299163 ], [ 38.8400264, 9.0249451 ], [ 38.8455119, 9.0186309 ], [ 38.8457617, 9.0183395 ], [ 38.8460017, 9.0180426 ], [ 38.8512979, 9.0099832 ], [ 38.8518947, 9.0080049 ], [ 38.8520834, 9.0059043 ], [ 38.8520668, 9.0013272 ], [ 38.8522949, 8.9930413 ], [ 38.8534766, 8.9890994 ], [ 38.853832, 8.9867349 ], [ 38.8538991, 8.9844883 ], [ 38.8482249, 8.975515 ], [ 38.8475228, 8.9742559 ], [ 38.8445342, 8.9704772 ], [ 38.8376764, 8.9692227 ], [ 38.829171, 8.9683279 ], [ 38.8250407, 8.9682187 ], [ 38.819654, 8.9719953 ], [ 38.8194468, 8.9728782 ], [ 38.8208006, 8.9803978 ], [ 38.817983, 8.985495 ], [ 38.8097735, 8.9869675 ], [ 38.8079529, 8.9863615 ], [ 38.8066972, 8.9860036 ], [ 38.8035562, 8.9852867 ], [ 38.8021619, 8.9853275 ], [ 38.7996331, 8.9854045 ], [ 38.788826, 8.985809 ], [ 38.7888132, 8.9859297 ], [ 38.7881416, 8.9909852 ], [ 38.7873682, 8.9940098 ], [ 38.782213, 9.0034965 ], [ 38.781468, 9.0045317 ], [ 38.783456, 9.0150193 ], [ 38.7841292, 9.0165435 ], [ 38.7861715, 9.0197125 ], [ 38.7888143, 9.0228996 ] ] ] } },
{ "type": "Feature", "properties": { "threshold_s": 900, "time_label": "15 min drive" }, "geometry": { "type": "Polygon", "coordinates": [ [ [ 38.7725503, 9.0352767 ], [ 38.7747213, 9.0379721 ], [ 38.7773078, 9.0393449 ], [ 38.7813319, 9.0400888 ], [ 38.7821976, 9.0400112 ], [ 38.7835732, 9.0398786 ], [ 38.7866579, 9.0379459 ], [ 38.7884075, 9.037232 ], [ 38.788646, 9.0371199 ], [ 38.8031475, 9.0364072 ], [ 38.8069644, 9.0447637 ], [ 38.8150185, 9.0461783 ], [ 38.8258687, 9.0527146 ], [ 38.8283926, 9.0533304 ], [ 38.8294508, 9.053394 ], [ 38.8352088, 9.0519684 ], [ 38.8471529, 9.0440157 ], [ 38.8516426, 9.0413437 ], [ 38.8578098, 9.0368942 ], [ 38.8649712, 9.0207781 ], [ 38.8672391, 9.0175395 ], [ 38.8726298, 9.0108859 ], [ 38.8725253, 9.0105366 ], [ 38.87043, 9.0027015 ], [ 38.8697265, 9.0004405 ], [ 38.8683298, 8.9954969 ], [ 38.8694492, 8.9826364 ], [ 38.8692842, 8.9776795 ], [ 38.8632211, 8.9748911 ], [ 38.8542589, 8.9723237 ], [ 38.8466016, 8.9594007 ], [ 38.8470608, 8.9552296 ], [ 38.8452372, 8.9509671 ], [ 38.8295102, 8.9485396 ], [ 38.8231898, 8.9589257 ], [ 38.8079017, 8.9635656 ], [ 38.805922, 8.9637815 ], [ 38.8027051, 8.9639848 ], [ 38.8030082, 8.9647386 ], [ 38.8033578, 8.9656768 ], [ 38.8073882, 8.9718973 ], [ 38.7996331, 8.9854045 ], [ 38.7971379, 8.9861223 ], [ 38.7899075, 8.9859732 ], [ 38.7880106, 8.9854871 ], [ 38.7777914, 8.9763594 ], [ 38.7756114, 8.9726492 ], [ 38.7750388, 8.9724298 ], [ 38.7680454, 8.9777212 ], [ 38.7686049, 8.9823656 ], [ 38.7698437, 8.9919916 ], [ 38.7653333, 9.0005965 ], [ 38.76206, 9.0111118 ], [ 38.7650242, 9.0169385 ], [ 38.767701, 9.0287114 ], [ 38.7725503, 9.0352767 ] ] ] } },
{ "type": "Feature", "properties": { "threshold_s": 300, "time_label": "5 min drive" }, "geometry": { "type": "Polygon", "coordinates": [ [ [ 38.76206, 9.0111118 ], [ 38.762877, 9.0129834 ], [ 38.7672256, 9.0115334 ], [ 38.7706225, 9.010122 ], [ 38.7742127, 9.0105641 ], [ 38.7767099, 9.0071045 ], [ 38.7776747, 9.0055086 ], [ 38.7775795, 9.0043913 ], [ 38.7772268, 9.0028263 ], [ 38.7794906, 8.9991652 ], [ 38.7816457, 8.9992002 ], [ 38.7822667, 8.9992671 ], [ 38.7827763, 8.9993254 ], [ 38.7849529, 8.9969014 ], [ 38.7860621, 8.9936699 ], [ 38.788291, 8.9915527 ], [ 38.7893008, 8.9887511 ], [ 38.7886764, 8.9882605 ], [ 38.7855757, 8.9849273 ], [ 38.7810382, 8.9833915 ], [ 38.7786342, 8.9830658 ], [ 38.7757844, 8.9831065 ], [ 38.7733497, 8.983102 ], [ 38.7729578, 8.9832075 ], [ 38.7720865, 8.9839641 ], [ 38.76691, 8.9832305 ], [ 38.7658906, 8.9818314 ], [ 38.763834, 8.9819059 ], [ 38.7598874, 8.9826072 ], [ 38.7585221, 8.9862381 ], [ 38.7586171, 8.9869071 ], [ 38.7588793, 8.9875864 ], [ 38.7593683, 8.989876 ], [ 38.7565699, 8.9926533 ], [ 38.7556499, 8.9931228 ], [ 38.7534142, 8.9955503 ], [ 38.7533887, 8.9956298 ], [ 38.7555253, 8.9985161 ], [ 38.7587985, 9.0020734 ], [ 38.7588645, 9.0036389 ], [ 38.7588747, 9.0040341 ], [ 38.7587103, 9.0068983 ], [ 38.7587462, 9.0073761 ], [ 38.7591165, 9.0088639 ], [ 38.76206, 9.0111118 ] ] ] } },
{ "type": "Feature", "properties": { "threshold_s": 600, "time_label": "10 min drive" }, "geometry": { "type": "Polygon", "coordinates": [ [ [ 38.7428476, 9.0213885 ], [ 38.7463807, 9.0263647 ], [ 38.7493904, 9.0279921 ], [ 38.7516948, 9.0287486 ], [ 38.7526328, 9.0285574 ], [ 38.7581126, 9.0269965 ], [ 38.7657206, 9.0293019 ], [ 38.7668135, 9.0296198 ], [ 38.7727188, 9.0282905 ], [ 38.7752165, 9.0276289 ], [ 38.7783603, 9.0264075 ], [ 38.7862275, 9.0229698 ], [ 38.7921291, 9.0212226 ], [ 38.7953428, 9.0176745 ], [ 38.7955817, 9.0122013 ], [ 38.7974214, 9.0082378 ], [ 38.8013844, 9.0027679 ], [ 38.8012889, 9.0015944 ], [ 38.8013238, 8.9997042 ], [ 38.8046098, 8.9919487 ], [ 38.8058082, 8.9901794 ], [ 38.8035562, 8.9852867 ], [ 38.8021619, 8.9853275 ], [ 38.7996331, 8.9854045 ], [ 38.7971379, 8.9861223 ], [ 38.7899075, 8.9859732 ], [ 38.7880106, 8.9854871 ], [ 38.7855757, 8.9849273 ], [ 38.7842988, 8.9845215 ], [ 38.7787516, 8.9794447 ], [ 38.7777914, 8.9763594 ], [ 38.7804589, 8.9680504 ], [ 38.7798232, 8.9672529 ], [ 38.7764513, 8.9654406 ], [ 38.7726275, 8.964449 ], [ 38.7663539, 8.9652701 ], [ 38.7633621, 8.962338 ], [ 38.7556649, 8.9621462 ], [ 38.7507722, 8.9674012 ], [ 38.7487855, 8.9703594 ], [ 38.7433497, 8.9771834 ], [ 38.7410017, 8.9796201 ], [ 38.7393057, 8.9838339 ], [ 38.7362266, 8.9892398 ], [ 38.7376045, 8.9950873 ], [ 38.7371778, 8.998569 ], [ 38.7336948, 9.0037736 ], [ 38.7359091, 9.0114509 ], [ 38.7386839, 9.0164975 ], [ 38.7399206, 9.0183454 ], [ 38.7428476, 9.0213885 ] ] ] } },
{ "type": "Feature", "properties": { "threshold_s": 900, "time_label": "15 min drive" }, "geometry": { "type": "Polygon", "coordinates": [ [ [ 38.734691, 9.0401733 ], [ 38.7358189, 9.0415239 ], [ 38.7397933, 9.0438992 ], [ 38.7462735, 9.0484102 ], [ 38.7465743, 9.0484181 ], [ 38.7519653, 9.0479608 ], [ 38.7602034, 9.0500346 ], [ 38.7620455, 9.0508657 ], [ 38.7621454, 9.0508758 ], [ 38.7720477, 9.0473428 ], [ 38.7785388, 9.0467717 ], [ 38.7839977, 9.0439166 ], [ 38.7846176, 9.0425431 ], [ 38.788646, 9.0371199 ], [ 38.788999, 9.0366321 ], [ 38.7997189, 9.0335465 ], [ 38.8048161, 9.0292985 ], [ 38.809383, 9.0265432 ], [ 38.81506, 9.0219887 ], [ 38.8171751, 9.0194641 ], [ 38.8171611, 9.0191599 ], [ 38.817654, 9.0119948 ], [ 38.8192986, 9.0050052 ], [ 38.8229174, 9.0007841 ], [ 38.8256615, 8.9912976 ], [ 38.8277737, 8.9844115 ], [ 38.8268919, 8.9778041 ], [ 38.8254918, 8.9759866 ], [ 38.823827799999989, 8.9768259 ], [ 38.8232755, 8.9774733 ], [ 38.8208006, 8.9803978 ], [ 38.817983, 8.985495 ], [ 38.8097735, 8.9869675 ], [ 38.8079529, 8.9863615 ], [ 38.8066972, 8.9860036 ], [ 38.8035562, 8.9852867 ], [ 38.8021619, 8.9853275 ], [ 38.7996331, 8.9854045 ], [ 38.7971379, 8.9861223 ], [ 38.7899075, 8.9859732 ], [ 38.7880106, 8.9854871 ], [ 38.7855757, 8.9849273 ], [ 38.7842988, 8.9845215 ], [ 38.7787516, 8.9794447 ], [ 38.7777914, 8.9763594 ], [ 38.7828796, 8.9680649 ], [ 38.7919347, 8.9698281 ], [ 38.7983287, 8.9653657 ], [ 38.7981165, 8.9647562 ], [ 38.7962545, 8.9594646 ], [ 38.7930639, 8.955268 ], [ 38.7877271, 8.9530885 ], [ 38.7857214, 8.9523756 ], [ 38.7750193, 8.948154 ], [ 38.7737816, 8.9471133 ], [ 38.7704948, 8.9435932 ], [ 38.7697956, 8.9428309 ], [ 38.7633343, 8.9416188 ], [ 38.7550714, 8.9442285 ], [ 38.7498369, 8.9457517 ], [ 38.7491995, 8.9460984 ], [ 38.7406848, 8.9525624 ], [ 38.7348681, 8.9596248 ], [ 38.7316363, 8.9603335 ], [ 38.7307999, 8.9610293 ], [ 38.7291811, 8.9630239 ], [ 38.7274935, 8.9655921 ], [ 38.7282655, 8.9715133 ], [ 38.7281115, 8.9746553 ], [ 38.7270547, 8.9798003 ], [ 38.7196875, 8.984451 ], [ 38.716908, 8.9901293 ], [ 38.71692, 8.9926857 ], [ 38.7169688, 8.9929217 ], [ 38.7189357, 9.0001877 ], [ 38.7168986, 9.0089339 ], [ 38.7153025, 9.0123922 ], [ 38.7151935, 9.0129759 ], [ 38.7152307, 9.0130989 ], [ 38.7189397, 9.0228998 ], [ 38.7191261, 9.0231952 ], [ 38.7202012, 9.0240283 ], [ 38.7274289, 9.030503 ], [ 38.7282302, 9.0323614 ], [ 38.7317272, 9.0364619 ], [ 38.734691, 9.0401733 ] ] ] } },
{ "type": "Feature", "properties": { "threshold_s": 300, "time_label": "5 min drive" }, "geometry": { "type": "Polygon", "coordinates": [ [ [ 38.773414, 9.0061278 ], [ 38.7748415, 9.0108268 ], [ 38.7814606, 9.0122943 ], [ 38.7831329, 9.0133339 ], [ 38.7874085, 9.0152361 ], [ 38.7897772, 9.0133568 ], [ 38.7948138, 9.0115059 ], [ 38.7970892, 9.0075365 ], [ 38.797621, 9.0063149 ], [ 38.7994259, 8.9995528 ], [ 38.7991837, 8.9991818 ], [ 38.797957, 8.9920335 ], [ 38.8020439, 8.9901737 ], [ 38.8035396, 8.9855276 ], [ 38.8035562, 8.9852867 ], [ 38.8021619, 8.9853275 ], [ 38.7996331, 8.9854045 ], [ 38.7971379, 8.9861223 ], [ 38.789819799999989, 8.986366 ], [ 38.788826, 8.985809 ], [ 38.7855757, 8.9849273 ], [ 38.7842988, 8.9845215 ], [ 38.7784405, 8.9816191 ], [ 38.7747851, 8.9823095 ], [ 38.7718993, 8.9891153 ], [ 38.7708546, 8.9939276 ], [ 38.7707889, 8.9960261 ], [ 38.7712938, 8.9985856 ], [ 38.7736869, 8.9994737 ], [ 38.773414, 9.0061278 ] ] ] } },
{ "type": "Feature", "properties": { "threshold_s": 600, "time_label": "10 min drive" }, "geometry": { "type": "Polygon", "coordinates": [ [ [ 38.7555162, 9.0160017 ], [ 38.760309, 9.0221661 ], [ 38.7664952, 9.0274613 ], [ 38.7738375, 9.030361 ], [ 38.7821375, 9.0323922 ], [ 38.7913411, 9.0328014 ], [ 38.7988474, 9.0307862 ], [ 38.799007, 9.0305119 ], [ 38.8000767, 9.0287239 ], [ 38.8048199, 9.0234244 ], [ 38.8110194, 9.0199451 ], [ 38.8152029, 9.0088359 ], [ 38.8209634, 8.9972946 ], [ 38.8233186, 8.9915543 ], [ 38.8239984, 8.9864212 ], [ 38.8208006, 8.9803978 ], [ 38.8097735, 8.9869675 ], [ 38.8079529, 8.9863615 ], [ 38.8066972, 8.9860036 ], [ 38.8035562, 8.9852867 ], [ 38.8021619, 8.9853275 ], [ 38.7996331, 8.9854045 ], [ 38.7971379, 8.9861223 ], [ 38.7899075, 8.9859732 ], [ 38.7880106, 8.9854871 ], [ 38.7855757, 8.9849273 ], [ 38.7842988, 8.9845215 ], [ 38.7787516, 8.9794447 ], [ 38.7828796, 8.9680649 ], [ 38.7828581, 8.9679775 ], [ 38.7775834, 8.9635925 ], [ 38.7726275, 8.964449 ], [ 38.7655159, 8.9662225 ], [ 38.7643277, 8.9676341 ], [ 38.7609422, 8.9727954 ], [ 38.7545591, 8.9806549 ], [ 38.7531757, 8.9836321 ], [ 38.7509148, 8.9950547 ], [ 38.7513687, 8.9956322 ], [ 38.7543659, 9.0086832 ], [ 38.7531539, 9.0118897 ], [ 38.7555162, 9.0160017 ] ] ] } },
{ "type": "Feature", "properties": { "threshold_s": 900, "time_label": "15 min drive" }, "geometry": { "type": "Polygon", "coordinates": [ [ [ 38.7338799, 9.0168248 ], [ 38.7406436, 9.0310006 ], [ 38.7460726, 9.0341827 ], [ 38.7565811, 9.0429639 ], [ 38.7676702, 9.0474486 ], [ 38.7830713, 9.0491877 ], [ 38.7892183, 9.0480524 ], [ 38.7918929, 9.0415089 ], [ 38.8042312, 9.0365115 ], [ 38.8157836, 9.0387644 ], [ 38.8182008, 9.0379695 ], [ 38.8196467, 9.0371819 ], [ 38.8209174, 9.0362103 ], [ 38.8303103, 9.0271278 ], [ 38.83203240000001, 9.021741 ], [ 38.8350763, 9.0076814 ], [ 38.8370836, 8.9979453 ], [ 38.840835, 8.9880772 ], [ 38.8406231, 8.9842524 ], [ 38.8405136, 8.9836949 ], [ 38.8398591, 8.9823874 ], [ 38.8390681, 8.981432 ], [ 38.8300543, 8.9713237 ], [ 38.8289182, 8.9663006 ], [ 38.8282921, 8.9652772 ], [ 38.8249257, 8.9633665 ], [ 38.8171284, 8.964396 ], [ 38.8143277, 8.9647934 ], [ 38.7993037, 8.961362 ], [ 38.7965468, 8.9561463 ], [ 38.7928306, 8.9531685 ], [ 38.7923467, 8.9528457 ], [ 38.7906479, 8.9518621 ], [ 38.7866357, 8.9509082 ], [ 38.7852238, 8.9506969 ], [ 38.7692455, 8.9442303 ], [ 38.7590964, 8.9498656 ], [ 38.7571357, 8.9509718 ], [ 38.7510211, 8.9587179 ], [ 38.7387184, 8.9695725 ], [ 38.7381013, 8.9707659 ], [ 38.7347304, 8.9815154 ], [ 38.7331104, 8.9960335 ], [ 38.7321114, 9.0037694 ], [ 38.7328906, 9.0112949 ], [ 38.7329321, 9.0116426 ], [ 38.7338799, 9.0168248 ] ] ] } },
{ "type": "Feature", "properties": { "threshold_s": 300, "time_label": "5 min drive" }, "geometry": { "type": "Polygon", "coordinates": [ [ [ 38.8235143, 9.0262415 ], [ 38.8249282, 9.0291742 ], [ 38.8281022, 9.0285546 ], [ 38.8302698, 9.0274732 ], [ 38.8303388, 9.027232 ], [ 38.8303647, 9.0271502 ], [ 38.8303568, 9.0270475 ], [ 38.8299201, 9.0249443 ], [ 38.83203240000001, 9.021741 ], [ 38.8353941, 9.0233442 ], [ 38.8374518, 9.0253806 ], [ 38.8396163, 9.0272045 ], [ 38.8405702, 9.0283575 ], [ 38.8428495, 9.0271846 ], [ 38.844009, 9.0263363 ], [ 38.8451017, 9.0230863 ], [ 38.8462862, 9.018599 ], [ 38.8466367, 9.0185819 ], [ 38.8472489, 9.0185543 ], [ 38.8475981, 9.0185385 ], [ 38.8481101, 9.0185153 ], [ 38.8486883, 9.0184892 ], [ 38.8502714, 9.0168071 ], [ 38.8479993, 9.015472 ], [ 38.8488138, 9.0122333 ], [ 38.8492917, 9.0119354 ], [ 38.8495917, 9.0114717 ], [ 38.8501641, 9.0106506 ], [ 38.8507134, 9.0100298 ], [ 38.8497397, 9.0090008 ], [ 38.8472617, 9.0055208 ], [ 38.8464673, 9.0049435 ], [ 38.8459218, 9.0046198 ], [ 38.8449139, 9.0042819 ], [ 38.843529, 9.0039668 ], [ 38.8396599, 9.0013672 ], [ 38.8382562, 9.0007181 ], [ 38.8349131, 9.0008394 ], [ 38.8332387, 8.9997931 ], [ 38.8301106, 8.997804 ], [ 38.8282243, 8.9959768 ], [ 38.82529670000001, 8.9976624 ], [ 38.8228749, 9.0001999 ], [ 38.8218561, 9.0020851 ], [ 38.8212444, 9.0047426 ], [ 38.8185341, 9.0084452 ], [ 38.8172691, 9.0119811 ], [ 38.8174128, 9.0151084 ], [ 38.8168859, 9.0171779 ], [ 38.8169497, 9.0197374 ], [ 38.8196572, 9.0225474 ], [ 38.8219882, 9.0245452 ], [ 38.8235143, 9.0262415 ] ] ] } },
{ "type": "Feature", "properties": { "threshold_s": 600, "time_label": "10 min drive" }, "geometry": { "type": "Polygon", "coordinates": [ [ [ 38.7947738, 9.021815 ], [ 38.79567, 9.0229049 ], [ 38.7970364, 9.0240514 ], [ 38.799208, 9.0254482 ], [ 38.8020936, 9.0264203 ], [ 38.8075975, 9.0272945 ], [ 38.8093754, 9.0315008 ], [ 38.8104845, 9.0343085 ], [ 38.8163683, 9.0394796 ], [ 38.8177285, 9.0407432 ], [ 38.8210017, 9.0416743 ], [ 38.825229, 9.0447535 ], [ 38.8271353, 9.0463425 ], [ 38.8294012, 9.0463634 ], [ 38.8314678, 9.0461627 ], [ 38.8394097, 9.0464862 ], [ 38.8424157, 9.0463451 ], [ 38.8440634, 9.0458598 ], [ 38.8471529, 9.0440157 ], [ 38.8516426, 9.0413437 ], [ 38.8562876, 9.0398081 ], [ 38.8594639, 9.0375572 ], [ 38.8595071, 9.0374629 ], [ 38.8593008, 9.0362717 ], [ 38.8636881, 9.0301716 ], [ 38.8648603, 9.0291935 ], [ 38.8659618, 9.0262401 ], [ 38.8714014, 9.0210496 ], [ 38.8696028, 9.0186949 ], [ 38.868839, 9.0153741 ], [ 38.8726298, 9.0108859 ], [ 38.8725253, 9.0105366 ], [ 38.8692713, 9.0054074 ], [ 38.8690454, 9.0052753 ], [ 38.8683227, 9.0048732 ], [ 38.8639067, 9.0035457 ], [ 38.8621925, 8.9992314 ], [ 38.8626001, 8.9961263 ], [ 38.8625642, 8.9960631 ], [ 38.8615346, 8.9953829 ], [ 38.8597697, 8.994603 ], [ 38.8553241, 8.9915981 ], [ 38.8534163, 8.9881738 ], [ 38.8471387, 8.9847299 ], [ 38.8410306, 8.9806387 ], [ 38.8402788, 8.9799951 ], [ 38.8388063, 8.9797725 ], [ 38.8360577, 8.9830829 ], [ 38.8304619, 8.9779273 ], [ 38.8302928, 8.9775749 ], [ 38.8296479, 8.9770834 ], [ 38.8268535, 8.977765 ], [ 38.8257123, 8.9824576 ], [ 38.821542, 8.9849817 ], [ 38.8210234, 8.9850889 ], [ 38.8196728, 8.9858488 ], [ 38.8190351, 8.9862093 ], [ 38.8175372, 8.9873423 ], [ 38.8097735, 8.9869675 ], [ 38.8094608, 8.9871787 ], [ 38.8052036, 8.9929034 ], [ 38.8053337, 8.9943412 ], [ 38.8021955, 9.0011235 ], [ 38.8015064, 9.0021336 ], [ 38.7990177, 9.0090624 ], [ 38.7997214, 9.0114246 ], [ 38.7947434, 9.0176284 ], [ 38.7947738, 9.021815 ] ] ] } },
{ "type": "Feature", "properties": { "threshold_s": 900, "time_label": "15 min drive" }, "geometry": { "type": "Polygon", "coordinates": [ [ [ 38.772721, 9.023269 ], [ 38.7771424, 9.0349296 ], [ 38.7795494, 9.0368103 ], [ 38.7866579, 9.0379459 ], [ 38.7884075, 9.037232 ], [ 38.788646, 9.0371199 ], [ 38.8041703, 9.044401 ], [ 38.8030746, 9.048999 ], [ 38.8031745, 9.049434 ], [ 38.8034749, 9.0503585 ], [ 38.8041133, 9.0526841 ], [ 38.8181224, 9.0611946 ], [ 38.819266399999989, 9.0618158 ], [ 38.8304083, 9.062813 ], [ 38.843521, 9.0630858 ], [ 38.853946, 9.0604914 ], [ 38.8543698, 9.0598689 ], [ 38.8553005, 9.0583366 ], [ 38.8716953, 9.0526346 ], [ 38.8727671, 9.0524471 ], [ 38.8745665, 9.0495436 ], [ 38.8803066, 9.0356216 ], [ 38.8831546, 9.0328921 ], [ 38.8861193, 9.02921 ], [ 38.8929025, 9.0217775 ], [ 38.894913099999989, 9.0106398 ], [ 38.8892529, 8.9977453 ], [ 38.8884264, 8.9963947 ], [ 38.8854734, 8.9943764 ], [ 38.8839117, 8.9937965 ], [ 38.8828737, 8.9938204 ], [ 38.8795879, 8.99408 ], [ 38.8683736, 8.9810879 ], [ 38.8611719, 8.9752872 ], [ 38.8542589, 8.9723237 ], [ 38.8438837, 8.9596556 ], [ 38.8428792, 8.9593588 ], [ 38.8309743, 8.9575601 ], [ 38.8154065, 8.963706 ], [ 38.8145122, 8.9640577 ], [ 38.8139486, 8.9647046 ], [ 38.8136212, 8.9654861 ], [ 38.8124616, 8.9711806 ], [ 38.8035562, 8.9852867 ], [ 38.8021619, 8.9853275 ], [ 38.7996331, 8.9854045 ], [ 38.788826, 8.985809 ], [ 38.7879749, 8.9856538 ], [ 38.7876549, 8.9893973 ], [ 38.7809178, 9.0040156 ], [ 38.7742957, 9.0098175 ], [ 38.7738585, 9.0107737 ], [ 38.772721, 9.023269 ] ] ] } }
]
}
