{
"type": "FeatureCollection",
"name": "isochrone_amenity_food_court_drive",
"crs": { "type": "name", "properties": { "name": "urn:ogc:def:crs:OGC:1.3:CRS84" } },
"features": [
{ "type": "Feature", "properties": { "threshold_s": 300, "time_label": "5 min drive" }, "geometry": { "type": "Polygon", "coordinates": [ [ [ 38.7059028, 8.9616931 ], [ 38.7078328, 8.9660976 ], [ 38.7093741, 8.9674281 ], [ 38.7129878, 8.9680759 ], [ 38.7130442, 8.9680264 ], [ 38.713413, 8.9677028 ], [ 38.7135435, 8.9675865 ], [ 38.7197162, 8.9653009 ], [ 38.7227297, 8.9653917 ], [ 38.7256871, 8.9656867 ], [ 38.7263616, 8.9623218 ], [ 38.7258145, 8.9585262 ], [ 38.7255286, 8.9576791 ], [ 38.7285447, 8.9530967 ], [ 38.7326854, 8.9552548 ], [ 38.7380125, 8.9520649 ], [ 38.7390684, 8.9520992 ], [ 38.7397443, 8.9508499 ], [ 38.7403698, 8.9493268 ], [ 38.7399991, 8.946957 ], [ 38.7398155, 8.9462499 ], [ 38.7393909, 8.9452527 ], [ 38.7365034, 8.9424817 ], [ 38.7347215, 8.9398383 ], [ 38.7337281, 8.9379649 ], [ 38.7281496, 8.9355909 ], [ 38.7254394, 8.9341175 ], [ 38.7229763, 8.9326774 ], [ 38.721579, 8.9319634 ], [ 38.7193925, 8.932224 ], [ 38.7190572, 8.9322785 ], [ 38.7171614, 8.9340249 ], [ 38.7172328, 8.9361997 ], [ 38.7158471, 8.9413677 ], [ 38.7136567, 8.9435823 ], [ 38.7111602, 8.9483774 ], [ 38.7068989, 8.9474827 ], [ 38.7051688, 8.9476046 ], [ 38.7020458, 8.9504067 ], [ 38.7011325, 8.9540559 ], [ 38.7013204, 8.955225 ], [ 38.7014061, 8.9557012 ], [ 38.7030939, 8.9579139 ], [ 38.7059028, 8.9616931 ] ] ] } },
{ "type": "Feature", "properties": { "threshold_s": 600, "time_label": "10 min drive" }, "geometry": { "type": "Polygon", "coordinates": [ [ [ 38.6944729, 8.9799706 ], [ 38.6960658, 8.9818781 ], [ 38.6973466, 8.9822669 ], [ 38.6978172, 8.9818372 ], [ 38.6979901, 8.9816283 ], [ 38.6985553, 8.9808574 ], [ 38.6993848, 8.9798635 ], [ 38.6997792, 8.9793816 ], [ 38.7062874, 8.9777359 ], [ 38.7098325, 8.9780203 ], [ 38.714999, 8.9805731 ], [ 38.719303, 8.9836928 ], [ 38.7223984, 8.9810641 ], [ 38.7230837, 8.980366 ], [ 38.727001, 8.9760068 ], [ 38.7282267, 8.9758101 ], [ 38.7340154, 8.9782922 ], [ 38.7344728, 8.9778061 ], [ 38.73975, 8.9736863 ], [ 38.7429767, 8.9727105 ], [ 38.7436582, 8.9724046 ], [ 38.7441065, 8.9712029 ], [ 38.7442511, 8.9705699 ], [ 38.744081799999989, 8.970068 ], [ 38.7438549, 8.9689888 ], [ 38.7394558, 8.9686222 ], [ 38.7372129, 8.9662997 ], [ 38.7355458, 8.9629714 ], [ 38.7352973, 8.9619756 ], [ 38.7352396, 8.9611247 ], [ 38.7351846, 8.9609923 ], [ 38.7348681, 8.9596248 ], [ 38.7364709, 8.9560006 ], [ 38.741532, 8.9558019 ], [ 38.7429656, 8.9598609 ], [ 38.7457092, 8.9611077 ], [ 38.7471056, 8.9625809 ], [ 38.747506, 8.9629581 ], [ 38.748536799999989, 8.9634967 ], [ 38.7486127, 8.9634909 ], [ 38.7491772, 8.9634386 ], [ 38.7492368, 8.963436 ], [ 38.7495122, 8.9634055 ], [ 38.7499458, 8.9633729 ], [ 38.7503994, 8.9633692 ], [ 38.750504, 8.9633714 ], [ 38.7528311, 8.9627643 ], [ 38.7559565, 8.9589085 ], [ 38.7558534, 8.9586044 ], [ 38.7560129, 8.9520084 ], [ 38.7567779, 8.9504498 ], [ 38.7594397, 8.944691 ], [ 38.7584641, 8.9421169 ], [ 38.7557429, 8.9367333 ], [ 38.753036, 8.9312932 ], [ 38.7490384, 8.9285147 ], [ 38.7465303, 8.9272788 ], [ 38.7437139, 8.9253829 ], [ 38.7398382, 8.9210188 ], [ 38.7352683, 8.9173866 ], [ 38.7299851, 8.9153853 ], [ 38.727289399999989, 8.9135477 ], [ 38.7270246, 8.9164573 ], [ 38.7226438, 8.9196104 ], [ 38.7199563, 8.9207989 ], [ 38.714174, 8.9207268 ], [ 38.7113597, 8.9196049 ], [ 38.7112607, 8.9211885 ], [ 38.7111615, 8.9233159 ], [ 38.7113075, 8.9238779 ], [ 38.71039, 8.9284051 ], [ 38.7062073, 8.9295602 ], [ 38.7023014, 8.9317601 ], [ 38.69870250000001, 8.9321675 ], [ 38.6985399, 8.9324667 ], [ 38.6983983, 8.9354585 ], [ 38.6943345, 8.9403947 ], [ 38.6905998, 8.941313 ], [ 38.6896484, 8.9415089 ], [ 38.6870923, 8.9454386 ], [ 38.6853129, 8.9467298 ], [ 38.6819376, 8.9503397 ], [ 38.6810714, 8.9512916 ], [ 38.6828828, 8.9538339 ], [ 38.6837294, 8.9546669 ], [ 38.6851023, 8.9612095 ], [ 38.6846973, 8.9618334 ], [ 38.6850426, 8.9638878 ], [ 38.6857343, 8.9650638 ], [ 38.6864635, 8.9656765 ], [ 38.6904672, 8.9703153 ], [ 38.6913687, 8.972751 ], [ 38.6919781, 8.9760518 ], [ 38.6929345, 8.9776426 ], [ 38.6944729, 8.9799706 ] ] ] } },
{ "type": "Feature", "properties": { "threshold_s": 900, "time_label": "15 min drive" }, "geometry": { "type": "Polygon", "coordinates": [ [ [ 38.6833324, 8.9963129 ], [ 38.6837914, 8.9968671 ], [ 38.6883786, 8.9984734 ], [ 38.6972299, 8.9958147 ], [ 38.7030289, 8.9963509 ], [ 38.7086257, 8.9983915 ], [ 38.7189357, 9.0001877 ], [ 38.7190194, 9.0001837 ], [ 38.7191164, 9.0001686 ], [ 38.719909, 8.9998875 ], [ 38.732501, 9.001813 ], [ 38.7403735, 8.9979056 ], [ 38.7511804, 8.9924779 ], [ 38.7537741, 8.9893731 ], [ 38.7612621, 8.980476 ], [ 38.7631796, 8.9780471 ], [ 38.767911, 8.9663687 ], [ 38.7726464, 8.9617668 ], [ 38.7746049, 8.9599046 ], [ 38.775242, 8.9583361 ], [ 38.7755169, 8.9575612 ], [ 38.7753178, 8.956777 ], [ 38.7742697, 8.9534014 ], [ 38.771809, 8.9505652 ], [ 38.773198, 8.9384338 ], [ 38.7732277, 8.9381802 ], [ 38.7732755, 8.9372589 ], [ 38.7710707, 8.9251297 ], [ 38.768427, 8.9210203 ], [ 38.7602087, 8.9158494 ], [ 38.758194, 8.914412 ], [ 38.7474422, 8.9090191 ], [ 38.7482589, 8.9039817 ], [ 38.7485848, 8.9028046 ], [ 38.7362117, 8.9011704 ], [ 38.7350826, 8.9022633 ], [ 38.7337589, 8.9040162 ], [ 38.7313695, 8.9071775 ], [ 38.7312216, 8.9075352 ], [ 38.727289399999989, 8.9135477 ], [ 38.7226438, 8.9196104 ], [ 38.714174, 8.9207268 ], [ 38.7113597, 8.9196049 ], [ 38.7030194, 8.9214373 ], [ 38.6950392, 8.9306287 ], [ 38.6859834, 8.9390791 ], [ 38.6829914, 8.9401098 ], [ 38.6802779, 8.943664 ], [ 38.6801187, 8.9442031 ], [ 38.6802028, 8.9447962 ], [ 38.6804992, 8.9510846 ], [ 38.6803134, 8.9557227 ], [ 38.6733901, 8.9645491 ], [ 38.6720992, 8.9663491 ], [ 38.6719348, 8.9761072 ], [ 38.6720618, 8.9795596 ], [ 38.6771381, 8.9885136 ], [ 38.6816596, 8.9942142 ], [ 38.6833324, 8.9963129 ] ] ] } }
]
}
