{
"type": "FeatureCollection",
"name": "isochrone_shop_spices_drive",
"crs": { "type": "name", "properties": { "name": "urn:ogc:def:crs:OGC:1.3:CRS84" } },
"features": [
{ "type": "Feature", "properties": { "threshold_s": 300, "time_label": "5 min drive" }, "geometry": { "type": "Polygon", "coordinates": [ [ [ 38.7664952, 9.0274613 ], [ 38.7636532, 9.0296992 ], [ 38.7639705, 9.0296349 ], [ 38.7661201, 9.0294042 ], [ 38.7683848, 9.0328415 ], [ 38.7684305, 9.0329237 ], [ 38.769884, 9.0342295 ], [ 38.771258, 9.0349868 ], [ 38.7722643, 9.0352881 ], [ 38.7725503, 9.0352767 ], [ 38.7749371, 9.0353666 ], [ 38.7779067, 9.0359559 ], [ 38.7795494, 9.0368103 ], [ 38.7797197, 9.0361348 ], [ 38.7804737, 9.033912 ], [ 38.7847393, 9.0337449 ], [ 38.7855725, 9.0348864 ], [ 38.7859775, 9.0355527 ], [ 38.7864758, 9.0378832 ], [ 38.7866579, 9.0379459 ], [ 38.7882839, 9.036338 ], [ 38.7880696, 9.0351791 ], [ 38.7913411, 9.0328014 ], [ 38.7933345, 9.0314512 ], [ 38.7943505, 9.0307929 ], [ 38.7951178, 9.030151 ], [ 38.7964456, 9.0288702 ], [ 38.7964648, 9.0288238 ], [ 38.7963524, 9.0252368 ], [ 38.7974667, 9.0235442 ], [ 38.7992964, 9.0204626 ], [ 38.797182, 9.0184257 ], [ 38.7945459, 9.0160394 ], [ 38.7939321, 9.0148977 ], [ 38.7929784, 9.012718 ], [ 38.7919485, 9.0120027 ], [ 38.7905071, 9.0089001 ], [ 38.7887931, 9.0078893 ], [ 38.7887402, 9.0078729 ], [ 38.7870385, 9.0084513 ], [ 38.7836044, 9.0063722 ], [ 38.7824454, 9.0050943 ], [ 38.7806044, 9.0049721 ], [ 38.7801361, 9.0051451 ], [ 38.7794724, 9.0056821 ], [ 38.7790846, 9.007266 ], [ 38.7781482, 9.0088664 ], [ 38.77456, 9.0081061 ], [ 38.7739673, 9.0082511 ], [ 38.7725128, 9.0102701 ], [ 38.7692515, 9.0104413 ], [ 38.7672256, 9.0115334 ], [ 38.7654814, 9.0154268 ], [ 38.7629355, 9.0171841 ], [ 38.7629595, 9.017323 ], [ 38.7638895, 9.0199177 ], [ 38.7645123, 9.0221623 ], [ 38.7650922, 9.0223314 ], [ 38.7673037, 9.0253571 ], [ 38.7664952, 9.0274613 ] ] ] } },
{ "type": "Feature", "properties": { "threshold_s": 600, "time_label": "10 min drive" }, "geometry": { "type": "Polygon", "coordinates": [ [ [ 38.7474791, 9.0401015 ], [ 38.7496008, 9.0424279 ], [ 38.7521066, 9.0449463 ], [ 38.7558727, 9.0475975 ], [ 38.7592765, 9.0510377 ], [ 38.7661342, 9.053286 ], [ 38.766855, 9.0535004 ], [ 38.7731861, 9.0546946 ], [ 38.7801124, 9.0545531 ], [ 38.7827944, 9.0540054 ], [ 38.7847826, 9.0523901 ], [ 38.792129, 9.0494167 ], [ 38.7967241, 9.0428703 ], [ 38.7971052, 9.0385115 ], [ 38.8031475, 9.0364072 ], [ 38.8042312, 9.0365115 ], [ 38.8097365, 9.0345983 ], [ 38.8150895, 9.0352167 ], [ 38.8155119, 9.035217 ], [ 38.8163782, 9.0349276 ], [ 38.8165315, 9.0308887 ], [ 38.8190899, 9.0238757 ], [ 38.8215588, 9.0187509 ], [ 38.8214755, 9.0182744 ], [ 38.8172691, 9.0119811 ], [ 38.8138061, 9.0061821 ], [ 38.8130859, 9.0036714 ], [ 38.8118525, 9.0027129 ], [ 38.8069363, 8.9967504 ], [ 38.8063582, 8.9967321 ], [ 38.8058382, 8.9967953 ], [ 38.8026126, 8.9969332 ], [ 38.7952264, 8.9934812 ], [ 38.7949535, 8.9927309 ], [ 38.7948242, 8.9923398 ], [ 38.7942992, 8.9887271 ], [ 38.7920807, 8.9883178 ], [ 38.7851306, 8.9856381 ], [ 38.778325, 8.9844791 ], [ 38.7756216, 8.9845761 ], [ 38.7749007, 8.9846708 ], [ 38.7745166, 8.984983 ], [ 38.7732891, 8.986205 ], [ 38.767995, 8.992182 ], [ 38.7632901, 8.995034 ], [ 38.7619851, 8.9958804 ], [ 38.756796799999989, 8.999071 ], [ 38.7546147, 9.0000944 ], [ 38.7510204, 9.0034457 ], [ 38.7503561, 9.0048554 ], [ 38.7441227, 9.0100953 ], [ 38.7440647, 9.0101702 ], [ 38.7410116, 9.0161342 ], [ 38.7410143, 9.0162401 ], [ 38.7416359, 9.0173706 ], [ 38.7432421, 9.0204778 ], [ 38.7438139, 9.0288302 ], [ 38.7437521, 9.0338112 ], [ 38.7439918, 9.0343989 ], [ 38.7455352, 9.0373843 ], [ 38.7474791, 9.0401015 ] ] ] } },
{ "type": "Feature", "properties": { "threshold_s": 900, "time_label": "15 min drive" }, "geometry": { "type": "Polygon", "coordinates": [ [ [ 38.7371319, 9.0599844 ], [ 38.7375407, 9.0604185 ], [ 38.7474534, 9.066468 ], [ 38.7602142, 9.07337 ], [ 38.7732129, 9.073078 ], [ 38.7821725, 9.0738098 ], [ 38.7912866, 9.0708174 ], [ 38.7987955, 9.0602014 ], [ 38.8117052, 9.0558481 ], [ 38.8158989, 9.0525279 ], [ 38.8276478, 9.0493413 ], [ 38.8279199, 9.0493354 ], [ 38.829723799999989, 9.0482461 ], [ 38.8342291, 9.0444675 ], [ 38.8385874, 9.0314469 ], [ 38.8398319, 9.0293735 ], [ 38.8437578, 9.0212396 ], [ 38.8412687, 9.0103085 ], [ 38.8400163, 9.0092748 ], [ 38.8387787, 9.0081909 ], [ 38.8382109, 9.0077259 ], [ 38.8365865, 9.0065814 ], [ 38.8334524, 9.0034255 ], [ 38.8302769, 8.9924475 ], [ 38.8300302, 8.9907991 ], [ 38.8215003, 8.9841883 ], [ 38.8200144, 8.9840292 ], [ 38.8066972, 8.9860036 ], [ 38.8035562, 8.9852867 ], [ 38.8021619, 8.9853275 ], [ 38.7996331, 8.9854045 ], [ 38.7971379, 8.9861223 ], [ 38.7899075, 8.9859732 ], [ 38.7880106, 8.9854871 ], [ 38.7777914, 8.9763594 ], [ 38.7784204, 8.9681007 ], [ 38.7764736, 8.9663298 ], [ 38.7748945, 8.9656073 ], [ 38.7662108, 8.9676225 ], [ 38.7609422, 8.9727954 ], [ 38.7492472, 8.9789217 ], [ 38.7394246, 8.9858788 ], [ 38.7358524, 8.9916612 ], [ 38.7331104, 8.9960335 ], [ 38.7292146, 9.0052443 ], [ 38.7214342, 9.0141765 ], [ 38.7211525, 9.0144043 ], [ 38.7206503, 9.0215885 ], [ 38.7220953, 9.0363925 ], [ 38.7254776, 9.045125 ], [ 38.7327851, 9.0546656 ], [ 38.7371319, 9.0599844 ] ] ] } }
]
}
